{"type": "Feature","bbox": [33.9788,-13.5591,34.0529,-13.4944],"geometry": {"type": "MultiPolygon","coordinates": [[[[33.9935,-13.5398,1379.4028],[34.0046,-13.5407,1229.2119],[34.0092,-13.5463,1205.8342],[34.0075,-13.5482,1161.1182],[34.0075,-13.5539,1201.0684],[34.0134,-13.5591,1303.2927],[34.0245,-13.5584,1140.7804],[34.0394,-13.5549,1067.6093],[34.0478,-13.5495,1006.632],[34.0502,-13.546,978.7003],[34.0529,-13.535,881.303],[34.0526,-13.5335,859.45],[34.0492,-13.5329,882.3801],[34.0463,-13.5279,907.5007],[34.0421,-13.5289,984.6411],[34.0392,-13.5252,954.8612],[34.0349,-13.5257,944.2535],[34.031,-13.5233,1027.3895],[34.0337,-13.5059,972.4518],[34.0221,-13.5037,1087.509],[34.0219,-13.5023,1088.3605],[34.0254,-13.4997,1078.152],[34.0239,-13.4955,1017.4929],[34.0217,-13.4944,1037.4779],[34.0134,-13.5004,1080.9813],[34.0088,-13.5004,1096.1986],[34.0045,-13.4967,1111.5439],[34.0016,-13.4988,1099.7208],[34.0017,-13.5103,1098.2626],[33.9978,-13.5175,1139.1632],[34.0011,-13.5221,1162.3574],[33.9938,-13.5243,1279.9636],[33.983,-13.5234,1373.8369],[33.9788,-13.5318,1333.308],[33.9794,-13.5341,1334.5454],[33.9935,-13.5398,1379.4028]]]]}
,"properties": {"GID_3": "MWI.7.9.3_1","GID_0": "MWI","country": "Malawi","GID_1": "MWI.7_1","province": "Dowa","NL_NAME_1": "NA","GID_2": "MWI.7.9_1","county": "TAMsakambewa","NL_NAME_2": "NA","city": "n.a.(679)","VARNAME_3": "NA","NL_NAME_3": "NA","TYPE_3": "Unknown","ENGTYPE_3": "Unknown","CC_3": "NA","HASC_3": "NA","name": "n.a.(679).city","area_km2": 30.01367,"hist_schema_id": "Elevation0-9000","hist_area_km2": {"850": 0.02061,"875": 0.04123,"900": 0.22675,"925": 0.28859,"950": 0.41227,"975": 0.88638,"1000": 2.18506,"1025": 2.7004,"1050": 4.04024,"1075": 4.78246,"1100": 3.11276,"1125": 1.97897,"1150": 1.77282,"1175": 1.25745,"1200": 1.03067,"1225": 0.92759,"1250": 0.8039,"1275": 0.51532,"1300": 0.32981,"1325": 0.26797,"1350": 0.3092,"1375": 0.37105,"1400": 0.37105,"1425": 0.26798,"1450": 0.24736,"1475": 0.28859,"1500": 0.20614,"1525": 0.22675,"1550": 0.14429}}}