{"type": "Feature","bbox": [35.1957,-15.8946,35.2389,-15.8507],"geometry": {"type": "MultiPolygon","coordinates": [[[[35.1982,-15.8543,844.1498],[35.2004,-15.8604,831.6445],[35.1962,-15.8636,840.2178],[35.1971,-15.8652,824.3821],[35.1957,-15.8705,825.5175],[35.2043,-15.8758,809.3547],[35.2053,-15.8794,804.5491],[35.2032,-15.8835,797.21],[35.2051,-15.8886,791.0756],[35.2075,-15.8896,790.9263],[35.2088,-15.8872,795.6846],[35.2116,-15.8868,790.937],[35.2146,-15.8896,782.5338],[35.2195,-15.8884,780.9925],[35.2371,-15.8946,763.645],[35.2335,-15.8836,903.8509],[35.2373,-15.8796,1177.1932],[35.2369,-15.8763,1062.3242],[35.2389,-15.8731,918.6763],[35.228,-15.8717,992.7738],[35.2131,-15.8601,876.2672],[35.2056,-15.8608,845.1876],[35.2042,-15.8561,860.1559],[35.206,-15.8507,867.002],[35.1982,-15.8543,844.1498]]]]}
,"properties": {"GID_3": "MWI.4.7.3_1","GID_0": "MWI","country": "Malawi","GID_1": "MWI.4_1","province": "Chiradzulu","NL_NAME_1": "NA","GID_2": "MWI.4.7_1","county": "TANkalo","NL_NAME_2": "NA","city": "n.a.(2617)","VARNAME_3": "NA","NL_NAME_3": "NA","TYPE_3": "Unknown","ENGTYPE_3": "Unknown","CC_3": "NA","HASC_3": "NA","name": "n.a.(2617).city","area_km2": 10.727,"hist_schema_id": "Elevation0-9000","hist_area_km2": {"775": 0.469016,"800": 1.876113,"825": 2.487997,"850": 2.18218,"875": 1.040098,"900": 0.46906,"925": 0.448665,"950": 0.407879,"975": 0.407877,"1000": 0.326305,"1025": 0.163152,"1050": 0.12236,"1075": 0.101972,"1100": 0.06118,"1125": 0.020393,"1150": 0.040788,"1175": 0.081573,"1200": 0.020393}}}