{"type": "Feature","bbox": [33.781,-14.3258,33.8377,-14.2884],"geometry": {"type": "MultiPolygon","coordinates": [[[[33.8377,-14.3123,1197.0964],[33.8067,-14.289,1232.8558],[33.7954,-14.2884,1242.459],[33.7896,-14.29,1245.2697],[33.7859,-14.2888,1240.105],[33.786,-14.2925,1241.6084],[33.7815,-14.2954,1239.6082],[33.7827,-14.2991,1233.1123],[33.781,-14.3019,1224.3248],[33.785,-14.3009,1231.2626],[33.79,-14.3048,1235.2288],[33.7966,-14.3058,1230.9595],[33.7975,-14.3078,1228.1434],[33.801,-14.3085,1225.9556],[33.8253,-14.3258,1194.408],[33.8274,-14.3254,1189.7178],[33.8275,-14.3226,1203.2112],[33.8318,-14.32,1190.928],[33.8377,-14.3123,1197.0964]]]]}
,"properties": {"GID_3": "MWI.11.8.52_1","GID_0": "MWI","country": "Malawi","GID_1": "MWI.11_1","province": "Lilongwe","NL_NAME_1": "NA","GID_2": "MWI.11.8_1","county": "TAChiseka","NL_NAME_2": "NA","city": "n.a.(1449)","VARNAME_3": "NA","NL_NAME_3": "NA","TYPE_3": "Unknown","ENGTYPE_3": "Unknown","CC_3": "NA","HASC_3": "NA","name": "n.a.(1449).city","area_km2": 11.83383,"hist_schema_id": "Elevation0-9000","hist_area_km2": {"1200": 2.342016,"1225": 8.156325,"1250": 1.335488}}}