{"type":"Feature","properties":{"GID_3":"MWI.6.10.6_1","GID_0":"MWI","country":"Malawi","GID_1":"MWI.6_1","province":"Dedza","NL_NAME_1":"NA","GID_2":"MWI.6.10_1","county":"TATambala","NL_NAME_2":"NA","city":"n.a.(1145)","VARNAME_3":"NA","NL_NAME_3":"NA","TYPE_3":"Unknown","ENGTYPE_3":"Unknown","CC_3":"NA","HASC_3":"NA","name":"n.a.(1145).city"},
"geometry":{"type": "MultiPolygon","coordinates": [[[[34.2413,-14.014,1188.6587],[34.2282,-14.0105,1167.4824],[34.2251,-14.0119,1049.4432],[34.2198,-14.0198,1066.7047],[34.2146,-14.0195,1040.6115],[34.2062,-14.0228,1005.7491],[34.2043,-14.0244,1016.0013],[34.2017,-14.0348,1057.4556],[34.1977,-14.0353,1075.1147],[34.198,-14.0439,1097.2115],[34.2376,-14.0489,1277.9641],[34.2395,-14.0421,1257.5736],[34.2368,-14.0377,1232.6543],[34.2312,-14.0345,1271.6987],[34.235,-14.0329,1242.3083],[34.2388,-14.0234,1196.5525],[34.2543,-14.0229,1259.9431],[34.2524,-14.0182,1232.688],[34.2423,-14.0163,1216.0077],[34.2413,-14.014,1188.6587]]]]}}