{"type":"Feature","properties":{"GID_3":"MWI.7.5.17_1","GID_0":"MWI","country":"Malawi","GID_1":"MWI.7_1","province":"Dowa","NL_NAME_1":"NA","GID_2":"MWI.7.5_1","county":"SCMkukula","NL_NAME_2":"NA","city":"n.a.(895)","VARNAME_3":"NA","NL_NAME_3":"NA","TYPE_3":"Unknown","ENGTYPE_3":"Unknown","CC_3":"NA","HASC_3":"NA","name":"n.a.(895).city"},
"geometry":{"type": "MultiPolygon","coordinates": [[[[33.9843,-13.7912,1033.4326],[33.9883,-13.7966,1022.5671],[34.0008,-13.7911,1056.7271],[34.0078,-13.7968,1070.3901],[34.0127,-13.7929,1090.385],[34.0204,-13.7962,1115.0426],[34.0315,-13.7936,1109.469],[34.0294,-13.7898,1148.5356],[34.018,-13.7817,1157.7738],[34.0161,-13.7704,1183.067],[34.0122,-13.7652,1202.4338],[34.014,-13.7557,1212.2937],[34.0231,-13.7471,1282.7804],[34.0169,-13.7488,1238.0273],[34.0035,-13.7387,1161.7063],[33.995,-13.7454,1139.1792],[33.9934,-13.749,1131.9581],[33.9941,-13.7605,1104.2766],[33.9913,-13.7645,1106.5073],[33.9912,-13.7675,1089.7537],[33.9884,-13.7692,1079.1219],[33.9858,-13.7682,1092.77],[33.9838,-13.7701,1102.381],[33.9888,-13.7753,1062.1158],[33.9834,-13.7805,1056.7625],[33.9837,-13.7842,1052.1617],[33.9877,-13.7871,1036.7803],[33.9843,-13.7912,1033.4326]]]]}}