{"type":"Feature","properties":{"GID_3":"MWI.1.3.20_1","GID_0":"MWI","country":"Malawi","GID_1":"MWI.1_1","province":"Balaka","NL_NAME_1":"NA","GID_2":"MWI.1.3_1","county":"TANsamala","NL_NAME_2":"NA","city":"n.a.(1976)","VARNAME_3":"NA","NL_NAME_3":"NA","TYPE_3":"Unknown","ENGTYPE_3":"Unknown","CC_3":"NA","HASC_3":"NA","name":"n.a.(1976).city"},
"geometry":{"type": "MultiPolygon","coordinates": [[[[34.9598,-15.0375,613.0239],[34.97,-15.0432,604.7488],[34.9691,-15.0551,597.4254],[34.9671,-15.0589,595.6865],[34.9757,-15.0654,589.2963],[34.9796,-15.0583,591.4934],[34.9859,-15.0554,587.9432],[34.981,-15.0464,595.0785],[34.986,-15.0265,583.5643],[34.9837,-15.0252,583.9407],[34.9851,-15.0216,583.9088],[34.9815,-15.0218,587.3437],[34.9788,-15.0147,588.0132],[34.9742,-15.0109,599.2311],[34.9706,-15.0167,587.0862],[34.9694,-15.0156,600.0622],[34.97,-15.011,602.0481],[34.9614,-15.0129,608.9454],[34.9668,-15.021,602.2862],[34.9615,-15.0215,608.5095],[34.9617,-15.0197,608.5024],[34.9457,-15.0205,608.8206],[34.924,-15.0181,642.9879],[34.9243,-15.0229,644.7786],[34.9336,-15.0249,634.026],[34.9478,-15.0337,622.2554],[34.9598,-15.0375,613.0239]]]]}}