{"type":"Feature","properties":{"GID_3":"MWI.9.15.14_1","GID_0":"MWI","country":"Malawi","GID_1":"MWI.9_1","province":"Kasungu","NL_NAME_1":"NA","GID_2":"MWI.9.15_1","county":"TASanthe","NL_NAME_2":"NA","city":"n.a.(646)","VARNAME_3":"NA","NL_NAME_3":"NA","TYPE_3":"Unknown","ENGTYPE_3":"Unknown","CC_3":"NA","HASC_3":"NA","name":"n.a.(646).city"},
"geometry":{"type": "MultiPolygon","coordinates": [[[[33.2406,-13.4452,1097.0737],[33.2363,-13.4471,1101.7261],[33.2336,-13.4525,1098.1184],[33.2435,-13.4605,1091.7726],[33.2436,-13.4654,1087.0712],[33.2486,-13.4744,1078.5945],[33.2603,-13.4807,1080.8101],[33.28,-13.4794,1085.8002],[33.2962,-13.4826,1067.7526],[33.2811,-13.4647,1086.3435],[33.2655,-13.4541,1103.3175],[33.2601,-13.4424,1122.0627],[33.2428,-13.4461,1097.7911],[33.2406,-13.4452,1097.0737]]]]}}