{"type": "Feature","bbox": [33.588,-13.7227,33.6652,-13.6943],"geometry": {"type": "MultiPolygon","coordinates": [[[[33.6579,-13.6945,1294.0459],[33.6147,-13.7015,1241.0056],[33.6101,-13.7029,1225.2654],[33.6094,-13.7048,1234.8765],[33.6035,-13.7076,1226.4814],[33.5967,-13.7094,1204.2524],[33.5947,-13.7066,1201.8053],[33.5931,-13.707,1204.7837],[33.5889,-13.7118,1196.9011],[33.588,-13.7222,1190.5295],[33.5975,-13.7227,1198.0479],[33.6067,-13.7208,1215.8047],[33.6285,-13.7127,1242.5447],[33.6403,-13.7152,1269.2014],[33.6646,-13.7159,1258.3972],[33.6652,-13.7089,1275.7034],[33.6593,-13.7019,1270.5525],[33.6601,-13.6943,1294.0649],[33.6579,-13.6945,1294.0459]]]]}
,"properties": {"GID_3": "MWI.11.3.4_1","GID_0": "MWI","country": "Malawi","GID_1": "MWI.11_1","province": "Lilongwe","NL_NAME_1": "NA","GID_2": "MWI.11.3_1","county": "SCMtema","NL_NAME_2": "NA","city": "n.a.(849)","VARNAME_3": "NA","NL_NAME_3": "NA","TYPE_3": "Unknown","ENGTYPE_3": "Unknown","CC_3": "NA","HASC_3": "NA","name": "n.a.(849).city","area_km2": 14.45994,"hist_schema_id": "Elevation0-9000","hist_area_km2": {"1200": 1.62721,"1225": 2.69831,"1250": 4.24323,"1275": 5.12903,"1300": 0.76216}}}