{"type": "Feature","bbox": [33.9872,-10.8288,34.1947,-10.5659],"geometry": {"type": "MultiPolygon","coordinates": [[[[33.9891,-10.7625,1958.1801],[33.9872,-10.7659,1916.3336],[34.0289,-10.7781,1256.6689],[34.0642,-10.8215,1285.2754],[34.0772,-10.8288,1174.0605],[34.0843,-10.822,1019.9838],[34.0897,-10.8229,1028.0179],[34.0985,-10.812,1077.4861],[34.1065,-10.8055,1019.7204],[34.1076,-10.7864,1022.14],[34.1103,-10.7776,1082.0516],[34.1136,-10.7745,1076.4065],[34.1159,-10.7618,917.3116],[34.1179,-10.7595,944.0657],[34.1207,-10.7602,877.0875],[34.1247,-10.734,1229.7004],[34.1821,-10.7313,994.9208],[34.186,-10.7206,540.1344],[34.1937,-10.7189,477.9276],[34.1879,-10.7149,490.4954],[34.1821,-10.7029,703.3905],[34.1896,-10.6903,478.0321],[34.1905,-10.6794,487.1181],[34.1887,-10.6721,606.5812],[34.1909,-10.6655,481.7112],[34.1885,-10.6616,499.773],[34.1926,-10.6531,500.9811],[34.1947,-10.6393,650.6009],[34.1908,-10.6246,487.8515],[34.1856,-10.6146,474.5],[34.1813,-10.614,485.57],[34.1761,-10.6089,488.8653],[34.1701,-10.5976,484.3723],[34.1697,-10.5895,483.8074],[34.1739,-10.5812,481.3293],[34.1697,-10.577,492.2111],[34.1634,-10.5733,539.6909],[34.1583,-10.5732,521.2062],[34.1477,-10.5659,601.124],[34.139,-10.5669,610.8503],[34.135,-10.5714,668.3944],[34.1176,-10.5821,1187.5762],[34.1168,-10.5866,1156.9828],[34.109,-10.5872,1215.8865],[34.0986,-10.5917,1312.7966],[34.0935,-10.6035,1282.3944],[34.0894,-10.6077,1292.9263],[34.0901,-10.6147,1251.4067],[34.0964,-10.6253,1163.4301],[34.0922,-10.6258,1215.6995],[34.09,-10.6371,1109.5348],[34.0995,-10.6386,1118.353],[34.1184,-10.6499,1059.4053],[34.1221,-10.6545,949.9686],[34.1189,-10.6668,923.2944],[34.1217,-10.6668,912.9554],[34.1238,-10.6692,901.5973],[34.1257,-10.6687,941.9205],[34.1324,-10.6745,927.9052],[34.1346,-10.6733,856.3125],[34.1359,-10.6743,934.2289],[34.1355,-10.6795,904.1306],[34.1307,-10.6827,902.79],[34.1351,-10.6883,871.0731],[34.1358,-10.6925,859.9728],[34.1288,-10.6993,949.8333],[34.1263,-10.7088,1241.1353],[34.1204,-10.7092,1254.1477],[34.1182,-10.7132,1295.3915],[34.1047,-10.7184,1298.6671],[34.0941,-10.7158,1293.512],[34.0802,-10.7187,1327.0491],[34.0778,-10.7214,1292.2336],[34.0773,-10.7308,1314.062],[34.0747,-10.7333,1309.6936],[34.0512,-10.7322,1265.3557],[34.0434,-10.7278,1266.0508],[34.0336,-10.7352,1285.9683],[34.0258,-10.7295,1384.9407],[34.0236,-10.7257,1421.8521],[34.0153,-10.7237,1541.4911],[34.0127,-10.7146,1684.4231],[33.998,-10.7088,2034.2628],[33.9955,-10.7148,1973.1111],[33.9989,-10.7166,1905.2496],[33.9993,-10.7187,1833.1498],[33.9912,-10.7299,1793.9409],[33.9946,-10.7317,1722.6523],[34.0,-10.7394,1622.8926],[33.9873,-10.7468,2039.3123],[33.992,-10.7549,1803.3569],[33.9891,-10.7625,1958.1801]]]]}
,"properties": {"GID_2": "MWI.25.7_1","GID_0": "MWI","country": "Malawi","GID_1": "MWI.25_1","province": "Rumphi","NL_NAME_1": "NA","county": "SCMwalweni","VARNAME_2": "NA","NL_NAME_2": "NA","TYPE_2": "Sub-chief","ENGTYPE_2": "Sub-chief","CC_2": "NA","HASC_2": "NA","name": "S_C_Mwalweni.county","area_km2": 252.3358,"hist_schema_id": "Elevation0-9000","hist_area_km2": {"475": 1.6253,"500": 4.4801,"525": 3.3758,"550": 3.2925,"575": 3.3342,"600": 2.8758,"625": 2.9382,"650": 2.5631,"675": 2.4588,"700": 1.9378,"725": 2.2504,"750": 1.8961,"775": 2.0002,"800": 2.0211,"825": 2.0627,"850": 2.6044,"875": 2.3961,"900": 3.1253,"925": 4.1462,"950": 4.5421,"975": 4.9378,"1000": 5.3961,"1025": 6.1878,"1050": 8.5211,"1075": 10.0627,"1100": 9.9165,"1125": 11.3964,"1150": 13.6262,"1175": 14.9586,"1200": 15.978,"1225": 16.8938,"1250": 15.7484,"1275": 15.7903,"1300": 10.895,"1325": 7.9578,"1350": 5.7292,"1375": 3.2499,"1400": 1.8123,"1425": 1.4373,"1450": 1.2915,"1475": 1.2081,"1500": 0.8124,"1525": 0.7499,"1550": 0.8124,"1575": 0.8957,"1600": 0.7916,"1625": 0.7916,"1650": 0.7707,"1675": 0.7082,"1700": 0.7916,"1725": 0.7083,"1750": 0.7916,"1775": 0.5624,"1800": 0.6666,"1825": 0.6041,"1850": 0.5624,"1875": 0.4791,"1900": 0.4166,"1925": 0.375,"1950": 0.2916,"1975": 0.2916,"2000": 0.1458,"2025": 0.1667,"2050": 0.1875,"2075": 0.0417}}}