{"type":"Feature","properties":{"GID_3":"MWI.3.11.27_1","GID_0":"MWI","country":"Malawi","GID_1":"MWI.3_1","province":"Chikwawa","NL_NAME_1":"NA","GID_2":"MWI.3.11_1","county":"TANgabu","NL_NAME_2":"NA","city":"n.a.(3064)","VARNAME_3":"NA","NL_NAME_3":"NA","TYPE_3":"Unknown","ENGTYPE_3":"Unknown","CC_3":"NA","HASC_3":"NA","name":"n.a.(3064).city"},
"geometry":{"type": "MultiPolygon","coordinates": [[[[34.9777,-16.4866,67.9078],[34.9692,-16.4916,74.787],[34.9653,-16.4994,78.1558],[34.9577,-16.5057,89.6709],[34.9441,-16.5223,104.8573],[34.9334,-16.5188,108.5712],[34.9312,-16.5269,111.2767],[34.9322,-16.5353,119.8501],[34.9311,-16.5386,119.4918],[34.9226,-16.5469,128.835],[34.9171,-16.548,134.0997],[34.9126,-16.5461,136.8028],[34.9024,-16.556,157.5074],[34.9011,-16.5585,160.3082],[34.9059,-16.5646,161.8615],[34.9143,-16.5625,150.2045],[34.92,-16.5561,138.8309],[34.925,-16.5576,138.9354],[34.934,-16.5566,129.8905],[34.9401,-16.5476,120.5426],[34.9457,-16.5492,120.1274],[34.9519,-16.5472,114.3777],[34.9567,-16.5364,102.9334],[34.9712,-16.5208,86.2232],[34.9742,-16.5107,79.5812],[34.9846,-16.5112,73.9718],[34.9901,-16.5063,69.3194],[34.9971,-16.5049,65.9228],[35.0026,-16.4969,60.9777],[34.9893,-16.4903,63.7366],[34.9777,-16.4866,67.9078]]]]}}