{"type": "Feature","bbox": [33.0631,-13.8808,33.1307,-13.7985],"geometry": {"type": "MultiPolygon","coordinates": [[[[33.1279,-13.8549,1074.671],[33.1276,-13.8523,1079.0687],[33.1307,-13.8447,1083.5885],[33.1281,-13.8383,1084.2789],[33.1229,-13.8381,1077.937],[33.1194,-13.8304,1083.3873],[33.1105,-13.8249,1093.9519],[33.1143,-13.821,1095.5513],[33.1208,-13.818,1102.4105],[33.1203,-13.7998,1107.4111],[33.1187,-13.7985,1103.5718],[33.0961,-13.8001,1099.8195],[33.0983,-13.8021,1101.3783],[33.0978,-13.8041,1104.7499],[33.0884,-13.8076,1110.4296],[33.0861,-13.8205,1112.3105],[33.0979,-13.8219,1106.8893],[33.0947,-13.8421,1114.5571],[33.0631,-13.8477,1126.7944],[33.0649,-13.8594,1112.2432],[33.0764,-13.8808,1098.0356],[33.0835,-13.8785,1108.1577],[33.0931,-13.8781,1099.1926],[33.0977,-13.8716,1105.9513],[33.117,-13.8556,1086.5933],[33.1279,-13.8549,1074.671]]]]}
,"properties": {"GID_3": "MWI.14.7.16_1","GID_0": "MWI","country": "Malawi","GID_1": "MWI.14_1","province": "Mchinji","NL_NAME_1": "NA","GID_2": "MWI.14.7_1","county": "TAZulu","NL_NAME_2": "NA","city": "n.a.(962)","VARNAME_3": "NA","NL_NAME_3": "NA","TYPE_3": "Unknown","ENGTYPE_3": "Unknown","CC_3": "NA","HASC_3": "NA","name": "n.a.(962).city","area_km2": 32.69132,"hist_schema_id": "Elevation0-9000","hist_area_km2": {"1075": 2.20272,"1100": 25.19776,"1125": 5.29083}}}