{"type": "Feature","bbox": [34.1305,-11.7164,34.2046,-11.5578],"geometry": {"type": "MultiPolygon","coordinates": [[[[34.1854,-11.6452,534.8092],[34.1842,-11.6442,570.7935],[34.1779,-11.6453,568.1812],[34.1702,-11.6494,565.2518],[34.1633,-11.6477,580.2317],[34.1586,-11.6449,593.2254],[34.1585,-11.6402,608.6071],[34.1534,-11.6322,636.7969],[34.1592,-11.6249,679.1887],[34.1604,-11.6177,722.4023],[34.1708,-11.6151,603.5526],[34.1769,-11.6067,595.6882],[34.1654,-11.6002,624.8309],[34.1633,-11.5971,611.6519],[34.1738,-11.5786,636.4879],[34.172,-11.5612,612.0573],[34.1668,-11.5578,573.032],[34.1615,-11.5609,578.0084],[34.1512,-11.5619,596.1251],[34.1424,-11.571,638.0569],[34.1324,-11.5768,646.6091],[34.1305,-11.5801,657.1027],[34.1386,-11.5952,627.1727],[34.1346,-11.6111,686.7996],[34.1378,-11.6154,934.5377],[34.1359,-11.6754,686.3409],[34.151,-11.677,569.0092],[34.1588,-11.6905,550.4172],[34.1704,-11.6956,521.5991],[34.1778,-11.7012,506.4483],[34.19,-11.7164,488.2436],[34.1998,-11.7107,491.9163],[34.2024,-11.707,492.8159],[34.2046,-11.6887,495.0678],[34.1845,-11.6741,522.2993],[34.1799,-11.6658,557.4083],[34.1741,-11.6593,603.2806],[34.1735,-11.6542,573.2964],[34.1854,-11.6452,534.8092]]]]}
,"properties": {"GID_3": "MWI.19.10.4_1","GID_0": "MWI","country": "Malawi","GID_1": "MWI.19_1","province": "NkhataBay","NL_NAME_1": "NA","GID_2": "MWI.19.10_1","county": "TATimbiri","NL_NAME_2": "NA","city": "n.a.(230)","VARNAME_3": "NA","NL_NAME_3": "NA","TYPE_3": "Unknown","ENGTYPE_3": "Unknown","CC_3": "NA","HASC_3": "NA","name": "n.a.(230).city","area_km2": 59.59931,"hist_schema_id": "Elevation0-9000","hist_area_km2": {"500": 9.32214,"525": 2.96911,"550": 4.52648,"575": 6.76923,"600": 8.51435,"625": 9.65743,"650": 5.25462,"675": 3.92546,"700": 2.32617,"725": 1.6823,"750": 1.30843,"775": 0.58149,"800": 0.83071,"825": 0.45689,"850": 0.53996,"875": 0.41536,"900": 0.22845,"925": 0.16614,"950": 0.10384,"975": 0.02077}}}