{"type":"Feature","properties":{"GID_3":"MWI.12.12.2_1","GID_0":"MWI","country":"Malawi","GID_1":"MWI.12_1","province":"Machinga","NL_NAME_1":"NA","GID_2":"MWI.12.12_1","county":"TAKawinga","NL_NAME_2":"NA","city":"n.a.(1790)","VARNAME_3":"NA","NL_NAME_3":"NA","TYPE_3":"Unknown","ENGTYPE_3":"Unknown","CC_3":"NA","HASC_3":"NA","name":"n.a.(1790).city"},
"geometry":{"type": "MultiPolygon","coordinates": [[[[35.5984,-14.7665,735.329],[35.6008,-14.7706,730.3996],[35.6068,-14.7696,737.2805],[35.6149,-14.783,714.5345],[35.6211,-14.7771,733.3746],[35.6254,-14.7669,740.2748],[35.6301,-14.762,747.1536],[35.6314,-14.7514,763.0424],[35.6196,-14.7543,772.0143],[35.6183,-14.7564,758.863],[35.6164,-14.7525,775.7036],[35.6019,-14.7435,765.5585],[35.598,-14.7432,762.1406],[35.5957,-14.7527,748.5413],[35.593,-14.7568,739.573],[35.5996,-14.7644,731.7949],[35.5984,-14.7665,735.329]]]]}}