{"type": "Feature","bbox": [33.4187,-12.6988,33.5683,-12.6033],"geometry": {"type": "MultiPolygon","coordinates": [[[[33.4853,-12.6831,1171.5698],[33.4878,-12.6859,1174.7715],[33.4856,-12.6961,1188.9114],[33.4892,-12.6988,1194.0941],[33.4968,-12.6954,1182.0563],[33.5082,-12.684,1187.0106],[33.5213,-12.6787,1176.4688],[33.5331,-12.6803,1173.4836],[33.5462,-12.6853,1164.7209],[33.5603,-12.6871,1189.8171],[33.5659,-12.6893,1207.2831],[33.5683,-12.6793,1192.7092],[33.5553,-12.6479,1136.5925],[33.5541,-12.64,1132.0024],[33.5437,-12.6434,1137.0334],[33.5357,-12.643,1141.3678],[33.5325,-12.6448,1143.5175],[33.5263,-12.6419,1160.1062],[33.5082,-12.6378,1168.3248],[33.4816,-12.6349,1174.0039],[33.4782,-12.6266,1181.8799],[33.4782,-12.6222,1186.7135],[33.4815,-12.6155,1196.2174],[33.4875,-12.6092,1209.0099],[33.4811,-12.6033,1223.8711],[33.4698,-12.6112,1204.2905],[33.4593,-12.6148,1190.2053],[33.4562,-12.6061,1210.2378],[33.4535,-12.6036,1201.8417],[33.4273,-12.6037,1233.4426],[33.4261,-12.6088,1241.682],[33.4208,-12.6159,1226.1122],[33.4187,-12.6216,1209.8625],[33.4286,-12.6201,1210.8794],[33.4367,-12.6274,1195.8966],[33.4512,-12.6291,1200.0929],[33.4567,-12.6314,1188.3525],[33.474,-12.6544,1159.5356],[33.4822,-12.656,1154.8354],[33.4868,-12.662,1149.4156],[33.4943,-12.6667,1142.9658],[33.4934,-12.6718,1152.1016],[33.4845,-12.6809,1163.4026],[33.4853,-12.6831,1171.5698]]]]}
,"properties": {"GID_3": "MWI.9.11.9_1","GID_0": "MWI","country": "Malawi","GID_1": "MWI.9_1","province": "Kasungu","NL_NAME_1": "NA","GID_2": "MWI.9.11_1","county": "TAKaluluma","NL_NAME_2": "NA","city": "n.a.(373)","VARNAME_3": "NA","NL_NAME_3": "NA","TYPE_3": "Unknown","ENGTYPE_3": "Unknown","CC_3": "NA","HASC_3": "NA","name": "n.a.(373).city","area_km2": 61.85566,"hist_schema_id": "Elevation0-9000","hist_area_km2": {"1125": 3.06175,"1150": 22.0726,"1175": 20.74876,"1200": 11.19301,"1225": 4.34502,"1250": 0.43451}}}