{"type": "Feature","bbox": [35.5316,-14.577,35.5788,-14.5212],"geometry": {"type": "MultiPolygon","coordinates": [[[[35.5422,-14.5461,922.7493],[35.5342,-14.5516,910.0608],[35.5316,-14.5653,941.7845],[35.5388,-14.5679,919.5315],[35.5453,-14.567,920.2983],[35.5524,-14.5752,900.6263],[35.5558,-14.577,920.8913],[35.5586,-14.5769,958.3644],[35.5624,-14.5702,948.6341],[35.5677,-14.5703,945.2784],[35.5707,-14.5671,940.953],[35.5732,-14.5578,961.7595],[35.5788,-14.5558,915.1849],[35.5702,-14.5469,920.6722],[35.5689,-14.5481,907.4559],[35.5675,-14.5471,904.7274],[35.5614,-14.5377,869.6264],[35.5637,-14.5362,866.6035],[35.5609,-14.5339,871.2513],[35.5619,-14.5303,872.1288],[35.5605,-14.5278,881.0312],[35.554,-14.5236,917.5135],[35.5526,-14.5284,930.5795],[35.5498,-14.5296,920.6768],[35.5443,-14.5212,988.0933],[35.5446,-14.5296,909.6747],[35.5422,-14.5461,922.7493]]]]}
,"properties": {"GID_3": "MWI.13.6.15_1","GID_0": "MWI","country": "Malawi","GID_1": "MWI.13_1","province": "Mangochi","NL_NAME_1": "NA","GID_2": "MWI.13.6_1","county": "SCMbwanaNyambi","NL_NAME_2": "NA","city": "n.a.(1659)","VARNAME_3": "NA","NL_NAME_3": "NA","TYPE_3": "Unknown","ENGTYPE_3": "Unknown","CC_3": "NA","HASC_3": "NA","name": "n.a.(1659).city","area_km2": 15.88401,"hist_schema_id": "Elevation0-9000","hist_area_km2": {"875": 2.5859,"900": 6.15669,"925": 3.26295,"950": 1.02606,"975": 0.73876,"1000": 0.53355,"1025": 0.45146,"1050": 0.30781,"1075": 0.30781,"1100": 0.22573,"1125": 0.14365,"1150": 0.08208,"1175": 0.06156}}}