{"type":"Feature","properties":{"GID_2":"MWI.2.6_1","GID_0":"MWI","country":"Malawi","GID_1":"MWI.2_1","province":"Blantyre","NL_NAME_1":"NA","county":"TALundu","VARNAME_2":"NA","NL_NAME_2":"NA","TYPE_2":"TraditionalAuthority","ENGTYPE_2":"TraditionalAuthority","CC_2":"NA","HASC_2":"NA","name":"T_A_Lundu.county"},
"geometry":{"type": "MultiPolygon","coordinates": [[[[35.0186,-15.5265,584.5549],[35.0171,-15.5338,599.3378],[35.018,-15.5385,599.8173],[35.0274,-15.5392,595.8712],[35.0355,-15.5495,610.9241],[35.0427,-15.5492,648.1671],[35.0686,-15.5631,704.5309],[35.0771,-15.5641,795.3817],[35.0995,-15.5156,1133.4392],[35.1324,-15.4732,1374.0068],[35.1152,-15.4717,777.6904],[35.1055,-15.4726,959.165],[35.097,-15.4701,1167.0382],[35.0697,-15.443,828.6877],[35.058,-15.4211,519.75],[35.0578,-15.4063,511.5856],[35.0539,-15.3991,507.7852],[35.049,-15.3961,506.0029],[35.035,-15.3947,495.3297],[35.03,-15.3901,494.2564],[35.0249,-15.3898,489.4078],[35.0184,-15.381,484.3216],[35.0126,-15.3776,480.9323],[35.0121,-15.372,478.7989],[35.0063,-15.3654,473.8811],[35.0059,-15.406,493.6244],[35.0072,-15.4103,496.3654],[35.0112,-15.4144,498.6263],[35.0219,-15.442,516.3638],[35.0164,-15.4665,539.5868],[35.0225,-15.4949,574.0706],[35.0243,-15.511,585.1434],[35.0224,-15.5152,593.8069],[35.0197,-15.5161,587.9033],[35.0186,-15.5265,584.5549]]]]}}