{"type":"Feature","properties":{"GID_3":"MWI.6.6.23_1","GID_0":"MWI","country":"Malawi","GID_1":"MWI.6_1","province":"Dedza","NL_NAME_1":"NA","GID_2":"MWI.6.6_1","county":"TAKachindamoto","NL_NAME_2":"NA","city":"n.a.(1499)","VARNAME_3":"NA","NL_NAME_3":"NA","TYPE_3":"Unknown","ENGTYPE_3":"Unknown","CC_3":"NA","HASC_3":"NA","name":"n.a.(1499).city"},
"geometry":{"type": "MultiPolygon","coordinates": [[[[34.5697,-14.3933,571.1761],[34.5862,-14.3908,540.2206],[34.5954,-14.3973,531.8896],[34.6044,-14.3964,530.9391],[34.6066,-14.3938,530.5515],[34.6048,-14.3861,528.1467],[34.5933,-14.3806,528.0476],[34.5943,-14.367,522.6515],[34.5977,-14.3572,516.6526],[34.598,-14.3486,512.6238],[34.5873,-14.3435,516.174],[34.5836,-14.3383,515.0941],[34.5684,-14.3429,528.5135],[34.562,-14.3508,540.3624],[34.5632,-14.3533,537.5315],[34.5674,-14.3556,533.8047],[34.5722,-14.3644,533.2164],[34.5609,-14.3683,558.0399],[34.5697,-14.3933,571.1761]]]]}}