{"type": "Feature","bbox": [33.7838,-11.0291,33.8811,-10.9223],"geometry": {"type": "MultiPolygon","coordinates": [[[[33.837,-11.0278,1056.804],[33.8367,-11.0024,1134.2202],[33.8711,-11.0025,1245.9969],[33.875,-10.9834,1444.5475],[33.8811,-10.9715,1312.7859],[33.8741,-10.9641,1351.5839],[33.8698,-10.9513,1341.0245],[33.8657,-10.9504,1338.1191],[33.8631,-10.9434,1389.0214],[33.8584,-10.9379,1409.5419],[33.8598,-10.934,1395.9017],[33.8578,-10.9297,1423.9596],[33.8384,-10.9287,1526.667],[33.8363,-10.9235,1550.811],[33.8319,-10.9223,1608.9192],[33.8264,-10.9312,1612.5127],[33.8176,-10.9326,1468.0681],[33.8169,-10.9353,1435.5171],[33.8103,-10.935,1483.731],[33.8082,-10.937,1446.7802],[33.8075,-10.9531,1461.2642],[33.8093,-10.9632,1391.5226],[33.8083,-10.969,1310.4606],[33.8128,-10.9691,1295.1104],[33.8151,-10.98,1175.3591],[33.7998,-11.0037,1099.6694],[33.788,-11.0151,1073.6367],[33.7889,-11.0162,1073.6367],[33.7839,-11.0176,1068.3064],[33.7838,-11.0193,1068.1577],[33.7863,-11.0212,1065.5691],[33.7847,-11.023,1064.1992],[33.7879,-11.0271,1064.093],[33.7923,-11.0256,1064.759],[33.7943,-11.0234,1062.0885],[33.7928,-11.0223,1069.2471],[33.7966,-11.0187,1071.6277],[33.7988,-11.0196,1063.1711],[33.8,-11.0179,1079.7817],[33.8068,-11.0208,1077.6654],[33.8114,-11.0206,1072.0308],[33.8167,-11.0256,1059.1779],[33.8197,-11.0265,1059.3215],[33.8204,-11.0249,1061.4482],[33.8256,-11.0291,1058.5842],[33.8271,-11.0272,1059.0564],[33.8302,-11.0285,1058.4326],[33.8311,-11.0253,1064.6586],[33.8343,-11.0255,1065.1377],[33.837,-11.0278,1056.804]]]]}
,"properties": {"GID_3": "MWI.25.9.7_1","GID_0": "MWI","country": "Malawi","GID_1": "MWI.25_1","province": "Rumphi","NL_NAME_1": "NA","GID_2": "MWI.25.9_1","county": "TAChikulamayembe","NL_NAME_2": "NA","city": "n.a.(134)","VARNAME_3": "NA","NL_NAME_3": "NA","TYPE_3": "Unknown","ENGTYPE_3": "Unknown","CC_3": "NA","HASC_3": "NA","name": "n.a.(134).city","area_km2": 66.02315,"hist_schema_id": "Elevation0-9000","hist_area_km2": {"1050": 0.45784,"1075": 4.86985,"1100": 4.30809,"1125": 3.28841,"1150": 2.89302,"1175": 3.05955,"1200": 2.51843,"1225": 1.99809,"1250": 2.22707,"1275": 2.39359,"1300": 2.26873,"1325": 1.79004,"1350": 2.33127,"1375": 2.62272,"1400": 4.14227,"1425": 4.35048,"1450": 3.62193,"1475": 3.72606,"1500": 2.91423,"1525": 2.97669,"1550": 2.35219,"1575": 1.74854,"1600": 1.26975,"1625": 0.89509,"1650": 0.62449,"1675": 0.16653,"1700": 0.18735,"1750": 0.02082}}}