{"type":"Feature","properties":{"GID_3":"MWI.25.7.5_1","GID_0":"MWI","country":"Malawi","GID_1":"MWI.25_1","province":"Rumphi","NL_NAME_1":"NA","GID_2":"MWI.25.7_1","county":"SCMwalweni","NL_NAME_2":"NA","city":"n.a.(113)","VARNAME_3":"NA","NL_NAME_3":"NA","TYPE_3":"Unknown","ENGTYPE_3":"Unknown","CC_3":"NA","HASC_3":"NA","name":"n.a.(113).city"},
"geometry":{"type": "MultiPolygon","coordinates": [[[[33.9872,-10.7659,1916.3336],[34.0289,-10.7781,1256.6689],[34.0642,-10.8215,1285.2754],[34.0772,-10.8288,1174.0605],[34.0843,-10.822,1019.9838],[34.0897,-10.8229,1028.0179],[34.0985,-10.812,1077.4861],[34.1065,-10.8055,1019.7204],[34.1076,-10.7864,1022.14],[34.1103,-10.7776,1082.0516],[34.1136,-10.7745,1076.4065],[34.1159,-10.7618,917.3116],[34.1179,-10.7595,944.0657],[34.1207,-10.7602,877.0875],[34.1247,-10.734,1229.7004],[34.1499,-10.7332,969.3365],[34.1499,-10.7311,992.5827],[34.1539,-10.7271,1042.7504],[34.1525,-10.7245,1045.9374],[34.1537,-10.721,1091.7091],[34.1494,-10.7179,1125.7993],[34.1442,-10.7175,1259.2495],[34.1423,-10.7143,1253.0243],[34.1369,-10.7114,1235.1249],[34.1252,-10.716,1282.3307],[34.1185,-10.7115,1256.5012],[34.1182,-10.7132,1295.3915],[34.1047,-10.7184,1298.6671],[34.0941,-10.7158,1293.512],[34.0802,-10.7187,1327.0491],[34.0778,-10.7214,1292.2336],[34.0773,-10.7308,1314.062],[34.0747,-10.7333,1309.6936],[34.0512,-10.7322,1265.3557],[34.0449,-10.7282,1267.1272],[34.0417,-10.7281,1292.8008],[34.0336,-10.7352,1285.9683],[34.0309,-10.7407,1295.2712],[34.0306,-10.7477,1260.9855],[34.0348,-10.7502,1243.1851],[34.0359,-10.7529,1220.2991],[34.0338,-10.7568,1243.0588],[34.0303,-10.7576,1241.8611],[34.0309,-10.7606,1222.1403],[34.0292,-10.7611,1228.9512],[34.0189,-10.7531,1391.5387],[34.0182,-10.7465,1345.365],[34.0216,-10.7429,1389.797],[34.0216,-10.7334,1388.1765],[34.0294,-10.7319,1325.0],[34.0291,-10.7309,1329.6514],[34.0258,-10.7295,1384.9407],[34.023,-10.7254,1421.8521],[34.0153,-10.7237,1541.4911],[34.0127,-10.7146,1684.4231],[33.998,-10.7088,2034.2628],[33.9955,-10.7148,1973.1111],[33.9989,-10.7166,1905.2496],[33.9993,-10.7187,1833.1498],[33.9912,-10.7299,1793.9409],[33.9946,-10.7317,1722.6523],[34.0,-10.7394,1622.8926],[33.9873,-10.7468,2039.3123],[33.992,-10.7557,1803.3569],[33.9872,-10.7659,1916.3336]]]]}}