{"type":"Feature","properties":{"GID_3":"MWI.25.9.15_1","GID_0":"MWI","country":"Malawi","GID_1":"MWI.25_1","province":"Rumphi","NL_NAME_1":"NA","GID_2":"MWI.25.9_1","county":"TAChikulamayembe","NL_NAME_2":"NA","city":"n.a.(145)","VARNAME_3":"NA","NL_NAME_3":"NA","TYPE_3":"Unknown","ENGTYPE_3":"Unknown","CC_3":"NA","HASC_3":"NA","name":"n.a.(145).city"},
"geometry":{"type": "MultiPolygon","coordinates": [[[[33.7847,-11.023,1064.1992],[33.7863,-11.0212,1065.5691],[33.7838,-11.0193,1068.1577],[33.7839,-11.0176,1068.3064],[33.7889,-11.0162,1073.6367],[33.7855,-11.0096,1068.5795],[33.7848,-11.0004,1073.5728],[33.7811,-10.9978,1074.5647],[33.7805,-10.9887,1079.6716],[33.7705,-10.989,1079.7435],[33.763,-10.9926,1082.6068],[33.7564,-10.9929,1089.1949],[33.7728,-11.0133,1073.3662],[33.7544,-11.0185,1086.0798],[33.7274,-11.0332,1093.9572],[33.7141,-11.0545,1089.1534],[33.7057,-11.0621,1103.0583],[33.696,-11.0754,1133.3441],[33.6927,-11.0851,1102.5447],[33.688,-11.0888,1089.1199],[33.6955,-11.1037,1077.8818],[33.7004,-11.1024,1077.4382],[33.7052,-11.0969,1077.1548],[33.7176,-11.0978,1094.0188],[33.7241,-11.0935,1118.2539],[33.7301,-11.0956,1076.6418],[33.7349,-11.0881,1075.5314],[33.7362,-11.0829,1074.0066],[33.7379,-11.0823,1075.1829],[33.7365,-11.0775,1085.1261],[33.743,-11.0675,1071.6497],[33.7406,-11.0662,1071.73],[33.7399,-11.0607,1070.915],[33.7369,-11.0589,1071.9524],[33.7341,-11.0534,1071.5669],[33.7286,-11.0509,1069.5265],[33.7292,-11.0454,1068.1283],[33.7309,-11.0446,1068.4561],[33.7274,-11.0427,1070.8104],[33.7289,-11.0395,1075.676],[33.7322,-11.04,1068.2874],[33.7348,-11.038,1067.9082],[33.7397,-11.0408,1067.9506],[33.7442,-11.04,1066.8303],[33.7465,-11.036,1065.9956],[33.7433,-11.0362,1066.2308],[33.7423,-11.0326,1069.3193],[33.7465,-11.031,1066.3322],[33.7452,-11.0298,1067.7],[33.7494,-11.0264,1073.729],[33.7635,-11.0274,1066.1752],[33.766,-11.0307,1064.3372],[33.7707,-11.0277,1069.2379],[33.7717,-11.0293,1066.3657],[33.774,-11.0244,1069.4619],[33.7781,-11.0224,1066.1946],[33.7818,-11.0212,1067.6864],[33.7847,-11.023,1064.1992]]]]}}