{"type": "Feature","bbox": [35.319,-16.0177,35.3599,-15.9877],"geometry": {"type": "MultiPolygon","coordinates": [[[[35.3278,-15.9927,689.6933],[35.3235,-15.9977,678.1315],[35.319,-15.9998,661.8756],[35.3227,-16.0002,668.4806],[35.3265,-16.0042,687.2642],[35.33,-16.0056,696.5114],[35.3258,-16.0088,689.3439],[35.3273,-16.012,683.228],[35.3348,-16.0161,675.6409],[35.3426,-16.014,679.5651],[35.3509,-16.0177,690.4855],[35.3599,-16.0083,707.0018],[35.3523,-16.0048,697.1827],[35.3507,-16.0019,695.4504],[35.353,-15.9975,702.9197],[35.3462,-15.9958,715.004],[35.3465,-15.9924,717.0982],[35.3432,-15.9877,715.1143],[35.3278,-15.9927,689.6933]]]]}
,"properties": {"GID_3": "MWI.15.8.8_1","GID_0": "MWI","country": "Malawi","GID_1": "MWI.15_1","province": "Mulanje","NL_NAME_1": "NA","GID_2": "MWI.15.8_1","county": "TANthiramanja","NL_NAME_2": "NA","city": "n.a.(2746)","VARNAME_3": "NA","NL_NAME_3": "NA","TYPE_3": "Unknown","ENGTYPE_3": "Unknown","CC_3": "NA","HASC_3": "NA","name": "n.a.(2746).city","area_km2": 7.846498,"hist_schema_id": "Elevation0-9000","hist_area_km2": {"650": 0.020381,"675": 1.569289,"700": 5.788052,"725": 0.468776}}}