{"type": "Feature","bbox": [35.1339,-15.777,35.1761,-15.7478],"geometry": {"type": "MultiPolygon","coordinates": [[[[35.1382,-15.764,1038.3254],[35.1426,-15.7703,1011.5026],[35.1404,-15.777,1018.0302],[35.1471,-15.7767,1022.7775],[35.1557,-15.7725,980.182],[35.1645,-15.7653,963.121],[35.1761,-15.7602,930.0057],[35.1526,-15.7478,998.7219],[35.1339,-15.7557,1055.2994],[35.1344,-15.759,1061.1545],[35.1382,-15.764,1038.3254]]]]}
,"properties": {"GID_3": "MWI.4.4.2_1","GID_0": "MWI","country": "Malawi","GID_1": "MWI.4_1","province": "Chiradzulu","NL_NAME_1": "NA","GID_2": "MWI.4.4_1","county": "TALikoswe","NL_NAME_2": "NA","city": "n.a.(2514)","VARNAME_3": "NA","NL_NAME_3": "NA","TYPE_3": "Unknown","ENGTYPE_3": "Unknown","CC_3": "NA","HASC_3": "NA","name": "n.a.(2514).city","area_km2": 7.774311,"hist_schema_id": "Elevation0-9000","hist_area_km2": {"925": 0.183646,"950": 1.530384,"975": 2.366981,"1000": 1.999698,"1025": 1.020246,"1050": 0.550931,"1075": 0.081618,"1100": 0.040808}}}