{"type": "Feature","bbox": [35.4234,-16.0341,35.4631,-16.0105],"geometry": {"type": "MultiPolygon","coordinates": [[[[35.4282,-16.0191,641.2578],[35.425,-16.0221,646.8893],[35.4234,-16.0282,633.9434],[35.4255,-16.0321,626.6581],[35.4309,-16.0341,631.1604],[35.4329,-16.03,637.9331],[35.4396,-16.0286,659.2114],[35.4417,-16.0317,652.7377],[35.4492,-16.0241,627.818],[35.4528,-16.0271,621.4997],[35.4564,-16.0274,631.7427],[35.4631,-16.016,650.9135],[35.4571,-16.0156,646.4784],[35.453,-16.0106,656.557],[35.4494,-16.0138,646.746],[35.4378,-16.0105,671.0858],[35.435,-16.0164,658.2939],[35.4282,-16.0191,641.2578]]]]}
,"properties": {"GID_3": "MWI.15.5.9_1","GID_0": "MWI","country": "Malawi","GID_1": "MWI.15_1","province": "Mulanje","NL_NAME_1": "NA","GID_2": "MWI.15.5_1","county": "TAChikumbu","NL_NAME_2": "NA","city": "n.a.(2778)","VARNAME_3": "NA","NL_NAME_3": "NA","TYPE_3": "Unknown","ENGTYPE_3": "Unknown","CC_3": "NA","HASC_3": "NA","name": "n.a.(2778).city","area_km2": 6.093223,"hist_schema_id": "Elevation0-9000","hist_area_km2": {"625": 1.222701,"650": 4.075737,"675": 0.794784}}}