{"type":"Feature","properties":{"GID_3":"MWI.7.4.5_1","GID_0":"MWI","country":"Malawi","GID_1":"MWI.7_1","province":"Dowa","NL_NAME_1":"NA","GID_2":"MWI.7.4_1","county":"SCKayembe","NL_NAME_2":"NA","city":"n.a.(711)","VARNAME_3":"NA","NL_NAME_3":"NA","TYPE_3":"Unknown","ENGTYPE_3":"Unknown","CC_3":"NA","HASC_3":"NA","name":"n.a.(711).city"},
"geometry":{"type": "MultiPolygon","coordinates": [[[[33.5284,-13.5334,1107.5461],[33.5305,-13.5461,1112.8555],[33.5417,-13.5512,1121.6433],[33.5493,-13.5633,1135.5762],[33.5545,-13.5663,1146.6246],[33.5601,-13.5735,1146.0544],[33.5615,-13.5814,1156.6987],[33.5674,-13.5947,1170.5348],[33.5806,-13.5975,1205.3788],[33.5941,-13.5928,1197.6921],[33.5836,-13.5774,1169.3036],[33.5804,-13.5678,1160.7775],[33.5765,-13.5634,1156.6248],[33.5819,-13.5583,1164.4424],[33.5859,-13.5568,1173.6279],[33.5988,-13.5589,1203.0669],[33.5951,-13.5522,1191.9254],[33.5956,-13.549,1193.1899],[33.5765,-13.5456,1170.9481],[33.5464,-13.5363,1126.8879],[33.5284,-13.5334,1107.5461]]]]}}