{"type":"Feature","properties":{"GID_3":"MWI.3.11.11_1","GID_0":"MWI","country":"Malawi","GID_1":"MWI.3_1","province":"Chikwawa","NL_NAME_1":"NA","GID_2":"MWI.3.11_1","county":"TANgabu","NL_NAME_2":"NA","city":"n.a.(3034)","VARNAME_3":"NA","NL_NAME_3":"NA","TYPE_3":"Unknown","ENGTYPE_3":"Unknown","CC_3":"NA","HASC_3":"NA","name":"n.a.(3034).city"},
"geometry":{"type": "MultiPolygon","coordinates": [[[[34.8752,-16.3586,76.6321],[34.8381,-16.3631,104.9735],[34.822,-16.4029,131.8023],[34.8162,-16.4123,138.3707],[34.8184,-16.4158,128.7089],[34.8188,-16.422,130.2406],[34.825,-16.4227,124.022],[34.8288,-16.4213,120.2375],[34.8316,-16.4191,116.9547],[34.8316,-16.4149,119.4935],[34.8341,-16.415,117.6652],[34.8371,-16.4118,116.5252],[34.8468,-16.4126,113.2596],[34.8514,-16.4097,107.4907],[34.8571,-16.4094,108.252],[34.8624,-16.4039,103.9264],[34.8618,-16.3986,101.0456],[34.8723,-16.3982,96.7512],[34.8756,-16.3822,84.9722],[34.8821,-16.3678,73.9319],[34.8752,-16.3586,76.6321]]]]}}