{"type":"Feature","properties":{"GID_3":"MWI.2.5.7_1","GID_0":"MWI","country":"Malawi","GID_1":"MWI.2_1","province":"Blantyre","NL_NAME_1":"NA","GID_2":"MWI.2.5_1","county":"TAKunthembwe","NL_NAME_2":"NA","city":"n.a.(2425)","VARNAME_3":"NA","NL_NAME_3":"NA","TYPE_3":"Unknown","ENGTYPE_3":"Unknown","CC_3":"NA","HASC_3":"NA","name":"n.a.(2425).city"},
"geometry":{"type": "MultiPolygon","coordinates": [[[[34.9113,-15.6584,698.1335],[34.9059,-15.6575,685.9828],[34.8995,-15.6631,703.7375],[34.8919,-15.6636,703.2954],[34.8891,-15.6741,684.9925],[34.8909,-15.6766,678.0929],[34.8946,-15.6774,711.336],[34.8841,-15.6902,673.3535],[34.8829,-15.6937,628.9736],[34.8843,-15.696,669.0417],[34.9018,-15.6969,718.392],[34.9091,-15.7034,653.7615],[34.9109,-15.7083,647.0889],[34.9147,-15.7064,660.5789],[34.9183,-15.702,676.6013],[34.919,-15.6945,688.0826],[34.9214,-15.6924,676.7031],[34.9253,-15.6922,682.8187],[34.9295,-15.684,691.6973],[34.9245,-15.675,713.4584],[34.9119,-15.6621,712.7368],[34.9113,-15.6584,698.1335]]]]}}