{"type": "Feature","bbox": [35.1792,-16.2834,35.2248,-16.2349],"geometry": {"type": "MultiPolygon","coordinates": [[[[35.2077,-16.237,808.5649],[35.1924,-16.2552,611.4196],[35.1889,-16.2485,680.9162],[35.1932,-16.2394,794.606],[35.1938,-16.2349,805.7363],[35.1896,-16.2377,795.3584],[35.1806,-16.24,772.7844],[35.1792,-16.2421,775.4976],[35.1815,-16.2435,848.0895],[35.1827,-16.247,799.0128],[35.1799,-16.2547,740.6772],[35.1822,-16.2607,646.7496],[35.187,-16.2621,617.1346],[35.1917,-16.2589,601.7263],[35.1912,-16.2626,594.9926],[35.1876,-16.2667,642.694],[35.1926,-16.2729,719.4692],[35.1919,-16.2834,847.7959],[35.1929,-16.2807,815.189],[35.2024,-16.272,771.1429],[35.2042,-16.2719,760.3575],[35.2117,-16.2632,657.0601],[35.2158,-16.2559,575.0389],[35.2156,-16.2524,550.3324],[35.2216,-16.2495,564.2888],[35.2248,-16.2453,590.5131],[35.2207,-16.2391,737.2203],[35.2141,-16.2395,779.1683],[35.2077,-16.237,808.5649]]]]}
,"properties": {"GID_3": "MWI.27.3.7_1","GID_0": "MWI","country": "Malawi","GID_1": "MWI.27_1","province": "Thyolo","NL_NAME_1": "NA","GID_2": "MWI.27.3_1","county": "SCMbawela","NL_NAME_2": "NA","city": "n.a.(2980)","VARNAME_3": "NA","NL_NAME_3": "NA","TYPE_3": "Unknown","ENGTYPE_3": "Unknown","CC_3": "NA","HASC_3": "NA","name": "n.a.(2980).city","area_km2": 11.520762,"hist_schema_id": "Elevation0-9000","hist_area_km2": {"525": 0.101774,"550": 0.427449,"575": 0.834541,"600": 0.793832,"625": 0.895594,"650": 0.956668,"675": 1.099156,"700": 1.689425,"725": 1.343398,"750": 0.997368,"775": 1.058455,"800": 1.078831,"825": 0.203558,"850": 0.040712}}}