{"type":"Feature","properties":{"GID_3":"MWI.1.3.45_1","GID_0":"MWI","country":"Malawi","GID_1":"MWI.1_1","province":"Balaka","NL_NAME_1":"NA","GID_2":"MWI.1.3_1","county":"TANsamala","NL_NAME_2":"NA","city":"n.a.(2054)","VARNAME_3":"NA","NL_NAME_3":"NA","TYPE_3":"Unknown","ENGTYPE_3":"Unknown","CC_3":"NA","HASC_3":"NA","name":"n.a.(2054).city"},
"geometry":{"type": "MultiPolygon","coordinates": [[[[34.9784,-15.2104,547.36],[34.9859,-15.2182,533.5161],[34.9862,-15.2227,535.4899],[35.0051,-15.2208,516.8669],[35.0128,-15.2295,507.8714],[35.0147,-15.2302,508.1637],[35.0179,-15.2279,509.0494],[35.0209,-15.2296,510.931],[35.0275,-15.2386,503.2435],[35.0324,-15.242,498.6813],[35.0383,-15.241,497.5331],[35.0476,-15.2328,496.7363],[35.0508,-15.2263,496.1733],[35.0407,-15.2117,502.8911],[35.0377,-15.1971,508.126],[35.0294,-15.2007,520.118],[35.012,-15.1974,526.9245],[34.9903,-15.2073,535.5574],[34.9799,-15.2079,547.5729],[34.9784,-15.2104,547.36]]]]}}