{"type":"Feature","properties":{"GID_3":"MWI.4.4.1_1","GID_0":"MWI","country":"Malawi","GID_1":"MWI.4_1","province":"Chiradzulu","NL_NAME_1":"NA","GID_2":"MWI.4.4_1","county":"TALikoswe","NL_NAME_2":"NA","city":"n.a.(2511)","VARNAME_3":"NA","NL_NAME_3":"NA","TYPE_3":"Unknown","ENGTYPE_3":"Unknown","CC_3":"NA","HASC_3":"NA","name":"n.a.(2511).city"},
"geometry":{"type": "MultiPolygon","coordinates": [[[[35.1088,-15.7613,1134.7814],[35.1132,-15.7584,1143.1832],[35.1232,-15.7653,1097.9919],[35.1382,-15.764,1038.3254],[35.1333,-15.7565,1056.5413],[35.1424,-15.7519,1011.9357],[35.1412,-15.747,1027.3927],[35.136,-15.7451,1039.8306],[35.1259,-15.7525,1079.7424],[35.1097,-15.7488,1132.3706],[35.1067,-15.7524,1109.5071],[35.1053,-15.7592,1122.1687],[35.1088,-15.7613,1134.7814]]]]}}