{"type": "Feature","bbox": [33.6839,-12.8009,33.7879,-12.681],"geometry": {"type": "MultiPolygon","coordinates": [[[[33.6875,-12.7965,942.5692],[33.6944,-12.7967,925.3778],[33.696,-12.8006,919.688],[33.6992,-12.8009,928.2319],[33.7117,-12.7845,939.52],[33.7209,-12.7813,925.6028],[33.7236,-12.7715,911.4379],[33.7256,-12.7682,907.2277],[33.7291,-12.7663,910.2073],[33.7301,-12.7618,911.8414],[33.7334,-12.7574,907.6137],[33.7439,-12.7549,920.1832],[33.7492,-12.751,913.8763],[33.758,-12.7497,918.1106],[33.7631,-12.7436,915.8196],[33.7707,-12.7443,902.3456],[33.7733,-12.739,922.4434],[33.7811,-12.7313,908.1888],[33.7814,-12.7213,894.123],[33.7879,-12.7143,901.0999],[33.7808,-12.7052,925.8738],[33.7786,-12.6995,943.2999],[33.7728,-12.6984,915.5133],[33.7697,-12.6961,908.2136],[33.7729,-12.6896,927.5782],[33.7706,-12.6875,927.0496],[33.7664,-12.6871,917.8242],[33.7673,-12.681,926.4797],[33.763,-12.6811,931.4928],[33.7521,-12.6867,939.0143],[33.7476,-12.6864,945.984],[33.7423,-12.6918,936.1854],[33.7271,-12.6948,950.0467],[33.7219,-12.6987,1024.3004],[33.7093,-12.7143,1001.4128],[33.7043,-12.7179,1001.9037],[33.704,-12.7202,974.0208],[33.7112,-12.7301,997.5225],[33.7189,-12.7359,972.2639],[33.7127,-12.7412,976.5249],[33.71,-12.7476,965.7477],[33.7084,-12.7478,957.8461],[33.7038,-12.7418,969.6621],[33.6992,-12.7403,983.2989],[33.6934,-12.7424,1006.3344],[33.687,-12.7502,1023.9402],[33.6918,-12.7507,1063.1517],[33.6924,-12.7522,1074.4597],[33.6913,-12.7582,1022.4794],[33.6839,-12.7683,982.8517],[33.6898,-12.7753,950.7141],[33.684,-12.7896,983.3347],[33.6875,-12.7965,942.5692]]]]}
,"properties": {"GID_3": "MWI.9.9.2_1","GID_0": "MWI","country": "Malawi","GID_1": "MWI.9_1","province": "Kasungu","NL_NAME_1": "NA","GID_2": "MWI.9.9_1","county": "SCSimlemba","NL_NAME_2": "NA","city": "n.a.(388)","VARNAME_3": "NA","NL_NAME_3": "NA","TYPE_3": "Unknown","ENGTYPE_3": "Unknown","CC_3": "NA","HASC_3": "NA","name": "n.a.(388).city","area_km2": 68.53559,"hist_schema_id": "Elevation0-9000","hist_area_km2": {"875": 0.12409,"900": 2.17157,"925": 13.81451,"950": 16.41981,"975": 13.58699,"1000": 9.86476,"1025": 7.63149,"1050": 3.20574,"1075": 1.55119,"1100": 0.16544}}}