{"type":"Feature","properties":{"GID_3":"MWI.13.8.31_1","GID_0":"MWI","country":"Malawi","GID_1":"MWI.13_1","province":"Mangochi","NL_NAME_1":"NA","GID_2":"MWI.13.8_1","county":"TAChimwala","NL_NAME_2":"NA","city":"n.a.(1778)","VARNAME_3":"NA","NL_NAME_3":"NA","TYPE_3":"Unknown","ENGTYPE_3":"Unknown","CC_3":"NA","HASC_3":"NA","name":"n.a.(1778).city"},
"geometry":{"type": "MultiPolygon","coordinates": [[[[35.085,-14.7691,693.2082],[35.0844,-14.7601,707.8632],[35.0728,-14.7413,903.734],[35.0718,-14.7306,920.9807],[35.0591,-14.7306,705.6986],[35.0505,-14.7372,691.9577],[35.0532,-14.7415,669.1661],[35.051,-14.751,664.1234],[35.0452,-14.7469,654.802],[35.0414,-14.7402,659.3992],[35.0356,-14.74,686.7336],[35.0302,-14.7349,689.6797],[35.0266,-14.7356,683.801],[35.0229,-14.7405,709.5712],[35.0185,-14.7545,731.6597],[35.023,-14.7713,712.4649],[35.085,-14.7691,693.2082]]]]}}