{"type": "Feature","bbox": [35.2859,-15.9091,35.3239,-15.8451],"geometry": {"type": "MultiPolygon","coordinates": [[[[35.2859,-15.8451,783.686],[35.2912,-15.8731,769.9717],[35.2976,-15.8743,759.6855],[35.3056,-15.8792,758.6506],[35.3115,-15.89,747.4938],[35.3114,-15.8937,743.5738],[35.3059,-15.8954,741.2874],[35.3016,-15.8994,742.8182],[35.2946,-15.9001,736.8629],[35.2945,-15.9044,736.0896],[35.3021,-15.9091,726.0269],[35.3031,-15.9039,734.1885],[35.3114,-15.9024,742.0397],[35.3239,-15.9085,736.3865],[35.3183,-15.867,732.2874],[35.3117,-15.8673,741.8096],[35.3004,-15.864,750.1598],[35.2989,-15.856,763.7729],[35.2859,-15.8451,783.686]]]]}
,"properties": {"GID_3": "MWI.4.7.2_1","GID_0": "MWI","country": "Malawi","GID_1": "MWI.4_1","province": "Chiradzulu","NL_NAME_1": "NA","GID_2": "MWI.4.7_1","county": "TANkalo","NL_NAME_2": "NA","city": "n.a.(2610)","VARNAME_3": "NA","NL_NAME_3": "NA","TYPE_3": "Unknown","ENGTYPE_3": "Unknown","CC_3": "NA","HASC_3": "NA","name": "n.a.(2610).city","area_km2": 10.665576,"hist_schema_id": "Elevation0-9000","hist_area_km2": {"725": 1.610952,"750": 7.504589,"775": 1.550035}}}