{"type":"Feature","properties":{"GID_3":"MWI.1.2.5_1","GID_0":"MWI","country":"Malawi","GID_1":"MWI.1_1","province":"Balaka","NL_NAME_1":"NA","GID_2":"MWI.1.2_1","county":"TAKalembo","NL_NAME_2":"NA","city":"n.a.(1807)","VARNAME_3":"NA","NL_NAME_3":"NA","TYPE_3":"Unknown","ENGTYPE_3":"Unknown","CC_3":"NA","HASC_3":"NA","name":"n.a.(1807).city"},
"geometry":{"type": "MultiPolygon","coordinates": [[[[35.1778,-14.7895,498.1268],[35.1618,-14.7941,511.7306],[35.1601,-14.8012,515.657],[35.1502,-14.8049,561.8685],[35.154,-14.8124,552.5161],[35.1492,-14.8221,558.9027],[35.1605,-14.8205,532.1688],[35.169,-14.8259,522.1741],[35.1694,-14.8276,520.1896],[35.1739,-14.8271,516.5013],[35.179,-14.8415,523.1473],[35.1847,-14.8355,517.9705],[35.1902,-14.833,515.3627],[35.1933,-14.8404,513.405],[35.2018,-14.8407,511.6536],[35.2013,-14.8364,508.5469],[35.2082,-14.8316,507.4151],[35.2108,-14.8272,505.7487],[35.205,-14.8255,505.3123],[35.2101,-14.8106,498.7791],[35.2179,-14.802,500.3555],[35.2194,-14.7953,492.726],[35.2234,-14.7921,491.4949],[35.2265,-14.7918,489.5915],[35.2215,-14.7886,489.5218],[35.2078,-14.7698,482.708],[35.2001,-14.7777,486.9277],[35.1778,-14.7895,498.1268]]]]}}