{"type":"Feature","properties":{"GID_3":"MWI.7.6.4_1","GID_0":"MWI","country":"Malawi","GID_1":"MWI.7_1","province":"Dowa","NL_NAME_1":"NA","GID_2":"MWI.7.6_1","county":"SCMponela","NL_NAME_2":"NA","city":"n.a.(700)","VARNAME_3":"NA","NL_NAME_3":"NA","TYPE_3":"Unknown","ENGTYPE_3":"Unknown","CC_3":"NA","HASC_3":"NA","name":"n.a.(700).city"},
"geometry":{"type": "MultiPolygon","coordinates": [[[[33.7227,-13.5217,1193.829],[33.7142,-13.525,1193.6196],[33.7104,-13.5281,1194.7029],[33.7083,-13.5313,1196.6536],[33.7079,-13.5385,1199.7086],[33.6985,-13.5463,1198.0856],[33.6926,-13.5548,1204.3015],[33.6987,-13.559,1211.3318],[33.704,-13.5596,1214.9819],[33.7155,-13.5493,1212.5413],[33.7235,-13.5515,1226.2384],[33.7341,-13.5645,1258.4188],[33.7316,-13.5676,1254.6345],[33.7239,-13.5675,1237.6407],[33.7304,-13.5802,1269.1719],[33.7303,-13.586,1276.6423],[33.734,-13.5892,1305.1892],[33.7453,-13.5803,1301.6189],[33.7467,-13.5703,1298.9834],[33.7407,-13.5585,1279.1881],[33.7374,-13.5573,1257.421],[33.7227,-13.5217,1193.829]]]]}}