{"type":"Feature","properties":{"GID_3":"MWI.23.5.1_1","GID_0":"MWI","country":"Malawi","GID_1":"MWI.23_1","province":"Ntchisi","NL_NAME_1":"NA","GID_2":"MWI.23.5_1","county":"TAKalumo","NL_NAME_2":"NA","city":"n.a.(528)","VARNAME_3":"NA","NL_NAME_3":"NA","TYPE_3":"Unknown","ENGTYPE_3":"Unknown","CC_3":"NA","HASC_3":"NA","name":"n.a.(528).city"},
"geometry":{"type": "MultiPolygon","coordinates": [[[[33.7098,-13.2465,1072.4758],[33.7123,-13.2513,1074.7174],[33.7171,-13.2515,1080.6771],[33.723,-13.2577,1088.6074],[33.728,-13.2729,1105.8535],[33.7358,-13.2849,1129.259],[33.7444,-13.2819,1141.879],[33.7623,-13.2791,1179.3583],[33.7629,-13.2753,1169.7168],[33.7587,-13.2643,1161.0845],[33.7584,-13.2562,1140.9327],[33.7599,-13.2516,1130.9194],[33.7629,-13.249,1131.8109],[33.7615,-13.2464,1131.5253],[33.7489,-13.2384,1101.217],[33.7454,-13.2302,1090.9078],[33.7358,-13.2195,1089.0302],[33.7303,-13.2158,1066.448],[33.7292,-13.2122,1073.9226],[33.7319,-13.2072,1060.8494],[33.7296,-13.2022,1072.1051],[33.7112,-13.2002,1052.2952],[33.7121,-13.2032,1041.8414],[33.7027,-13.2188,1069.0181],[33.7018,-13.2238,1064.1643],[33.7036,-13.2238,1057.1045],[33.7054,-13.2335,1064.0962],[33.7075,-13.233,1064.3318],[33.7092,-13.2355,1077.3707],[33.7098,-13.2465,1072.4758]]]]}}