{"type": "Feature","bbox": [35.0027,-16.0958,35.029,-16.0514],"geometry": {"type": "MultiPolygon","coordinates": [[[[35.021,-16.0514,1151.3334],[35.0139,-16.0557,1046.0737],[35.0103,-16.0716,773.2393],[35.0118,-16.0748,734.2515],[35.0083,-16.0762,704.4313],[35.0027,-16.0868,413.8592],[35.0044,-16.093,386.4091],[35.0082,-16.0958,451.917],[35.0123,-16.0952,541.1075],[35.0164,-16.0902,675.3278],[35.0205,-16.0886,775.4734],[35.029,-16.0763,1135.2726],[35.0266,-16.0744,1217.2612],[35.0257,-16.0689,1158.1913],[35.0184,-16.0603,1109.3391],[35.021,-16.0514,1151.3334]]]]}
,"properties": {"GID_3": "MWI.27.4.5_1","GID_0": "MWI","country": "Malawi","GID_1": "MWI.27_1","province": "Thyolo","NL_NAME_1": "NA","GID_2": "MWI.27.4_1","county": "SCMphuka","NL_NAME_2": "NA","city": "n.a.(2837)","VARNAME_3": "NA","NL_NAME_3": "NA","TYPE_3": "Unknown","ENGTYPE_3": "Unknown","CC_3": "NA","HASC_3": "NA","name": "n.a.(2837).city","area_km2": 6.621222,"hist_schema_id": "Elevation0-9000","hist_area_km2": {"400": 0.101858,"425": 0.081487,"450": 0.162972,"475": 0.162975,"500": 0.142603,"525": 0.183346,"550": 0.244464,"575": 0.122232,"600": 0.101861,"625": 0.224092,"650": 0.142606,"675": 0.142607,"700": 0.244469,"725": 0.142607,"750": 0.101862,"775": 0.224101,"800": 0.142608,"825": 0.101864,"850": 0.183355,"875": 0.28522,"900": 0.285223,"925": 0.264854,"950": 0.305602,"975": 0.244478,"1000": 0.325974,"1025": 0.366729,"1050": 0.305607,"1075": 0.407487,"1100": 0.366731,"1125": 0.285235,"1150": 0.122242,"1175": 0.081496,"1200": 0.020373}}}