{"type":"Feature","properties":{"GID_3":"MWI.4.4.11_1","GID_0":"MWI","country":"Malawi","GID_1":"MWI.4_1","province":"Chiradzulu","NL_NAME_1":"NA","GID_2":"MWI.4.4_1","county":"TALikoswe","NL_NAME_2":"NA","city":"n.a.(2558)","VARNAME_3":"NA","NL_NAME_3":"NA","TYPE_3":"Unknown","ENGTYPE_3":"Unknown","CC_3":"NA","HASC_3":"NA","name":"n.a.(2558).city"},
"geometry":{"type": "MultiPolygon","coordinates": [[[[35.1657,-15.8138,905.123],[35.1632,-15.8158,913.6666],[35.1613,-15.8204,899.3667],[35.1661,-15.8219,891.8023],[35.1724,-15.8276,890.8561],[35.1752,-15.8278,898.15],[35.1765,-15.8311,873.1652],[35.1818,-15.8228,930.0032],[35.1827,-15.8055,1088.4084],[35.1861,-15.8024,1045.7473],[35.1808,-15.8001,1065.137],[35.1847,-15.7942,1004.9294],[35.1819,-15.7908,1014.2351],[35.1772,-15.7923,997.5262],[35.1709,-15.8028,956.4759],[35.1718,-15.8064,947.5178],[35.1678,-15.8157,904.2065],[35.1657,-15.8138,905.123]]]]}}