{"type": "Feature","bbox": [33.4715,-12.4384,33.5815,-12.3324],"geometry": {"type": "MultiPolygon","coordinates": [[[[33.5648,-12.3824,1408.7406],[33.5473,-12.3823,1437.9082],[33.5356,-12.3778,1414.2358],[33.546,-12.3694,1421.7316],[33.5482,-12.3577,1439.7112],[33.5422,-12.3434,1424.4409],[33.5388,-12.3397,1419.6307],[33.5373,-12.3329,1418.9624],[33.527,-12.3346,1397.1862],[33.5258,-12.3324,1403.5144],[33.5202,-12.3376,1387.3534],[33.5294,-12.3478,1410.157],[33.5307,-12.3651,1402.9971],[33.5246,-12.3747,1400.2896],[33.4983,-12.3909,1355.0123],[33.4938,-12.3967,1354.6698],[33.4881,-12.4118,1448.9176],[33.4848,-12.4166,1431.1892],[33.479,-12.42,1410.3748],[33.4727,-12.4205,1431.5472],[33.4715,-12.4249,1406.8892],[33.4731,-12.4306,1381.696],[33.4861,-12.4311,1372.5457],[33.4921,-12.4347,1362.3892],[33.4985,-12.436,1358.6641],[33.5187,-12.4335,1352.8595],[33.5219,-12.4378,1362.4661],[33.5254,-12.4384,1366.7039],[33.5356,-12.4338,1343.5128],[33.5352,-12.4295,1334.4778],[33.5497,-12.4271,1339.5979],[33.5549,-12.4283,1311.3582],[33.5622,-12.4177,1332.5737],[33.5721,-12.4105,1335.3313],[33.5802,-12.4006,1342.193],[33.5793,-12.3873,1359.5964],[33.5815,-12.3833,1387.238],[33.5648,-12.3824,1408.7406]]]]}
,"properties": {"GID_2": "MWI.9.4_1","GID_0": "MWI","country": "Malawi","GID_1": "MWI.9_1","province": "Kasungu","NL_NAME_1": "NA","county": "SCChisikwa","VARNAME_2": "NA","NL_NAME_2": "NA","TYPE_2": "Sub-chief","ENGTYPE_2": "Sub-chief","CC_2": "NA","HASC_2": "NA","name": "S_C_Chisikwa.county","area_km2": 60.27987,"hist_schema_id": "Elevation0-9000","hist_area_km2": {"1325": 1.63574,"1350": 7.10221,"1375": 14.84686,"1400": 16.73218,"1425": 13.27442,"1450": 4.05869,"1475": 1.59444,"1500": 0.72474,"1525": 0.28989,"1550": 0.02071}}}