{"type": "Feature","bbox": [33.3777,-12.6559,33.4507,-12.5572],"geometry": {"type": "MultiPolygon","coordinates": [[[[33.4187,-12.6216,1209.8625],[33.4208,-12.6159,1226.1122],[33.4261,-12.6088,1241.682],[33.4273,-12.6037,1233.4426],[33.4507,-12.6034,1199.4188],[33.4459,-12.5867,1218.0646],[33.4402,-12.5852,1223.5284],[33.43,-12.5769,1231.7516],[33.4197,-12.5739,1247.7545],[33.4197,-12.5685,1249.2841],[33.4174,-12.5578,1258.5686],[33.4162,-12.5572,1257.2981],[33.4092,-12.5613,1232.5341],[33.4059,-12.5661,1222.8773],[33.4021,-12.5667,1209.9307],[33.401,-12.5653,1211.5679],[33.3989,-12.5679,1214.7439],[33.3932,-12.5706,1203.2482],[33.3892,-12.5775,1193.5287],[33.3867,-12.5885,1178.3301],[33.387,-12.5975,1174.9388],[33.3837,-12.6077,1165.976],[33.3858,-12.62,1152.2487],[33.3777,-12.6401,1140.2946],[33.383,-12.6559,1120.3284],[33.3835,-12.6495,1163.2784],[33.4058,-12.6289,1201.7952],[33.4187,-12.6216,1209.8625]]]]}
,"properties": {"GID_3": "MWI.9.11.6_1","GID_0": "MWI","country": "Malawi","GID_1": "MWI.9_1","province": "Kasungu","NL_NAME_1": "NA","GID_2": "MWI.9.11_1","county": "TAKaluluma","NL_NAME_2": "NA","city": "n.a.(363)","VARNAME_3": "NA","NL_NAME_3": "NA","TYPE_3": "Unknown","ENGTYPE_3": "Unknown","CC_3": "NA","HASC_3": "NA","name": "n.a.(363).city","area_km2": 37.4724,"hist_schema_id": "Elevation0-9000","hist_area_km2": {"1125": 0.20688,"1150": 3.08264,"1175": 6.51746,"1200": 10.9045,"1225": 13.67764,"1250": 3.08327}}}