{"type": "Feature","bbox": [35.1176,-15.8236,35.166,-15.7887],"geometry": {"type": "MultiPolygon","coordinates": [[[[35.1233,-15.8052,1030.22],[35.1303,-15.8062,1018.3644],[35.1331,-15.8087,991.0012],[35.1363,-15.8075,992.1746],[35.1389,-15.8103,968.7247],[35.1428,-15.8079,966.3709],[35.1495,-15.8098,933.5914],[35.1595,-15.8191,905.2871],[35.1621,-15.8236,886.3415],[35.1645,-15.8222,892.3512],[35.1611,-15.8195,909.3401],[35.166,-15.8129,914.0873],[35.1537,-15.8072,938.8938],[35.1536,-15.8047,942.0234],[35.151,-15.8042,949.6798],[35.152,-15.7978,989.4189],[35.1436,-15.7932,980.3398],[35.1438,-15.7953,975.9216],[35.141,-15.793,985.479],[35.132,-15.7924,1000.9895],[35.1303,-15.7903,1002.3848],[35.1191,-15.7887,1040.3521],[35.1176,-15.7909,1047.7473],[35.124,-15.7975,1029.8248],[35.1233,-15.8052,1030.22]]]]}
,"properties": {"GID_3": "MWI.4.4.10_1","GID_0": "MWI","country": "Malawi","GID_1": "MWI.4_1","province": "Chiradzulu","NL_NAME_1": "NA","GID_2": "MWI.4.4_1","county": "TALikoswe","NL_NAME_2": "NA","city": "n.a.(2554)","VARNAME_3": "NA","NL_NAME_3": "NA","TYPE_3": "Unknown","ENGTYPE_3": "Unknown","CC_3": "NA","HASC_3": "NA","name": "n.a.(2554).city","area_km2": 6.650693,"hist_schema_id": "Elevation0-9000","hist_area_km2": {"875": 0.020399,"900": 0.326392,"925": 0.754794,"950": 0.75482,"975": 1.346473,"1000": 1.754506,"1025": 1.591302,"1050": 0.102006}}}