{"type":"Feature","properties":{"GID_3":"MWI.13.11.3_1","GID_0":"MWI","country":"Malawi","GID_1":"MWI.13_1","province":"Mangochi","NL_NAME_1":"NA","GID_2":"MWI.13.11_1","county":"TAMakanjila","NL_NAME_2":"NA","city":"n.a.(1097)","VARNAME_3":"NA","NL_NAME_3":"NA","TYPE_3":"Unknown","ENGTYPE_3":"Unknown","CC_3":"NA","HASC_3":"NA","name":"n.a.(1097).city"},
"geometry":{"type": "MultiPolygon","coordinates": [[[[35.1469,-14.0043,477.169],[35.1479,-13.9998,481.9863],[35.1566,-13.9954,496.8882],[35.1705,-13.9973,504.3361],[35.174,-13.9944,519.7443],[35.1596,-13.971,517.332],[35.1513,-13.952,512.8049],[35.1499,-13.9518,512.8049],[35.1442,-13.9584,486.8244],[35.1329,-13.9594,480.842],[35.125,-13.9625,477.3837],[35.1235,-13.9648,477.1387],[35.1337,-13.9701,476.5833],[35.1385,-13.9749,474.5],[35.1419,-13.9896,474.5],[35.1413,-13.9946,474.5],[35.1439,-14.0022,474.5],[35.1469,-14.0043,477.169]]]]}}