{"type":"Feature","properties":{"GID_3":"MWI.15.6.34_1","GID_0":"MWI","country":"Malawi","GID_1":"MWI.15_1","province":"Mulanje","NL_NAME_1":"NA","GID_2":"MWI.15.6_1","county":"TAMabuka","NL_NAME_2":"NA","city":"n.a.(2900)","VARNAME_3":"NA","NL_NAME_3":"NA","TYPE_3":"Unknown","ENGTYPE_3":"Unknown","CC_3":"NA","HASC_3":"NA","name":"n.a.(2900).city"},
"geometry":{"type": "MultiPolygon","coordinates": [[[[35.5774,-16.1046,627.0025],[35.5757,-16.1088,617.2535],[35.5768,-16.124,585.9736],[35.58,-16.1236,586.9032],[35.5839,-16.1296,584.5003],[35.5925,-16.1323,589.9043],[35.5955,-16.128,595.9512],[35.6031,-16.1267,589.1566],[35.6059,-16.1243,600.1852],[35.6116,-16.1236,600.4553],[35.6151,-16.1249,594.0007],[35.6137,-16.1215,609.7663],[35.6076,-16.1174,605.9517],[35.6031,-16.1208,592.5516],[35.6011,-16.1148,608.7135],[35.609,-16.1116,604.7656],[35.6075,-16.107,611.16],[35.5984,-16.1036,627.6885],[35.5971,-16.0999,640.1938],[35.598,-16.0945,637.9436],[35.5922,-16.094,640.6605],[35.588,-16.0979,659.5132],[35.5905,-16.1033,686.1937],[35.5881,-16.1071,694.0555],[35.5814,-16.0997,664.1911],[35.5774,-16.1046,627.0025]]]]}}