{"type":"Feature","properties":{"GID_3":"MWI.17.4.13_1","GID_0":"MWI","country":"Malawi","GID_1":"MWI.17_1","province":"Mzimba","NL_NAME_1":"NA","GID_2":"MWI.17.4_1","county":"SCKampingoSibande","NL_NAME_2":"NA","city":"n.a.(263)","VARNAME_3":"NA","NL_NAME_3":"NA","TYPE_3":"Unknown","ENGTYPE_3":"Unknown","CC_3":"NA","HASC_3":"NA","name":"n.a.(263).city"},
"geometry":{"type": "MultiPolygon","coordinates": [[[[33.729,-11.8146,1500.342],[33.7211,-11.8112,1535.8416],[33.7173,-11.8118,1533.3579],[33.7109,-11.8098,1482.2719],[33.7102,-11.8074,1475.8015],[33.6932,-11.8225,1566.0841],[33.6939,-11.826,1568.0107],[33.6981,-11.8297,1598.7605],[33.6986,-11.8324,1584.9753],[33.6942,-11.8422,1530.7931],[33.696,-11.8462,1482.1382],[33.6929,-11.8657,1535.0322],[33.6892,-11.8716,1538.8396],[33.694,-11.8739,1582.7229],[33.7027,-11.8739,1608.9822],[33.71,-11.8784,1642.2673],[33.7116,-11.8858,1631.9573],[33.7065,-11.89,1624.1338],[33.7048,-11.8935,1621.3727],[33.7088,-11.9035,1621.1001],[33.7371,-11.9092,1693.3645],[33.7439,-11.9248,1688.7983],[33.752,-11.9281,1731.3169],[33.7542,-11.9243,1720.3896],[33.7547,-11.9157,1696.3673],[33.7664,-11.9037,1688.5261],[33.7658,-11.9007,1679.5049],[33.759,-11.8947,1646.3167],[33.7544,-11.8934,1637.046],[33.7541,-11.8906,1645.4048],[33.751,-11.8881,1639.2372],[33.74,-11.8827,1659.5172],[33.7337,-11.8739,1648.5859],[33.7287,-11.8561,1586.343],[33.7322,-11.8502,1566.2288],[33.7308,-11.842,1562.2003],[33.7354,-11.8428,1549.9836],[33.7499,-11.8506,1571.5874],[33.7629,-11.8526,1625.0486],[33.7664,-11.8516,1635.7021],[33.7694,-11.8547,1625.2271],[33.7843,-11.8528,1699.3105],[33.7846,-11.8486,1705.1311],[33.7801,-11.8436,1694.1444],[33.7765,-11.8424,1702.2308],[33.7694,-11.8335,1687.6169],[33.7671,-11.8261,1659.5939],[33.7601,-11.8206,1651.9851],[33.7569,-11.8129,1626.2468],[33.7437,-11.81,1528.6985],[33.7389,-11.8012,1444.8199],[33.7343,-11.8039,1453.6404],[33.7351,-11.8095,1472.7961],[33.7329,-11.8147,1428.0918],[33.729,-11.8146,1500.342]]]]}}