{"type": "Feature","bbox": [33.4799,-11.6024,33.6003,-11.5373],"geometry": {"type": "MultiPolygon","coordinates": [[[[33.4799,-11.5458,1188.7748],[33.4836,-11.5466,1186.1219],[33.4882,-11.5511,1184.3092],[33.4863,-11.5675,1219.3008],[33.489,-11.5771,1199.1094],[33.4878,-11.5815,1211.7064],[33.492,-11.5883,1209.6438],[33.4944,-11.5891,1207.2524],[33.4967,-11.5876,1218.429],[33.5067,-11.5911,1232.5496],[33.5171,-11.5871,1247.7186],[33.5232,-11.5914,1233.082],[33.5263,-11.5975,1241.3839],[33.531,-11.5977,1259.6316],[33.5358,-11.6019,1249.0314],[33.5376,-11.6024,1253.6094],[33.5416,-11.5999,1276.4778],[33.5447,-11.6013,1270.2869],[33.5474,-11.6003,1293.9657],[33.556,-11.5903,1343.275],[33.5614,-11.5883,1325.0134],[33.5682,-11.5946,1299.4952],[33.5848,-11.6019,1346.8418],[33.5876,-11.5977,1351.4453],[33.5887,-11.5912,1364.4751],[33.5973,-11.5867,1388.694],[33.6003,-11.5829,1414.114],[33.5979,-11.5799,1404.4641],[33.5953,-11.5572,1450.8191],[33.5918,-11.5515,1466.0968],[33.5921,-11.5475,1443.7104],[33.5885,-11.5413,1411.9392],[33.5643,-11.5373,1338.4982],[33.5492,-11.5392,1342.2888],[33.5468,-11.5379,1332.5746],[33.5443,-11.5404,1334.5752],[33.5426,-11.5503,1335.0903],[33.5336,-11.5492,1297.7981],[33.5272,-11.5558,1276.6519],[33.518,-11.5534,1256.624],[33.5127,-11.5542,1275.1599],[33.5134,-11.5499,1266.5673],[33.5069,-11.5489,1266.7479],[33.5077,-11.5406,1248.7888],[33.505,-11.5386,1239.0322],[33.4993,-11.5383,1230.9684],[33.482,-11.5423,1195.9374],[33.4799,-11.5458,1188.7748]]]]}
,"properties": {"GID_3": "MWI.17.6.17_1","GID_0": "MWI","country": "Malawi","GID_1": "MWI.17_1","province": "Mzimba","NL_NAME_1": "NA","GID_2": "MWI.17.6_1","county": "TAChindi","NL_NAME_2": "NA","city": "n.a.(228)","VARNAME_3": "NA","NL_NAME_3": "NA","TYPE_3": "Unknown","ENGTYPE_3": "Unknown","CC_3": "NA","HASC_3": "NA","name": "n.a.(228).city","area_km2": 65.78331,"hist_schema_id": "Elevation0-9000","hist_area_km2": {"1175": 0.06232,"1200": 3.44815,"1225": 5.81613,"1250": 8.18386,"1275": 8.57834,"1300": 5.48358,"1325": 7.0621,"1350": 10.78046,"1375": 10.75988,"1400": 3.78052,"1425": 1.39174,"1450": 0.39468,"1475": 0.04155}}}