{"type": "Feature","bbox": [35.1398,-16.4486,35.2019,-16.4199],"geometry": {"type": "MultiPolygon","coordinates": [[[[35.1565,-16.4486,49.5485],[35.1883,-16.4458,80.362],[35.1983,-16.4334,123.6158],[35.2019,-16.4325,121.1083],[35.2019,-16.4308,118.6654],[35.1913,-16.422,131.3683],[35.1853,-16.4204,124.2768],[35.1777,-16.4245,98.8031],[35.1632,-16.4255,66.2173],[35.1576,-16.4246,66.3904],[35.1499,-16.4199,67.611],[35.1427,-16.422,60.7514],[35.1398,-16.4256,59.7961],[35.1418,-16.4271,59.2631],[35.1587,-16.4304,62.619],[35.1565,-16.4486,49.5485]]]]}
,"properties": {"GID_3": "MWI.21.7.11_1","GID_0": "MWI","country": "Malawi","GID_1": "MWI.21_1","province": "Nsanje","NL_NAME_1": "NA","GID_2": "MWI.21.7_1","county": "TAMlolo","NL_NAME_2": "NA","city": "n.a.(3047)","VARNAME_3": "NA","NL_NAME_3": "NA","TYPE_3": "Unknown","ENGTYPE_3": "Unknown","CC_3": "NA","HASC_3": "NA","name": "n.a.(3047).city","area_km2": 11.896584,"hist_schema_id": "Elevation0-9000","hist_area_km2": {"50": 2.602963,"75": 5.81609,"100": 1.52522,"125": 1.769279,"150": 0.183032}}}