{"type": "Feature","bbox": [33.9154,-13.9315,33.9694,-13.8606],"geometry": {"type": "MultiPolygon","coordinates": [[[[33.949,-13.9315,954.6807],[33.9607,-13.9174,960.9457],[33.9672,-13.9127,964.1566],[33.9694,-13.9035,1017.8439],[33.9685,-13.8951,1042.6411],[33.9631,-13.8914,1060.1857],[33.9599,-13.8845,1077.5232],[33.9559,-13.8834,1079.2312],[33.9568,-13.8778,1102.0156],[33.9499,-13.8785,1125.3843],[33.9461,-13.8763,1147.5217],[33.9416,-13.882,1078.7839],[33.9377,-13.8788,1095.0825],[33.937,-13.8694,1147.2058],[33.9431,-13.8633,1158.8618],[33.9316,-13.8649,1154.4333],[33.9277,-13.8665,1126.5166],[33.9262,-13.8707,1112.7098],[33.9243,-13.8711,1116.9843],[33.9226,-13.8695,1127.7251],[33.9232,-13.8638,1141.4033],[33.9186,-13.8608,1173.8804],[33.9154,-13.8606,1171.3785],[33.9192,-13.8736,1108.5748],[33.9259,-13.8774,1107.491],[33.9268,-13.8793,1110.381],[33.9261,-13.8815,1125.9941],[33.9214,-13.8842,1107.2743],[33.9194,-13.8889,1081.5105],[33.9183,-13.8983,1062.3336],[33.9204,-13.9045,1064.9816],[33.9311,-13.906,1025.5336],[33.9476,-13.9137,987.7098],[33.9491,-13.916,979.6967],[33.9389,-13.92,1000.9215],[33.9379,-13.9256,979.4072],[33.9399,-13.9298,965.6057],[33.9459,-13.9298,969.6425],[33.949,-13.9315,954.6807]]]]}
,"properties": {"GID_3": "MWI.11.7.3_1","GID_0": "MWI","country": "Malawi","GID_1": "MWI.11_1","province": "Lilongwe","NL_NAME_1": "NA","GID_2": "MWI.11.7_1","county": "TAChimutu","NL_NAME_2": "NA","city": "n.a.(1017)","VARNAME_3": "NA","NL_NAME_3": "NA","TYPE_3": "Unknown","ENGTYPE_3": "Unknown","CC_3": "NA","HASC_3": "NA","name": "n.a.(1017).city","area_km2": 22.8045,"hist_schema_id": "Elevation0-9000","hist_area_km2": {"950": 0.26753,"975": 2.77825,"1000": 2.75777,"1025": 2.8402,"1050": 3.86934,"1075": 4.03409,"1100": 2.77867,"1125": 2.2436,"1150": 0.98804,"1175": 0.24702}}}