{"type": "Feature","bbox": [35.2553,-15.8504,35.317,-15.8025],"geometry": {"type": "MultiPolygon","coordinates": [[[[35.2553,-15.8054,877.2533],[35.2593,-15.81,866.7263],[35.263,-15.811,856.3733],[35.2648,-15.815,835.7572],[35.2675,-15.8145,834.5694],[35.2722,-15.8172,821.5907],[35.2784,-15.8179,808.8571],[35.2802,-15.821,802.7708],[35.2903,-15.8248,787.3633],[35.2897,-15.8265,785.0397],[35.2834,-15.8291,787.8798],[35.2893,-15.8293,781.5664],[35.291,-15.8314,775.2233],[35.2951,-15.8311,778.304],[35.3006,-15.8341,766.452],[35.3039,-15.8329,768.1227],[35.3092,-15.8421,750.9633],[35.317,-15.8504,743.9946],[35.3123,-15.8106,773.5794],[35.3019,-15.8178,787.5916],[35.2995,-15.8216,774.8956],[35.2949,-15.8156,787.1333],[35.2886,-15.814,797.5881],[35.284,-15.8149,800.8518],[35.2819,-15.8094,815.4037],[35.276,-15.8062,826.3228],[35.2699,-15.8089,885.0145],[35.2576,-15.8025,863.4683],[35.2553,-15.8054,877.2533]]]]}
,"properties": {"GID_3": "MWI.4.3.20_1","GID_0": "MWI","country": "Malawi","GID_1": "MWI.4_1","province": "Chiradzulu","NL_NAME_1": "NA","GID_2": "MWI.4.3_1","county": "TAKadewere","NL_NAME_2": "NA","city": "n.a.(2569)","VARNAME_3": "NA","NL_NAME_3": "NA","TYPE_3": "Unknown","ENGTYPE_3": "Unknown","CC_3": "NA","HASC_3": "NA","name": "n.a.(2569).city","area_km2": 9.648683,"hist_schema_id": "Elevation0-9000","hist_area_km2": {"750": 1.142247,"775": 4.773278,"800": 1.489148,"825": 1.040395,"850": 0.897609,"875": 0.265205,"900": 0.040801}}}