{"type":"Feature","properties":{"GID_3":"MWI.11.16.28_1","GID_0":"MWI","country":"Malawi","GID_1":"MWI.11_1","province":"Lilongwe","NL_NAME_1":"NA","GID_2":"MWI.11.16_1","county":"TAMazengera","NL_NAME_2":"NA","city":"n.a.(1253)","VARNAME_3":"NA","NL_NAME_3":"NA","TYPE_3":"Unknown","ENGTYPE_3":"Unknown","CC_3":"NA","HASC_3":"NA","name":"n.a.(1253).city"},
"geometry":{"type": "MultiPolygon","coordinates": [[[[34.0638,-14.1343,1169.3589],[34.0635,-14.1308,1182.3086],[34.0681,-14.1236,1190.5568],[34.0635,-14.1224,1205.8027],[34.0638,-14.119,1219.9968],[34.0598,-14.117,1238.2507],[34.0521,-14.1244,1285.2843],[34.0493,-14.1224,1244.3638],[34.0498,-14.115,1239.1946],[34.0547,-14.1023,1267.8121],[34.0361,-14.1005,1211.7227],[34.0372,-14.1115,1203.566],[34.0351,-14.1365,1185.213],[34.0331,-14.1396,1182.3121],[34.0352,-14.1448,1181.5209],[34.0407,-14.1481,1179.9152],[34.0443,-14.1482,1184.8711],[34.0484,-14.1539,1176.377],[34.0576,-14.1535,1163.8191],[34.0602,-14.147,1159.2477],[34.0599,-14.1437,1165.1226],[34.0579,-14.1429,1177.0438],[34.0638,-14.1343,1169.3589]]]]}}