{"type":"Feature","properties":{"GID_3":"MWI.22.7.6_1","GID_0":"MWI","country":"Malawi","GID_1":"MWI.22_1","province":"Ntcheu","NL_NAME_1":"NA","GID_2":"MWI.22.7_1","county":"TAMasasa","NL_NAME_2":"NA","city":"n.a.(1597)","VARNAME_3":"NA","NL_NAME_3":"NA","TYPE_3":"Unknown","ENGTYPE_3":"Unknown","CC_3":"NA","HASC_3":"NA","name":"n.a.(1597).city"},
"geometry":{"type": "MultiPolygon","coordinates": [[[[34.612,-14.4649,597.4096],[34.6257,-14.4685,574.3995],[34.6354,-14.468,575.1334],[34.6206,-14.4551,563.6388],[34.6137,-14.4512,557.4929],[34.6058,-14.4405,553.5869],[34.5964,-14.4441,563.2556],[34.5937,-14.4495,596.6453],[34.5928,-14.4564,652.9774],[34.612,-14.4649,597.4096]]]]}}