{"type":"Feature","properties":{"GID_3":"MWI.21.11.10_1","GID_0":"MWI","country":"Malawi","GID_1":"MWI.21_1","province":"Nsanje","NL_NAME_1":"NA","GID_2":"MWI.21.11_1","county":"TATengani","NL_NAME_2":"NA","city":"n.a.(3096)","VARNAME_3":"NA","NL_NAME_3":"NA","TYPE_3":"Unknown","ENGTYPE_3":"Unknown","CC_3":"NA","HASC_3":"NA","name":"n.a.(3096).city"},
"geometry":{"type": "MultiPolygon","coordinates": [[[[35.3014,-16.8582,39.4962],[35.306,-16.8515,40.1634],[35.3052,-16.8426,38.7894],[35.3098,-16.8367,39.5099],[35.3004,-16.8343,47.7228],[35.285,-16.8351,72.4099],[35.2866,-16.8288,70.3415],[35.2837,-16.829,71.4246],[35.2814,-16.8248,74.3473],[35.2795,-16.8242,73.2355],[35.2761,-16.8268,80.2988],[35.2717,-16.8261,88.7418],[35.2681,-16.8325,93.5169],[35.2639,-16.8308,109.7599],[35.2533,-16.8314,110.6719],[35.2448,-16.8257,158.4144],[35.2365,-16.8258,153.0253],[35.2368,-16.8428,188.6891],[35.2466,-16.8403,141.1347],[35.2495,-16.841,137.4625],[35.2624,-16.8369,114.1162],[35.2675,-16.8376,104.379],[35.2784,-16.8529,68.1527],[35.2879,-16.8599,45.9566],[35.2958,-16.862,39.0707],[35.3014,-16.8582,39.4962]]]]}}