{"type":"Feature","properties":{"GID_3":"MWI.22.5.1_1","GID_0":"MWI","country":"Malawi","GID_1":"MWI.22_1","province":"Ntcheu","NL_NAME_1":"NA","GID_2":"MWI.22.5_1","county":"TAChakhumbira","NL_NAME_2":"NA","city":"n.a.(1608)","VARNAME_3":"NA","NL_NAME_3":"NA","TYPE_3":"Unknown","ENGTYPE_3":"Unknown","CC_3":"NA","HASC_3":"NA","name":"n.a.(1608).city"},
"geometry":{"type": "MultiPolygon","coordinates": [[[[34.5419,-14.4441,748.7862],[34.5343,-14.4441,775.3883],[34.5313,-14.4509,795.1171],[34.5267,-14.451,805.2371],[34.522,-14.4541,823.7699],[34.5164,-14.4532,844.2657],[34.5126,-14.4577,916.2496],[34.5138,-14.4678,1098.965],[34.5129,-14.487,1258.0952],[34.5265,-14.4912,1116.2969],[34.5422,-14.5007,910.1447],[34.5468,-14.4953,853.9365],[34.5619,-14.4975,813.7509],[34.5603,-14.495,822.9736],[34.5631,-14.4918,808.6167],[34.5624,-14.4898,809.4631],[34.5436,-14.4662,799.0085],[34.5421,-14.4563,802.35],[34.5445,-14.4554,782.9777],[34.5425,-14.4515,785.8344],[34.5444,-14.4477,769.4185],[34.5419,-14.4441,748.7862]]]]}}