{"type":"Feature","properties":{"GID_2":"MWI.7.7_1","GID_0":"MWI","country":"Malawi","GID_1":"MWI.7_1","province":"Dowa","NL_NAME_1":"NA","county":"TAChiwere","VARNAME_2":"NA","NL_NAME_2":"NA","TYPE_2":"TraditionalAuthority","ENGTYPE_2":"TraditionalAuthority","CC_2":"NA","HASC_2":"NA","name":"T_A_Chiwere.county"},
"geometry":{"type": "MultiPolygon","coordinates": [[[[34.0865,-13.7884,992.0045],[34.0926,-13.8256,1041.8438],[34.0953,-13.8329,894.1331],[34.099,-13.8338,828.5579],[34.103,-13.8294,872.5206],[34.1076,-13.8318,794.6257],[34.1168,-13.831,785.4223],[34.1215,-13.8281,768.7431],[34.1229,-13.8331,753.4778],[34.1249,-13.834,751.9847],[34.129,-13.8258,773.5649],[34.1349,-13.8237,725.7137],[34.1345,-13.8194,810.6924],[34.1466,-13.8208,756.4434],[34.1509,-13.8162,739.4269],[34.1587,-13.8117,734.5889],[34.1727,-13.7969,751.3547],[34.2,-13.8062,667.0334],[34.2078,-13.8128,652.1833],[34.2081,-13.8183,713.9694],[34.2122,-13.8189,640.4937],[34.2281,-13.8089,630.7318],[34.2272,-13.803,634.1774],[34.233,-13.7994,664.7783],[34.2313,-13.798,689.4104],[34.2344,-13.7933,669.5051],[34.2454,-13.7885,630.1541],[34.2527,-13.7834,617.5955],[34.2639,-13.7833,620.9759],[34.2694,-13.7807,618.2791],[34.2861,-13.7815,587.14],[34.2976,-13.7796,563.0776],[34.2979,-13.7732,577.3098],[34.3009,-13.7706,580.3657],[34.2986,-13.767,582.5807],[34.297,-13.7594,594.4626],[34.2972,-13.7493,597.9864],[34.2899,-13.7494,609.046],[34.2812,-13.7464,629.642],[34.2743,-13.7469,693.3069],[34.2773,-13.7352,638.5829],[34.274,-13.7124,614.2151],[34.2766,-13.6996,610.2831],[34.2739,-13.6881,619.2191],[34.2775,-13.6804,600.6349],[34.278,-13.6755,594.1201],[34.2756,-13.6738,595.4187],[34.2731,-13.6744,599.6451],[34.2686,-13.6805,613.5651],[34.2523,-13.6853,629.6844],[34.2407,-13.6931,646.0727],[34.2374,-13.6927,652.6116],[34.2326,-13.698,664.8749],[34.2234,-13.6974,685.3489],[34.2161,-13.7012,705.6378],[34.2023,-13.703,729.9015],[34.1874,-13.6996,770.2082],[34.1827,-13.7006,768.1731],[34.1126,-13.6316,977.929],[34.1208,-13.6087,892.7797],[34.1166,-13.5668,778.1731],[34.115,-13.5692,745.1991],[34.1119,-13.5694,749.3533],[34.1051,-13.5633,763.5196],[34.1051,-13.5743,791.2367],[34.1025,-13.5771,781.0245],[34.1053,-13.5796,807.4009],[34.1045,-13.5866,808.8842],[34.0975,-13.591,812.9067],[34.0919,-13.5872,826.912],[34.0902,-13.5909,826.2891],[34.084,-13.5932,845.907],[34.0771,-13.5925,892.4788],[34.0763,-13.5944,887.9362],[34.0789,-13.5984,899.2755],[34.0782,-13.6071,885.4231],[34.0761,-13.6089,890.1576],[34.0729,-13.6072,908.5962],[34.0712,-13.6116,892.1712],[34.0661,-13.6085,926.7025],[34.0606,-13.6145,926.54],[34.0548,-13.6137,936.9899],[34.0514,-13.617,936.2975],[34.0408,-13.6175,966.8052],[34.0372,-13.6157,968.5584],[34.0354,-13.6124,993.3417],[34.0322,-13.6135,975.7323],[34.0294,-13.6078,989.2241],[34.0253,-13.6067,1000.2658],[34.0225,-13.6077,1009.1055],[34.0195,-13.6043,1028.274],[34.0114,-13.6053,1027.9001],[34.0099,-13.6028,1034.5803],[34.0071,-13.6029,1043.0619],[33.9963,-13.5978,1073.1619],[33.9891,-13.598,1072.9055],[33.9802,-13.5949,1122.0829],[33.9699,-13.5963,1140.957],[33.9714,-13.601,1145.8726],[33.9703,-13.6023,1158.4314],[33.9623,-13.6007,1156.5571],[33.9612,-13.6055,1193.5979],[33.9646,-13.606,1164.186],[33.965,-13.6077,1175.9572],[33.96,-13.6109,1223.5369],[33.9549,-13.6208,1211.8174],[33.9478,-13.6184,1233.2284],[33.9459,-13.622,1230.9087],[33.9369,-13.6182,1251.1096],[33.9356,-13.6245,1252.27],[33.9382,-13.6373,1303.4692],[33.9365,-13.639099999999999,1316.035],[33.9416,-13.6387,1293.454],[33.9429,-13.6403,1305.0249],[33.9406,-13.6497,1328.9595],[33.9412,-13.6626,1368.561],[33.9502,-13.6738,1406.0084],[33.9583,-13.6781,1424.5358],[33.9656,-13.6873,1371.4799],[33.9678,-13.6949,1330.8152],[33.976,-13.7015,1332.8333],[33.9865,-13.7029,1297.2802],[33.9958,-13.7078,1275.201],[34.0087,-13.7114,1272.288],[34.0152,-13.7213,1273.7438],[34.0233,-13.7185,1272.2068],[34.0368,-13.7241,1236.3947],[34.0455,-13.7206,1236.8301],[34.0481,-13.7215,1240.4078],[34.051,-13.7252,1204.0018],[34.0528,-13.7357,1153.9697],[34.0573,-13.7478,1126.2737],[34.0635,-13.7522,1092.5825],[34.0626,-13.7557,1084.2764],[34.0652,-13.7642,1067.1903],[34.0727,-13.7658,1012.3134],[34.0788,-13.7728,1005.179],[34.0838,-13.7734,969.3207],[34.0865,-13.7884,992.0045]]]]}}