{"type":"Feature","properties":{"GID_3":"MWI.27.9.15_1","GID_0":"MWI","country":"Malawi","GID_1":"MWI.27_1","province":"Thyolo","NL_NAME_1":"NA","GID_2":"MWI.27.9_1","county":"TAKapichi","NL_NAME_2":"NA","city":"n.a.(2946)","VARNAME_3":"NA","NL_NAME_3":"NA","TYPE_3":"Unknown","ENGTYPE_3":"Unknown","CC_3":"NA","HASC_3":"NA","name":"n.a.(2946).city"},
"geometry":{"type": "MultiPolygon","coordinates": [[[[35.2888,-16.1603,449.2149],[35.2885,-16.1585,462.0062],[35.2839,-16.1575,485.654],[35.2823,-16.1551,515.2341],[35.2781,-16.162,552.7701],[35.2748,-16.1638,602.2698],[35.2756,-16.1663,624.2002],[35.2711,-16.1714,564.8744],[35.2648,-16.1632,598.0881],[35.2658,-16.1565,633.0873],[35.2565,-16.1575,646.9624],[35.2514,-16.1618,599.5808],[35.2476,-16.1678,623.4042],[35.2468,-16.1761,506.7101],[35.2504,-16.177,550.9434],[35.2631,-16.1884,472.7208],[35.2677,-16.1894,466.1711],[35.2745,-16.1863,449.0678],[35.2801,-16.1888,410.7919],[35.2818,-16.188,415.6027],[35.2785,-16.1861,414.9023],[35.2782,-16.1835,422.7088],[35.2839,-16.1773,448.3233],[35.287,-16.1623,469.4368],[35.2888,-16.1603,449.2149]]]]}}