{"type":"Feature","properties":{"GID_3":"MWI.9.9.1_1","GID_0":"MWI","country":"Malawi","GID_1":"MWI.9_1","province":"Kasungu","NL_NAME_1":"NA","GID_2":"MWI.9.9_1","county":"SCSimlemba","NL_NAME_2":"NA","city":"n.a.(385)","VARNAME_3":"NA","NL_NAME_3":"NA","TYPE_3":"Unknown","ENGTYPE_3":"Unknown","CC_3":"NA","HASC_3":"NA","name":"n.a.(385).city"},
"geometry":{"type": "MultiPolygon","coordinates": [[[[33.5282,-12.7425,1049.1694],[33.5337,-12.7419,1069.907],[33.5409,-12.7446,1113.6993],[33.5452,-12.7485,1118.4264],[33.5465,-12.7523,1122.438],[33.5489,-12.7533,1121.8348],[33.5533,-12.75,1110.757],[33.5595,-12.7491,1093.344],[33.5649,-12.74,1109.0404],[33.5714,-12.7342,1134.9609],[33.5719,-12.7371,1127.1257],[33.58,-12.7394,1131.5916],[33.5712,-12.7585,1080.0583],[33.571,-12.7643,1079.0305],[33.5858,-12.7575,1092.7769],[33.5951,-12.7503,1086.6533],[33.5993,-12.7496,1068.8619],[33.6113,-12.7534,1045.8113],[33.616,-12.7418,1056.6326],[33.626,-12.7455,1051.4749],[33.6372,-12.7452,1072.6243],[33.645,-12.7423,1099.76],[33.6531,-12.7354,1087.2146],[33.631,-12.709,1079.2532],[33.6254,-12.6899,1117.1642],[33.5995,-12.6625,1176.7717],[33.574,-12.6777,1192.2394],[33.5674,-12.6765,1187.4915],[33.5683,-12.6806,1199.3606],[33.5658,-12.6902,1203.73],[33.551,-12.7034,1134.7052],[33.5451,-12.714,1119.3696],[33.5456,-12.7161,1111.6278],[33.5538,-12.7191,1116.3514],[33.5544,-12.7216,1096.7695],[33.5464,-12.7303,1079.5807],[33.53,-12.7379,1064.5953],[33.5282,-12.7425,1049.1694]]]]}}