{"type": "Feature","bbox": [33.9679,-10.8465,34.0772,-10.7659],"geometry": {"type": "MultiPolygon","coordinates": [[[[33.9679,-10.8262,1798.0889],[33.978,-10.8329,1618.9852],[33.9826,-10.8332,1419.7482],[33.9876,-10.839,1190.1156],[33.9993,-10.8465,1097.5295],[34.0036,-10.8394,1109.8047],[34.0101,-10.8427,1084.0826],[34.0186,-10.8443,1065.1667],[34.0373,-10.8433,1077.6617],[34.0482,-10.8394,1265.1833],[34.0528,-10.84,1317.166],[34.0588,-10.8353,1337.8926],[34.0688,-10.8387,1257.2368],[34.073,-10.8381,1119.4137],[34.073,-10.8315,1269.4758],[34.0772,-10.8288,1174.0605],[34.0642,-10.8215,1285.2754],[34.0289,-10.7781,1256.6689],[33.9876,-10.7659,1916.3336],[33.9862,-10.7663,1894.5604],[33.986,-10.7685,1855.6763],[33.9892,-10.7829,1670.2273],[33.9777,-10.7993,1833.1381],[33.9679,-10.8262,1798.0889]]]]}
,"properties": {"GID_3": "MWI.25.6.1_1","GID_0": "MWI","country": "Malawi","GID_1": "MWI.25_1","province": "Rumphi","NL_NAME_1": "NA","GID_2": "MWI.25.6_1","county": "SCMwahenga","NL_NAME_2": "NA","city": "n.a.(119)","VARNAME_3": "NA","NL_NAME_3": "NA","TYPE_3": "Unknown","ENGTYPE_3": "Unknown","CC_3": "NA","HASC_3": "NA","name": "n.a.(119).city","area_km2": 61.72776,"hist_schema_id": "Elevation0-9000","hist_area_km2": {"1050": 0.27071,"1075": 3.62339,"1100": 5.06039,"1125": 5.99761,"1150": 4.95645,"1175": 4.87323,"1200": 4.72749,"1225": 4.68595,"1250": 3.20728,"1275": 2.7074,"1300": 2.43662,"1325": 1.66603,"1350": 1.29118,"1375": 0.85388,"1400": 0.58314,"1425": 0.60397,"1450": 0.83307,"1475": 0.68727,"1500": 0.97886,"1525": 0.6248,"1550": 0.74978,"1575": 0.79142,"1600": 1.12464,"1625": 1.10382,"1650": 1.1455,"1675": 1.04135,"1700": 1.16629,"1725": 0.9997,"1750": 0.64561,"1775": 0.49983,"1800": 0.45818,"1825": 0.58313,"1850": 0.41653,"1875": 0.16661,"1900": 0.16661}}}