{"type": "Feature","bbox": [35.6918,-15.6433,35.7294,-15.589],"geometry": {"type": "MultiPolygon","coordinates": [[[[35.6974,-15.608,638.8651],[35.6954,-15.6111,640.3766],[35.6918,-15.6259,649.5947],[35.6936,-15.6307,654.1028],[35.694,-15.6402,660.5988],[35.6969,-15.6433,663.8773],[35.7078,-15.6424,653.131],[35.709,-15.6402,652.3777],[35.725,-15.6416,647.0529],[35.7235,-15.6372,644.8199],[35.725,-15.6322,643.1856],[35.7234,-15.6265,641.8337],[35.7294,-15.6206,638.9778],[35.7277,-15.6123,632.5613],[35.7288,-15.6087,632.8492],[35.7247,-15.6031,631.4091],[35.7201,-15.6029,630.8427],[35.7157,-15.5942,634.8672],[35.7077,-15.589,631.2296],[35.7074,-15.5929,629.6598],[35.7038,-15.5959,631.0532],[35.6953,-15.596,632.0311],[35.6945,-15.6015,636.2978],[35.6974,-15.608,638.8651]]]]}
,"properties": {"GID_3": "MWI.24.2.13_1","GID_0": "MWI","country": "Malawi","GID_1": "MWI.24_1","province": "Phalombe","NL_NAME_1": "NA","GID_2": "MWI.24.2_1","county": "TAMkhumba","NL_NAME_2": "NA","city": "n.a.(2352)","VARNAME_3": "NA","NL_NAME_3": "NA","TYPE_3": "Unknown","ENGTYPE_3": "Unknown","CC_3": "NA","HASC_3": "NA","name": "n.a.(2352).city","area_km2": 17.17264,"hist_schema_id": "Elevation0-9000","hist_area_km2": {"625": 6.35083,"650": 10.69931,"675": 0.12251}}}