{"type": "Feature","bbox": [35.3468,-15.239,35.4062,-15.217],"geometry": {"type": "MultiPolygon","coordinates": [[[[35.3468,-15.2197,838.2422],[35.3515,-15.2225,783.8019],[35.3497,-15.2269,827.634],[35.356,-15.2291,797.4723],[35.3606,-15.239,828.7592],[35.374,-15.2356,754.6085],[35.3723,-15.2337,765.7682],[35.3753,-15.2324,753.0653],[35.3858,-15.2326,733.3828],[35.391,-15.2305,725.8093],[35.3936,-15.2309,720.8857],[35.4062,-15.2242,704.8757],[35.3957,-15.2207,713.8801],[35.3923,-15.2175,726.9516],[35.385,-15.2173,730.1901],[35.3811,-15.219,731.2292],[35.3785,-15.2178,735.9366],[35.3739,-15.22,732.7787],[35.3686,-15.2181,746.1412],[35.3554,-15.217,766.1069],[35.3498,-15.2175,780.1613],[35.3468,-15.2197,838.2422]]]]}
,"properties": {"GID_3": "MWI.28.6.5_1","GID_0": "MWI","country": "Malawi","GID_1": "MWI.28_1","province": "Zomba","NL_NAME_1": "NA","GID_2": "MWI.28.6_1","county": "TAMalemia","NL_NAME_2": "NA","city": "n.a.(2067)","VARNAME_3": "NA","NL_NAME_3": "NA","TYPE_3": "Unknown","ENGTYPE_3": "Unknown","CC_3": "NA","HASC_3": "NA","name": "n.a.(2067).city","area_km2": 8.981052,"hist_schema_id": "Elevation0-9000","hist_area_km2": {"700": 0.470536,"725": 3.068719,"750": 2.311766,"775": 2.045781,"800": 0.900135,"825": 0.184115}}}