{"type": "Feature","bbox": [33.8556,-9.9386,33.8878,-9.9032],"geometry": {"type": "MultiPolygon","coordinates": [[[[33.8855,-9.9285,495.4972],[33.8878,-9.9175,492.7685],[33.8851,-9.9142,492.725],[33.8854,-9.9036,490.5095],[33.8816,-9.9032,491.6615],[33.8727,-9.906,494.1389],[33.8741,-9.9101,495.5559],[33.8685,-9.9188,498.0685],[33.8645,-9.9207,499.4908],[33.8592,-9.9205,500.8291],[33.8556,-9.9353,502.1579],[33.8586,-9.9341,503.9529],[33.8589,-9.9386,500.0808],[33.8617,-9.9381,499.5936],[33.8646,-9.9342,501.7683],[33.8673,-9.9373,498.8321],[33.8731,-9.9306,496.9334],[33.8794,-9.933,495.3453],[33.8831,-9.9289,494.8935],[33.8855,-9.9285,495.4972]]]]}
,"properties": {"GID_3": "MWI.8.7.8_1","GID_0": "MWI","country": "Malawi","GID_1": "MWI.8_1","province": "Karonga","NL_NAME_1": "NA","GID_2": "MWI.8.7_1","county": "TAKyungu","NL_NAME_2": "NA","city": "n.a.(61)","VARNAME_3": "NA","NL_NAME_3": "NA","TYPE_3": "Unknown","ENGTYPE_3": "Unknown","CC_3": "NA","HASC_3": "NA","name": "n.a.(61).city","area_km2": 7.497753,"hist_schema_id": "Elevation0-9000","hist_area_km2": {"500": 7.497753}}}