{"type":"Feature","properties":{"GID_3":"MWI.2.9.18_1","GID_0":"MWI","country":"Malawi","GID_1":"MWI.2_1","province":"Blantyre","NL_NAME_1":"NA","GID_2":"MWI.2.9_1","county":"TASomba","NL_NAME_2":"NA","city":"n.a.(2678)","VARNAME_3":"NA","NL_NAME_3":"NA","TYPE_3":"Unknown","ENGTYPE_3":"Unknown","CC_3":"NA","HASC_3":"NA","name":"n.a.(2678).city"},
"geometry":{"type": "MultiPolygon","coordinates": [[[[34.8612,-15.932,283.0439],[34.8585,-15.936,270.4153],[34.8553,-15.9475,256.6714],[34.846,-15.9589,258.0078],[34.8462,-15.9644,218.8529],[34.85,-15.971,188.2827],[34.8666,-15.9611,353.5681],[34.8803,-15.9592,347.8496],[34.8893,-15.9669,378.7133],[34.8914,-15.9799,477.8473],[34.9158,-15.9613,543.4074],[34.9212,-15.9549,558.6882],[34.9172,-15.9525,469.476],[34.9139,-15.9447,450.9748],[34.917,-15.9413,553.5859],[34.9208,-15.941,641.2645],[34.9198,-15.9348,675.6237],[34.9172,-15.9323,670.304],[34.9107,-15.9315,542.4881],[34.9045,-15.934,391.791],[34.8961,-15.9236,390.5267],[34.8945,-15.9184,407.9611],[34.8912,-15.9166,407.2277],[34.885,-15.9265,344.2372],[34.8772,-15.9295,327.5584],[34.8711,-15.9348,298.4636],[34.864,-15.9364,269.2476],[34.8612,-15.932,283.0439]]]]}}