{"type": "Feature","bbox": [34.7638,-15.0462,34.8406,-14.9734],"geometry": {"type": "MultiPolygon","coordinates": [[[[34.8308,-14.9734,705.5797],[34.8104,-14.9809,776.9771],[34.8027,-14.9924,766.6157],[34.7914,-14.9907,785.3737],[34.7862,-14.993,838.4854],[34.7846,-14.9979,819.4173],[34.7754,-14.9963,833.2861],[34.7782,-14.9997,822.642],[34.778,-15.0061,846.1894],[34.7692,-15.0129,854.1252],[34.7638,-15.0329,842.4094],[34.7676,-15.0426,812.7541],[34.7783,-15.0462,791.9521],[34.785,-15.0427,815.0096],[34.7896,-15.0335,845.3995],[34.8052,-15.03,763.0369],[34.8042,-15.0266,767.2667],[34.7938,-15.0215,821.6962],[34.7968,-15.0164,804.8636],[34.7976,-15.0094,787.96],[34.8008,-15.0039,778.9889],[34.8106,-15.0031,757.1858],[34.8142,-15.005,736.1106],[34.8138,-14.9972,734.7076],[34.822,-14.9915,726.1667],[34.8237,-14.9876,728.307],[34.8285,-14.9876,723.4993],[34.8328,-14.984,716.4247],[34.8354,-14.9863,718.1108],[34.8399,-14.9853,705.7828],[34.8406,-14.983,708.201],[34.8308,-14.9734,705.5797]]]]}
,"properties": {"GID_3": "MWI.22.10.4_1","GID_0": "MWI","country": "Malawi","GID_1": "MWI.22_1","province": "Ntcheu","NL_NAME_1": "NA","GID_2": "MWI.22.10_1","county": "TAPhambala","NL_NAME_2": "NA","city": "n.a.(1952)","VARNAME_3": "NA","NL_NAME_3": "NA","TYPE_3": "Unknown","ENGTYPE_3": "Unknown","CC_3": "NA","HASC_3": "NA","name": "n.a.(1952).city","area_km2": 22.52666,"hist_schema_id": "Elevation0-9000","hist_area_km2": {"700": 0.53252,"725": 2.70353,"750": 1.53603,"775": 2.27325,"800": 3.50187,"825": 4.97615,"850": 3.91122,"875": 1.98632,"900": 0.73718,"925": 0.36858}}}