{"type":"Feature","properties":{"GID_3":"MWI.13.12.1_1","GID_0":"MWI","country":"Malawi","GID_1":"MWI.13_1","province":"Mangochi","NL_NAME_1":"NA","GID_2":"MWI.13.12_1","county":"TAMponda","NL_NAME_2":"NA","city":"n.a.(1447)","VARNAME_3":"NA","NL_NAME_3":"NA","TYPE_3":"Unknown","ENGTYPE_3":"Unknown","CC_3":"NA","HASC_3":"NA","name":"n.a.(1447).city"},
"geometry":{"type": "MultiPolygon","coordinates": [[[[35.1098,-14.2873,479.4025],[35.075,-14.3148,523.3171],[35.0776,-14.3301,551.9686],[35.0817,-14.3293,539.1637],[35.1048,-14.3138,494.7944],[35.1118,-14.3052,485.6706],[35.1147,-14.3038,481.9153],[35.1149,-14.2971,474.5],[35.1115,-14.2948,475.1013],[35.1098,-14.2873,479.4025]]]]}}