{"type": "Feature","bbox": [35.3518,-15.8155,35.4109,-15.7546],"geometry": {"type": "MultiPolygon","coordinates": [[[[35.3972,-15.7546,728.5995],[35.3926,-15.7592,730.0936],[35.3778,-15.7665,734.6448],[35.3714,-15.7659,738.7432],[35.362,-15.7677,742.8268],[35.3518,-15.7668,748.2462],[35.3553,-15.7744,743.9274],[35.3552,-15.7798,740.6529],[35.3589,-15.7863,737.9534],[35.3528,-15.7919,738.8353],[35.355,-15.7967,735.9892],[35.3611,-15.7991,730.4141],[35.3659,-15.7954,729.8769],[35.3714,-15.7982,726.4067],[35.3761,-15.8072,723.0797],[35.3745,-15.8131,717.4927],[35.382,-15.8155,717.5808],[35.4005,-15.807,712.2766],[35.3988,-15.8059,713.5571],[35.3992,-15.8031,714.0331],[35.4109,-15.7617,720.8176],[35.3972,-15.7546,728.5995]]]]}
,"properties": {"GID_3": "MWI.15.3.14_1","GID_0": "MWI","country": "Malawi","GID_1": "MWI.15_1","province": "Mulanje","NL_NAME_1": "NA","GID_2": "MWI.15.3_1","county": "SCJuma","NL_NAME_2": "NA","city": "n.a.(2521)","VARNAME_3": "NA","NL_NAME_3": "NA","TYPE_3": "Unknown","ENGTYPE_3": "Unknown","CC_3": "NA","HASC_3": "NA","name": "n.a.(2521).city","area_km2": 25.31985,"hist_schema_id": "Elevation0-9000","hist_area_km2": {"725": 22.34092,"750": 2.97893}}}