{"type": "Feature","bbox": [33.4588,-14.0068,33.5231,-13.9316],"geometry": {"type": "MultiPolygon","coordinates": [[[[33.5168,-13.9316,1165.707],[33.5057,-13.9415,1171.3422],[33.489,-13.9479,1180.2252],[33.4763,-13.9608,1189.1432],[33.4615,-13.9653,1205.1609],[33.4588,-13.9674,1209.4712],[33.4674,-13.9746,1207.978],[33.4749,-13.9725,1194.8796],[33.4781,-13.9802,1186.3436],[33.4833,-13.9816,1183.1399],[33.4856,-13.9866,1189.1958],[33.4895,-13.9866,1199.5481],[33.4868,-13.9951,1204.4585],[33.4915,-13.9947,1200.3608],[33.5056,-14.0068,1189.3153],[33.5117,-14.0023,1185.6074],[33.5095,-13.9947,1194.7792],[33.5231,-13.9715,1171.8876],[33.523,-13.9683,1176.3075],[33.5198,-13.9632,1170.0225],[33.523,-13.956,1157.8042],[33.5209,-13.9522,1154.4712],[33.5205,-13.9435,1164.5869],[33.5168,-13.9316,1165.707]]]]}
,"properties": {"GID_3": "MWI.11.11.12_1","GID_0": "MWI","country": "Malawi","GID_1": "MWI.11_1","province": "Lilongwe","NL_NAME_1": "NA","GID_2": "MWI.11.11_1","county": "TAKalolo","NL_NAME_2": "NA","city": "n.a.(1084)","VARNAME_3": "NA","NL_NAME_3": "NA","TYPE_3": "Unknown","ENGTYPE_3": "Unknown","CC_3": "NA","HASC_3": "NA","name": "n.a.(1084).city","area_km2": 27.30329,"hist_schema_id": "Elevation0-9000","hist_area_km2": {"1150": 1.19344,"1175": 14.95856,"1200": 10.92497,"1225": 0.22633}}}