{"type":"Feature","properties":{"GID_3":"MWI.14.6.9_1","GID_0":"MWI","country":"Malawi","GID_1":"MWI.14_1","province":"Mchinji","NL_NAME_1":"NA","GID_2":"MWI.14.6_1","county":"TAMlonyeni","NL_NAME_2":"NA","city":"n.a.(988)","VARNAME_3":"NA","NL_NAME_3":"NA","TYPE_3":"Unknown","ENGTYPE_3":"Unknown","CC_3":"NA","HASC_3":"NA","name":"n.a.(988).city"},
"geometry":{"type": "MultiPolygon","coordinates": [[[[33.0413,-13.8616,1082.86],[33.0397,-13.8585,1084.463],[33.0406,-13.8547,1086.6814],[33.0395,-13.8516,1089.3545],[33.0352,-13.8479,1094.9196],[33.0323,-13.8427,1100.1606],[33.0284,-13.8415,1096.7018],[33.0241,-13.834,1099.7498],[33.0206,-13.8327,1102.9075],[33.0088,-13.8338,1106.51],[32.9971,-13.8276,1109.767],[32.993,-13.8327,1111.0209],[32.9819,-13.8386,1131.6134],[32.9781,-13.8483,1145.5658],[32.9664,-13.8511,1159.323],[32.9602,-13.8542,1245.9398],[32.9446,-13.8504,1164.0948],[32.9358,-13.8555,1287.7441],[32.9246,-13.853,1198.9695],[32.9195,-13.8541,1181.8644],[32.926,-13.8623,1219.2711],[32.9412,-13.8741,1210.2786],[32.9509,-13.8846,1172.0291],[32.9603,-13.8778,1221.826],[32.9662,-13.8759,1180.7302],[32.969,-13.8712,1158.4958],[32.9675,-13.8672,1166.4268],[32.9795,-13.8657,1137.926],[32.993,-13.8599,1127.9518],[33.0055,-13.8574,1114.4778],[33.0105,-13.8622,1109.5964],[33.0099,-13.8699,1097.1282],[33.0238,-13.8637,1116.5826],[33.0321,-13.8616,1099.2876],[33.0413,-13.8616,1082.86]]]]}}