{"type":"Feature","properties":{"GID_3":"MWI.4.4.5_1","GID_0":"MWI","country":"Malawi","GID_1":"MWI.4_1","province":"Chiradzulu","NL_NAME_1":"NA","GID_2":"MWI.4.4_1","county":"TALikoswe","NL_NAME_2":"NA","city":"n.a.(2526)","VARNAME_3":"NA","NL_NAME_3":"NA","TYPE_3":"Unknown","ENGTYPE_3":"Unknown","CC_3":"NA","HASC_3":"NA","name":"n.a.(2526).city"},
"geometry":{"type": "MultiPolygon","coordinates": [[[[35.152,-15.7978,989.4189],[35.151,-15.8042,949.6798],[35.1536,-15.8047,942.0234],[35.1537,-15.8072,938.8938],[35.1561,-15.8087,932.7211],[35.1654,-15.8122,912.5997],[35.1678,-15.8157,904.2065],[35.1718,-15.8064,947.5178],[35.1709,-15.8028,956.4759],[35.1778,-15.7916,997.5262],[35.1789,-15.7857,985.0183],[35.1829,-15.7819,996.1501],[35.1874,-15.7636,946.5299],[35.1811,-15.76,923.1451],[35.1805,-15.7689,930.8224],[35.1778,-15.7738,948.272],[35.1672,-15.7818,1006.9417],[35.163,-15.787,1087.0658],[35.1665,-15.7924,967.2724],[35.1638,-15.8006,935.2799],[35.152,-15.7978,989.4189]]]]}}