{"type":"Feature","properties":{"GID_3":"MWI.21.7.4_1","GID_0":"MWI","country":"Malawi","GID_1":"MWI.21_1","province":"Nsanje","NL_NAME_1":"NA","GID_2":"MWI.21.7_1","county":"TAMlolo","NL_NAME_2":"NA","city":"n.a.(3029)","VARNAME_3":"NA","NL_NAME_3":"NA","TYPE_3":"Unknown","ENGTYPE_3":"Unknown","CC_3":"NA","HASC_3":"NA","name":"n.a.(3029).city"},
"geometry":{"type": "MultiPolygon","coordinates": [[[[35.0843,-16.3855,51.4519],[35.0866,-16.3877,52.2818],[35.1135,-16.3822,50.3403],[35.1208,-16.3791,55.7107],[35.129,-16.371,103.6841],[35.1259,-16.367,84.5578],[35.121,-16.3643,83.3318],[35.1156,-16.3555,87.1385],[35.1004,-16.3393,94.1055],[35.0955,-16.3435,76.6124],[35.0956,-16.3491,67.1743],[35.0843,-16.3855,51.4519]]]]}}