{"type":"Feature","properties":{"GID_3":"MWI.13.9.10_1","GID_0":"MWI","country":"Malawi","GID_1":"MWI.13_1","province":"Mangochi","NL_NAME_1":"NA","GID_2":"MWI.13.9_1","county":"TAJalasi","NL_NAME_2":"NA","city":"n.a.(1492)","VARNAME_3":"NA","NL_NAME_3":"NA","TYPE_3":"Unknown","ENGTYPE_3":"Unknown","CC_3":"NA","HASC_3":"NA","name":"n.a.(1492).city"},
"geometry":{"type": "MultiPolygon","coordinates": [[[[35.5572,-14.3492,858.6948],[35.559,-14.3586,880.3946],[35.5566,-14.3608,897.5566],[35.5568,-14.3653,882.2417],[35.5508,-14.3721,871.142],[35.5803,-14.37,842.2827],[35.5837,-14.3683,848.629],[35.5823,-14.3639,842.2947],[35.5834,-14.3625,846.5991],[35.6011,-14.3573,809.2021],[35.5776,-14.3315,821.3134],[35.5609,-14.3376,851.2031],[35.5573,-14.3425,852.3671],[35.5572,-14.3492,858.6948]]]]}}