{"type": "Feature","bbox": [35.0807,-13.8597,35.1236,-13.8104],"geometry": {"type": "MultiPolygon","coordinates": [[[[35.1089,-13.8594,476.8872],[35.1168,-13.8597,501.066],[35.1236,-13.8549,545.3895],[35.1222,-13.8459,527.1202],[35.1131,-13.828,517.4706],[35.1092,-13.8139,531.7067],[35.0983,-13.8195,494.9113],[35.0892,-13.8159,475.6997],[35.085,-13.8104,476.0],[35.0832,-13.8108,475.6025],[35.0807,-13.8124,474.5],[35.0844,-13.828,474.5],[35.0906,-13.8382,474.5],[35.1009,-13.8437,474.5],[35.1036,-13.8527,474.5],[35.1089,-13.8594,476.8872]]]]}
,"properties": {"GID_3": "MWI.13.11.20_1","GID_0": "MWI","country": "Malawi","GID_1": "MWI.13_1","province": "Mangochi","NL_NAME_1": "NA","GID_2": "MWI.13.11_1","county": "TAMakanjila","NL_NAME_2": "NA","city": "n.a.(972)","VARNAME_3": "NA","NL_NAME_3": "NA","TYPE_3": "Unknown","ENGTYPE_3": "Unknown","CC_3": "NA","HASC_3": "NA","name": "n.a.(972).city","area_km2": 12.64048,"hist_schema_id": "Elevation0-9000","hist_area_km2": {"475": 6.258542,"500": 3.520337,"525": 2.367501,"550": 0.4941}}}