{"type": "Feature","bbox": [33.8458,-13.884,33.8854,-13.8347],"geometry": {"type": "MultiPolygon","coordinates": [[[[33.8492,-13.8802,1088.9121],[33.8651,-13.8757,1103.4244],[33.8728,-13.8795,1071.037],[33.8755,-13.884,1060.5861],[33.8835,-13.8823,1054.4827],[33.8854,-13.8758,1051.3636],[33.8854,-13.8623,1072.3042],[33.8815,-13.8589,1093.9944],[33.8764,-13.8584,1128.0233],[33.8738,-13.8563,1132.7617],[33.8721,-13.8529,1153.1855],[33.8736,-13.8479,1178.7778],[33.8725,-13.8428,1199.5856],[33.8622,-13.8347,1226.3145],[33.8598,-13.8384,1217.1716],[33.8535,-13.8423,1208.1831],[33.8518,-13.8463,1185.5122],[33.853,-13.8579,1122.0629],[33.8571,-13.8627,1124.0786],[33.8544,-13.8652,1111.0697],[33.8569,-13.8715,1091.2986],[33.8458,-13.8719,1142.6045],[33.8487,-13.8751,1120.2936],[33.8492,-13.8802,1088.9121]]]]}
,"properties": {"GID_3": "MWI.11.7.25_1","GID_0": "MWI","country": "Malawi","GID_1": "MWI.11_1","province": "Lilongwe","NL_NAME_1": "NA","GID_2": "MWI.11.7_1","county": "TAChimutu","NL_NAME_2": "NA","city": "n.a.(996)","VARNAME_3": "NA","NL_NAME_3": "NA","TYPE_3": "Unknown","ENGTYPE_3": "Unknown","CC_3": "NA","HASC_3": "NA","name": "n.a.(996).city","area_km2": 12.824275,"hist_schema_id": "Elevation0-9000","hist_area_km2": {"1050": 0.452835,"1075": 2.2642,"1100": 2.470072,"1125": 1.955527,"1150": 1.173341,"1175": 1.996778,"1200": 1.893922,"1225": 0.6176}}}