{"type": "Feature","bbox": [34.9192,-15.594,34.9766,-15.5435],"geometry": {"type": "MultiPolygon","coordinates": [[[[34.9219,-15.5435,496.5349],[34.9217,-15.5509,504.2476],[34.9192,-15.557,518.0529],[34.9259,-15.564,542.4014],[34.9312,-15.5663,564.9878],[34.9343,-15.5658,575.8324],[34.9258,-15.5704,548.2782],[34.9283,-15.5768,580.5138],[34.9293,-15.594,641.8531],[34.9355,-15.586,635.6096],[34.9419,-15.5828,613.9008],[34.963,-15.5913,631.066],[34.9696,-15.5904,620.532],[34.9755,-15.5933,625.217],[34.9766,-15.5868,614.6785],[34.9716,-15.5824,591.142],[34.9713,-15.5788,600.4352],[34.9686,-15.578,585.4495],[34.9668,-15.5717,582.5349],[34.9641,-15.5693,579.7983],[34.9641,-15.5649,573.5958],[34.9616,-15.5646,585.2769],[34.9619,-15.562,571.4634],[34.9509,-15.5551,548.8702],[34.9484,-15.5477,546.5548],[34.9467,-15.5483,540.0009],[34.946,-15.5517,535.6633],[34.9396,-15.5525,535.8019],[34.9347,-15.5467,516.138],[34.9219,-15.5435,496.5349]]]]}
,"properties": {"GID_3": "MWI.2.4.4_1","GID_0": "MWI","country": "Malawi","GID_1": "MWI.2_1","province": "Blantyre","NL_NAME_1": "NA","GID_2": "MWI.2.4_1","county": "TAKuntaja","NL_NAME_2": "NA","city": "n.a.(2304)","VARNAME_3": "NA","NL_NAME_3": "NA","TYPE_3": "Unknown","ENGTYPE_3": "Unknown","CC_3": "NA","HASC_3": "NA","name": "n.a.(2304).city","area_km2": 18.05497,"hist_schema_id": "Elevation0-9000","hist_area_km2": {"500": 0.75578,"525": 1.75662,"550": 2.87996,"575": 4.04404,"600": 6.10659,"625": 2.49156,"650": 0.02042}}}