{"type":"Feature","properties":{"GID_3":"MWI.9.5.4_1","GID_0":"MWI","country":"Malawi","GID_1":"MWI.9_1","province":"Kasungu","NL_NAME_1":"NA","GID_2":"MWI.9.5_1","county":"SCKawamba","NL_NAME_2":"NA","city":"n.a.(525)","VARNAME_3":"NA","NL_NAME_3":"NA","TYPE_3":"Unknown","ENGTYPE_3":"Unknown","CC_3":"NA","HASC_3":"NA","name":"n.a.(525).city"},
"geometry":{"type": "MultiPolygon","coordinates": [[[[33.1794,-13.2173,1062.6198],[33.1794,-13.22,1058.0598],[33.1914,-13.2436,1056.1294],[33.1969,-13.2499,1055.5906],[33.2087,-13.2576,1053.3264],[33.192,-13.2662,1064.1699],[33.1782,-13.2755,1057.8219],[33.1902,-13.2879,1051.8972],[33.2007,-13.2853,1065.9949],[33.2084,-13.2883,1070.2904],[33.2115,-13.2829,1069.2604],[33.2208,-13.2803,1054.9849],[33.2327,-13.2743,1046.3895],[33.2389,-13.276,1046.2317],[33.2659,-13.2893,1042.5361],[33.2679,-13.2894,1042.0189],[33.2723,-13.2856,1041.8448],[33.2695,-13.2796,1042.3977],[33.2699,-13.2752,1044.2611],[33.285,-13.2533,1070.6343],[33.2685,-13.245,1062.532],[33.2613,-13.248,1058.2137],[33.259,-13.2507,1053.8859],[33.2557,-13.2467,1053.5098],[33.2412,-13.2389,1063.9873],[33.2348,-13.2374,1065.7493],[33.2329,-13.2322,1066.2433],[33.2239,-13.2254,1074.1387],[33.2214,-13.2191,1077.9933],[33.2193,-13.2087,1086.0723],[33.2224,-13.1929,1072.2953],[33.1937,-13.2124,1090.8961],[33.1794,-13.2173,1062.6198]]]]}}