{"type":"Feature","properties":{"GID_3":"MWI.11.8.17_1","GID_0":"MWI","country":"Malawi","GID_1":"MWI.11_1","province":"Lilongwe","NL_NAME_1":"NA","GID_2":"MWI.11.8_1","county":"TAChiseka","NL_NAME_2":"NA","city":"n.a.(1292)","VARNAME_3":"NA","NL_NAME_3":"NA","TYPE_3":"Unknown","ENGTYPE_3":"Unknown","CC_3":"NA","HASC_3":"NA","name":"n.a.(1292).city"},
"geometry":{"type": "MultiPolygon","coordinates": [[[[33.525,-14.1386,1132.2234],[33.5203,-14.1476,1135.5354],[33.5079,-14.1584,1146.1432],[33.4938,-14.1564,1169.3008],[33.4905,-14.1524,1160.991],[33.4846,-14.149,1152.907],[33.4759,-14.1776,1185.5834],[33.4727,-14.1806,1192.6466],[33.484,-14.1851,1197.8638],[33.4786,-14.1896,1183.1273],[33.4792,-14.1961,1177.3693],[33.4963,-14.1867,1187.2019],[33.4981,-14.1819,1179.2587],[33.5028,-14.1784,1173.7429],[33.5231,-14.1718,1164.5547],[33.5308,-14.1666,1167.7308],[33.5377,-14.1666,1165.8481],[33.5358,-14.1551,1148.6238],[33.5284,-14.1494,1145.5374],[33.5281,-14.14,1129.5675],[33.525,-14.1386,1132.2234]]]]}}