{"type": "Feature","bbox": [33.9926,-13.6604,34.043,-13.607],"geometry": {"type": "MultiPolygon","coordinates": [[[[33.9967,-13.6239,1227.7677],[33.9975,-13.6329,1250.6055],[33.9926,-13.6368,1251.6969],[34.0074,-13.6395,1151.8582],[34.01,-13.6382,1128.6216],[34.0108,-13.6396,1133.9202],[34.01,-13.6454,1152.2882],[34.0054,-13.6477,1232.5367],[34.0043,-13.6512,1213.2864],[34.0016,-13.6519,1209.8167],[34.0048,-13.6534,1195.3994],[34.0089,-13.6592,1296.613],[34.0142,-13.6589,1244.9155],[34.0208,-13.655,1286.1436],[34.0332,-13.6604,1209.6616],[34.0423,-13.6547,1095.2284],[34.043,-13.6503,1086.4509],[34.0357,-13.6407,1043.9562],[34.033,-13.6337,1032.417],[34.0345,-13.6242,1006.7374],[34.0324,-13.6188,985.6249],[34.0354,-13.6124,993.3417],[34.0322,-13.6135,975.7323],[34.0302,-13.6082,1002.914],[34.0271,-13.607,998.4504],[34.014,-13.622,1179.8074],[34.0022,-13.6214,1227.7607],[33.9967,-13.6239,1227.7677]]]]}
,"properties": {"GID_3": "MWI.7.7.4_1","GID_0": "MWI","country": "Malawi","GID_1": "MWI.7_1","province": "Dowa","NL_NAME_1": "NA","GID_2": "MWI.7.7_1","county": "TAChiwere","NL_NAME_2": "NA","city": "n.a.(763)","VARNAME_3": "NA","NL_NAME_3": "NA","TYPE_3": "Unknown","ENGTYPE_3": "Unknown","CC_3": "NA","HASC_3": "NA","name": "n.a.(763).city","area_km2": 17.18416,"hist_schema_id": "Elevation0-9000","hist_area_km2": {"975": 0.18546,"1000": 1.19516,"1025": 0.94786,"1050": 0.90662,"1075": 1.77198,"1100": 1.62774,"1125": 1.60714,"1150": 1.27747,"1175": 1.52473,"1200": 1.4629,"1225": 1.73073,"1250": 1.66893,"1275": 0.90657,"1300": 0.32967,"1325": 0.04121}}}