{"type":"Feature","properties":{"GID_3":"MWI.19.6.3_1","GID_0":"MWI","country":"Malawi","GID_1":"MWI.19_1","province":"NkhataBay","NL_NAME_1":"NA","GID_2":"MWI.19.6_1","county":"TAFukamapiri","NL_NAME_2":"NA","city":"n.a.(288)","VARNAME_3":"NA","NL_NAME_3":"NA","TYPE_3":"Unknown","ENGTYPE_3":"Unknown","CC_3":"NA","HASC_3":"NA","name":"n.a.(288).city"},
"geometry":{"type": "MultiPolygon","coordinates": [[[[34.1229,-11.948,480.441],[34.1197,-11.9455,482.9842],[34.1184,-11.9385,496.0475],[34.1127,-11.937,500.6891],[34.1122,-11.9316,513.3914],[34.0967,-11.9369,516.514],[34.0943,-11.9418,509.2781],[34.0963,-11.9512,485.3069],[34.0876,-11.9584,483.3503],[34.0844,-11.9567,481.4792],[34.0799,-11.958,483.4222],[34.0779,-11.9558,491.049],[34.0742,-11.9589,486.5669],[34.0705,-11.9698,501.0869],[34.0613,-11.9757,489.5991],[34.0588,-11.9854,486.3943],[34.0521,-11.9946,484.1046],[34.0535,-11.9943,484.4805],[34.0559,-11.9981,480.4833],[34.0588,-11.9976,480.21],[34.0598,-12.0013,478.24],[34.0627,-12.0022,477.9706],[34.0749,-11.9913,482.5844],[34.0775,-11.9835,485.3603],[34.0765,-11.9791,490.6274],[34.0805,-11.9748,479.6129],[34.0958,-11.963,478.7469],[34.1229,-11.948,480.441]]]]}}