{"type": "Feature","bbox": [33.5435,-11.0746,33.667,-10.9543],"geometry": {"type": "MultiPolygon","coordinates": [[[[33.631,-10.9543,1417.5927],[33.6143,-10.9568,1302.8645],[33.6118,-10.9629,1279.3679],[33.6207,-10.9667,1264.9294],[33.6238,-10.97,1287.01],[33.609,-10.9743,1262.2251],[33.5997,-10.9754,1249.793],[33.596,-10.9857,1243.4458],[33.5943,-10.9838,1237.458],[33.588,-10.9835,1227.5962],[33.5803,-10.99,1217.3531],[33.5778,-10.9836,1223.369],[33.5742,-10.9834,1342.7434],[33.5724,-10.9849,1327.325],[33.5661,-10.9774,1257.4949],[33.5516,-10.9767,1242.9844],[33.5435,-11.0014,1252.9042],[33.5618,-11.0405,1328.7743],[33.6079,-11.0721,1150.7367],[33.6153,-11.0746,1143.187],[33.6224,-11.0733,1140.4182],[33.6193,-11.0697,1143.1716],[33.6072,-11.0665,1151.2085],[33.5895,-11.0554,1168.1948],[33.5808,-11.042,1180.2791],[33.5946,-11.0318,1251.4308],[33.6004,-11.0325,1197.7002],[33.6078,-11.0285,1214.2546],[33.6149,-11.0357,1181.3193],[33.6174,-11.0334,1191.6931],[33.6256,-11.0348,1218.4717],[33.6324,-11.0333,1289.3214],[33.6339,-11.0291,1271.6887],[33.6326,-11.0224,1282.8651],[33.6372,-11.0162,1238.422],[33.6358,-11.009,1290.2539],[33.6394,-11.0031,1245.611],[33.6391,-10.9979,1381.7206],[33.6419,-10.9955,1317.22],[33.6442,-10.9895,1200.4521],[33.656,-10.9886,1185.4106],[33.6643,-10.9903,1204.8112],[33.667,-10.9874,1310.78],[33.6627,-10.9875,1192.0941],[33.6601,-10.9779,1315.3481],[33.6503,-10.979,1300.0638],[33.6454,-10.9748,1256.6426],[33.6408,-10.9662,1264.5815],[33.6297,-10.9634,1269.2922],[33.631,-10.9543,1417.5927]]]]}
,"properties": {"GID_3": "MWI.25.9.12_1","GID_0": "MWI","country": "Malawi","GID_1": "MWI.25_1","province": "Rumphi","NL_NAME_1": "NA","GID_2": "MWI.25.9_1","county": "TAChikulamayembe","NL_NAME_2": "NA","city": "n.a.(141)","VARNAME_3": "NA","NL_NAME_3": "NA","TYPE_3": "Unknown","ENGTYPE_3": "Unknown","CC_3": "NA","HASC_3": "NA","name": "n.a.(141).city","area_km2": 73.07198,"hist_schema_id": "Elevation0-9000","hist_area_km2": {"1150": 1.58139,"1175": 3.64168,"1200": 10.44739,"1225": 15.15154,"1250": 10.5107,"1275": 7.32618,"1300": 6.20212,"1325": 5.07828,"1350": 3.87111,"1375": 3.60056,"1400": 2.95534,"1425": 1.51931,"1450": 0.68684,"1475": 0.33301,"1500": 0.1457,"1525": 0.02082}}}