{"type":"Feature","properties":{"GID_3":"MWI.11.13.4_1","GID_0":"MWI","country":"Malawi","GID_1":"MWI.11_1","province":"Lilongwe","NL_NAME_1":"NA","GID_2":"MWI.11.13_1","county":"TAKalumbu","NL_NAME_2":"NA","city":"n.a.(1234)","VARNAME_3":"NA","NL_NAME_3":"NA","TYPE_3":"Unknown","ENGTYPE_3":"Unknown","CC_3":"NA","HASC_3":"NA","name":"n.a.(1234).city"},
"geometry":{"type": "MultiPolygon","coordinates": [[[[33.9158,-14.0885,1068.5601],[33.9162,-14.0924,1091.8123],[33.9126,-14.1094,1085.7786],[33.9144,-14.1139,1078.8452],[33.9131,-14.1179,1087.2859],[33.9161,-14.1211,1087.6128],[33.9235,-14.1245,1127.8252],[33.9244,-14.1283,1231.7444],[33.9231,-14.1389,1181.1161],[33.9386,-14.138,1211.2544],[33.9397,-14.1362,1210.2606],[33.9389,-14.1322,1182.5762],[33.9427,-14.1299,1187.2496],[33.942,-14.124,1176.5293],[33.9471,-14.1244,1187.9951],[33.9503,-14.1161,1176.0237],[33.9464,-14.1159,1177.6704],[33.9379,-14.1194,1150.7401],[33.9331,-14.1172,1131.4304],[33.9287,-14.107,1106.1864],[33.9286,-14.0977,1090.2148],[33.9219,-14.0892,1085.1743],[33.918,-14.0874,1070.5414],[33.9158,-14.0885,1068.5601]]]]}}