{"type":"Feature","properties":{"GID_3":"MWI.3.6.3_1","GID_0":"MWI","country":"Malawi","GID_1":"MWI.3_1","province":"Chikwawa","NL_NAME_1":"NA","GID_2":"MWI.3.6_1","county":"TAKasisi","NL_NAME_2":"NA","city":"n.a.(2666)","VARNAME_3":"NA","NL_NAME_3":"NA","TYPE_3":"Unknown","ENGTYPE_3":"Unknown","CC_3":"NA","HASC_3":"NA","name":"n.a.(2666).city"},
"geometry":{"type": "MultiPolygon","coordinates": [[[[34.7643,-15.9445,80.2644],[34.7769,-15.9597,78.5],[34.7778,-15.966,79.252],[34.7821,-15.9687,79.3305],[34.78,-15.979,80.576],[34.7844,-15.9818,80.6731],[34.785,-15.9868,80.0139],[34.7896,-15.993,79.0337],[34.7978,-15.9964,77.0],[34.7983,-15.9992,78.9377],[34.8268,-15.9995,96.2253],[34.8391,-15.9952,159.7367],[34.843,-15.996,107.5385],[34.8423,-15.992,142.6389],[34.8468,-15.9861,125.8622],[34.8446,-15.9829,209.3259],[34.8483,-15.9798,208.4581],[34.85,-15.971,188.2827],[34.8091,-15.9689,191.1652],[34.8094,-15.9118,493.7344],[34.7863,-15.9133,244.5402],[34.7789,-15.9083,226.233],[34.7707,-15.9127,151.9872],[34.7726,-15.9162,171.3726],[34.7629,-15.9209,97.3824],[34.7581,-15.9291,91.962],[34.7643,-15.9445,80.2644]]]]}}