{"type":"Feature","properties":{"GID_3":"MWI.28.8.7_1","GID_0":"MWI","country":"Malawi","GID_1":"MWI.28_1","province":"Zomba","NL_NAME_1":"NA","GID_2":"MWI.28.8_1","county":"TAMwambo","NL_NAME_2":"NA","city":"n.a.(2169)","VARNAME_3":"NA","NL_NAME_3":"NA","TYPE_3":"Unknown","ENGTYPE_3":"Unknown","CC_3":"NA","HASC_3":"NA","name":"n.a.(2169).city"},
"geometry":{"type": "MultiPolygon","coordinates": [[[[35.4317,-15.3936,735.0549],[35.4219,-15.3933,747.3963],[35.4198,-15.3986,743.5356],[35.4191,-15.4013,746.424],[35.4266,-15.4051,734.2228],[35.429,-15.4101,723.435],[35.4246,-15.4222,734.1684],[35.4203,-15.4272,741.2531],[35.4318,-15.4275,722.1229],[35.4324,-15.4299,728.0303],[35.4369,-15.4303,721.7007],[35.4405,-15.4341,716.9038],[35.4495,-15.4328,712.1422],[35.4509,-15.435,708.1562],[35.4487,-15.4402,700.501],[35.4587,-15.4371,692.9622],[35.4595,-15.4327,688.215],[35.456,-15.43,691.6672],[35.4508,-15.4151,712.582],[35.4442,-15.4137,717.5352],[35.4398,-15.4104,724.018],[35.444,-15.4056,720.2191],[35.4453,-15.3932,714.8793],[35.4317,-15.3936,735.0549]]]]}}