{"type": "Feature","id": "1914","bbox": [34.11671,-14.11433,34.8639,-13.40363],"geometry": {"type": "Polygon","coordinates": [[[34.66748,-13.50093,474.5],[34.65135,-13.49783,474.5],[34.6406,-13.49235,474.5],[34.63761,-13.48822,474.5],[34.63647,-13.48223,474.5],[34.63172,-13.47117,474.5],[34.61146,-13.43582,474.5],[34.59978,-13.42021,474.5],[34.58276,-13.40363,474.5],[34.58268,-13.40363,474.5],[34.3277,-13.40383,474.5],[34.2413,-13.45236,531.4572],[34.20017,-13.46951,602.7736],[34.17562,-13.47442,637.5729],[34.16384,-13.47566,683.6169],[34.13361,-13.48962,695.1137],[34.11671,-13.5046,735.8468],[34.13206,-13.5784,742.4267],[34.13175,-13.59007,772.3965],[34.12927,-13.60578,784.2114],[34.12415,-13.61354,887.0894],[34.12043,-13.62051,914.3255],[34.12151,-13.62392,877.778],[34.13376,-13.63136,824.6],[34.14027,-13.63627,787.7621],[34.18528,-13.67963,721.8998],[34.19365,-13.68624,733.9725],[34.20203,-13.69121,727.2946],[34.20962,-13.69327,712.4232],[34.21815,-13.69327,693.0194],[34.22781,-13.69136,660.8705],[34.26331,-13.67271,608.2744],[34.27014,-13.67033,602.4843],[34.27587,-13.67084,598.465],[34.28269,-13.67575,589.8575],[34.28569,-13.68568,602.262],[34.28569,-13.69653,598.3383],[34.28455,-13.70614,601.0442],[34.28445,-13.71234,607.0019],[34.28755,-13.72066,594.7769],[34.29313,-13.72609,592.2531],[34.30259,-13.731,583.1235],[34.30646,-13.73585,585.1978],[34.30786,-13.73957,621.2016],[34.30677,-13.74603,618.5969],[34.30476,-13.75099,615.3047],[34.30212,-13.75513,600.2936],[34.29701,-13.75875,594.4626],[34.2922,-13.76138,598.6032],[34.27773,-13.76614,632.3781],[34.26797,-13.76831,741.5971],[34.26161,-13.77063,669.8325],[34.25758,-13.77291,640.1245],[34.25572,-13.77482,652.8113],[34.25463,-13.77606,652.8113],[34.25045,-13.78035,633.5349],[34.24843,-13.80789,703.8077],[34.23727,-13.8189,727.4454],[34.20962,-13.83016,815.8895],[34.19614,-13.83921,793.7203],[34.18962,-13.84613,888.5601],[34.18544,-13.85383,887.7786],[34.18466,-13.86019,1017.4194],[34.18637,-13.86691,1234.7654],[34.19148,-13.8715,1314.666],[34.20017,-13.87228,1116.1741],[34.21055,-13.86856,901.8126],[34.24518,-13.8513,793.3917],[34.25308,-13.84897,729.8198],[34.26083,-13.84742,671.5436],[34.27339,-13.84696,627.5495],[34.28362,-13.85078,605.191],[34.32755,-13.91161,743.6575],[34.3893,-13.97005,635.0904],[34.40315,-13.98633,641.0062],[34.43664,-14.04514,618.5934],[34.46832,-14.09092,576.066],[34.48444,-14.1072,552.6724],[34.49638,-14.11433,527.3307],[34.50072,-14.11257,521.4661],[34.50599,-14.10839,513.866],[34.52712,-14.08643,492.1172],[34.53332,-14.08136,485.3232],[34.53875,-14.07759,479.582],[34.54294,-14.07521,474.5],[34.54991,-14.07284,474.5],[34.736,-14.07811,474.5],[34.8639,-13.51628,474.5],[34.86312,-13.51581,474.5],[34.82964,-13.50393,474.5],[34.79543,-13.49876,474.5],[34.66748,-13.50093,474.5]]]}
,"properties": {"ISO3166-1-Alpha-3": "MWI","country": "Malawi","fill": "#FF0","name": "Salima","area_km2": 4178.527,"hist_schema_id": "Elevation0-9000","hist_area_km2": {"475": 2475.992,"500": 525.895,"525": 297.157,"550": 206.856,"575": 167.376,"600": 132.489,"625": 108.701,"650": 69.849,"675": 54.057,"700": 39.123,"725": 31.666,"750": 21.385,"775": 12.154,"800": 7.25,"825": 5.953,"850": 3.686,"875": 2.265,"900": 2.1,"925": 1.791,"950": 1.482,"975": 1.441,"1000": 1.009,"1025": 1.812,"1050": 1.441,"1075": 1.42,"1100": 1.029,"1125": 0.7,"1150": 1.05,"1175": 0.679,"1200": 0.247,"1225": 0.144,"1250": 0.103,"1275": 0.144,"1300": 0.041}}}