{"type": "Feature","bbox": [35.2288,-15.8377,35.2511,-15.8005],"geometry": {"type": "MultiPolygon","coordinates": [[[[35.2314,-15.8051,910.5328],[35.2375,-15.8075,910.3348],[35.2384,-15.8154,886.3436],[35.2298,-15.8166,903.4059],[35.2288,-15.8192,890.1044],[35.2388,-15.8377,848.7043],[35.2509,-15.8213,887.6099],[35.2511,-15.8186,894.9685],[35.2483,-15.8127,952.5169],[35.2474,-15.8053,996.634],[35.2444,-15.801,940.8876],[35.2409,-15.8005,929.5187],[35.2314,-15.8051,910.5328]]]]}
,"properties": {"GID_3": "MWI.4.3.19_1","GID_0": "MWI","country": "Malawi","GID_1": "MWI.4_1","province": "Chiradzulu","NL_NAME_1": "NA","GID_2": "MWI.4.3_1","county": "TAKadewere","NL_NAME_2": "NA","city": "n.a.(2567)","VARNAME_3": "NA","NL_NAME_3": "NA","TYPE_3": "Unknown","ENGTYPE_3": "Unknown","CC_3": "NA","HASC_3": "NA","name": "n.a.(2567).city","area_km2": 5.344623,"hist_schema_id": "Elevation0-9000","hist_area_km2": {"850": 0.469152,"875": 1.570698,"900": 1.815547,"925": 0.999615,"950": 0.367209,"975": 0.081601,"1000": 0.020401,"1025": 0.020401}}}