{"type": "Feature","bbox": [33.1487,-13.6332,33.2146,-13.5524],"geometry": {"type": "MultiPolygon","coordinates": [[[[33.1705,-13.5524,1120.6306],[33.1487,-13.5765,1098.8455],[33.1679,-13.5835,1090.8661],[33.1532,-13.5981,1082.8108],[33.1531,-13.6102,1075.4712],[33.1624,-13.6114,1068.8669],[33.1602,-13.6183,1074.4299],[33.1495,-13.6332,1078.1721],[33.2146,-13.6271,1080.9777],[33.2102,-13.6173,1087.2407],[33.209,-13.6067,1095.0996],[33.2048,-13.5984,1093.127],[33.1969,-13.5914,1100.0437],[33.1915,-13.5979,1090.6304],[33.1887,-13.5952,1087.3234],[33.177,-13.5703,1111.4725],[33.1756,-13.5588,1123.3157],[33.1705,-13.5524,1120.6306]]]]}
,"properties": {"GID_3": "MWI.14.2.11_1","GID_0": "MWI","country": "Malawi","GID_1": "MWI.14_1","province": "Mchinji","NL_NAME_1": "NA","GID_2": "MWI.14.2_1","county": "SCDambe","NL_NAME_2": "NA","city": "n.a.(728)","VARNAME_3": "NA","NL_NAME_3": "NA","TYPE_3": "Unknown","ENGTYPE_3": "Unknown","CC_3": "NA","HASC_3": "NA","name": "n.a.(728).city","area_km2": 32.5599,"hist_schema_id": "Elevation0-9000","hist_area_km2": {"1050": 0.26787,"1075": 20.11203,"1100": 9.97464,"1125": 2.20536}}}