{"type": "Feature","bbox": [33.7035,-11.8486,33.7912,-11.7457],"geometry": {"type": "MultiPolygon","coordinates": [[[[33.7177,-11.7457,1497.4808],[33.7163,-11.7498,1425.7659],[33.712,-11.7478,1405.6986],[33.7101,-11.7497,1400.3822],[33.7123,-11.7538,1415.6165],[33.7176,-11.7547,1476.2897],[33.7174,-11.7603,1418.2438],[33.7111,-11.7593,1385.1934],[33.7125,-11.7658,1403.2384],[33.7064,-11.7718,1456.7979],[33.7059,-11.781,1492.5219],[33.7035,-11.7832,1522.5796],[33.7078,-11.7855,1511.7202],[33.7109,-11.792,1500.7134],[33.7217,-11.7903,1457.8593],[33.7252,-11.799,1473.0027],[33.7257,-11.8095,1453.8643],[33.7294,-11.8151,1500.342],[33.7329,-11.8147,1428.0918],[33.7351,-11.8095,1472.7961],[33.7343,-11.8039,1453.6404],[33.7389,-11.8012,1444.8199],[33.7437,-11.81,1528.6985],[33.7569,-11.8129,1626.2468],[33.7601,-11.8206,1651.9851],[33.7671,-11.8261,1659.5939],[33.7694,-11.8335,1687.6169],[33.7765,-11.8424,1702.2308],[33.7801,-11.8436,1694.1444],[33.7846,-11.8486,1705.1311],[33.7912,-11.7994,1750.5078],[33.7866,-11.7923,1717.158],[33.7882,-11.781,1723.5264],[33.7854,-11.7715,1722.9194],[33.7606,-11.7591,1698.3535],[33.758,-11.7555,1676.9141],[33.7442,-11.7524,1630.7271],[33.7364,-11.7526,1580.261],[33.7265,-11.747,1620.9897],[33.7177,-11.7457,1497.4808]]]]}
,"properties": {"GID_3": "MWI.17.4.8_1","GID_0": "MWI","country": "Malawi","GID_1": "MWI.17_1","province": "Mzimba","NL_NAME_1": "NA","GID_2": "MWI.17.4_1","county": "SCKampingoSibande","NL_NAME_2": "NA","city": "n.a.(253)","VARNAME_3": "NA","NL_NAME_3": "NA","TYPE_3": "Unknown","ENGTYPE_3": "Unknown","CC_3": "NA","HASC_3": "NA","name": "n.a.(253).city","area_km2": 56.51593,"hist_schema_id": "Elevation0-9000","hist_area_km2": {"1400": 2.51152,"1425": 4.21329,"1450": 3.03025,"1475": 2.07553,"1500": 1.88877,"1525": 2.38691,"1550": 3.21712,"1575": 3.77751,"1600": 5.83232,"1625": 6.26808,"1650": 7.13962,"1675": 7.65824,"1700": 4.83565,"1725": 1.24529,"1750": 0.2283,"1775": 0.10377,"1800": 0.10377}}}