{"type":"Feature","properties":{"GID_3":"MWI.24.2.57_1","GID_0":"MWI","country":"Malawi","GID_1":"MWI.24_1","province":"Phalombe","NL_NAME_1":"NA","GID_2":"MWI.24.2_1","county":"TAMkhumba","NL_NAME_2":"NA","city":"n.a.(2562)","VARNAME_3":"NA","NL_NAME_3":"NA","TYPE_3":"Unknown","ENGTYPE_3":"Unknown","CC_3":"NA","HASC_3":"NA","name":"n.a.(2562).city"},
"geometry":{"type": "MultiPolygon","coordinates": [[[[35.6243,-15.8329,851.1107],[35.6154,-15.8239,758.9914],[35.6225,-15.8203,758.4962],[35.6206,-15.8181,754.6572],[35.617,-15.8151,744.3879],[35.6132,-15.8142,738.8618],[35.601,-15.7968,727.3551],[35.597,-15.7946,726.4557],[35.5902,-15.7947,727.0741],[35.5988,-15.8104,734.3195],[35.5917,-15.8122,732.7713],[35.5899,-15.8153,734.2014],[35.5931,-15.8252,839.0348],[35.6003,-15.8255,745.7232],[35.5995,-15.8289,750.8068],[35.6008,-15.8322,752.7568],[35.5996,-15.8348,767.8318],[35.602,-15.8407,773.3602],[35.6141,-15.8426,872.4851],[35.6243,-15.8329,851.1107]]]]}}