{"type":"Feature","properties":{"GID_3":"MWI.25.9.1_1","GID_0":"MWI","country":"Malawi","GID_1":"MWI.25_1","province":"Rumphi","NL_NAME_1":"NA","GID_2":"MWI.25.9_1","county":"TAChikulamayembe","NL_NAME_2":"NA","city":"n.a.(123)","VARNAME_3":"NA","NL_NAME_3":"NA","TYPE_3":"Unknown","ENGTYPE_3":"Unknown","CC_3":"NA","HASC_3":"NA","name":"n.a.(123).city"},
"geometry":{"type": "MultiPolygon","coordinates": [[[[33.5896,-10.8324,1646.7668],[33.5852,-10.8323,1627.416],[33.5814,-10.8281,1586.2727],[33.5793,-10.8282,1583.9045],[33.566,-10.8362,1444.5013],[33.5642,-10.8467,1573.7814],[33.558,-10.8508,1473.5979],[33.5555,-10.8553,1464.2009],[33.5461,-10.8549,1449.4299],[33.5415,-10.857,1375.5304],[33.5394,-10.862,1406.6265],[33.5373,-10.8933,1530.6133],[33.545,-10.907,1517.2798],[33.5445,-10.914,1502.1122],[33.5492,-10.9231,1455.8119],[33.549,-10.9266,1450.8427],[33.545,-10.9322,1481.9658],[33.5509,-10.9352,1450.5962],[33.5656,-10.9372,1280.1335],[33.5713,-10.9361,1274.2632],[33.576,-10.9313,1358.3899],[33.587,-10.942,1318.3832],[33.601,-10.9426,1456.8534],[33.6098,-10.9388,1336.339],[33.6139,-10.934,1236.5746],[33.6204,-10.9332,1249.3889],[33.6225,-10.9263,1254.4366],[33.616,-10.9255,1286.3962],[33.6105,-10.9208,1290.2913],[33.6101,-10.9169,1287.3533],[33.6127,-10.9085,1320.7449],[33.623,-10.8993,1306.3917],[33.6221,-10.8955,1373.2626],[33.6188,-10.8925,1433.8552],[33.6262,-10.8869,1312.4751],[33.6307,-10.8796,1427.7606],[33.6316,-10.8752,1550.762],[33.629,-10.8688,1410.5354],[33.633,-10.8629,1454.689],[33.6295,-10.8623,1407.0795],[33.6267,-10.851,1513.8564],[33.6197,-10.845,1562.7274],[33.6093,-10.8404,1582.7609],[33.6034,-10.8319,1617.2551],[33.5896,-10.8324,1646.7668]]]]}}