{"type":"Feature","properties":{"GID_3":"MWI.1.2.20_1","GID_0":"MWI","country":"Malawi","GID_1":"MWI.1_1","province":"Balaka","NL_NAME_1":"NA","GID_2":"MWI.1.2_1","county":"TAKalembo","NL_NAME_2":"NA","city":"n.a.(1868)","VARNAME_3":"NA","NL_NAME_3":"NA","TYPE_3":"Unknown","ENGTYPE_3":"Unknown","CC_3":"NA","HASC_3":"NA","name":"n.a.(1868).city"},
"geometry":{"type": "MultiPolygon","coordinates": [[[[35.2579,-14.8534,489.4927],[35.2545,-14.8514,490.4101],[35.2483,-14.8525,492.9547],[35.2479,-14.8509,492.48],[35.2464,-14.8524,493.0104],[35.2381,-14.8533,496.9839],[35.2296,-14.8567,500.3609],[35.2262,-14.8625,500.6654],[35.2181,-14.865,504.0744],[35.2112,-14.8825,509.0172],[35.2104,-14.8931,506.2501],[35.2169,-14.8937,503.7233],[35.2191,-14.8958,502.3929],[35.2298,-14.8993,496.7394],[35.2383,-14.899,493.4382],[35.251,-14.8935,489.2281],[35.2593,-14.8959,484.3338],[35.2733,-14.8972,480.3431],[35.2745,-14.8991,480.591],[35.2804,-14.8995,481.1779],[35.2861,-14.9023,481.4324],[35.289,-14.8992,473.5],[35.2895,-14.8948,473.5],[35.2876,-14.8793,476.5229],[35.2966,-14.8776,474.9922],[35.3004,-14.8733,473.5],[35.2927,-14.8565,474.6166],[35.2925,-14.8508,474.3574],[35.2857,-14.8532,478.2678],[35.2752,-14.8518,481.4344],[35.2683,-14.8549,485.1769],[35.2579,-14.8534,489.4927]]]]}}