{"type": "Feature","bbox": [34.464,-15.6942,34.5165,-15.6454],"geometry": {"type": "MultiPolygon","coordinates": [[[[34.5164,-15.6454,614.6046],[34.5038,-15.6455,652.1843],[34.49,-15.6484,638.375],[34.4839,-15.6477,640.3218],[34.4846,-15.6574,642.2543],[34.4899,-15.667,614.1255],[34.489,-15.6726,613.5724],[34.4824,-15.6797,635.0693],[34.4676,-15.6854,969.9321],[34.464,-15.6885,897.4057],[34.4812,-15.6941,626.3881],[34.4878,-15.6927,609.5735],[34.5022,-15.6942,596.1194],[34.5105,-15.6912,572.8425],[34.5106,-15.6856,583.5897],[34.5086,-15.6814,578.745],[34.5119,-15.6779,585.4297],[34.5109,-15.6741,594.0276],[34.5143,-15.6726,589.1746],[34.5154,-15.6685,595.5691],[34.5116,-15.6642,606.017],[34.5112,-15.6613,609.0559],[34.5165,-15.6557,610.3693],[34.5164,-15.6454,614.6046]]]]}
,"properties": {"GID_3": "MWI.16.4.6_1","GID_0": "MWI","country": "Malawi","GID_1": "MWI.16_1","province": "Mwanza","NL_NAME_1": "NA","GID_2": "MWI.16.4_1","county": "TANthache","NL_NAME_2": "NA","city": "n.a.(2412)","VARNAME_3": "NA","NL_NAME_3": "NA","TYPE_3": "Unknown","ENGTYPE_3": "Unknown","CC_3": "NA","HASC_3": "NA","name": "n.a.(2412).city","area_km2": 17.10697,"hist_schema_id": "Elevation0-9000","hist_area_km2": {"575": 1.3064,"600": 5.69529,"625": 6.94104,"650": 2.18444,"675": 0.18371,"700": 0.06124,"725": 0.04082,"750": 0.04082,"775": 0.02041,"800": 0.06124,"825": 0.10206,"850": 0.06124,"875": 0.02041,"900": 0.02041,"925": 0.08165,"950": 0.04082,"975": 0.06124,"1000": 0.10206,"1025": 0.04083,"1050": 0.04082}}}