{"type":"Feature","properties":{"GID_3":"MWI.17.11.8_1","GID_0":"MWI","country":"Malawi","GID_1":"MWI.17_1","province":"Mzimba","NL_NAME_1":"NA","GID_2":"MWI.17.11_1","county":"TAMzikubola","NL_NAME_2":"NA","city":"n.a.(310)","VARNAME_3":"NA","NL_NAME_3":"NA","TYPE_3":"Unknown","ENGTYPE_3":"Unknown","CC_3":"NA","HASC_3":"NA","name":"n.a.(310).city"},
"geometry":{"type": "MultiPolygon","coordinates": [[[[33.6528,-12.1861,1476.4819],[33.6469,-12.1892,1470.4427],[33.6391,-12.1906,1462.6517],[33.6297,-12.1975,1424.8376],[33.6259,-12.201599999999999,1431.292],[33.6243,-12.207,1432.3673],[33.6191,-12.2112,1416.7319],[33.6056,-12.2097,1395.9993],[33.6015,-12.2052,1398.1433],[33.5949,-12.2061,1400.3367],[33.5907,-12.2106,1394.0454],[33.5815,-12.2101,1380.2374],[33.58,-12.2184,1389.7831],[33.5774,-12.2212,1384.3792],[33.5812,-12.2251,1368.2635],[33.5811,-12.2289,1386.1692],[33.5868,-12.2354,1391.259],[33.5913,-12.237,1405.8318],[33.5939,-12.2409,1401.358],[33.5928,-12.2424,1405.4255],[33.5983,-12.2545,1418.2498],[33.6039,-12.2562,1444.1663],[33.6071,-12.2597,1463.1469],[33.6282,-12.2537,1488.8069],[33.6393,-12.2522,1517.6198],[33.6448,-12.2537,1520.0938],[33.6542,-12.2598,1475.6173],[33.6685,-12.2546,1464.7432],[33.6825,-12.2521,1454.6169],[33.6843,-12.2499,1461.29],[33.7086,-12.2393,1451.2145],[33.7099,-12.2375,1435.394],[33.7063,-12.2366,1450.019],[33.7028,-12.2323,1439.8352],[33.6916,-12.2248,1448.5178],[33.6858,-12.2145,1465.6903],[33.6835,-12.1985,1479.5339],[33.6808,-12.1911,1496.3549],[33.684,-12.1845,1508.1963],[33.6817,-12.1764,1542.5557],[33.6801,-12.1752,1543.5018],[33.6772,-12.176,1537.3005],[33.6649,-12.1831,1496.7509],[33.655,-12.1867,1452.035],[33.6528,-12.1861,1476.4819]]]]}}