{"type":"Feature","properties":{"GID_3":"MWI.4.4.17_1","GID_0":"MWI","country":"Malawi","GID_1":"MWI.4_1","province":"Chiradzulu","NL_NAME_1":"NA","GID_2":"MWI.4.4_1","county":"TALikoswe","NL_NAME_2":"NA","city":"n.a.(2603)","VARNAME_3":"NA","NL_NAME_3":"NA","TYPE_3":"Unknown","ENGTYPE_3":"Unknown","CC_3":"NA","HASC_3":"NA","name":"n.a.(2603).city"},
"geometry":{"type": "MultiPolygon","coordinates": [[[[35.1904,-15.8431,854.3224],[35.1903,-15.8444,854.3224],[35.1866,-15.8456,863.5837],[35.1799,-15.8456,877.3601],[35.159,-15.8376,910.4647],[35.1551,-15.8455,902.7012],[35.1582,-15.8497,886.8328],[35.1646,-15.8517,877.6664],[35.166,-15.8548,869.9212],[35.1685,-15.8558,878.2645],[35.1674,-15.8591,871.4902],[35.17,-15.86,865.9876],[35.1752,-15.8585,870.304],[35.1778,-15.8627,855.3083],[35.1799,-15.8591,860.9755],[35.1857,-15.8595,848.385],[35.1857,-15.857,851.7253],[35.1877,-15.8569,854.0037],[35.1903,-15.8534,857.1785],[35.1986,-15.8544,844.1498],[35.2083,-15.8488,865.7788],[35.2089,-15.8416,884.8229],[35.1904,-15.8431,854.3224]]]]}}