{"type":"Feature","properties":{"GID_3":"MWI.3.11.1_1","GID_0":"MWI","country":"Malawi","GID_1":"MWI.3_1","province":"Chikwawa","NL_NAME_1":"NA","GID_2":"MWI.3.11_1","county":"TANgabu","NL_NAME_2":"NA","city":"n.a.(2998)","VARNAME_3":"NA","NL_NAME_3":"NA","TYPE_3":"Unknown","ENGTYPE_3":"Unknown","CC_3":"NA","HASC_3":"NA","name":"n.a.(2998).city"},
"geometry":{"type": "MultiPolygon","coordinates": [[[[34.8067,-16.3,93.0842],[34.8132,-16.3009,92.6339],[34.8292,-16.3071,93.3144],[34.8321,-16.3068,91.7214],[34.8382,-16.3101,90.0335],[34.8548,-16.3094,80.034],[34.8654,-16.2783,68.1274],[34.8565,-16.2694,70.3166],[34.8419,-16.2624,74.9687],[34.8368,-16.2678,75.2452],[34.8346,-16.2662,75.785],[34.8288,-16.2675,78.3603],[34.8248,-16.2649,79.8484],[34.8188,-16.2657,83.3537],[34.8088,-16.2788,90.2397],[34.8067,-16.3,93.0842]]]]}}