{"type":"Feature","properties":{"GID_3":"MWI.13.9.11_1","GID_0":"MWI","country":"Malawi","GID_1":"MWI.13_1","province":"Mangochi","NL_NAME_1":"NA","GID_2":"MWI.13.9_1","county":"TAJalasi","NL_NAME_2":"NA","city":"n.a.(1495)","VARNAME_3":"NA","NL_NAME_3":"NA","TYPE_3":"Unknown","ENGTYPE_3":"Unknown","CC_3":"NA","HASC_3":"NA","name":"n.a.(1495).city"},
"geometry":{"type": "MultiPolygon","coordinates": [[[[35.4443,-14.3385,970.2617],[35.4389,-14.3412,973.8715],[35.4261,-14.3436,1003.614],[35.433,-14.3514,1010.5016],[35.4278,-14.3535,1026.9144],[35.4357,-14.3586,1002.0647],[35.445,-14.3606,989.184],[35.4462,-14.3581,992.444],[35.447,-14.3591,992.444],[35.457,-14.3536,988.2054],[35.4571,-14.349,983.2218],[35.4548,-14.3458,979.2527],[35.4542,-14.3402,981.3665],[35.4571,-14.338,983.8303],[35.45,-14.3357,977.7905],[35.4443,-14.3385,970.2617]]]]}}