{"type": "Feature","bbox": [34.9327,-14.9285,34.9816,-14.8496],"geometry": {"type": "MultiPolygon","coordinates": [[[[34.9611,-14.8676,646.7802],[34.9382,-14.8496,663.4571],[34.9327,-14.8715,666.9778],[34.9429,-14.8765,656.7636],[34.9395,-14.8818,657.8561],[34.9458,-14.8969,658.0948],[34.9467,-14.914,659.2705],[34.9616,-14.9213,638.345],[34.9714,-14.9285,622.5018],[34.9733,-14.9283,621.5063],[34.9753,-14.9235,622.3354],[34.9739,-14.9189,624.5627],[34.9753,-14.9143,626.7551],[34.9739,-14.912,627.4357],[34.9766,-14.9117,627.1121],[34.9793,-14.9032,630.3365],[34.9752,-14.8965,630.491],[34.9752,-14.8916,632.6745],[34.981,-14.8911,633.3566],[34.9816,-14.8884,634.2338],[34.9788,-14.8861,636.1158],[34.9779,-14.8826,637.3961],[34.9678,-14.8742,642.8959],[34.9657,-14.8697,643.5258],[34.9611,-14.8676,646.7802]]]]}
,"properties": {"GID_3": "MWI.1.3.2_1","GID_0": "MWI","country": "Malawi","GID_1": "MWI.1_1","province": "Balaka","NL_NAME_1": "NA","GID_2": "MWI.1.3_1","county": "TANsamala","NL_NAME_2": "NA","city": "n.a.(1866)","VARNAME_3": "NA","NL_NAME_3": "NA","TYPE_3": "Unknown","ENGTYPE_3": "Unknown","CC_3": "NA","HASC_3": "NA","name": "n.a.(1866).city","area_km2": 23.39988,"hist_schema_id": "Elevation0-9000","hist_area_km2": {"625": 6.2081,"650": 16.24913,"675": 0.94265}}}