{"type":"Feature","properties":{"GID_3":"MWI.11.8.56_1","GID_0":"MWI","country":"Malawi","GID_1":"MWI.11_1","province":"Lilongwe","NL_NAME_1":"NA","GID_2":"MWI.11.8_1","county":"TAChiseka","NL_NAME_2":"NA","city":"n.a.(1471)","VARNAME_3":"NA","NL_NAME_3":"NA","TYPE_3":"Unknown","ENGTYPE_3":"Unknown","CC_3":"NA","HASC_3":"NA","name":"n.a.(1471).city"},
"geometry":{"type": "MultiPolygon","coordinates": [[[[33.7074,-14.3146,1179.8663],[33.7031,-14.3189,1182.854],[33.7016,-14.3254,1192.5479],[33.6977,-14.3316,1206.4427],[33.6954,-14.3444,1227.21],[33.6801,-14.3459,1210.0228],[33.6856,-14.3552,1218.1029],[33.6811,-14.3611,1229.4194],[33.6847,-14.3657,1230.7546],[33.6864,-14.3727,1239.2865],[33.6942,-14.3766,1235.5768],[33.7046,-14.3774,1229.7477],[33.7163,-14.3739,1226.889],[33.7186,-14.3754,1231.6721],[33.7231,-14.3722,1228.8943],[33.7386,-14.3663,1226.8761],[33.7366,-14.3594,1215.4561],[33.7247,-14.3467,1229.3722],[33.7153,-14.3233,1189.8044],[33.7114,-14.3187,1177.4851],[33.7112,-14.3102,1170.2129],[33.7074,-14.3146,1179.8663]]]]}}