{"type": "Feature","bbox": [33.7831,-9.8881,33.9073,-9.838],"geometry": {"type": "MultiPolygon","coordinates": [[[[33.9063,-9.8496,477.0772],[33.845,-9.8495,500.7779],[33.8405,-9.8513,501.4305],[33.8326,-9.8482,505.2937],[33.8288,-9.8487,506.7936],[33.8268,-9.8457,519.3867],[33.8223,-9.8454,576.6044],[33.8125,-9.8404,651.7513],[33.8053,-9.8398,718.9636],[33.803,-9.844,671.6122],[33.8008,-9.8447,675.3465],[33.7994,-9.8414,708.3422],[33.7946,-9.8425,695.7024],[33.7901,-9.838,725.5856],[33.7834,-9.8389,720.4918],[33.7876,-9.8431,692.9116],[33.7831,-9.8465,722.148],[33.7861,-9.8495,709.6754],[33.7997,-9.8582,641.895],[33.8023,-9.8578,665.5691],[33.8125,-9.8666,579.7922],[33.8171,-9.8669,586.7081],[33.8185,-9.8722,543.3537],[33.822,-9.8721,533.1732],[33.8263,-9.8763,525.9929],[33.8332,-9.877,524.9888],[33.8383,-9.874,523.3057],[33.8435,-9.8745,515.783],[33.8443,-9.8712,514.7889],[33.849,-9.8691,507.8294],[33.8651,-9.8654,496.5183],[33.8666,-9.8717,497.8104],[33.8622,-9.8762,503.1554],[33.86,-9.8825,500.2992],[33.8646,-9.8876,496.6651],[33.8804,-9.8881,489.507],[33.8855,-9.885,487.4998],[33.8868,-9.881,486.5256],[33.8918,-9.876,484.816],[33.8924,-9.8682,483.0161],[33.8968,-9.8618,482.2524],[33.9001,-9.8612,480.8862],[33.9018,-9.8568,479.6141],[33.9043,-9.8581,478.8338],[33.9073,-9.855,478.5554],[33.9063,-9.8496,477.0772]]]]}
,"properties": {"GID_3": "MWI.8.7.3_1","GID_0": "MWI","country": "Malawi","GID_1": "MWI.8_1","province": "Karonga","NL_NAME_1": "NA","GID_2": "MWI.8.7_1","county": "TAKyungu","NL_NAME_2": "NA","city": "n.a.(54)","VARNAME_3": "NA","NL_NAME_3": "NA","TYPE_3": "Unknown","ENGTYPE_3": "Unknown","CC_3": "NA","HASC_3": "NA","name": "n.a.(54).city","area_km2": 34.6548,"hist_schema_id": "Elevation0-9000","hist_area_km2": {"475": 6.58005,"500": 14.51763,"525": 3.11241,"550": 0.96088,"575": 0.52223,"600": 0.71023,"625": 0.91912,"650": 1.71292,"675": 2.27696,"700": 3.02902,"725": 0.31335}}}