{"type": "Feature","bbox": [35.3607,-15.403,35.6296,-15.2006],"geometry": {"type": "MultiPolygon","coordinates": [[[[35.4394,-15.3937,723.1536],[35.4512,-15.3927,712.7682],[35.4653,-15.3942,702.2263],[35.5134,-15.403,676.5521],[35.5387,-15.3934,632.3969],[35.5575,-15.3842,628.5306],[35.562,-15.3761,626.3849],[35.5856,-15.3642,622.5],[35.5865,-15.362,622.5],[35.5847,-15.3567,622.5],[35.5794,-15.3577,622.5],[35.5738,-15.3555,622.5],[35.5668,-15.3475,622.5],[35.5637,-15.3401,622.5],[35.5653,-15.3105,622.7075],[35.5716,-15.2854,622.5],[35.587,-15.2573,624.2014],[35.6258,-15.2078,622.5],[35.6296,-15.2006,622.5],[35.569,-15.2008,623.662],[35.5215,-15.2145,630.2084],[35.5168,-15.213,631.8804],[35.5121,-15.2136,633.0596],[35.4993,-15.2198,636.6355],[35.4944,-15.2261,641.3781],[35.4903,-15.228,640.579],[35.4881,-15.225,641.316],[35.4852,-15.2259,642.312],[35.4864,-15.2316,644.6451],[35.4723,-15.2271,648.8245],[35.4637,-15.2334,650.0629],[35.4568,-15.2331,651.5681],[35.4557,-15.2307,657.9438],[35.4546,-15.2341,651.4671],[35.4467,-15.2367,657.2196],[35.4426,-15.2314,672.184],[35.4326,-15.2347,675.1313],[35.4266,-15.2317,682.3397],[35.428,-15.2461,701.9153],[35.445,-15.2497,681.4636],[35.4423,-15.26,691.551],[35.4422,-15.27,682.3512],[35.438,-15.2724,694.2271],[35.4339,-15.2779,699.0764],[35.4243,-15.2831,720.6829],[35.4197,-15.2901,731.1182],[35.4203,-15.2981,731.6143],[35.4248,-15.3041,715.243],[35.4138,-15.3277,748.806],[35.4149,-15.3329,761.5861],[35.4107,-15.3378,763.5123],[35.4001,-15.3363,788.4656],[35.3932,-15.3389,780.8607],[35.3925,-15.3433,797.0715],[35.3989,-15.3484,766.546],[35.3919,-15.3561,783.6946],[35.393,-15.365,783.5389],[35.391,-15.3731,778.4934],[35.3692,-15.3753,811.1561],[35.3659,-15.3739,821.7349],[35.3607,-15.38,836.1108],[35.3613,-15.3838,825.1838],[35.3818,-15.3877,809.6389],[35.393,-15.3951,777.503],[35.4041,-15.3925,762.5932],[35.4394,-15.3937,723.1536]]]]}
,"properties": {"GID_2": "MWI.28.5_1","GID_0": "MWI","country": "Malawi","GID_1": "MWI.28_1","province": "Zomba","NL_NAME_1": "NA","county": "TAKuntumanji","VARNAME_2": "NA","NL_NAME_2": "NA","TYPE_2": "TraditionalAuthority","ENGTYPE_2": "TraditionalAuthority","CC_2": "NA","HASC_2": "NA","name": "T_A_Kuntumanji.county","area_km2": 352.1718,"hist_schema_id": "Elevation0-9000","hist_area_km2": {"625": 184.459,"650": 47.2423,"675": 34.0055,"700": 32.04,"725": 21.7549,"750": 16.6011,"775": 9.9155,"800": 4.2727,"825": 1.0221,"850": 0.1226,"875": 0.1635,"900": 0.1431,"925": 0.1431,"950": 0.0613,"975": 0.1022,"1000": 0.0613,"1025": 0.0409,"1050": 0.0204}}}