{"type": "Feature","bbox": [34.9879,-15.5733,35.0228,-15.5158],"geometry": {"type": "MultiPolygon","coordinates": [[[[34.989,-15.5158,544.9564],[34.9879,-15.5245,556.7068],[34.9926,-15.5315,565.9525],[34.993,-15.5387,584.1019],[34.9945,-15.5397,592.2362],[34.9916,-15.5442,594.7477],[34.999,-15.5525,604.4091],[34.998,-15.5551,612.5336],[34.9994,-15.5575,618.1951],[35.0046,-15.5613,623.7607],[35.0081,-15.5672,642.9166],[35.0065,-15.5697,646.8986],[35.0097,-15.5732,652.4586],[35.0126,-15.5733,653.6164],[35.0228,-15.5509,622.0905],[35.0204,-15.5389,597.429],[35.018,-15.5385,599.8173],[35.0174,-15.5367,602.0044],[35.0177,-15.5297,585.4524],[35.0137,-15.5259,577.1072],[35.0114,-15.5271,566.174],[35.0098,-15.5261,574.2269],[35.0068,-15.5204,562.1902],[35.0002,-15.5208,554.8172],[34.9971,-15.5177,558.7234],[34.9915,-15.5184,546.3047],[34.989,-15.5158,544.9564]]]]}
,"properties": {"GID_3": "MWI.2.3.2_1","GID_0": "MWI","country": "Malawi","GID_1": "MWI.2_1","province": "Blantyre","NL_NAME_1": "NA","GID_2": "MWI.2.3_1","county": "TAKapeni","NL_NAME_2": "NA","city": "n.a.(2276)","VARNAME_3": "NA","NL_NAME_3": "NA","TYPE_3": "Unknown","ENGTYPE_3": "Unknown","CC_3": "NA","HASC_3": "NA","name": "n.a.(2276).city","area_km2": 13.05278,"hist_schema_id": "Elevation0-9000","hist_area_km2": {"550": 1.14402,"575": 3.30934,"600": 4.80031,"625": 2.4715,"650": 1.18463,"675": 0.12255,"700": 0.02043}}}