{"type": "Feature","bbox": [33.5764,-11.8948,33.594,-11.8794],"geometry": {"type": "MultiPolygon","coordinates": [[[[33.5921,-11.8843,1308.4722],[33.5843,-11.8794,1287.0034],[33.5791,-11.885,1301.2129],[33.5764,-11.8945,1327.9601],[33.5814,-11.8946,1319.4899],[33.5823,-11.8911,1300.6708],[33.5876,-11.8932,1302.7705],[33.5899,-11.8921,1312.8262],[33.5923,-11.8948,1314.6559],[33.594,-11.8942,1303.4521],[33.5906,-11.8889,1298.2162],[33.5921,-11.8843,1308.4722]]]]}
,"properties": {"GID_3": "MWI.17.1.1_1","GID_0": "MWI","country": "Malawi","GID_1": "MWI.17_1","province": "Mzimba","NL_NAME_1": "NA","GID_2": "MWI.17.1_1","county": "MzimbaBoma","NL_NAME_2": "NA","city": "n.a.(275)","VARNAME_3": "NA","NL_NAME_3": "NA","TYPE_3": "Unknown","ENGTYPE_3": "Unknown","CC_3": "NA","HASC_3": "NA","name": "n.a.(275).city","area_km2": 1.867273,"hist_schema_id": "Elevation0-9000","hist_area_km2": {"1275": 0.082991,"1300": 1.659799,"1325": 0.124483}}}