{"type": "Feature","bbox": [33.9575,-12.7839,34.2735,-12.3315],"geometry": {"type": "MultiPolygon","coordinates": [[[[34.2223,-12.7193,474.5],[34.1988,-12.6895,474.5],[34.1781,-12.6428,487.675],[34.1734,-12.6261,477.404],[34.1751,-12.617,475.8232],[34.1738,-12.617,477.6198],[34.1728,-12.6135,477.5252],[34.1696,-12.5957,478.6375],[34.171,-12.5729,476.3527],[34.1775,-12.5568,476.0971],[34.1945,-12.532,477.1327],[34.1973,-12.5254,476.4589],[34.1959,-12.5129,475.3644],[34.192,-12.4988,476.3021],[34.1817,-12.4823,478.9199],[34.1792,-12.475,478.9299],[34.1755,-12.4538,476.8245],[34.1749,-12.4402,476.3555],[34.1651,-12.4354,475.9379],[34.1706,-12.4328,475.317],[34.1704,-12.4353,476.0622],[34.1741,-12.4356,476.2659],[34.1721,-12.4304,475.1476],[34.1694,-12.4299,476.9309],[34.172,-12.4289,475.1009],[34.173,-12.4263,476.0636],[34.1688,-12.4121,474.5],[34.1645,-12.4074,474.5],[34.1611,-12.4097,475.5351],[34.1563,-12.4086,475.8081],[34.1456,-12.4141,476.1147],[34.138,-12.4132,476.4422],[34.1325,-12.4099,476.166],[34.1282,-12.4041,476.7842],[34.1165,-12.4015,475.846],[34.1068,-12.3952,474.8048],[34.1084,-12.3992,476.0297],[34.1141,-12.4023,476.3774],[34.1118,-12.4041,478.4268],[34.0988,-12.4039,475.2284],[34.0895,-12.4003,476.2159],[34.0833,-12.3918,475.782],[34.0837,-12.3892,475.3468],[34.09,-12.3883,475.6049],[34.0982,-12.3895,474.5],[34.0985,-12.3945,474.7427],[34.104,-12.3938,475.2795],[34.0998,-12.3934,474.7427],[34.1025,-12.3926,474.5],[34.0996,-12.3894,474.5],[34.0798,-12.3763,475.7774],[34.0714,-12.3681,476.5211],[34.0642,-12.3541,474.5],[34.0629,-12.3551,474.5],[34.058,-12.3505,478.7172],[34.0539,-12.3388,475.4881],[34.0488,-12.3316,477.8936],[34.0413,-12.3315,506.5143],[34.0344,-12.3341,521.1647],[34.0285,-12.3385,539.5688],[34.0243,-12.3397,546.9686],[34.0177,-12.3485,565.5469],[34.0133,-12.3478,549.6865],[34.0083,-12.3521,547.1318],[33.9946,-12.3588,571.4905],[33.9867,-12.36,579.7895],[33.9843,-12.3626,589.2122],[33.982,-12.3716,595.1111],[33.9753,-12.3744,641.9643],[33.9716,-12.3799,626.0454],[33.9691,-12.3936,649.495],[33.9635,-12.4017,685.7374],[33.9583,-12.4228,751.1924],[33.9612,-12.4283,686.5506],[33.9575,-12.4355,743.429],[33.9586,-12.4434,736.3241],[33.964,-12.4524,688.292],[33.9626,-12.4641,709.9232],[33.9697,-12.4745,765.0718],[33.9666,-12.483,670.4302],[33.9679,-12.4925,676.2019],[33.9729,-12.4915,673.6858],[33.9748,-12.4966,660.7781],[33.9765,-12.4947,670.9261],[33.9792,-12.4951,671.046],[33.9811,-12.5014,626.5703],[33.9872,-12.503,619.8475],[33.9881,-12.5063,638.866],[33.9997,-12.5072,601.8073],[34.0101,-12.5097,593.4355],[34.0127,-12.5123,570.7071],[34.0208,-12.5092,578.4863],[34.0213,-12.5066,581.1417],[34.0233,-12.5068,584.856],[34.0246,-12.5082,567.1933],[34.024,-12.5127,574.7954],[34.0284,-12.514,575.0838],[34.028,-12.5166,568.1827],[34.0341,-12.5143,571.8008],[34.0367,-12.5104,555.3804],[34.0411,-12.5088,547.2045],[34.0454,-12.5038,530.0419],[34.0508,-12.5086,528.0864],[34.0545,-12.5091,527.8654],[34.0579,-12.507,518.4129],[34.0546,-12.5023,514.0842],[34.0549,-12.5004,512.8168],[34.0734,-12.4918,505.4838],[34.083,-12.4917,500.436],[34.0822,-12.4944,498.3446],[34.0849,-12.4956,497.8816],[34.0845,-12.4977,497.4734],[34.0915,-12.5029,495.1018],[34.0924,-12.5075,495.9756],[34.0948,-12.507,494.1148],[34.0897,-12.5115,496.0635],[34.0847,-12.5123,497.3801],[34.0844,-12.5175,498.9528],[34.075,-12.5179,532.8468],[34.0713,-12.5285,505.377],[34.0633,-12.5311,522.6336],[34.0635,-12.5351,517.0037],[34.0684,-12.5405,512.3495],[34.0685,-12.5426,524.3162],[34.0636,-12.5537,549.6049],[34.0588,-12.558,568.4972],[34.0581,-12.5609,586.1467],[34.0604,-12.5652,576.161],[34.0672,-12.5638,561.4838],[34.0685,-12.5652,535.7716],[34.0648,-12.5696,580.5056],[34.06,-12.5712,582.5026],[34.1372,-12.6541,508.0506],[34.129,-12.6643,571.8428],[34.1352,-12.6817,552.6942],[34.1327,-12.6934,604.8386],[34.1453,-12.7168,532.9424],[34.1514,-12.7482,564.8997],[34.1544,-12.7514,533.9583],[34.161,-12.7506,526.1866],[34.1653,-12.7537,518.2224],[34.1709,-12.7549,516.7346],[34.173,-12.7586,508.5721],[34.1729,-12.7629,537.1999],[34.1758,-12.767,539.9319],[34.1754,-12.7713,543.1686],[34.1838,-12.7773,500.1248],[34.1875,-12.7773,499.2823],[34.1891,-12.7746,485.6031],[34.1836,-12.7638,483.1089],[34.1841,-12.7549,487.9255],[34.1881,-12.75,488.1806],[34.1918,-12.7546,484.7489],[34.2,-12.7599,482.9925],[34.2039,-12.7605,484.5894],[34.2076,-12.7582,482.9438],[34.2187,-12.7715,481.1905],[34.2237,-12.7729,484.2771],[34.2259,-12.7767,479.047],[34.2334,-12.7823,479.2352],[34.2392,-12.7839,477.904],[34.2409,-12.7824,480.1637],[34.242,-12.7761,480.1797],[34.2467,-12.778,479.3098],[34.2504,-12.773,478.3899],[34.2506,-12.7702,478.1692],[34.2575,-12.7703,478.2069],[34.2586,-12.7685,477.7993],[34.2576,-12.7652,478.0338],[34.2678,-12.764099999999999,476.4114],[34.2735,-12.7569,476.1848],[34.2689,-12.7523,476.7289],[34.2662,-12.7467,474.5],[34.2637,-12.7482,474.5],[34.2623,-12.7465,474.5],[34.2597,-12.7481,474.5],[34.2469,-12.7417,474.5],[34.2223,-12.7193,474.5]]],
[[[34.1237,-12.4016,475.7425],[34.1272,-12.4015,475.9164],[34.1319,-12.4063,476.649],[34.1355,-12.4066,476.4964],[34.1337,-12.4095,476.2045],[34.141,-12.4094,476.5326],[34.1405,-12.4111,475.8498],[34.1446,-12.4121,476.4266],[34.1515,-12.4104,475.6533],[34.1562,-12.407,476.0328],[34.1637,-12.4058,474.5],[34.1614,-12.4022,474.5],[34.1573,-12.4009,474.5],[34.1464,-12.4023,474.5],[34.1386,-12.3993,474.5],[34.1227,-12.3979,474.5],[34.1215,-12.3991,474.5],[34.1234,-12.3993,474.5],[34.1222,-12.4014,476.1172],[34.1237,-12.4016,475.7425]]]]}
,"properties": {"GID_2": "MWI.20.7_1","GID_0": "MWI","country": "Malawi","GID_1": "MWI.20_1","province": "Nkhotakota","NL_NAME_1": "NA","county": "TAKanyenda","VARNAME_2": "NA","NL_NAME_2": "NA","TYPE_2": "TraditionalAuthority","ENGTYPE_2": "TraditionalAuthority","CC_2": "NA","HASC_2": "NA","name": "T_A_Kanyenda.county","area_km2": 607.1251,"hist_schema_id": "Elevation0-9000","hist_area_km2": {"475": 181.6201,"500": 135.6053,"525": 85.1539,"550": 47.7563,"575": 48.7122,"600": 36.5395,"625": 20.351,"650": 12.7327,"675": 12.36,"700": 9.0269,"725": 7.6398,"750": 4.0994,"775": 2.8985,"800": 1.9254,"825": 0.6832,"850": 0.0207}}}