{"type": "Feature","bbox": [34.3274,-15.9991,34.4559,-15.9096],"geometry": {"type": "MultiPolygon","coordinates": [[[[34.4294,-15.9991,234.4153],[34.4316,-15.9859,211.0275],[34.4346,-15.984,203.0899],[34.4345,-15.9801,204.7937],[34.4374,-15.9787,204.6138],[34.438,-15.974,215.3122],[34.4449,-15.9681,217.7534],[34.4421,-15.9624,219.4031],[34.4317,-15.9552,233.2859],[34.4421,-15.9481,207.1533],[34.4464,-15.949,220.6194],[34.4514,-15.9468,224.0317],[34.4529,-15.9479,219.3138],[34.4533,-15.9438,222.19],[34.4559,-15.9425,287.8334],[34.4448,-15.9315,248.8132],[34.446,-15.9232,277.373],[34.4508,-15.9175,286.0227],[34.4501,-15.9157,298.9529],[34.4437,-15.9128,388.3738],[34.4339,-15.9096,338.8846],[34.404,-15.9108,262.7624],[34.4038,-15.916,255.7937],[34.4058,-15.9205,250.5233],[34.4034,-15.9298,240.4668],[34.4057,-15.933,235.6635],[34.4037,-15.9336,234.3251],[34.3983,-15.9309,240.7889],[34.3965,-15.922,245.6143],[34.3896,-15.9116,256.9904],[34.3876,-15.9108,261.1226],[34.3785,-15.9193,242.4874],[34.3274,-15.9566,349.1955],[34.3551,-15.9612,351.9999],[34.3627,-15.9672,339.5635],[34.3678,-15.9844,343.2203],[34.3759,-15.9818,332.2475],[34.3886,-15.99,330.0315],[34.3943,-15.9858,329.9994],[34.3945,-15.9807,317.7299],[34.3925,-15.9795,298.1799],[34.3944,-15.9763,297.0134],[34.4048,-15.9728,276.8604],[34.4068,-15.9677,236.5296],[34.4129,-15.9681,223.0169],[34.4142,-15.9663,221.5886],[34.4164,-15.9678,207.8889],[34.4174,-15.9763,204.6583],[34.4246,-15.9909,232.6414],[34.4263,-15.9977,234.9156],[34.4294,-15.9991,234.4153]]]]}
,"properties": {"GID_3": "MWI.3.5.10_1","GID_0": "MWI","country": "Malawi","GID_1": "MWI.3_1","province": "Chikwawa","NL_NAME_1": "NA","GID_2": "MWI.3.5_1","county": "TAChapananga","NL_NAME_2": "NA","city": "n.a.(2669)","VARNAME_3": "NA","NL_NAME_3": "NA","TYPE_3": "Unknown","ENGTYPE_3": "Unknown","CC_3": "NA","HASC_3": "NA","name": "n.a.(2669).city","area_km2": 69.53719,"hist_schema_id": "Elevation0-9000","hist_area_km2": {"200": 2.28307,"225": 19.61101,"250": 15.31116,"275": 3.50664,"300": 6.25842,"325": 9.11237,"350": 12.04771,"375": 1.03981,"400": 0.12233,"425": 0.12233,"450": 0.06117,"475": 0.04078,"500": 0.02039}}}