{"type":"Feature","properties":{"GID_3":"MWI.5.5.1_1","GID_0":"MWI","country":"Malawi","GID_1":"MWI.5_1","province":"Chitipa","NL_NAME_1":"NA","GID_2":"MWI.5.5_1","county":"TAMwenemisuku","NL_NAME_2":"NA","city":"n.a.(12)","VARNAME_3":"NA","NL_NAME_3":"NA","TYPE_3":"Unknown","ENGTYPE_3":"Unknown","CC_3":"NA","HASC_3":"NA","name":"n.a.(12).city"},
"geometry":{"type": "MultiPolygon","coordinates": [[[[33.5465,-9.6861,1534.4893],[33.5492,-9.6877,1540.2313],[33.5519,-9.6873,1575.7043],[33.5583,-9.6926,1546.9537],[33.5676,-9.6825,1292.7325],[33.5678,-9.676,1452.3718],[33.5707,-9.6725,1498.6718],[33.5707,-9.6668,1572.895],[33.569,-9.6626,1601.606],[33.5638,-9.6589,1736.7937],[33.5625,-9.6516,1637.615],[33.5578,-9.6487,1636.5674],[33.5607,-9.6449,1481.2806],[33.5616,-9.6393,1297.2942],[33.5632,-9.6385,1271.0768],[33.5657,-9.6399,1339.5947],[33.5703,-9.6309,1167.9438],[33.5746,-9.6273,1023.4246],[33.5859,-9.6356,972.4512],[33.5914,-9.6368,1021.8356],[33.5957,-9.6418,960.7714],[33.5991,-9.6429,963.1647],[33.6016,-9.6396,943.883],[33.604,-9.6401,895.9824],[33.6108,-9.663,1093.9407],[33.6215,-9.6662,923.2736],[33.6291,-9.6663,844.9189],[33.6317,-9.6715,726.4339],[33.6371,-9.6733,662.2811],[33.6558,-9.6727,619.7487],[33.6595,-9.6751,595.9147],[33.6617,-9.6733,584.9829],[33.6617,-9.6698,607.413],[33.6688,-9.6646,590.8047],[33.663,-9.6656,622.6168],[33.6538,-9.6561,749.909],[33.6516,-9.6453,736.0364],[33.6542,-9.6384,726.962],[33.6539,-9.6351,732.9978],[33.6499,-9.6297,750.1947],[33.6472,-9.6203,745.2611],[33.6408,-9.6117,757.8959],[33.6399,-9.6035,700.7501],[33.6288,-9.6059,792.5299],[33.6218,-9.5981,762.4882],[33.6142,-9.5973,753.7723],[33.605,-9.5897,770.9498],[33.598,-9.5876,786.5373],[33.5902,-9.5784,864.6263],[33.5864,-9.5808,782.3026],[33.5841,-9.5774,852.0739],[33.5769,-9.5833,874.1675],[33.5685,-9.5857,897.6328],[33.5674,-9.5879,879.5345],[33.5627,-9.588,816.5569],[33.5567,-9.5855,851.173],[33.5544,-9.5871,838.1264],[33.5509,-9.586,919.5147],[33.5478,-9.588,884.4547],[33.5465,-9.5904,905.2678],[33.5471,-9.5948,897.8782],[33.5416,-9.5981,1035.8047],[33.5373,-9.6066,998.2465],[33.5331,-9.6101,1070.9785],[33.5286,-9.61,1283.0974],[33.528,-9.6118,1196.288],[33.5344,-9.6205,1128.1335],[33.5341,-9.63,1396.2518],[33.5373,-9.6375,1495.4393],[33.5338,-9.6403,1538.4436],[33.5339,-9.6446,1717.9012],[33.5309,-9.6467,1539.3411],[33.5301,-9.6523,1612.6278],[33.5316,-9.6548,1540.5679],[33.5363,-9.6542,1705.6813],[33.5362,-9.6573,1618.355],[33.5407,-9.6586,1673.6385],[33.5429,-9.6618,1647.8484],[33.5457,-9.6622,1643.9944],[33.5504,-9.6667,1558.5029],[33.5446,-9.6725,1504.0323],[33.5472,-9.6758,1444.7621],[33.5454,-9.6788,1506.0676],[33.5465,-9.6861,1534.4893]]]]}}