{"type":"Feature","properties":{"GID_3":"MWI.24.2.59_1","GID_0":"MWI","country":"Malawi","GID_1":"MWI.24_1","province":"Phalombe","NL_NAME_1":"NA","GID_2":"MWI.24.2_1","county":"TAMkhumba","NL_NAME_2":"NA","city":"n.a.(2568)","VARNAME_3":"NA","NL_NAME_3":"NA","TYPE_3":"Unknown","ENGTYPE_3":"Unknown","CC_3":"NA","HASC_3":"NA","name":"n.a.(2568).city"},
"geometry":{"type": "MultiPolygon","coordinates": [[[[35.5435,-15.8348,717.8293],[35.5485,-15.8396,723.9116],[35.554,-15.8404,745.9381],[35.5595,-15.8265,718.3059],[35.5592,-15.8191,713.6259],[35.5568,-15.8127,712.7476],[35.5491,-15.8089,711.9792],[35.5438,-15.8013,709.7493],[35.5358,-15.8148,710.2989],[35.5401,-15.8231,712.9344],[35.5301,-15.833,714.7548],[35.5321,-15.8343,719.3912],[35.5376,-15.8333,717.9999],[35.5435,-15.8348,717.8293]]]]}}