{"type":"Feature","properties":{"GID_3":"MWI.28.8.25_1","GID_0":"MWI","country":"Malawi","GID_1":"MWI.28_1","province":"Zomba","NL_NAME_1":"NA","GID_2":"MWI.28.8_1","county":"TAMwambo","NL_NAME_2":"NA","city":"n.a.(2220)","VARNAME_3":"NA","NL_NAME_3":"NA","TYPE_3":"Unknown","ENGTYPE_3":"Unknown","CC_3":"NA","HASC_3":"NA","name":"n.a.(2220).city"},
"geometry":{"type": "MultiPolygon","coordinates": [[[[35.6624,-15.4624,625.4655],[35.6423,-15.4567,625.0484],[35.6311,-15.4556,624.4167],[35.6136,-15.4614,627.0268],[35.6194,-15.467,628.3308],[35.6169,-15.4734,629.3497],[35.6207,-15.4748,628.9351],[35.6081,-15.4934,633.8418],[35.6193,-15.4992,634.1838],[35.6285,-15.4993,632.2148],[35.6301,-15.4972,632.657],[35.6274,-15.494,631.071],[35.63,-15.4946,632.1866],[35.6326,-15.4911,630.967],[35.6313,-15.4892,631.1074],[35.6339,-15.4872,631.4103],[35.6348,-15.4818,629.3832],[35.6375,-15.482,630.8499],[35.6389,-15.4797,630.8046],[35.6413,-15.481,630.653],[35.6446,-15.4792,629.0432],[35.6473,-15.4796,629.164],[35.6475,-15.4757,627.742],[35.6597,-15.4711,627.185],[35.6635,-15.4656,625.566],[35.6624,-15.4624,625.4655]]]]}}