{"type":"Feature","properties":{"GID_3":"MWI.21.5.3_1","GID_0":"MWI","country":"Malawi","GID_1":"MWI.21_1","province":"Nsanje","NL_NAME_1":"NA","GID_2":"MWI.21.5_1","county":"TAChimombo","NL_NAME_2":"NA","city":"n.a.(3116)","VARNAME_3":"NA","NL_NAME_3":"NA","TYPE_3":"Unknown","ENGTYPE_3":"Unknown","CC_3":"NA","HASC_3":"NA","name":"n.a.(3116).city"},
"geometry":{"type": "MultiPolygon","coordinates": [[[[35.2244,-17.0262,51.2648],[35.2202,-17.034,48.9199],[35.1992,-17.0336,72.2477],[35.1959,-17.0462,65.8679],[35.2022,-17.0505,56.6919],[35.2106,-17.0514,48.1212],[35.216,-17.0424,49.5806],[35.2246,-17.0443,40.7012],[35.2269,-17.0431,39.4568],[35.2534,-17.05,33.9328],[35.2558,-17.0478,33.8659],[35.2573,-17.0444,34.2859],[35.2497,-17.0334,32.667],[35.252,-17.0304,32.7221],[35.2486,-17.0248,33.1151],[35.2436,-17.0278,33.1172],[35.229,-17.028,41.9067],[35.2244,-17.0262,51.2648]]]]}}