{"type": "Feature","bbox": [32.9445,-9.5005,33.0765,-9.3638],"geometry": {"type": "MultiPolygon","coordinates": [[[[33.0705,-9.4425,1306.8464],[33.0712,-9.4361,1317.2109],[33.0653,-9.4355,1304.2375],[33.0597,-9.4319,1306.694],[33.0595,-9.4268,1308.9955],[33.0544,-9.4218,1330.5853],[33.052,-9.4217,1310.5986],[33.0459,-9.4144,1315.1342],[33.0426,-9.4122,1317.8051],[33.0381,-9.4145,1316.5939],[33.0385,-9.4117,1317.3326],[33.0356,-9.4079,1319.7407],[33.0246,-9.4024,1320.5237],[33.0223,-9.3993,1322.1433],[33.0219,-9.3925,1322.0674],[33.0131,-9.3799,1327.9196],[33.0099,-9.3714,1328.9348],[33.0064,-9.3681,1331.0168],[33.0035,-9.368,1331.4579],[32.9994,-9.3638,1333.7343],[32.9567,-9.398,1892.5214],[32.9559,-9.3997,1915.8412],[32.9597,-9.3996,1922.4844],[32.9445,-9.4202,1681.5282],[32.9487,-9.4351,1662.6377],[32.9445,-9.4574,1642.4937],[32.9524,-9.4662,1629.6912],[32.9497,-9.4765,1613.9896],[32.9467,-9.4813,1619.406],[32.9511,-9.4916,1633.8552],[32.9637,-9.4855,1607.9102],[32.9823,-9.483,1623.4301],[32.9903,-9.4941,1631.6644],[33.0281,-9.5005,1660.1205],[33.0254,-9.4962,1621.0089],[33.0295,-9.4914,1631.1461],[33.029,-9.4872,1692.6064],[33.0211,-9.4786,1656.0728],[33.0183,-9.4781,1619.7977],[33.0182,-9.4724,1728.5927],[33.0129,-9.4707,1589.0566],[33.0108,-9.4662,1568.2288],[33.0067,-9.4654,1560.157],[33.0115,-9.4626,1554.0957],[33.02,-9.4634,1571.7212],[33.0243,-9.4588,1566.4851],[33.0287,-9.4597,1570.4839],[33.0385,-9.4668,1553.5366],[33.0412,-9.4711,1567.4827],[33.0378,-9.4771,1592.4158],[33.0389,-9.4812,1587.5724],[33.0458,-9.4833,1571.6377],[33.0536,-9.4893,1547.5919],[33.0565,-9.4893,1547.8075],[33.0613,-9.4862,1499.3407],[33.0667,-9.4876,1503.795],[33.069,-9.485,1497.1924],[33.0752,-9.484,1449.6873],[33.0765,-9.4816,1444.2095],[33.0738,-9.48,1450.514],[33.074,-9.4773,1530.2598],[33.0691,-9.4763,1492.3374],[33.0613,-9.4686,1500.5906],[33.0621,-9.4624,1680.7238],[33.0682,-9.4568,1451.6372],[33.0716,-9.4573,1483.2339],[33.0737,-9.4557,1398.9548],[33.0711,-9.4521,1335.5502],[33.0671,-9.4527,1359.2277],[33.0705,-9.4425,1306.8464]]]]}
,"properties": {"GID_3": "MWI.5.3.1_1","GID_0": "MWI","country": "Malawi","GID_1": "MWI.5_1","province": "Chitipa","NL_NAME_1": "NA","GID_2": "MWI.5.3_1","county": "TAKameme","NL_NAME_2": "NA","city": "n.a.(1)","VARNAME_3": "NA","NL_NAME_3": "NA","TYPE_3": "Unknown","ENGTYPE_3": "Unknown","CC_3": "NA","HASC_3": "NA","name": "n.a.(1).city","area_km2": 131.849,"hist_schema_id": "Elevation0-9000","hist_area_km2": {"1300": 1.6733,"1325": 9.3081,"1350": 7.6558,"1375": 3.8279,"1400": 2.0917,"1425": 1.3596,"1450": 2.0288,"1475": 2.3843,"1500": 3.2208,"1525": 5.0403,"1550": 7.069,"1575": 11.7537,"1600": 19.7214,"1625": 17.944,"1650": 9.2236,"1675": 5.8564,"1700": 5.8565,"1725": 4.518,"1750": 3.3467,"1775": 2.1126,"1800": 1.7361,"1825": 1.3596,"1850": 1.2759,"1875": 0.7321,"1900": 0.4811,"1925": 0.2301,"1950": 0.0418}}}