{"type": "Feature","bbox": [35.5146,-16.1031,35.5596,-16.0762],"geometry": {"type": "MultiPolygon","coordinates": [[[[35.5296,-16.0794,589.9219],[35.5262,-16.0823,589.6679],[35.5203,-16.0801,585.1538],[35.5177,-16.0854,586.3303],[35.5146,-16.0874,584.8879],[35.5196,-16.0947,587.9358],[35.526,-16.0991,599.0681],[35.5399,-16.1031,604.5812],[35.5407,-16.1012,616.9957],[35.5596,-16.097,611.7979],[35.5545,-16.0915,599.1049],[35.5516,-16.0913,598.0314],[35.5512,-16.0762,593.5632],[35.536,-16.0811,591.9449],[35.5332,-16.0791,598.7131],[35.5296,-16.0794,589.9219]]]]}
,"properties": {"GID_3": "MWI.15.6.27_1","GID_0": "MWI","country": "Malawi","GID_1": "MWI.15_1","province": "Mulanje","NL_NAME_1": "NA","GID_2": "MWI.15.6_1","county": "TAMabuka","NL_NAME_2": "NA","city": "n.a.(2875)","VARNAME_3": "NA","NL_NAME_3": "NA","TYPE_3": "Unknown","ENGTYPE_3": "Unknown","CC_3": "NA","HASC_3": "NA","name": "n.a.(2875).city","area_km2": 8.291262,"hist_schema_id": "Elevation0-9000","hist_area_km2": {"575": 0.407445,"600": 6.661507,"625": 1.22231}}}