{"type": "Feature","bbox": [35.6469,-14.9568,35.6949,-14.8791],"geometry": {"type": "MultiPolygon","coordinates": [[[[35.683,-14.8796,662.6984],[35.6812,-14.8791,665.4241],[35.6751,-14.8822,661.2252],[35.6733,-14.8888,657.7298],[35.667,-14.8936,653.6477],[35.6567,-14.8963,654.4226],[35.6469,-14.8963,656.7147],[35.6517,-14.91,651.9852],[35.6618,-14.917,648.2476],[35.6548,-14.926,652.1116],[35.6551,-14.9298,650.9401],[35.6522,-14.937,646.3657],[35.6539,-14.9444,640.8868],[35.6525,-14.9549,641.8147],[35.6668,-14.9479,638.4766],[35.6748,-14.9568,634.3834],[35.6741,-14.9514,637.1539],[35.6776,-14.9352,641.6889],[35.6759,-14.9278,644.5662],[35.6774,-14.9209,645.1959],[35.6824,-14.909,645.4044],[35.6949,-14.8974,645.1763],[35.6908,-14.8885,649.8282],[35.683,-14.8796,662.6984]]]]}
,"properties": {"GID_3": "MWI.12.12.19_1","GID_0": "MWI","country": "Malawi","GID_1": "MWI.12_1","province": "Machinga","NL_NAME_1": "NA","GID_2": "MWI.12.12_1","county": "TAKawinga","NL_NAME_2": "NA","city": "n.a.(1892)","VARNAME_3": "NA","NL_NAME_3": "NA","TYPE_3": "Unknown","ENGTYPE_3": "Unknown","CC_3": "NA","HASC_3": "NA","name": "n.a.(1892).city","area_km2": 20.87714,"hist_schema_id": "Elevation0-9000","hist_area_km2": {"625": 0.32775,"650": 20.44694,"675": 0.10246}}}