{"type": "Feature","bbox": [34.2487,-16.2665,34.7758,-15.7389],"geometry": {"type": "MultiPolygon","coordinates": [[[[34.706,-16.2358,126.0241],[34.7104,-16.2299,123.8813],[34.7116,-16.219,120.8405],[34.7163,-16.2161,119.7024],[34.7197,-16.2115,115.795],[34.7313,-16.2083,117.0993],[34.7308,-16.204,111.5404],[34.7465,-16.1869,104.6624],[34.7613,-16.1774,99.8645],[34.7728,-16.1763,99.5369],[34.7758,-16.1656,94.7838],[34.7619,-16.1616,97.7311],[34.7603,-16.1594,98.6245],[34.7614,-16.1554,96.7462],[34.7603,-16.1536,100.5965],[34.746,-16.1569,101.484],[34.7352,-16.1538,103.3011],[34.7335,-16.1557,103.4132],[34.7359,-16.1624,105.6362],[34.735,-16.1657,104.3246],[34.7325,-16.167,106.6152],[34.7255,-16.1661,107.7187],[34.7241,-16.169,107.8063],[34.7215,-16.1702,108.2569],[34.7175,-16.1693,108.4629],[34.7115,-16.163,110.172],[34.7149,-16.1579,112.0452],[34.7121,-16.1514,115.9951],[34.7066,-16.1523,113.3144],[34.7011,-16.149,114.4684],[34.7041,-16.1466,113.4597],[34.7039,-16.1453,124.065],[34.6949,-16.1399,115.8592],[34.6913,-16.1433,117.232],[34.6877,-16.1431,118.4768],[34.6808,-16.1383,119.7791],[34.6776,-16.1289,121.3858],[34.6688,-16.1279,126.6961],[34.6568,-16.1193,132.2887],[34.6543,-16.1057,142.6847],[34.6613,-16.095,154.5936],[34.6615,-16.0911,193.5399],[34.6272,-16.0678,213.9158],[34.6135,-16.0524,225.6252],[34.599,-16.0426,224.426],[34.5826,-16.0347,252.1626],[34.5672,-16.03,237.0014],[34.5463,-16.0164,220.3488],[34.5412,-16.0148,238.8349],[34.5354,-16.0155,222.7476],[34.534,-16.0112,240.5086],[34.5194,-16.0027,220.7362],[34.5106,-15.9904,253.5352],[34.4895,-15.9757,277.2886],[34.4738,-15.9599,256.7598],[34.4689,-15.9563,230.5931],[34.4648,-15.9556,235.1479],[34.455,-15.9412,297.4397],[34.4448,-15.9315,248.8132],[34.446,-15.9232,277.373],[34.4507,-15.918,288.3048],[34.4501,-15.9157,298.9529],[34.4523,-15.9116,318.1251],[34.4565,-15.9077,336.9719],[34.4571,-15.9026,359.92],[34.4613,-15.8993,364.8824],[34.4637,-15.8902,383.8581],[34.4673,-15.8919,381.9342],[34.4737,-15.8871,403.7577],[34.4825,-15.8883,424.0742],[34.4844,-15.8847,451.0195],[34.4899,-15.8829,439.1985],[34.4893,-15.8799,437.4413],[34.4925,-15.8778,449.8047],[34.5132,-15.8772,490.0364],[34.5149,-15.8749,480.9354],[34.5185,-15.8737,486.3989],[34.5196,-15.8695,498.2759],[34.5235,-15.8671,513.0438],[34.5195,-15.8568,533.0257],[34.5198,-15.8483,550.2201],[34.5227,-15.8417,581.936],[34.5278,-15.8384,608.6468],[34.5328,-15.8323,720.056],[34.5297,-15.8276,589.7549],[34.5274,-15.8145,716.335],[34.5252,-15.8111,859.7107],[34.5081,-15.8025,665.4774],[34.3535,-15.74,795.3117],[34.349,-15.7419,809.7965],[34.3363,-15.7389,613.9373],[34.3281,-15.7426,605.3226],[34.326,-15.7419,618.472],[34.3225,-15.7467,616.9465],[34.3117,-15.7544,589.3149],[34.2996,-15.7585,588.8983],[34.2977,-15.7689,557.4388],[34.2924,-15.7751,548.9072],[34.2871,-15.7849,514.101],[34.2854,-15.7855,514.101],[34.2829,-15.7838,503.3862],[34.2796,-15.788,512.4742],[34.2727,-15.7918,409.812],[34.2704,-15.8013,397.5471],[34.2726,-15.8125,405.1895],[34.2679,-15.8159,398.6872],[34.2633,-15.8161,399.9355],[34.2586,-15.8208,390.0702],[34.2545,-15.8351,388.6455],[34.2487,-15.8402,391.9095],[34.2521,-15.8457,393.7823],[34.2515,-15.8485,393.7915],[34.261,-15.8644,405.3283],[34.2594,-15.8673,422.5679],[34.2555,-15.8679,412.564],[34.2504,-15.8755,429.6128],[34.2625,-15.8859,634.2462],[34.2549,-15.8895,480.5551],[34.2523,-15.893,651.7242],[34.2542,-15.9077,753.6129],[34.2572,-15.9109,913.7824],[34.2575,-15.9158,908.2316],[34.2705,-15.9173,800.5806],[34.274,-15.9216,812.8596],[34.2747,-15.9249,756.4775],[34.2773,-15.9234,745.2143],[34.2819,-15.9277,597.634],[34.289,-15.9287,436.6541],[34.2992,-15.925,394.1481],[34.3045,-15.926,426.8049],[34.3224,-15.9382,350.7309],[34.3297,-15.955,347.5498],[34.3274,-15.9566,349.1955],[34.3551,-15.9612,351.9999],[34.3627,-15.9672,339.5635],[34.3678,-15.9844,343.2203],[34.3759,-15.9818,332.2475],[34.3891,-15.9899,330.0315],[34.3943,-15.9858,329.9994],[34.3945,-15.9807,317.7299],[34.3925,-15.9795,298.1799],[34.3944,-15.9763,297.0134],[34.4048,-15.9728,276.8604],[34.4068,-15.9677,236.5296],[34.4101,-15.9684,228.3815],[34.4129,-15.9681,223.0169],[34.4132,-15.9663,221.5886],[34.4158,-15.967,207.8889],[34.4174,-15.9763,204.6583],[34.4246,-15.9909,232.6414],[34.4263,-15.9977,234.9156],[34.4673,-16.0168,210.2391],[34.4851,-16.0378,217.7488],[34.5253,-16.0694,192.929],[34.5327,-16.0864,185.8215],[34.5544,-16.0984,163.3697],[34.5905,-16.1496,189.4344],[34.6613,-16.1606,140.8115],[34.6621,-16.2323,139.7783],[34.6838,-16.2665,156.7391],[34.6945,-16.2522,138.1816],[34.7038,-16.2441,129.6985],[34.706,-16.2358,126.0241]]]]}
,"properties": {"GID_2": "MWI.3.5_1","GID_0": "MWI","country": "Malawi","GID_1": "MWI.3_1","province": "Chikwawa","NL_NAME_1": "NA","county": "TAChapananga","VARNAME_2": "NA","NL_NAME_2": "NA","TYPE_2": "TraditionalAuthority","ENGTYPE_2": "TraditionalAuthority","CC_2": "NA","HASC_2": "NA","name": "T_A_Chapananga.county","area_km2": 821.1848,"hist_schema_id": "Elevation0-9000","hist_area_km2": {"100": 23.0506,"125": 67.543,"150": 69.5978,"175": 57.8812,"200": 57.306,"225": 42.0922,"250": 23.6904,"275": 15.7208,"300": 26.9158,"325": 35.5422,"350": 49.3275,"375": 44.8461,"400": 30.2852,"425": 17.029,"450": 21.6598,"475": 34.5727,"500": 38.3897,"525": 38.9835,"550": 33.8242,"575": 33.1931,"600": 22.9932,"625": 13.2003,"650": 5.5287,"675": 3.203,"700": 2.5501,"725": 2.2847,"750": 2.6111,"775": 2.0805,"800": 1.8969,"825": 1.4278,"850": 0.8157,"875": 0.3671,"900": 0.2855,"925": 0.3466,"950": 0.1223,"975": 0.0204}}}