{"type": "Feature","bbox": [34.8556,-14.9221,34.9175,-14.8409],"geometry": {"type": "MultiPolygon","coordinates": [[[[34.9175,-14.9067,721.5398],[34.9138,-14.9015,737.6266],[34.9009,-14.8993,754.7182],[34.904,-14.8925,771.1171],[34.9034,-14.8895,759.4425],[34.8985,-14.8881,780.0837],[34.8917,-14.8896,785.4452],[34.8886,-14.8878,793.9],[34.8894,-14.8828,797.8109],[34.8869,-14.8782,786.8712],[34.8882,-14.8724,787.1381],[34.8921,-14.8687,765.0167],[34.8966,-14.8545,695.405],[34.8902,-14.8532,700.4435],[34.888,-14.8501,698.0664],[34.8853,-14.8498,700.0264],[34.8848,-14.8432,698.6711],[34.8802,-14.8409,696.5551],[34.8719,-14.8488,720.3203],[34.8698,-14.8622,722.3045],[34.8649,-14.8668,736.0999],[34.8587,-14.8664,749.352],[34.8556,-14.8685,761.6199],[34.8592,-14.8818,755.527],[34.8582,-14.8913,792.3991],[34.8702,-14.8906,799.5376],[34.8751,-14.8953,814.4758],[34.8756,-14.8983,799.9215],[34.8833,-14.9004,775.3601],[34.8938,-14.9118,741.0289],[34.9027,-14.9151,725.6213],[34.9078,-14.9219,723.1096],[34.9094,-14.9221,709.4337],[34.9175,-14.9067,721.5398]]]]}
,"properties": {"GID_3": "MWI.22.4.14_1","GID_0": "MWI","country": "Malawi","GID_1": "MWI.22_1","province": "Ntcheu","NL_NAME_1": "NA","GID_2": "MWI.22.4_1","county": "SCMakwangwala","NL_NAME_2": "NA","city": "n.a.(1859)","VARNAME_3": "NA","NL_NAME_3": "NA","TYPE_3": "Unknown","ENGTYPE_3": "Unknown","CC_3": "NA","HASC_3": "NA","name": "n.a.(1859).city","area_km2": 22.90899,"hist_schema_id": "Elevation0-9000","hist_area_km2": {"700": 2.0084,"725": 3.9139,"750": 6.70046,"775": 6.67995,"800": 3.50384,"825": 0.10245}}}