{"type": "Feature","bbox": [34.4821,-14.3,34.5179,-14.2704],"geometry": {"type": "MultiPolygon","coordinates": [[[[34.4821,-14.2724,717.2325],[34.4889,-14.3,668.6133],[34.4925,-14.2994,655.9859],[34.4983,-14.2946,628.8478],[34.5056,-14.2936,609.4683],[34.5079,-14.2875,605.7896],[34.5155,-14.2836,568.3134],[34.5179,-14.2794,542.4037],[34.5165,-14.2741,545.2151],[34.5123,-14.2732,550.621],[34.5098,-14.2704,553.7004],[34.5014,-14.2725,601.2147],[34.4921,-14.271,627.6989],[34.4821,-14.2724,717.2325]]]]}
,"properties": {"GID_3": "MWI.6.6.17_1","GID_0": "MWI","country": "Malawi","GID_1": "MWI.6_1","province": "Dedza","NL_NAME_1": "NA","GID_2": "MWI.6.6_1","county": "TAKachindamoto","NL_NAME_2": "NA","city": "n.a.(1429)","VARNAME_3": "NA","NL_NAME_3": "NA","TYPE_3": "Unknown","ENGTYPE_3": "Unknown","CC_3": "NA","HASC_3": "NA","name": "n.a.(1429).city","area_km2": 8.01328,"hist_schema_id": "Elevation0-9000","hist_area_km2": {"550": 0.904084,"575": 0.821887,"600": 2.116339,"625": 2.609426,"650": 1.047871,"675": 0.390389,"700": 0.08219,"725": 0.041095}}}