{"type":"Feature","properties":{"GID_3":"MWI.26.3.1_1","GID_0":"MWI","country":"Malawi","GID_1":"MWI.26_1","province":"Salima","NL_NAME_1":"NA","GID_2":"MWI.26.3_1","county":"SCKambalame","NL_NAME_2":"NA","city":"n.a.(1176)","VARNAME_3":"NA","NL_NAME_3":"NA","TYPE_3":"Unknown","ENGTYPE_3":"Unknown","CC_3":"NA","HASC_3":"NA","name":"n.a.(1176).city"},
"geometry":{"type": "MultiPolygon","coordinates": [[[[34.4752,-14.0937,569.8527],[34.4697,-14.0868,573.1021],[34.4758,-14.0889,559.0917],[34.4843,-14.0867,547.8215],[34.4883,-14.0821,542.6392],[34.4977,-14.079,518.5765],[34.4973,-14.0749,517.5207],[34.5045,-14.0721,505.2638],[34.5124,-14.0769,502.2343],[34.51,-14.0682,499.3776],[34.5106,-14.0613,495.1072],[34.5137,-14.0612,491.7906],[34.517,-14.0644,488.579],[34.5235,-14.0649,487.4648],[34.5302,-14.0678,481.6923],[34.5394,-14.0667,476.2114],[34.534,-14.055,474.9137],[34.532,-14.0415,478.8213],[34.5005,-14.0375,497.0628],[34.4945,-14.0389,502.4534],[34.4919,-14.0403,503.4117],[34.4898,-14.0458,506.8245],[34.4832,-14.0474,514.541],[34.4759,-14.0527,524.2325],[34.4742,-14.0567,527.1982],[34.4693,-14.0613,534.5274],[34.4631,-14.0627,538.5758],[34.4606,-14.0693,554.595],[34.4534,-14.0723,658.0687],[34.4541,-14.0763,575.1851],[34.4627,-14.0843,580.6129],[34.4683,-14.0924,573.3127],[34.4752,-14.0937,569.8527]]]]}}