{"type": "Feature","bbox": [35.3168,-16.0846,35.3367,-16.0441],"geometry": {"type": "MultiPolygon","coordinates": [[[[35.3361,-16.076,646.5319],[35.3338,-16.0676,651.3763],[35.3367,-16.0594,680.0326],[35.3341,-16.0596,662.9024],[35.3336,-16.0583,668.1379],[35.3364,-16.0529,692.0785],[35.3269,-16.0441,668.5396],[35.3243,-16.0468,660.748],[35.3196,-16.0476,659.9724],[35.3168,-16.05,637.2295],[35.3218,-16.0589,649.1193],[35.3196,-16.0646,629.7928],[35.3234,-16.0675,626.15],[35.3252,-16.0724,592.0398],[35.3223,-16.0828,583.2335],[35.3272,-16.0846,603.9865],[35.3361,-16.076,646.5319]]]]}
,"properties": {"GID_3": "MWI.15.8.13_1","GID_0": "MWI","country": "Malawi","GID_1": "MWI.15_1","province": "Mulanje","NL_NAME_1": "NA","GID_2": "MWI.15.8_1","county": "TANthiramanja","NL_NAME_2": "NA","city": "n.a.(2829)","VARNAME_3": "NA","NL_NAME_3": "NA","TYPE_3": "Unknown","ENGTYPE_3": "Unknown","CC_3": "NA","HASC_3": "NA","name": "n.a.(2829).city","area_km2": 5.602969,"hist_schema_id": "Elevation0-9000","hist_area_km2": {"575": 0.142609,"600": 0.631563,"625": 0.896445,"650": 2.343074,"675": 1.528151,"700": 0.061127}}}