{"type": "Feature","bbox": [33.8106,-14.3229,33.8853,-14.2733],"geometry": {"type": "MultiPolygon","coordinates": [[[[33.8554,-14.3219,1193.4059],[33.867,-14.3229,1196.4972],[33.8798,-14.3189,1189.4386],[33.8853,-14.3139,1190.4008],[33.8762,-14.3007,1218.192],[33.869,-14.2994,1231.4222],[33.867,-14.2975,1230.2936],[33.8641,-14.2908,1219.0995],[33.8666,-14.2779,1199.2122],[33.8647,-14.2749,1189.3224],[33.8611,-14.2733,1196.4948],[33.8501,-14.2812,1206.5134],[33.8392,-14.2847,1212.9473],[33.8322,-14.2846,1216.3284],[33.8246,-14.2804,1220.4008],[33.8166,-14.2825,1222.264],[33.8106,-14.2914,1229.3528],[33.837,-14.3122,1197.0964],[33.8453,-14.3124,1196.9287],[33.8486,-14.317,1188.2986],[33.8554,-14.3219,1193.4059]]]]}
,"properties": {"GID_3": "MWI.11.8.49_1","GID_0": "MWI","country": "Malawi","GID_1": "MWI.11_1","province": "Lilongwe","NL_NAME_1": "NA","GID_2": "MWI.11.8_1","county": "TAChiseka","NL_NAME_2": "NA","city": "n.a.(1432)","VARNAME_3": "NA","NL_NAME_3": "NA","TYPE_3": "Unknown","ENGTYPE_3": "Unknown","CC_3": "NA","HASC_3": "NA","name": "n.a.(1432).city","area_km2": 22.82585,"hist_schema_id": "Elevation0-9000","hist_area_km2": {"1175": 0.06164,"1200": 7.51945,"1225": 15.22421,"1250": 0.02055}}}