{"type": "Feature","bbox": [33.1385,-13.5306,33.2029,-13.4994],"geometry": {"type": "MultiPolygon","coordinates": [[[[33.1793,-13.4994,1085.2755],[33.1694,-13.5014,1086.049],[33.1431,-13.5005,1071.2266],[33.1409,-13.5063,1073.0359],[33.1434,-13.5118,1081.5793],[33.1434,-13.5171,1082.8387],[33.1385,-13.5253,1088.3413],[33.1431,-13.5296,1090.3853],[33.1462,-13.5304,1091.2864],[33.1772,-13.5306,1133.6298],[33.1761,-13.5242,1120.0117],[33.1844,-13.5235,1123.6285],[33.1865,-13.5242,1121.1931],[33.1904,-13.5295,1129.8618],[33.2029,-13.5144,1122.1565],[33.1896,-13.5091,1096.7711],[33.1793,-13.4994,1085.2755]]]]}
,"properties": {"GID_3": "MWI.14.2.3_1","GID_0": "MWI","country": "Malawi","GID_1": "MWI.14_1","province": "Mchinji","NL_NAME_1": "NA","GID_2": "MWI.14.2_1","county": "SCDambe","NL_NAME_2": "NA","city": "n.a.(683)","VARNAME_3": "NA","NL_NAME_3": "NA","TYPE_3": "Unknown","ENGTYPE_3": "Unknown","CC_3": "NA","HASC_3": "NA","name": "n.a.(683).city","area_km2": 17.33726,"hist_schema_id": "Elevation0-9000","hist_area_km2": {"1075": 4.74158,"1100": 9.95702,"1125": 2.63865}}}