{"type": "Feature","bbox": [34.2881,-13.5626,34.3771,-13.5131],"geometry": {"type": "MultiPolygon","coordinates": [[[[34.3589,-13.5231,491.095],[34.356,-13.5253,494.8907],[34.3477,-13.5234,495.8967],[34.3357,-13.5251,504.1617],[34.3332,-13.5292,504.3357],[34.3298,-13.5303,507.7637],[34.3292,-13.5334,509.0507],[34.3229,-13.537,513.1168],[34.3187,-13.5361,516.0262],[34.3131,-13.5387,521.8265],[34.3097,-13.5372,524.9869],[34.3015,-13.5384,530.741],[34.2923,-13.5423,532.0876],[34.2881,-13.5471,536.3972],[34.3026,-13.5626,532.3746],[34.3085,-13.5617,528.282],[34.3139,-13.5576,521.9433],[34.3187,-13.5575,520.0087],[34.3238,-13.5532,514.9146],[34.3305,-13.5505,509.506],[34.3347,-13.5493,506.498],[34.3416,-13.5506,505.1598],[34.3519,-13.5443,497.7649],[34.3588,-13.5308,491.3723],[34.3679,-13.5256,484.51],[34.3771,-13.5248,480.994],[34.3738,-13.5131,478.5308],[34.3589,-13.5231,491.095]]]]}
,"properties": {"GID_3": "MWI.26.7.5_1","GID_0": "MWI","country": "Malawi","GID_1": "MWI.26_1","province": "Salima","NL_NAME_1": "NA","GID_2": "MWI.26.7_1","county": "TAKhombedza","NL_NAME_2": "NA","city": "n.a.(692)","VARNAME_3": "NA","NL_NAME_3": "NA","TYPE_3": "Unknown","ENGTYPE_3": "Unknown","CC_3": "NA","HASC_3": "NA","name": "n.a.(692).city","area_km2": 18.26301,"hist_schema_id": "Elevation0-9000","hist_area_km2": {"475": 1.25749,"500": 8.74002,"525": 8.2655}}}