{"type": "Feature","bbox": [35.2723,-15.6045,35.3095,-15.57],"geometry": {"type": "MultiPolygon","coordinates": [[[[35.2845,-15.574,843.4294],[35.2881,-15.5886,823.3808],[35.2767,-15.5891,848.7374],[35.2723,-15.5934,867.8624],[35.2745,-15.5953,857.3445],[35.2783,-15.5951,840.3529],[35.2785,-15.598,846.0742],[35.2816,-15.6001,857.9294],[35.2929,-15.6045,830.4039],[35.2971,-15.595,816.875],[35.3015,-15.5942,812.6182],[35.3026,-15.5918,824.376],[35.3095,-15.5886,826.4391],[35.3041,-15.5858,829.8966],[35.3056,-15.5804,825.6094],[35.3034,-15.5785,834.4941],[35.2935,-15.5745,855.7466],[35.293,-15.57,860.5961],[35.2856,-15.571,845.381],[35.2845,-15.574,843.4294]]]]}
,"properties": {"GID_3": "MWI.28.2.27_1","GID_0": "MWI","country": "Malawi","GID_1": "MWI.28_1","province": "Zomba","NL_NAME_1": "NA","GID_2": "MWI.28.2_1","county": "SCMbiza","NL_NAME_2": "NA","city": "n.a.(2334)","VARNAME_3": "NA","NL_NAME_3": "NA","TYPE_3": "Unknown","ENGTYPE_3": "Unknown","CC_3": "NA","HASC_3": "NA","name": "n.a.(2334).city","area_km2": 6.882339,"hist_schema_id": "Elevation0-9000","hist_area_km2": {"800": 0.040844,"825": 3.451354,"850": 2.940851,"875": 0.388024,"900": 0.061267}}}