{"type":"Feature","properties":{"GID_3":"MWI.7.7.21_1","GID_0":"MWI","country":"Malawi","GID_1":"MWI.7_1","province":"Dowa","NL_NAME_1":"NA","GID_2":"MWI.7.7_1","county":"TAChiwere","NL_NAME_2":"NA","city":"n.a.(886)","VARNAME_3":"NA","NL_NAME_3":"NA","TYPE_3":"Unknown","ENGTYPE_3":"Unknown","CC_3":"NA","HASC_3":"NA","name":"n.a.(886).city"},
"geometry":{"type": "MultiPolygon","coordinates": [[[[34.1387,-13.7287,950.0708],[34.134,-13.7318,961.5889],[34.1301,-13.738,978.0175],[34.1226,-13.7387,955.0031],[34.1328,-13.755,912.2167],[34.129,-13.7677,960.9402],[34.1288,-13.7803,967.1128],[34.1266,-13.7861,979.7438],[34.1227,-13.7901,910.2329],[34.1261,-13.7909,916.8685],[34.1394,-13.7866,875.6612],[34.1448,-13.788,861.3776],[34.1511,-13.7922,831.101],[34.1566,-13.7871,813.1053],[34.1668,-13.7928,790.4778],[34.1744,-13.795,731.7332],[34.1779,-13.7896,816.9583],[34.1763,-13.7837,752.6683],[34.1852,-13.7775,848.7117],[34.1915,-13.7674,818.968],[34.1913,-13.7633,823.0077],[34.1777,-13.7554,850.6682],[34.1576,-13.7333,948.8207],[34.1467,-13.7334,944.4987],[34.1387,-13.7287,950.0708]]]]}}