{"type": "Feature","bbox": [35.5745,-14.5319,35.6264,-14.4888],"geometry": {"type": "MultiPolygon","coordinates": [[[[35.583,-14.4981,836.6436],[35.5802,-14.5102,839.8635],[35.575,-14.514,850.1442],[35.5745,-14.5194,846.7958],[35.5761,-14.5224,850.2762],[35.5749,-14.5279,855.0482],[35.5785,-14.5304,866.0115],[35.5879,-14.5283,878.0513],[35.5907,-14.5319,898.4702],[35.604,-14.5225,848.6209],[35.6087,-14.5096,829.4791],[35.6129,-14.5031,815.0349],[35.6233,-14.5005,793.5198],[35.6212,-14.4955,772.2752],[35.6257,-14.4935,770.2744],[35.6264,-14.4906,778.7432],[35.6165,-14.4907,798.0521],[35.6088,-14.4888,805.78],[35.5951,-14.5021,818.5818],[35.5941,-14.5087,837.9191],[35.5921,-14.5045,829.3398],[35.5873,-14.503,842.0448],[35.583,-14.4981,836.6436]]]]}
,"properties": {"GID_3": "MWI.13.6.11_1","GID_0": "MWI","country": "Malawi","GID_1": "MWI.13_1","province": "Mangochi","NL_NAME_1": "NA","GID_2": "MWI.13.6_1","county": "SCMbwanaNyambi","NL_NAME_2": "NA","city": "n.a.(1638)","VARNAME_3": "NA","NL_NAME_3": "NA","TYPE_3": "Unknown","ENGTYPE_3": "Unknown","CC_3": "NA","HASC_3": "NA","name": "n.a.(1638).city","area_km2": 12.50027,"hist_schema_id": "Elevation0-9000","hist_area_km2": {"775": 0.985308,"800": 2.750615,"825": 2.586273,"850": 5.131331,"875": 0.944122,"900": 0.10262}}}