{"type": "Feature","bbox": [33.6641,-9.8509,33.9246,-9.6834],"geometry": {"type": "MultiPolygon","coordinates": [[[[33.8398,-9.8509,504.7996],[33.845,-9.8495,500.7779],[33.9063,-9.8496,477.0772],[33.8981,-9.8399,477.5828],[33.9016,-9.8369,476.4873],[33.9009,-9.8286,476.1576],[33.8982,-9.8217,478.8752],[33.9027,-9.8138,476.987],[33.9029,-9.8099,476.9014],[33.9,-9.8067,476.8937],[33.8938,-9.813,479.5222],[33.8973,-9.8089,478.7531],[33.8946,-9.8024,478.2533],[33.8964,-9.7902,475.4414],[33.8945,-9.7801,476.5569],[33.897,-9.7771,476.2068],[33.8986,-9.7703,475.5273],[33.8896,-9.7607,474.5],[33.8883,-9.7622,475.5],[33.8861,-9.7576,476.7825],[33.8858,-9.7526,477.4406],[33.8837,-9.7519,477.6007],[33.8871,-9.7449,478.2639],[33.8976,-9.7323,478.0544],[33.9151,-9.7197,478.4474],[33.9219,-9.7171,477.3022],[33.9246,-9.7182,476.728],[33.9243,-9.711,478.649],[33.9207,-9.7088,478.3524],[33.9178,-9.7089,478.984],[33.9148,-9.7138,479.3347],[33.9138,-9.7106,479.5464],[33.9117,-9.7109,478.5543],[33.9089,-9.7077,481.4241],[33.9076,-9.7095,481.5057],[33.9077,-9.707,481.5599],[33.9044,-9.7083,478.1888],[33.9019,-9.7048,478.3331],[33.9046,-9.7055,480.9662],[33.9097,-9.7017,481.6223],[33.9099,-9.6984,479.9752],[33.9131,-9.6947,483.4242],[33.912,-9.6923,480.8828],[33.9074,-9.6899,481.5537],[33.9043,-9.6912,481.5643],[33.9011,-9.6883,483.9682],[33.8973,-9.6914,485.6636],[33.8966,-9.6868,485.1966],[33.8945,-9.6861,486.3322],[33.8911,-9.6876,486.2807],[33.8925,-9.6838,484.9415],[33.8898,-9.6834,485.6811],[33.8867,-9.6859,486.3004],[33.8791,-9.6859,484.7664],[33.8674,-9.6947,484.4281],[33.8617,-9.7015,495.4737],[33.8562,-9.7048,523.6181],[33.8472,-9.7071,583.699],[33.8382,-9.7074,564.9437],[33.8108,-9.7019,597.0826],[33.7924,-9.7092,648.6417],[33.7458,-9.7103,800.3028],[33.724,-9.7063,840.5681],[33.7158,-9.7021,839.8851],[33.7083,-9.7008,773.8402],[33.6915,-9.7052,859.9156],[33.6847,-9.7128,904.2208],[33.6793,-9.7152,951.9764],[33.6691,-9.7161,966.5837],[33.6641,-9.7149,1031.2505],[33.6833,-9.7295,1029.1956],[33.6738,-9.7458,1140.0938],[33.6883,-9.7568,963.2128],[33.6893,-9.7614,993.1829],[33.6876,-9.7698,898.3814],[33.6953,-9.7735,882.8589],[33.6995,-9.778,857.0389],[33.6997,-9.7816,874.0128],[33.6981,-9.7838,926.4337],[33.7004,-9.7869,841.0678],[33.6977,-9.7905,868.3608],[33.7001,-9.7917,817.5602],[33.6978,-9.7946,864.8887],[33.6986,-9.7959,864.8887],[33.7045,-9.7985,812.5755],[33.7057,-9.7974,820.9803],[33.7052,-9.7927,873.9832],[33.7075,-9.7923,879.1331],[33.7119,-9.7942,828.8077],[33.7165,-9.7992,817.6743],[33.7356,-9.8034,791.662],[33.7393,-9.8027,819.4712],[33.7658,-9.8308,790.7388],[33.7789,-9.838,718.5179],[33.7901,-9.838,725.5856],[33.7946,-9.8425,695.7024],[33.7994,-9.8414,708.3422],[33.8008,-9.8447,675.3465],[33.803,-9.844,671.6122],[33.8053,-9.8398,718.9636],[33.8125,-9.8404,651.7513],[33.8223,-9.8454,576.6044],[33.8268,-9.8457,519.3867],[33.8288,-9.8487,506.7936],[33.8326,-9.8482,505.2937],[33.8398,-9.8509,504.7996]]]]}
,"properties": {"GID_2": "MWI.8.6_1","GID_0": "MWI","country": "Malawi","GID_1": "MWI.8_1","province": "Karonga","NL_NAME_1": "NA","county": "TAKilupula","VARNAME_2": "NA","NL_NAME_2": "NA","TYPE_2": "TraditionalAuthority","ENGTYPE_2": "TraditionalAuthority","CC_2": "NA","HASC_2": "NA","name": "T_A_Kilupula.county","area_km2": 329.9724,"hist_schema_id": "Elevation0-9000","hist_area_km2": {"475": 73.2157,"500": 55.7017,"525": 14.6688,"550": 9.8423,"575": 7.251,"600": 6.7702,"625": 5.8507,"650": 6.7909,"675": 8.0238,"700": 10.3009,"725": 13.2676,"750": 15.4199,"775": 17.928,"800": 21.1879,"825": 21.7523,"850": 13.1225,"875": 7.7941,"900": 5.4329,"925": 3.4478,"950": 2.6329,"975": 2.7583,"1000": 2.5912,"1025": 1.7553,"1050": 1.4419,"1075": 0.3761,"1100": 0.3552,"1125": 0.209,"1150": 0.0836}}}