{"type":"Feature","properties":{"GID_3":"MWI.27.2.1_1","GID_0":"MWI","country":"Malawi","GID_1":"MWI.27_1","province":"Thyolo","NL_NAME_1":"NA","GID_2":"MWI.27.2_1","county":"SCKwethemule","NL_NAME_2":"NA","city":"n.a.(2901)","VARNAME_3":"NA","NL_NAME_3":"NA","TYPE_3":"Unknown","ENGTYPE_3":"Unknown","CC_3":"NA","HASC_3":"NA","name":"n.a.(2901).city"},
"geometry":{"type": "MultiPolygon","coordinates": [[[[35.0791,-16.1279,879.338],[35.0786,-16.1319,890.3326],[35.0836,-16.1341,879.4971],[35.0852,-16.129,883.4113],[35.0885,-16.1274,847.6407],[35.0897,-16.1192,874.8436],[35.1015,-16.1208,821.7143],[35.1058,-16.1191,826.5802],[35.1079,-16.1198,816.3066],[35.1092,-16.1175,806.808],[35.1079,-16.1144,833.9506],[35.1091,-16.111,836.2878],[35.103,-16.1074,858.6791],[35.1078,-16.1045,844.4818],[35.11,-16.0996,842.6386],[35.1033,-16.1018,858.9835],[35.0982,-16.0992,852.0081],[35.0839,-16.0999,909.5291],[35.0803,-16.0988,922.5405],[35.0794,-16.0944,949.1078],[35.073,-16.0958,960.0895],[35.0709,-16.0988,927.4262],[35.0723,-16.1082,836.6221],[35.079,-16.105,907.8966],[35.0788,-16.1082,901.1033],[35.0832,-16.1142,883.0981],[35.0791,-16.1279,879.338]]]]}}