{"type": "Feature","bbox": [35.4328,-16.0008,35.4743,-15.9791],"geometry": {"type": "MultiPolygon","coordinates": [[[[35.4743,-15.9923,645.9977],[35.4606,-15.9791,682.925],[35.4576,-15.9828,723.783],[35.4565,-15.9815,723.783],[35.4501,-15.9828,752.9835],[35.4444,-15.9875,749.4822],[35.4468,-15.9898,771.9487],[35.4396,-15.9889,717.8848],[35.4328,-15.9977,689.2847],[35.4537,-15.9974,692.3274],[35.4694,-16.0008,656.568],[35.4712,-16.0003,651.0012],[35.4743,-15.9923,645.9977]]]]}
,"properties": {"GID_3": "MWI.15.5.4_1","GID_0": "MWI","country": "Malawi","GID_1": "MWI.15_1","province": "Mulanje","NL_NAME_1": "NA","GID_2": "MWI.15.5_1","county": "TAChikumbu","NL_NAME_2": "NA","city": "n.a.(2740)","VARNAME_3": "NA","NL_NAME_3": "NA","TYPE_3": "Unknown","ENGTYPE_3": "Unknown","CC_3": "NA","HASC_3": "NA","name": "n.a.(2740).city","area_km2": 5.86994,"hist_schema_id": "Elevation0-9000","hist_area_km2": {"650": 0.896792,"675": 1.345197,"700": 1.039462,"725": 0.978317,"750": 0.937567,"775": 0.550313,"800": 0.122292}}}