{"type": "Feature","bbox": [35.2608,-14.5112,35.3353,-14.4402],"geometry": {"type": "MultiPolygon","coordinates": [[[[35.2825,-14.4768,477.3629],[35.2824,-14.4882,482.6169],[35.2744,-14.4879,474.2654],[35.2702,-14.4971,473.5],[35.2612,-14.5049,473.5],[35.2616,-14.5112,473.5],[35.2932,-14.4996,482.7104],[35.3,-14.4995,485.0832],[35.3082,-14.4903,495.5463],[35.3087,-14.4847,496.84],[35.3169,-14.484,509.6958],[35.3202,-14.4858,507.8066],[35.3298,-14.4868,521.0375],[35.3353,-14.4818,547.1268],[35.3331,-14.4755,520.4282],[35.325,-14.469,553.9325],[35.3251,-14.4606,556.5647],[35.3231,-14.4565,600.6431],[35.3241,-14.452,527.1736],[35.3137,-14.4495,516.0684],[35.3122,-14.4433,496.5123],[35.3077,-14.4445,493.3328],[35.3024,-14.4424,494.1019],[35.2975,-14.4456,490.966],[35.2891,-14.4431,486.3658],[35.2742,-14.4426,477.913],[35.2688,-14.4402,479.8231],[35.264,-14.441,475.3136],[35.2608,-14.446,475.8389],[35.269,-14.4586,475.6156],[35.2719,-14.4691,475.6697],[35.281,-14.4694,477.356],[35.2828,-14.4707,477.0128],[35.2825,-14.4768,477.3629]]]]}
,"properties": {"GID_3": "MWI.13.5.13_1","GID_0": "MWI","country": "Malawi","GID_1": "MWI.13_1","province": "Mangochi","NL_NAME_1": "NA","GID_2": "MWI.13.5_1","county": "SCChowe","NL_NAME_2": "NA","city": "n.a.(1598)","VARNAME_3": "NA","NL_NAME_3": "NA","TYPE_3": "Unknown","ENGTYPE_3": "Unknown","CC_3": "NA","HASC_3": "NA","name": "n.a.(1598).city","area_km2": 33.97644,"hist_schema_id": "Elevation0-9000","hist_area_km2": {"475": 19.17438,"500": 5.33779,"525": 3.40786,"550": 1.41656,"575": 0.92386,"600": 0.6775,"625": 0.59538,"650": 0.49273,"675": 0.36955,"700": 0.65697,"725": 0.41061,"750": 0.36955,"775": 0.14371}}}