{"type":"Feature","properties":{"GID_3":"MWI.7.6.8_1","GID_0":"MWI","country":"Malawi","GID_1":"MWI.7_1","province":"Dowa","NL_NAME_1":"NA","GID_2":"MWI.7.6_1","county":"SCMponela","NL_NAME_2":"NA","city":"n.a.(786)","VARNAME_3":"NA","NL_NAME_3":"NA","TYPE_3":"Unknown","ENGTYPE_3":"Unknown","CC_3":"NA","HASC_3":"NA","name":"n.a.(786).city"},
"geometry":{"type": "MultiPolygon","coordinates": [[[[33.7836,-13.6587,1367.5597],[33.7828,-13.6505,1356.5594],[33.7702,-13.6413,1323.8468],[33.7686,-13.6354,1318.115],[33.7626,-13.6351,1335.0774],[33.762,-13.6398,1341.7695],[33.7462,-13.6364,1322.5548],[33.7451,-13.6385,1326.3379],[33.7387,-13.6415,1339.9364],[33.7292,-13.6433,1354.0403],[33.7267,-13.6451,1358.0824],[33.7301,-13.6567,1376.5271],[33.7518,-13.65,1363.347],[33.7645,-13.6494,1339.9128],[33.7643,-13.6683,1318.0959],[33.7752,-13.6683,1338.7285],[33.7775,-13.6665,1341.3392],[33.779,-13.6611,1367.2968],[33.7836,-13.6587,1367.5597]]]]}}