{"type": "Feature","bbox": [35.1686,-16.3375,35.2044,-16.2946],"geometry": {"type": "MultiPolygon","coordinates": [[[[35.1693,-16.3075,662.3304],[35.1686,-16.3127,695.4744],[35.1731,-16.3111,703.7729],[35.1775,-16.3118,723.2087],[35.1778,-16.315,783.3471],[35.1821,-16.3127,721.1707],[35.1868,-16.3137,695.2892],[35.1864,-16.3172,672.5391],[35.1886,-16.3189,654.085],[35.1838,-16.3248,563.8215],[35.1857,-16.3272,526.3591],[35.1857,-16.3319,514.2239],[35.1901,-16.3366,505.2285],[35.193,-16.3375,487.1612],[35.2007,-16.3339,581.8098],[35.2044,-16.3247,629.7411],[35.2007,-16.3243,643.3735],[35.1958,-16.319,759.9338],[35.1968,-16.3167,731.5333],[35.2017,-16.3158,691.8245],[35.1974,-16.3123,697.6674],[35.1946,-16.3128,727.4679],[35.1886,-16.3062,797.0902],[35.1888,-16.3006,835.7731],[35.1916,-16.2946,880.9174],[35.1833,-16.2997,742.7076],[35.1767,-16.3063,671.6606],[35.1693,-16.3075,662.3304]]]]}
,"properties": {"GID_3": "MWI.27.11.7_1","GID_0": "MWI","country": "Malawi","GID_1": "MWI.27_1","province": "Thyolo","NL_NAME_1": "NA","GID_2": "MWI.27.11_1","county": "TANsabwe","NL_NAME_2": "NA","city": "n.a.(3010)","VARNAME_3": "NA","NL_NAME_3": "NA","TYPE_3": "Unknown","ENGTYPE_3": "Unknown","CC_3": "NA","HASC_3": "NA","name": "n.a.(3010).city","area_km2": 6.307913,"hist_schema_id": "Elevation0-9000","hist_area_km2": {"475": 0.101731,"500": 0.101733,"525": 0.325547,"550": 0.325548,"575": 0.549367,"600": 0.406943,"625": 0.284863,"650": 0.590094,"675": 0.569756,"700": 0.73255,"725": 0.95639,"750": 0.549414,"775": 0.44768,"800": 0.101748,"825": 0.162798,"850": 0.10175}}}