{"type":"Feature","properties":{"GID_3":"MWI.6.9.39_1","GID_0":"MWI","country":"Malawi","GID_1":"MWI.6_1","province":"Dedza","NL_NAME_1":"NA","GID_2":"MWI.6.9_1","county":"TAPemba","NL_NAME_2":"NA","city":"n.a.(1610)","VARNAME_3":"NA","NL_NAME_3":"NA","TYPE_3":"Unknown","ENGTYPE_3":"Unknown","CC_3":"NA","HASC_3":"NA","name":"n.a.(1610).city"},
"geometry":{"type": "MultiPolygon","coordinates": [[[[33.8661,-14.5047,1258.2402],[33.864,-14.5104,1268.6226],[33.8737,-14.5195,1270.0933],[33.878,-14.5194,1274.1738],[33.8863,-14.5135,1267.6482],[33.8829,-14.5018,1257.7363],[33.8851,-14.4967,1263.8],[33.8985,-14.4858,1260.4628],[33.9091,-14.4828,1258.7808],[33.9121,-14.4767,1254.774],[33.9144,-14.476,1252.3215],[33.9235,-14.4785,1253.6936],[33.9285,-14.4727,1263.2435],[33.9354,-14.4687,1280.001],[33.9378,-14.47,1280.9315],[33.9417,-14.478,1289.2552],[33.9562,-14.4788,1275.7252],[33.9549,-14.4592,1248.3611],[33.9484,-14.4567,1249.6144],[33.9352,-14.4549,1264.7048],[33.9358,-14.4467,1252.4845],[33.931,-14.4501,1251.5439],[33.9143,-14.451599999999999,1249.4478],[33.9087,-14.4551,1223.6642],[33.9031,-14.4509,1222.1346],[33.8832,-14.465,1231.0948],[33.8739,-14.4891,1233.8838],[33.8661,-14.5047,1258.2402]]]]}}