{"type": "Feature","bbox": [33.1883,-9.6595,33.3394,-9.571],"geometry": {"type": "MultiPolygon","coordinates": [[[[33.302,-9.6074,1283.3545],[33.2975,-9.6112,1294.6604],[33.2868,-9.6153,1261.7797],[33.2874,-9.617,1257.0833],[33.2859,-9.6179,1257.5775],[33.2823,-9.6187,1254.6904],[33.2679,-9.6105,1271.4138],[33.2641,-9.5995,1284.3728],[33.2524,-9.5917,1295.0344],[33.2464,-9.571,1378.5483],[33.2343,-9.5731,1361.9958],[33.2294,-9.5839,1332.2672],[33.2237,-9.5916,1359.2943],[33.2209,-9.5912,1378.1162],[33.2169,-9.5873,1379.7789],[33.2103,-9.5882,1386.3768],[33.2148,-9.6043,1425.3901],[33.2035,-9.6014,1432.4586],[33.2177,-9.6175,1648.7161],[33.2299,-9.6247,1578.8687],[33.2329,-9.6313,1591.7611],[33.2351,-9.648,1400.4104],[33.239,-9.6539,1377.1858],[33.2493,-9.6526,1354.2762],[33.2692,-9.6417,1293.5624],[33.2825,-9.6484,1311.3026],[33.2916,-9.6554,1288.7356],[33.3012,-9.6595,1279.1658],[33.3119,-9.6509,1272.9878],[33.3251,-9.6453,1239.1636],[33.328,-9.6412,1236.8521],[33.3394,-9.6378,1205.5754],[33.3383,-9.6352,1216.4301],[33.3331,-9.6327,1220.6118],[33.3345,-9.6299,1253.4631],[33.331,-9.6273,1249.6285],[33.3284,-9.6201,1347.4132],[33.3252,-9.6202,1296.4662],[33.3225,-9.6176,1316.2338],[33.3218,-9.6149,1294.8005],[33.3259,-9.6113,1375.6205],[33.318,-9.6076,1337.3507],[33.3161,-9.6054,1319.3986],[33.3159,-9.6008,1424.8896],[33.302,-9.6074,1283.3545]]],
[[[33.1981,-9.599,1468.9778],[33.1979,-9.599,1468.9778],[33.1981,-9.5991,1468.9778],[33.1981,-9.599,1468.9778]]],
[[[33.192,-9.5968,1436.3411],[33.1917,-9.5986,1436.813],[33.1943,-9.5981,1469.0752],[33.1946,-9.5949,1426.6809],[33.1911,-9.5939,1454.0564],[33.1883,-9.5973,1405.6349],[33.1902,-9.5974,1413.0195],[33.192,-9.5968,1436.3411]]]]}
,"properties": {"GID_3": "MWI.5.4.2_1","GID_0": "MWI","country": "Malawi","GID_1": "MWI.5_1","province": "Chitipa","NL_NAME_1": "NA","GID_2": "MWI.5.4_1","county": "TAMwabulambya","NL_NAME_2": "NA","city": "n.a.(11)","VARNAME_3": "NA","NL_NAME_3": "NA","TYPE_3": "Unknown","ENGTYPE_3": "Unknown","CC_3": "NA","HASC_3": "NA","name": "n.a.(11).city","area_km2": 66.1402,"hist_schema_id": "Elevation0-9000","hist_area_km2": {"1200": 0.45987,"1225": 4.53601,"1250": 10.49361,"1275": 10.45183,"1300": 10.64004,"1325": 9.72059,"1350": 6.79399,"1375": 3.88815,"1400": 2.09042,"1425": 1.48421,"1450": 1.35882,"1475": 0.9198,"1500": 1.00341,"1525": 0.85708,"1550": 0.39718,"1575": 0.41808,"1600": 0.27175,"1625": 0.16723,"1650": 0.12542,"1675": 0.06271}}}