{"type": "Feature","bbox": [34.8368,-14.7293,34.9202,-14.6577],"geometry": {"type": "MultiPolygon","coordinates": [[[[34.867,-14.6577,685.037],[34.8611,-14.6657,671.6969],[34.8565,-14.6648,670.2045],[34.8472,-14.6667,659.6143],[34.8368,-14.6764,647.9833],[34.8499,-14.6836,676.3909],[34.8747,-14.6853,710.527],[34.8706,-14.6931,693.5594],[34.8615,-14.6946,683.1773],[34.8543,-14.7022,674.8503],[34.8498,-14.7028,673.6209],[34.8515,-14.7049,668.6345],[34.8666,-14.7102,692.4335],[34.8581,-14.7146,681.9507],[34.8623,-14.7233,683.506],[34.8664,-14.726,699.5699],[34.8814,-14.7293,726.0762],[34.9194,-14.7112,919.1466],[34.9202,-14.7092,871.7078],[34.9164,-14.7051,850.4854],[34.867,-14.6577,685.037]]]]}
,"properties": {"GID_3": "MWI.22.3.24_1","GID_0": "MWI","country": "Malawi","GID_1": "MWI.22_1","province": "Ntcheu","NL_NAME_1": "NA","GID_2": "MWI.22.3_1","county": "SCGoodsonGanya","NL_NAME_2": "NA","city": "n.a.(1729)","VARNAME_3": "NA","NL_NAME_3": "NA","TYPE_3": "Unknown","ENGTYPE_3": "Unknown","CC_3": "NA","HASC_3": "NA","name": "n.a.(1729).city","area_km2": 32.69059,"hist_schema_id": "Elevation0-9000","hist_area_km2": {"650": 1.31269,"675": 4.9634,"700": 7.75221,"725": 5.68083,"750": 5.63968,"775": 3.26076,"800": 2.07129,"825": 1.06638,"850": 0.77928,"875": 0.16406}}}