{"type": "Feature","bbox": [34.4296,-15.8797,34.5328,-15.7742],"geometry": {"type": "MultiPolygon","coordinates": [[[[34.527,-15.8135,716.335],[34.5231,-15.809,772.6061],[34.4388,-15.7742,618.5671],[34.4348,-15.7822,582.1161],[34.4296,-15.7861,563.3095],[34.4402,-15.8071,507.4355],[34.4386,-15.8104,505.9186],[34.4416,-15.811,509.7358],[34.4419,-15.8189,468.2778],[34.4425,-15.8215,464.342],[34.4443,-15.8213,468.494],[34.4443,-15.8255,464.086],[34.4484,-15.8286,453.914],[34.452,-15.8364,434.8979],[34.4523,-15.8415,431.3456],[34.4433,-15.8494,440.3941],[34.4391,-15.8493,449.6099],[34.4392,-15.8524,412.6241],[34.4435,-15.8585,413.0583],[34.4478,-15.8548,407.3131],[34.45,-15.8564,415.1453],[34.4592,-15.8548,433.7059],[34.4632,-15.8524,450.398],[34.4743,-15.8532,472.7284],[34.476,-15.8551,484.5776],[34.4734,-15.8686,450.7205],[34.4858,-15.8741,468.7219],[34.4894,-15.8797,437.4413],[34.4945,-15.8775,447.8171],[34.5132,-15.8772,490.0364],[34.5149,-15.8749,480.9354],[34.5185,-15.8737,486.3989],[34.5194,-15.8699,496.1421],[34.524,-15.8663,512.8479],[34.5195,-15.8568,533.0257],[34.5198,-15.8483,550.2201],[34.5227,-15.8417,581.936],[34.5278,-15.8384,608.6468],[34.5328,-15.8323,720.056],[34.5297,-15.8276,589.7549],[34.527,-15.8135,716.335]]]]}
,"properties": {"GID_3": "MWI.3.5.5_1","GID_0": "MWI","country": "Malawi","GID_1": "MWI.3_1","province": "Chikwawa","NL_NAME_1": "NA","GID_2": "MWI.3.5_1","county": "TAChapananga","NL_NAME_2": "NA","city": "n.a.(2546)","VARNAME_3": "NA","NL_NAME_3": "NA","TYPE_3": "Unknown","ENGTYPE_3": "Unknown","CC_3": "NA","HASC_3": "NA","name": "n.a.(2546).city","area_km2": 74.08681,"hist_schema_id": "Elevation0-9000","hist_area_km2": {"375": 0.0204,"400": 0.22435,"425": 1.57052,"450": 4.54843,"475": 10.91259,"500": 13.82964,"525": 14.09523,"550": 10.64824,"575": 8.09867,"600": 4.30435,"625": 2.46844,"650": 1.63197,"675": 0.5916,"700": 0.3672,"725": 0.18359,"750": 0.2652,"775": 0.1224,"800": 0.0816,"825": 0.0408,"850": 0.0612,"900": 0.0204}}}