{"type": "Feature","bbox": [34.9012,-16.4188,35.0005,-16.3403],"geometry": {"type": "MultiPolygon","coordinates": [[[[34.9356,-16.3403,57.9829],[34.9012,-16.3425,62.6909],[34.9083,-16.3854,72.0063],[34.9044,-16.3872,74.0149],[34.9024,-16.3908,75.986],[34.9063,-16.4108,79.0457],[34.9108,-16.4096,77.7909],[34.9345,-16.4188,64.5842],[34.9426,-16.4173,61.0954],[34.9455,-16.415,59.5561],[35.0004,-16.4157,52.3109],[35.0005,-16.4093,53.2966],[34.9896,-16.4015,53.4259],[34.9874,-16.3982,54.005],[34.9804,-16.3946,54.7709],[34.9717,-16.3925,54.5959],[34.9704,-16.3878,54.0766],[34.9665,-16.3854,55.5258],[34.9609,-16.3742,55.1435],[34.952,-16.3707,56.1843],[34.9489,-16.3735,56.1182],[34.9433,-16.3701,56.0583],[34.9363,-16.373,56.7713],[34.9338,-16.3715,57.1706],[34.9292,-16.3604,56.6825],[34.9353,-16.3504,56.8218],[34.9356,-16.3403,57.9829]]]]}
,"properties": {"GID_3": "MWI.3.11.9_1","GID_0": "MWI","country": "Malawi","GID_1": "MWI.3_1","province": "Chikwawa","NL_NAME_1": "NA","GID_2": "MWI.3.11_1","county": "TANgabu","NL_NAME_2": "NA","city": "n.a.(3030)","VARNAME_3": "NA","NL_NAME_3": "NA","TYPE_3": "Unknown","ENGTYPE_3": "Unknown","CC_3": "NA","HASC_3": "NA","name": "n.a.(3030).city","area_km2": 48.41135,"hist_schema_id": "Elevation0-9000","hist_area_km2": {"50": 33.92893,"75": 14.48242}}}