{"type": "Feature","bbox": [35.4606,-15.9524,35.4872,-15.9113],"geometry": {"type": "MultiPolygon","coordinates": [[[[35.4872,-15.9126,754.8318],[35.4833,-15.9113,746.6663],[35.478,-15.9152,734.0033],[35.4736,-15.9151,728.7004],[35.4696,-15.9359,729.61],[35.4679,-15.9393,722.5142],[35.4651,-15.94,714.9211],[35.4651,-15.9422,715.3017],[35.4607,-15.9451,748.7728],[35.4606,-15.9522,761.2758],[35.4714,-15.9508,703.4816],[35.477,-15.9524,690.9969],[35.4866,-15.9415,711.8496],[35.4848,-15.9375,716.5728],[35.4834,-15.9235,738.1503],[35.4872,-15.9126,754.8318]]]]}
,"properties": {"GID_3": "MWI.15.7.24_1","GID_0": "MWI","country": "Malawi","GID_1": "MWI.15_1","province": "Mulanje","NL_NAME_1": "NA","GID_2": "MWI.15.7_1","county": "TANkanda","NL_NAME_2": "NA","city": "n.a.(2672)","VARNAME_3": "NA","NL_NAME_3": "NA","TYPE_3": "Unknown","ENGTYPE_3": "Unknown","CC_3": "NA","HASC_3": "NA","name": "n.a.(2672).city","area_km2": 7.156011,"hist_schema_id": "Elevation0-9000","hist_area_km2": {"700": 1.814398,"725": 3.975607,"750": 1.304848,"775": 0.061158}}}