{"type": "Feature","bbox": [35.7539,-15.8257,35.7866,-15.7767],"geometry": {"type": "MultiPolygon","coordinates": [[[[35.7602,-15.8214,735.9993],[35.7708,-15.8257,701.1406],[35.7648,-15.8171,725.0276],[35.7703,-15.8118,715.8884],[35.7721,-15.8034,717.7524],[35.7707,-15.7978,726.3455],[35.7647,-15.7946,740.812],[35.7645,-15.7919,747.5181],[35.7669,-15.789,729.5453],[35.7866,-15.7895,694.3225],[35.7844,-15.7767,697.0183],[35.7571,-15.7888,804.3779],[35.7545,-15.7966,815.2994],[35.7539,-15.8098,815.3932],[35.7569,-15.8195,773.6107],[35.7602,-15.8214,735.9993]]]]}
,"properties": {"GID_3": "MWI.24.3.21_1","GID_0": "MWI","country": "Malawi","GID_1": "MWI.24_1","province": "Phalombe","NL_NAME_1": "NA","GID_2": "MWI.24.3_1","county": "TANazombe","NL_NAME_2": "NA","city": "n.a.(2549)","VARNAME_3": "NA","NL_NAME_3": "NA","TYPE_3": "Unknown","ENGTYPE_3": "Unknown","CC_3": "NA","HASC_3": "NA","name": "n.a.(2549).city","area_km2": 7.60964,"hist_schema_id": "Elevation0-9000","hist_area_km2": {"700": 1.6118,"725": 2.529692,"750": 1.693269,"775": 0.877233,"800": 0.612032,"825": 0.285614}}}