{"type":"Feature","properties":{"GID_3":"MWI.22.4.15_1","GID_0":"MWI","country":"Malawi","GID_1":"MWI.22_1","province":"Ntcheu","NL_NAME_1":"NA","GID_2":"MWI.22.4_1","county":"SCMakwangwala","NL_NAME_2":"NA","city":"n.a.(1861)","VARNAME_3":"NA","NL_NAME_3":"NA","TYPE_3":"Unknown","ENGTYPE_3":"Unknown","CC_3":"NA","HASC_3":"NA","name":"n.a.(1861).city"},
"geometry":{"type": "MultiPolygon","coordinates": [[[[34.7849,-14.8515,919.0781],[34.7883,-14.8547,895.6455],[34.8025,-14.8562,871.7255],[34.8213,-14.8642,818.3649],[34.8205,-14.8694,819.7762],[34.8149,-14.8723,831.541],[34.8186,-14.8755,817.8486],[34.8152,-14.8789,839.3503],[34.827,-14.8832,799.8674],[34.8365,-14.8821,783.9346],[34.8339,-14.8733,800.9686],[34.8344,-14.8679,811.0394],[34.8373,-14.8643,814.2228],[34.8366,-14.8619,819.8906],[34.8308,-14.8546,831.1429],[34.8254,-14.8551,828.8815],[34.8223,-14.8574,814.775],[34.8223,-14.8507,828.0951],[34.8187,-14.848,828.0748],[34.8177,-14.8452,833.2841],[34.8094,-14.8434,860.0609],[34.8012,-14.8476,890.7194],[34.793,-14.8466,895.9384],[34.7849,-14.8515,919.0781]]]]}}