{"type":"Feature","properties":{"GID_3":"MWI.26.11.1_1","GID_0":"MWI","country":"Malawi","GID_1":"MWI.26_1","province":"Salima","NL_NAME_1":"NA","GID_2":"MWI.26.11_1","county":"TAPemba","NL_NAME_2":"NA","city":"n.a.(1014)","VARNAME_3":"NA","NL_NAME_3":"NA","TYPE_3":"Unknown","ENGTYPE_3":"Unknown","CC_3":"NA","HASC_3":"NA","name":"n.a.(1014).city"},
"geometry":{"type": "MultiPolygon","coordinates": [[[[34.5525,-13.8619,483.4102],[34.5508,-13.8628,483.4102],[34.5421,-13.8566,479.0],[34.5394,-13.8619,486.3314],[34.5238,-13.8684,485.2428],[34.5174,-13.8731,484.5812],[34.507,-13.8756,485.0935],[34.5128,-13.8845,485.144],[34.5186,-13.8897,485.1682],[34.5247,-13.8919,483.719],[34.5268,-13.9014,484.6064],[34.5373,-13.9042,480.9651],[34.5427,-13.9076,480.4061],[34.5443,-13.9115,479.9123],[34.556,-13.905,478.3423],[34.5539,-13.9016,479.2254],[34.5413,-13.895,479.6225],[34.539,-13.8902,480.4367],[34.548,-13.8815,480.8711],[34.5512,-13.8822,481.3225],[34.5521,-13.8748,482.3351],[34.5577,-13.8688,481.6841],[34.5581,-13.8667,482.1022],[34.5525,-13.8619,483.4102]]]]}}