{"type": "Feature","bbox": [35.1864,-15.6835,35.541,-15.492],"geometry": {"type": "MultiPolygon","coordinates": [[[[35.3616,-15.6778,753.572],[35.3661,-15.6779,745.666],[35.3731,-15.674,750.8935],[35.3755,-15.6751,737.8111],[35.3767,-15.6697,738.4211],[35.3821,-15.6698,735.0491],[35.3829,-15.6682,732.5696],[35.3816,-15.6669,741.677],[35.3877,-15.6643,726.8699],[35.3895,-15.6615,732.7272],[35.3932,-15.6622,741.8291],[35.3989,-15.6663,722.3149],[35.4025,-15.664,729.4389],[35.4034,-15.6655,723.5726],[35.4004,-15.6687,718.7341],[35.4064,-15.6713,718.3032],[35.4072,-15.6738,718.0686],[35.425,-15.6714,711.4503],[35.4279,-15.6682,713.658],[35.4335,-15.6703,707.3322],[35.4353,-15.6673,711.2111],[35.4418,-15.6669,741.075],[35.444,-15.6695,704.8887],[35.4478,-15.6636,697.1982],[35.4519,-15.6606,697.6352],[35.4531,-15.6572,698.3457],[35.4577,-15.6546,698.3668],[35.4604,-15.6567,695.81],[35.4724,-15.6525,690.0595],[35.4775,-15.6374,685.2393],[35.4827,-15.6317,679.3893],[35.4837,-15.6282,683.6709],[35.4889,-15.6245,676.097],[35.491,-15.6162,678.6118],[35.5024,-15.607,674.6701],[35.5107,-15.6052,668.2298],[35.5125,-15.6,666.839],[35.5166,-15.6017,663.8948],[35.5181,-15.5973,664.9383],[35.5237,-15.5967,664.545],[35.534,-15.5795,662.7972],[35.5359,-15.5789,656.9906],[35.5371,-15.5744,659.3245],[35.5335,-15.567,655.0518],[35.5384,-15.5598,652.3602],[35.541,-15.5498,652.6117],[35.4804,-15.5656,685.6064],[35.4542,-15.5665,696.5534],[35.4326,-15.557,717.825],[35.3873,-15.5197,752.337],[35.3764,-15.5222,763.7392],[35.3726,-15.5199,769.4799],[35.3654,-15.5212,770.0859],[35.3612,-15.5189,780.8987],[35.3401,-15.5236,797.9532],[35.3343,-15.5209,804.4287],[35.3307,-15.5156,815.2227],[35.3255,-15.5164,813.4225],[35.3213,-15.5139,821.5502],[35.3186,-15.5177,826.3435],[35.3149,-15.5183,827.3397],[35.3117,-15.5155,838.0558],[35.3045,-15.5146,834.5031],[35.3045,-15.5123,843.5796],[35.2997,-15.515,846.5807],[35.2909,-15.5118,902.5082],[35.2765,-15.513,882.0149],[35.2716,-15.5087,900.366],[35.2682,-15.509,902.3141],[35.2528,-15.501,955.2052],[35.2505,-15.4951,969.1154],[35.2463,-15.4928,978.0533],[35.2453,-15.4969,978.3727],[35.2316,-15.4951,1018.639],[35.2286,-15.492,1036.5325],[35.2214,-15.5063,1034.3461],[35.2092,-15.5226,1008.3021],[35.1903,-15.541,1019.4868],[35.1881,-15.5451,988.3185],[35.1892,-15.5489,980.6056],[35.1864,-15.5546,972.5634],[35.1881,-15.563,961.353],[35.2095,-15.5715,932.7903],[35.2158,-15.5704,931.0344],[35.2173,-15.5719,919.7208],[35.2204,-15.5685,931.2993],[35.2239,-15.5716,914.1207],[35.2264,-15.5712,923.0552],[35.226,-15.5728,917.379],[35.2312,-15.5774,907.2084],[35.231,-15.5818,901.499],[35.236,-15.5866,897.6401],[35.2355,-15.5917,889.9985],[35.2366,-15.5928,890.5776],[35.2351,-15.597,883.624],[35.2384,-15.5988,886.0238],[35.241,-15.598,887.9541],[35.2394,-15.6029,880.9731],[35.2409,-15.604,874.0229],[35.2433,-15.6147,864.4402],[35.2455,-15.6166,860.3386],[35.2441,-15.619,860.7192],[35.2467,-15.623,856.3388],[35.2452,-15.6239,860.8872],[35.2474,-15.6238,856.3388],[35.2522,-15.6296,851.8252],[35.2512,-15.6368,849.0183],[35.2566,-15.6425,847.9286],[35.2656,-15.6483,836.1405],[35.2665,-15.6527,832.9973],[35.269,-15.6554,828.5736],[35.2709,-15.6553,827.6248],[35.272,-15.6582,823.1887],[35.2738,-15.6576,826.0776],[35.2759,-15.6619,823.5643],[35.2851,-15.6657,808.1721],[35.2895,-15.6647,798.0861],[35.3028,-15.6688,785.332],[35.3093,-15.6688,785.4184],[35.3115,-15.6732,788.8398],[35.3166,-15.6732,778.2588],[35.3183,-15.6768,781.902],[35.3239,-15.6782,773.4555],[35.3241,-15.68,770.1427],[35.3297,-15.6835,769.4388],[35.335,-15.6815,764.6678],[35.3443,-15.6834,760.9229],[35.3465,-15.6805,767.7034],[35.3498,-15.6814,750.4685],[35.3616,-15.6778,753.572]]]]}
,"properties": {"GID_2": "MWI.28.2_1","GID_0": "MWI","country": "Malawi","GID_1": "MWI.28_1","province": "Zomba","NL_NAME_1": "NA","county": "SCMbiza","VARNAME_2": "NA","NL_NAME_2": "NA","TYPE_2": "Sub-chief","ENGTYPE_2": "Sub-chief","CC_2": "NA","HASC_2": "NA","name": "S_C_Mbiza.county","area_km2": 456.1071,"hist_schema_id": "Elevation0-9000","hist_area_km2": {"650": 3.7173,"675": 36.1271,"700": 46.0057,"725": 40.9007,"750": 49.4795,"775": 58.811,"800": 51.9316,"825": 32.6549,"850": 31.8997,"875": 27.3469,"900": 16.4009,"925": 14.3999,"950": 13.1136,"975": 12.8695,"1000": 12.7267,"1025": 6.6189,"1050": 1.001,"1075": 0.1021}}}