{"type":"Feature","properties":{"GID_3":"MWI.27.6.14_1","GID_0":"MWI","country":"Malawi","GID_1":"MWI.27_1","province":"Thyolo","NL_NAME_1":"NA","GID_2":"MWI.27.6_1","county":"TABvumbwe","NL_NAME_2":"NA","city":"n.a.(2682)","VARNAME_3":"NA","NL_NAME_3":"NA","TYPE_3":"Unknown","ENGTYPE_3":"Unknown","CC_3":"NA","HASC_3":"NA","name":"n.a.(2682).city"},
"geometry":{"type": "MultiPolygon","coordinates": [[[[34.9856,-15.9244,814.9895],[34.9841,-15.9256,806.1942],[34.9835,-15.9325,801.5269],[34.9809,-15.9363,773.624],[34.9781,-15.9344,774.5714],[34.9712,-15.9438,694.6512],[34.9651,-15.942,647.3138],[34.962,-15.9446,694.9826],[34.9634,-15.9584,551.4287],[34.9757,-15.9568,667.8945],[34.9822,-15.9599,661.5114],[34.9902,-15.9539,813.2615],[34.9942,-15.9457,889.2266],[34.9987,-15.9424,900.8528],[34.9979,-15.9383,912.7892],[34.9997,-15.9383,915.5006],[35.0029,-15.9349,935.3531],[35.0085,-15.9356,984.7736],[35.0084,-15.9267,946.1019],[35.0061,-15.925,936.5337],[35.0013,-15.9255,992.2416],[34.9963,-15.9193,869.6294],[34.9856,-15.9244,814.9895]]]]}}