{"type": "Feature","bbox": [34.3535,-15.7501,34.4199,-15.7119],"geometry": {"type": "MultiPolygon","coordinates": [[[[34.3786,-15.7501,644.8079],[34.3818,-15.7397,648.3593],[34.4013,-15.7379,650.3217],[34.4071,-15.7393,659.6404],[34.4199,-15.7387,795.9038],[34.4159,-15.725,734.337],[34.4132,-15.7211,755.2833],[34.4117,-15.7195,785.6896],[34.4033,-15.721,655.1683],[34.3969,-15.7185,662.3604],[34.3901,-15.7187,668.8632],[34.3836,-15.7159,670.1202],[34.381,-15.7119,674.433],[34.3774,-15.7163,659.7783],[34.3737,-15.7287,673.1994],[34.3691,-15.7323,666.0632],[34.3649,-15.7386,777.2344],[34.3573,-15.7371,762.6449],[34.3535,-15.74,795.3117],[34.3786,-15.7501,644.8079]]]]}
,"properties": {"GID_3": "MWI.16.4.10_1","GID_0": "MWI","country": "Malawi","GID_1": "MWI.16_1","province": "Mwanza","NL_NAME_1": "NA","GID_2": "MWI.16.4_1","county": "TANthache","NL_NAME_2": "NA","city": "n.a.(2484)","VARNAME_3": "NA","NL_NAME_3": "NA","TYPE_3": "Unknown","ENGTYPE_3": "Unknown","CC_3": "NA","HASC_3": "NA","name": "n.a.(2484).city","area_km2": 13.26522,"hist_schema_id": "Elevation0-9000","hist_area_km2": {"600": 0.06122,"625": 2.3265,"650": 4.65307,"675": 3.53065,"700": 0.99998,"725": 0.5306,"750": 0.2653,"775": 0.2857,"800": 0.2857,"825": 0.10204,"850": 0.12244,"875": 0.08163,"900": 0.02041}}}