{"type":"Feature","properties":{"GID_3":"MWI.19.7.2_1","GID_0":"MWI","country":"Malawi","GID_1":"MWI.19_1","province":"NkhataBay","NL_NAME_1":"NA","GID_2":"MWI.19.7_1","county":"TAKabunduli","NL_NAME_2":"NA","city":"n.a.(222)","VARNAME_3":"NA","NL_NAME_3":"NA","TYPE_3":"Unknown","ENGTYPE_3":"Unknown","CC_3":"NA","HASC_3":"NA","name":"n.a.(222).city"},
"geometry":{"type": "MultiPolygon","coordinates": [[[[33.9669,-11.4915,1344.3519],[33.9689,-11.5044,1338.774],[33.9655,-11.5088,1330.5304],[33.9661,-11.5153,1326.7325],[33.9618,-11.5174,1324.7054],[33.9627,-11.529,1339.1254],[33.9567,-11.535,1345.6635],[33.9593,-11.5391,1337.9567],[33.9539,-11.543,1347.9584],[33.9551,-11.5475,1327.3755],[33.9586,-11.5507,1325.4919],[33.978,-11.5536,1258.3573],[33.9865,-11.5534,1185.1383],[34.0002,-11.5576,883.5098],[33.9988,-11.5659,829.0684],[34.001,-11.5776,784.9795],[33.9982,-11.5907,776.6869],[33.9959,-11.5946,838.545],[33.9982,-11.5968,735.1289],[33.9998,-11.6033,733.6205],[34.0033,-11.6075,736.8641],[34.015,-11.6153,729.1996],[34.0167,-11.6184,713.8314],[34.0294,-11.6159,874.8986],[34.0308,-11.6196,810.3632],[34.0367,-11.6194,782.2343],[34.0393,-11.6159,848.1823],[34.0359,-11.6011,937.7401],[34.0361,-11.5953,947.9987],[34.0327,-11.5929,966.3032],[34.0322,-11.5897,973.3777],[34.0333,-11.5824,1016.5125],[34.0361,-11.576599999999999,1017.1368],[34.0391,-11.5739,995.72],[34.0603,-11.5724,961.326],[34.0725,-11.5671,789.2654],[34.0796,-11.5697,689.5164],[34.0795,-11.5648,700.213],[34.0737,-11.559,788.6525],[34.055,-11.5627,916.9902],[34.0537,-11.5588,926.3873],[34.0477,-11.5577,953.7206],[34.0476,-11.554,993.8716],[34.0496,-11.5511,999.1768],[34.0487,-11.5442,1018.6495],[34.0504,-11.5305,1138.3698],[34.0519,-11.527,1136.2118],[34.0496,-11.5179,1188.5808],[34.0433,-11.5146,1265.3236],[34.0399,-11.5104,1269.0039],[34.0381,-11.5059,1270.6893],[34.0388,-11.4992,1287.584],[34.0352,-11.4932,1239.496],[34.0223,-11.489,1176.4829],[34.0141,-11.4963,1178.1589],[33.9933,-11.4979,1246.8578],[33.9854,-11.4968,1237.4358],[33.9717,-11.4912,1323.6423],[33.9669,-11.4915,1344.3519]]]]}}