{"type":"Feature","properties":{"GID_3":"MWI.1.2.8_1","GID_0":"MWI","country":"Malawi","GID_1":"MWI.1_1","province":"Balaka","NL_NAME_1":"NA","GID_2":"MWI.1.2_1","county":"TAKalembo","NL_NAME_2":"NA","city":"n.a.(1829)","VARNAME_3":"NA","NL_NAME_3":"NA","TYPE_3":"Unknown","ENGTYPE_3":"Unknown","CC_3":"NA","HASC_3":"NA","name":"n.a.(1829).city"},
"geometry":{"type": "MultiPolygon","coordinates": [[[[35.006,-14.8338,685.7438],[34.9976,-14.8234,706.9784],[34.9967,-14.8128,717.3985],[34.9732,-14.7999,685.5592],[34.9707,-14.8034,682.0872],[34.9674,-14.8045,685.929],[34.9624,-14.8142,675.992],[34.9618,-14.8249,667.5686],[34.9636,-14.8257,666.4605],[34.9665,-14.8239,673.8549],[34.9728,-14.8309,675.7727],[34.9738,-14.8477,658.924],[34.9879,-14.8435,678.2161],[34.9922,-14.8446,670.7349],[34.9913,-14.8383,681.9771],[35.0079,-14.8372,680.8483],[35.006,-14.8338,685.7438]]]]}}