{"type":"Feature","properties":{"GID_3":"MWI.28.8.16_1","GID_0":"MWI","country":"Malawi","GID_1":"MWI.28_1","province":"Zomba","NL_NAME_1":"NA","GID_2":"MWI.28.8_1","county":"TAMwambo","NL_NAME_2":"NA","city":"n.a.(2196)","VARNAME_3":"NA","NL_NAME_3":"NA","TYPE_3":"Unknown","ENGTYPE_3":"Unknown","CC_3":"NA","HASC_3":"NA","name":"n.a.(2196).city"},
"geometry":{"type": "MultiPolygon","coordinates": [[[[35.5329,-15.4268,648.0151],[35.5191,-15.4231,656.4942],[35.511,-15.4233,662.5536],[35.5118,-15.427,662.2064],[35.5136,-15.4277,656.859],[35.5087,-15.4306,660.0486],[35.5053,-15.4353,661.642],[35.5062,-15.4444,662.5342],[35.5148,-15.4457,654.6955],[35.521,-15.4433,650.7009],[35.5231,-15.4461,650.7086],[35.5278,-15.4438,646.1126],[35.531,-15.4392,647.8246],[35.5407,-15.4398,643.0538],[35.545,-15.4347,640.7533],[35.5498,-15.4351,639.9523],[35.5406,-15.4288,645.0662],[35.5329,-15.4268,648.0151]]]]}}