{"type": "Feature","bbox": [33.9149,-9.9507,33.9328,-9.9308],"geometry": {"type": "MultiPolygon","coordinates": [[[[33.9277,-9.9324,481.5974],[33.9268,-9.935,483.181],[33.919,-9.9427,484.7039],[33.9149,-9.9506,485.7773],[33.9223,-9.9507,482.7906],[33.9258,-9.9466,482.1447],[33.9328,-9.9451,481.7629],[33.9324,-9.9416,483.9891],[33.9305,-9.9412,483.8606],[33.9317,-9.9308,481.3008],[33.9277,-9.9324,481.5974]]]]}
,"properties": {"GID_3": "MWI.8.1.6_1","GID_0": "MWI","country": "Malawi","GID_1": "MWI.8_1","province": "Karonga","NL_NAME_1": "NA","GID_2": "MWI.8.1_1","county": "KarongaTown","NL_NAME_2": "NA","city": "n.a.(67)","VARNAME_3": "NA","NL_NAME_3": "NA","TYPE_3": "Unknown","ENGTYPE_3": "Unknown","CC_3": "NA","HASC_3": "NA","name": "n.a.(67).city","area_km2": 2.004844,"hist_schema_id": "Elevation0-9000","hist_area_km2": {"475": 2.004844}}}