{"type": "Feature","bbox": [33.3525,-9.9165,33.4816,-9.7699],"geometry": {"type": "MultiPolygon","coordinates": [[[[33.3896,-9.7699,1244.6943],[33.3868,-9.7708,1244.2875],[33.3848,-9.776,1249.0903],[33.3853,-9.7867,1251.6427],[33.3839,-9.789,1252.9584],[33.3834,-9.7982,1265.0908],[33.3799,-9.8031,1267.4263],[33.3742,-9.8068,1268.4875],[33.3618,-9.8269,1295.3831],[33.3525,-9.8357,1313.8099],[33.3655,-9.8512,1310.3829],[33.3715,-9.8548,1325.1703],[33.3735,-9.8578,1331.7102],[33.3807,-9.8836,1386.2024],[33.3949,-9.9054,1531.9028],[33.3952,-9.9096,1729.1882],[33.406,-9.9101,1713.7427],[33.4228,-9.9145,1505.0341],[33.4247,-9.9165,1504.9668],[33.4256,-9.9146,1461.6576],[33.422,-9.9119,1551.1008],[33.4237,-9.9074,1451.6174],[33.4227,-9.903,1409.7644],[33.416,-9.8994,1390.3291],[33.4152,-9.8958,1369.4364],[33.4065,-9.8864,1393.9919],[33.4128,-9.8749,1367.1213],[33.4099,-9.87,1346.6716],[33.4114,-9.8655,1346.6332],[33.4114,-9.8483,1336.5746],[33.4171,-9.8487,1327.2737],[33.4269,-9.8539,1283.7426],[33.4316,-9.851,1279.2289],[33.4373,-9.8501,1261.0616],[33.4484,-9.8409,1244.8914],[33.453,-9.8422,1233.2032],[33.4572,-9.8406,1222.3798],[33.4616,-9.8435,1216.787],[33.4671,-9.8423,1220.8003],[33.4735,-9.8438,1213.9064],[33.4747,-9.8411,1207.4326],[33.4816,-9.8395,1187.6614],[33.4795,-9.8365,1201.1718],[33.4747,-9.8358,1197.5143],[33.471,-9.8328,1211.8047],[33.4683,-9.8336,1211.0706],[33.4583,-9.8294,1230.1895],[33.4513,-9.8283,1228.8596],[33.4222,-9.8133,1293.3357],[33.4207,-9.8082,1281.2648],[33.4156,-9.8053,1277.449],[33.4107,-9.7974,1271.616],[33.3952,-9.7806,1251.2854],[33.3894,-9.7771,1243.8929],[33.3896,-9.7699,1244.6943]]]]}
,"properties": {"GID_3": "MWI.5.4.11_1","GID_0": "MWI","country": "Malawi","GID_1": "MWI.5_1","province": "Chitipa","NL_NAME_1": "NA","GID_2": "MWI.5.4_1","county": "TAMwabulambya","NL_NAME_2": "NA","city": "n.a.(46)","VARNAME_3": "NA","NL_NAME_3": "NA","TYPE_3": "Unknown","ENGTYPE_3": "Unknown","CC_3": "NA","HASC_3": "NA","name": "n.a.(46).city","area_km2": 76.01939,"hist_schema_id": "Elevation0-9000","hist_area_km2": {"1200": 0.8774,"1225": 2.4233,"1250": 7.45852,"1275": 16.2537,"1300": 21.41303,"1325": 10.46575,"1350": 5.84877,"1375": 3.59267,"1400": 2.61089,"1425": 1.2532,"1450": 1.00255,"1475": 0.71013,"1500": 0.31329,"1525": 0.2924,"1550": 0.25063,"1575": 0.20886,"1600": 0.20886,"1625": 0.20886,"1650": 0.20886,"1675": 0.20886,"1700": 0.06266,"1725": 0.08354,"1800": 0.04177,"1825": 0.02089}}}