{"type":"Feature","properties":{"GID_3":"MWI.27.10.5_1","GID_0":"MWI","country":"Malawi","GID_1":"MWI.27_1","province":"Thyolo","NL_NAME_1":"NA","GID_2":"MWI.27.10_1","county":"TANchilamwela","NL_NAME_2":"NA","city":"n.a.(2811)","VARNAME_3":"NA","NL_NAME_3":"NA","TYPE_3":"Unknown","ENGTYPE_3":"Unknown","CC_3":"NA","HASC_3":"NA","name":"n.a.(2811).city"},
"geometry":{"type": "MultiPolygon","coordinates": [[[[35.2535,-16.033,724.6086],[35.2491,-16.0328,729.3903],[35.2435,-16.0366,752.5121],[35.2402,-16.0426,756.7345],[35.2354,-16.0437,773.5985],[35.2335,-16.0498,762.4113],[35.2223,-16.0473,791.3621],[35.2174,-16.05,787.566],[35.2214,-16.054,775.941],[35.2219,-16.0566,751.2735],[35.2175,-16.0575,768.9439],[35.2142,-16.0616,759.2197],[35.225,-16.0725,783.7558],[35.2398,-16.0606,728.2902],[35.2394,-16.0563,729.9377],[35.2457,-16.0549,721.4235],[35.2529,-16.0572,705.5658],[35.2561,-16.0536,708.0536],[35.2584,-16.054,704.0248],[35.2598,-16.0488,700.894],[35.2581,-16.0488,703.3944],[35.2575,-16.0403,710.2546],[35.2535,-16.033,724.6086]]]]}}