{"type": "Feature","bbox": [33.6773,-11.9886,33.7897,-11.8716],"geometry": {"type": "MultiPolygon","coordinates": [[[[33.7664,-11.9037,1688.5261],[33.7547,-11.9157,1696.3673],[33.7542,-11.9243,1720.3896],[33.7529,-11.9278,1719.9501],[33.751,-11.9281,1731.3169],[33.7439,-11.9248,1688.7983],[33.7371,-11.9092,1693.3645],[33.7135,-11.9053,1644.8525],[33.7081,-11.9027,1645.6813],[33.7048,-11.8935,1621.3727],[33.7116,-11.8848,1631.9573],[33.71,-11.8784,1642.2673],[33.7061,-11.8757,1635.1265],[33.6997,-11.8732,1618.0276],[33.694,-11.8739,1582.7229],[33.6892,-11.8716,1538.8396],[33.689,-11.8807,1533.2201],[33.6832,-11.8842,1455.6047],[33.6806,-11.8832,1463.385],[33.6785,-11.8857,1459.0199],[33.6778,-11.8897,1418.639],[33.6793,-11.8943,1429.6655],[33.6773,-11.8986,1430.9612],[33.6793,-11.9066,1441.2341],[33.6906,-11.931,1532.8618],[33.7036,-11.9455,1485.8911],[33.7125,-11.9529,1532.4214],[33.7306,-11.9628,1544.7811],[33.7352,-11.9679,1526.3228],[33.7382,-11.9686,1560.507],[33.7342,-11.9775,1505.1951],[33.7288,-11.9838,1461.5598],[33.7299,-11.9886,1439.7886],[33.7399,-11.9843,1473.9984],[33.7437,-11.9848,1469.6526],[33.7454,-11.9872,1460.2983],[33.749,-11.9796,1517.322],[33.7555,-11.9829,1481.3268],[33.7614,-11.9738,1514.5596],[33.7659,-11.963,1503.8513],[33.7897,-11.948,1646.3442],[33.7897,-11.9452,1676.7671],[33.7679,-11.9305,1657.885],[33.7702,-11.926,1664.2998],[33.7748,-11.8994,1658.0149],[33.7781,-11.8934,1682.0205],[33.7664,-11.9037,1688.5261]]]]}
,"properties": {"GID_3": "MWI.17.11.2_1","GID_0": "MWI","country": "Malawi","GID_1": "MWI.17_1","province": "Mzimba","NL_NAME_1": "NA","GID_2": "MWI.17.11_1","county": "TAMzikubola","NL_NAME_2": "NA","city": "n.a.(273)","VARNAME_3": "NA","NL_NAME_3": "NA","TYPE_3": "Unknown","ENGTYPE_3": "Unknown","CC_3": "NA","HASC_3": "NA","name": "n.a.(273).city","area_km2": 67.77126,"hist_schema_id": "Elevation0-9000","hist_area_km2": {"1400": 0.16597,"1425": 0.85061,"1450": 1.24475,"1475": 2.44775,"1500": 3.83746,"1525": 5.53848,"1550": 7.65446,"1575": 9.14816,"1600": 9.43864,"1625": 9.04459,"1650": 7.92433,"1675": 5.20695,"1700": 3.42288,"1725": 1.84625}}}