{"type": "Feature","bbox": [34.8246,-15.7159,34.8772,-15.6513],"geometry": {"type": "MultiPolygon","coordinates": [[[[34.8326,-15.6881,595.5295],[34.8393,-15.6912,608.7281],[34.8369,-15.7011,596.5563],[34.8382,-15.709,571.1947],[34.8607,-15.7088,647.5213],[34.877,-15.7159,579.9407],[34.8772,-15.7107,613.1461],[34.8681,-15.6988,624.3684],[34.8673,-15.6933,651.9581],[34.8574,-15.6924,654.6245],[34.8507,-15.6863,657.103],[34.8515,-15.6838,652.3171],[34.8578,-15.6815,673.345],[34.8585,-15.6798,677.7552],[34.8525,-15.678,649.7598],[34.8537,-15.6713,678.8178],[34.8472,-15.6641,662.3368],[34.8461,-15.6547,663.3464],[34.839,-15.6513,639.6448],[34.8266,-15.658,608.8326],[34.8284,-15.6651,605.5925],[34.8251,-15.6742,589.3598],[34.828,-15.6797,590.4521],[34.8246,-15.684,585.4584],[34.8326,-15.6881,595.5295]]]]}
,"properties": {"GID_3": "MWI.2.5.6_1","GID_0": "MWI","country": "Malawi","GID_1": "MWI.2_1","province": "Blantyre","NL_NAME_1": "NA","GID_2": "MWI.2.5_1","county": "TAKunthembwe","NL_NAME_2": "NA","city": "n.a.(2418)","VARNAME_3": "NA","NL_NAME_3": "NA","TYPE_3": "Unknown","ENGTYPE_3": "Unknown","CC_3": "NA","HASC_3": "NA","name": "n.a.(2418).city","area_km2": 17.59574,"hist_schema_id": "Elevation0-9000","hist_area_km2": {"575": 0.34699,"600": 2.59236,"625": 5.67476,"650": 6.63417,"675": 2.24541,"700": 0.06124,"725": 0.04082}}}