{"type": "Feature","bbox": [34.5765,-14.363,34.6499,-14.2922],"geometry": {"type": "MultiPolygon","coordinates": [[[[34.611,-14.2922,495.8743],[34.6102,-14.2956,496.6846],[34.6139,-14.2993,496.7747],[34.6134,-14.3036,500.4548],[34.616,-14.3071,500.196],[34.6141,-14.3171,501.5691],[34.6074,-14.3216,503.8941],[34.6009,-14.3228,504.3069],[34.5929,-14.3219,505.5283],[34.5845,-14.3258,510.9073],[34.5801,-14.3297,515.1039],[34.5765,-14.3397,520.7578],[34.5836,-14.3383,515.0941],[34.5873,-14.3435,516.174],[34.598,-14.3486,512.6238],[34.5987,-14.3464,512.6068],[34.6002,-14.3462,512.2691],[34.614,-14.3474,512.8099],[34.6159,-14.3501,512.7817],[34.6216,-14.3491,512.121],[34.6219,-14.3535,513.3319],[34.6309,-14.3552,513.5936],[34.6314,-14.357,514.1544],[34.6446,-14.363,524.7974],[34.6499,-14.3537,530.595],[34.6493,-14.3338,521.1098],[34.6457,-14.3317,516.1061],[34.6332,-14.3295,505.3608],[34.6348,-14.3236,503.8535],[34.642,-14.3122,498.7837],[34.6422,-14.3048,497.2052],[34.6197,-14.3006,497.6593],[34.611,-14.2922,495.8743]]]]}
,"properties": {"GID_3": "MWI.6.6.22_1","GID_0": "MWI","country": "Malawi","GID_1": "MWI.6_1","province": "Dedza","NL_NAME_1": "NA","GID_2": "MWI.6.6_1","county": "TAKachindamoto","NL_NAME_2": "NA","city": "n.a.(1452)","VARNAME_3": "NA","NL_NAME_3": "NA","TYPE_3": "Unknown","ENGTYPE_3": "Unknown","CC_3": "NA","HASC_3": "NA","name": "n.a.(1452).city","area_km2": 28.38954,"hist_schema_id": "Elevation0-9000","hist_area_km2": {"500": 22.04235,"525": 6.34719}}}