{"type": "Feature","bbox": [35.0326,-13.7182,35.0499,-13.6934],"geometry": {"type": "MultiPolygon","coordinates": [[[[35.0498,-13.7182,483.4945],[35.0499,-13.7141,485.2501],[35.0465,-13.7111,489.2982],[35.049,-13.7034,490.2538],[35.0453,-13.7007,491.785],[35.0482,-13.696,493.2538],[35.0481,-13.6934,494.2936],[35.0394,-13.6941,499.73],[35.0326,-13.6985,495.6223],[35.0348,-13.7082,489.6786],[35.04,-13.7108,486.9671],[35.0455,-13.7174,485.775],[35.0479,-13.7163,484.5001],[35.0498,-13.7182,483.4945]]]]}
,"properties": {"GID_3": "MWI.13.11.17_1","GID_0": "MWI","country": "Malawi","GID_1": "MWI.13_1","province": "Mangochi","NL_NAME_1": "NA","GID_2": "MWI.13.11_1","county": "TAMakanjila","NL_NAME_2": "NA","city": "n.a.(848)","VARNAME_3": "NA","NL_NAME_3": "NA","TYPE_3": "Unknown","ENGTYPE_3": "Unknown","CC_3": "NA","HASC_3": "NA","name": "n.a.(848).city","area_km2": 3.069195,"hist_schema_id": "Elevation0-9000","hist_area_km2": {"475": 0.329565,"500": 2.73963}}}