{"type": "Feature","bbox": [34.3451,-14.4342,34.4978,-14.1981],"geometry": {"type": "MultiPolygon","coordinates": [[[[34.447,-14.4072,1442.4194],[34.4508,-14.4134,1448.3279],[34.4548,-14.4165,1396.0883],[34.4576,-14.4171,1388.246],[34.4623,-14.4153,1370.0996],[34.4629,-14.4211,1380.1079],[34.4659,-14.4233,1381.5798],[34.4674,-14.4289,1402.9561],[34.471,-14.4328,1339.2207],[34.4812,-14.4322,1313.9542],[34.4938,-14.4342,1192.7975],[34.4964,-14.4331,1167.8414],[34.4978,-14.4236,1038.6877],[34.4928,-14.4173,1226.2473],[34.4854,-14.394,1365.9985],[34.4846,-14.3814,1423.4238],[34.4744,-14.3575,1517.6461],[34.4765,-14.3379,1235.0059],[34.4761,-14.2995,1043.1562],[34.4819,-14.2548,668.249],[34.478,-14.2485,692.9188],[34.4576,-14.2316,744.5875],[34.4504,-14.2227,776.8784],[34.4459,-14.2141,832.7513],[34.4407,-14.1981,917.8286],[34.4351,-14.2069,988.9567],[34.4345,-14.2279,1143.9938],[34.4247,-14.2493,1263.4569],[34.424,-14.2636,1371.6423],[34.4201,-14.2761,1334.6658],[34.4031,-14.2956,1382.251],[34.4001,-14.3037,1449.2996],[34.4014,-14.3084,1367.2225],[34.3897,-14.3265,1434.7419],[34.3828,-14.3424,1458.4934],[34.3613,-14.3607,1513.9799],[34.3531,-14.363,1477.8745],[34.3483,-14.3682,1511.9624],[34.3477,-14.3705,1512.9011],[34.3508,-14.376,1498.0912],[34.3457,-14.3838,1554.6692],[34.3451,-14.3875,1548.6833],[34.3475,-14.3935,1599.551],[34.3498,-14.3895,1606.5647],[34.3568,-14.3841,1564.6029],[34.3634,-14.3859,1539.6067],[34.3705,-14.3853,1541.7194],[34.374,-14.3931,1541.7875],[34.3765,-14.3947,1541.4017],[34.3862,-14.3962,1582.8243],[34.3891,-14.3933,1579.9606],[34.3919,-14.3931,1586.1594],[34.3932,-14.3956,1580.9135],[34.3932,-14.4037,1556.512],[34.4001,-14.412,1568.5327],[34.4156,-14.4103,1519.0693],[34.4252,-14.4152,1487.6957],[34.4387,-14.4162,1478.6379],[34.4407,-14.4136,1471.2102],[34.4392,-14.4077,1465.1001],[34.4402,-14.4052,1476.3806],[34.4432,-14.405,1480.4675],[34.447,-14.4072,1442.4194]]]]}
,"properties": {"GID_2": "MWI.6.5_1","GID_0": "MWI","country": "Malawi","GID_1": "MWI.6_1","province": "Dedza","NL_NAME_1": "NA","county": "SCKamenyaGwaza","VARNAME_2": "NA","NL_NAME_2": "NA","TYPE_2": "Sub-chief","ENGTYPE_2": "Sub-chief","CC_2": "NA","HASC_2": "NA","name": "S_C_Kamenya_Gwaza.county","area_km2": 194.7364,"hist_schema_id": "Elevation0-9000","hist_area_km2": {"675": 0.1233,"700": 0.1644,"725": 0.5138,"750": 0.9864,"775": 0.9659,"800": 1.0275,"825": 0.7809,"850": 0.8631,"875": 0.8837,"900": 1.1098,"925": 1.0686,"950": 0.822,"975": 1.0276,"1000": 1.1303,"1025": 1.1508,"1050": 0.7398,"1075": 1.048,"1100": 1.0069,"1125": 1.0274,"1150": 1.2944,"1175": 1.2328,"1200": 1.1917,"1225": 1.3354,"1250": 1.9106,"1275": 2.3215,"1300": 3.7391,"1325": 6.1427,"1350": 7.1082,"1375": 7.7447,"1400": 8.4843,"1425": 8.7305,"1450": 10.4966,"1475": 15.6316,"1500": 21.526,"1525": 25.1203,"1550": 21.2994,"1575": 19.8611,"1600": 6.9426,"1625": 2.6703,"1650": 1.4789,"1675": 0.8422,"1700": 0.6573,"1725": 0.3081,"1750": 0.1027,"1775": 0.0411,"1800": 0.0411,"1825": 0.0205,"1850": 0.0205}}}