{"type":"Feature","properties":{"GID_3":"MWI.22.4.1_1","GID_0":"MWI","country":"Malawi","GID_1":"MWI.22_1","province":"Ntcheu","NL_NAME_1":"NA","GID_2":"MWI.22.4_1","county":"SCMakwangwala","NL_NAME_2":"NA","city":"n.a.(1762)","VARNAME_3":"NA","NL_NAME_3":"NA","TYPE_3":"Unknown","ENGTYPE_3":"Unknown","CC_3":"NA","HASC_3":"NA","name":"n.a.(1762).city"},
"geometry":{"type": "MultiPolygon","coordinates": [[[[34.9711,-14.7746,704.8196],[34.9643,-14.7651,714.3963],[34.9588,-14.7521,722.5524],[34.9536,-14.7522,734.2579],[34.9485,-14.7492,746.9501],[34.9406,-14.748,762.0728],[34.9181,-14.7376,796.8365],[34.9175,-14.7347,799.955],[34.9209,-14.7254,822.9052],[34.9179,-14.7178,847.1494],[34.9194,-14.7112,919.1466],[34.8737,-14.7336,708.3145],[34.8815,-14.7344,730.8268],[34.884,-14.7371,769.8876],[34.8841,-14.7426,762.6553],[34.8802,-14.7473,728.5724],[34.8811,-14.7501,724.9886],[34.8848,-14.7514,726.3408],[34.8954,-14.7481,744.5761],[34.8983,-14.7486,732.4523],[34.8949,-14.7542,730.9378],[34.8971,-14.7639,712.4825],[34.9016,-14.7573,730.2165],[34.9053,-14.756,732.4498],[34.9064,-14.7579,729.8759],[34.9073,-14.7773,709.4919],[34.8957,-14.7772,700.2084],[34.8934,-14.7791,695.0091],[34.9069,-14.7929,697.1827],[34.9073,-14.7978,690.904],[34.9096,-14.7996,687.6978],[34.9112,-14.8106,681.7729],[34.9131,-14.812,680.1119],[34.9147,-14.812,680.1119],[34.9268,-14.7985,693.2988],[34.9317,-14.7956,701.3839],[34.9372,-14.7877,719.212],[34.9471,-14.7874,732.8873],[34.954,-14.7839,729.0443],[34.9597,-14.7851,724.2402],[34.963,-14.7831,709.2289],[34.9695,-14.7877,698.9896],[34.9721,-14.7809,701.6551],[34.9725,-14.7756,702.6605],[34.9711,-14.7746,704.8196]]]]}}