{"type":"Feature","properties":{"GID_3":"MWI.11.7.4_1","GID_0":"MWI","country":"Malawi","GID_1":"MWI.11_1","province":"Lilongwe","NL_NAME_1":"NA","GID_2":"MWI.11.7_1","county":"TAChimutu","NL_NAME_2":"NA","city":"n.a.(1019)","VARNAME_3":"NA","NL_NAME_3":"NA","TYPE_3":"Unknown","ENGTYPE_3":"Unknown","CC_3":"NA","HASC_3":"NA","name":"n.a.(1019).city"},
"geometry":{"type": "MultiPolygon","coordinates": [[[[34.021,-13.9073,920.4609],[34.0178,-13.9034,947.5072],[34.0091,-13.899,986.7358],[34.0057,-13.8926,1078.7961],[34.008,-13.8877,1085.4846],[34.0061,-13.8865,1100.3324],[34.0065,-13.8837,1095.2013],[34.0051,-13.8821,1075.7151],[34.0081,-13.8786,1083.1516],[34.0108,-13.8782,1078.6116],[34.0135,-13.874,1051.981],[34.022,-13.8723,1023.8596],[34.016,-13.8699,1047.1636],[34.0128,-13.8658,1026.3043],[33.9926,-13.862,1113.5834],[33.9805,-13.8668,1153.858],[33.985,-13.8706,1122.179],[33.9862,-13.8739,1105.7148],[33.9833,-13.882,1065.7135],[33.9841,-13.8895,1043.8467],[33.9794,-13.8845,1079.5381],[33.9756,-13.8908,1034.3589],[33.9691,-13.8857,1082.6406],[33.9631,-13.8914,1060.1857],[33.9681,-13.8946,1060.4312],[33.9694,-13.8979,1041.9464],[33.9672,-13.9127,964.1566],[33.9722,-13.9124,969.0062],[33.9738,-13.9176,967.7825],[33.9795,-13.9234,969.1559],[33.9822,-13.9286,962.8351],[33.9868,-13.932,959.2785],[33.9967,-13.9326,924.3549],[33.9958,-13.9276,951.0438],[33.999,-13.9248,924.1049],[34.0001,-13.9208,928.8384],[34.0056,-13.9136,922.7863],[34.0133,-13.9126,940.0974],[34.021,-13.9073,920.4609]]]]}}