{"type": "Feature","bbox": [33.8979,-13.8508,33.9488,-13.796],"geometry": {"type": "MultiPolygon","coordinates": [[[[33.8979,-13.8318,1239.1843],[33.9056,-13.846,1228.5687],[33.9125,-13.8502,1191.1494],[33.9146,-13.8508,1187.0095],[33.928,-13.8418,1157.9166],[33.9292,-13.8408,1165.7461],[33.9249,-13.8271,1160.1909],[33.9268,-13.8251,1166.9443],[33.9312,-13.8245,1157.3777],[33.9337,-13.8219,1142.4778],[33.9287,-13.8181,1166.6898],[33.9488,-13.814,1131.261],[33.9425,-13.8053,1105.9504],[33.9415,-13.796,1079.6284],[33.9269,-13.7964,1100.7666],[33.9236,-13.8049,1130.6663],[33.9153,-13.8072,1166.8201],[33.9086,-13.8182,1216.429],[33.9023,-13.8171,1215.8392],[33.8979,-13.8318,1239.1843]]]]}
,"properties": {"GID_3": "MWI.11.7.18_1","GID_0": "MWI","country": "Malawi","GID_1": "MWI.11_1","province": "Lilongwe","NL_NAME_1": "NA","GID_2": "MWI.11.7_1","county": "TAChimutu","NL_NAME_2": "NA","city": "n.a.(956)","VARNAME_3": "NA","NL_NAME_3": "NA","TYPE_3": "Unknown","ENGTYPE_3": "Unknown","CC_3": "NA","HASC_3": "NA","name": "n.a.(956).city","area_km2": 16.03819,"hist_schema_id": "Elevation0-9000","hist_area_km2": {"1075": 0.26767,"1100": 1.11186,"1125": 2.18248,"1150": 2.57361,"1175": 3.95283,"1200": 3.04691,"1225": 1.87345,"1250": 0.8235,"1275": 0.20588}}}