{"type":"Feature","properties":{"GID_3":"MWI.4.6.7_1","GID_0":"MWI","country":"Malawi","GID_1":"MWI.4_1","province":"Chiradzulu","NL_NAME_1":"NA","GID_2":"MWI.4.6_1","county":"TANchema","NL_NAME_2":"NA","city":"n.a.(2419)","VARNAME_3":"NA","NL_NAME_3":"NA","TYPE_3":"Unknown","ENGTYPE_3":"Unknown","CC_3":"NA","HASC_3":"NA","name":"n.a.(2419).city"},
"geometry":{"type": "MultiPolygon","coordinates": [[[[35.2453,-15.6565,855.5347],[35.2493,-15.6624,848.3765],[35.2511,-15.6619,849.3252],[35.2535,-15.6649,843.9765],[35.2565,-15.6648,843.1037],[35.2576,-15.6704,838.8737],[35.2626,-15.674,831.0191],[35.2718,-15.671,827.6462],[35.2726,-15.6741,820.8948],[35.2791,-15.6744,818.0135],[35.2803,-15.6758,811.2092],[35.2857,-15.6713,809.9566],[35.2882,-15.6714,808.8776],[35.2956,-15.677,804.7908],[35.2972,-15.6834,793.8855],[35.3001,-15.6817,795.1101],[35.3033,-15.6829,794.3765],[35.3046,-15.681,795.3978],[35.3057,-15.683,789.801],[35.3064,-15.6818,789.1998],[35.3126,-15.682,783.4911],[35.315,-15.6792,787.5702],[35.3216,-15.6808,778.3912],[35.3211,-15.679,778.8759],[35.3241,-15.6791,773.4555],[35.3183,-15.6768,781.902],[35.3158,-15.6728,785.0787],[35.3115,-15.6732,788.8398],[35.3093,-15.6688,785.4184],[35.3028,-15.6688,785.332],[35.2895,-15.6647,798.0861],[35.2851,-15.6657,808.1721],[35.2759,-15.6619,823.5643],[35.2756,-15.6594,821.3517],[35.2738,-15.6576,826.0776],[35.272,-15.6582,823.1887],[35.2709,-15.6553,827.6248],[35.2682,-15.6549,831.1138],[35.2661,-15.6516,832.9973],[35.2582,-15.6567,852.3069],[35.2495,-15.6541,875.5623],[35.2453,-15.6565,855.5347]]]]}}