{"type":"Feature","properties":{"GID_3":"MWI.12.12.7_1","GID_0":"MWI","country":"Malawi","GID_1":"MWI.12_1","province":"Machinga","NL_NAME_1":"NA","GID_2":"MWI.12.12_1","county":"TAKawinga","NL_NAME_2":"NA","city":"n.a.(1817)","VARNAME_3":"NA","NL_NAME_3":"NA","TYPE_3":"Unknown","ENGTYPE_3":"Unknown","CC_3":"NA","HASC_3":"NA","name":"n.a.(1817).city"},
"geometry":{"type": "MultiPolygon","coordinates": [[[[35.538,-14.7875,785.8683],[35.5324,-14.8057,774.1843],[35.5331,-14.8221,758.119],[35.5268,-14.8592,753.8171],[35.5269,-14.8615,745.9956],[35.5343,-14.8628,738.6134],[35.5362,-14.8606,740.6768],[35.5419,-14.8595,730.9915],[35.546,-14.8567,726.8275],[35.5544,-14.8546,719.7286],[35.5609,-14.8553,710.1306],[35.5653,-14.852,706.4753],[35.5533,-14.8496,710.7626],[35.5496,-14.8443,724.3455],[35.5502,-14.8425,726.0448],[35.5572,-14.8377,739.3929],[35.5545,-14.8306,744.9448],[35.5558,-14.825,746.8802],[35.5504,-14.8227,755.8304],[35.5491,-14.819,759.3063],[35.5515,-14.8017,764.9944],[35.556,-14.7915,770.1566],[35.542,-14.7856,784.5579],[35.5392,-14.7856,787.4481],[35.538,-14.7875,785.8683]]]]}}