{"type": "Feature","bbox": [34.1103,-14.4198,34.1646,-14.3719],"geometry": {"type": "MultiPolygon","coordinates": [[[[34.1103,-14.3786,1297.8499],[34.1123,-14.3848,1307.4734],[34.124,-14.3846,1332.2609],[34.1201,-14.3922,1311.9397],[34.1308,-14.3951,1341.4188],[34.1308,-14.4083,1319.1013],[34.14,-14.4145,1327.1274],[34.142,-14.4175,1328.6116],[34.1516,-14.4198,1341.2876],[34.1643,-14.4054,1370.8102],[34.1646,-14.4009,1351.7704],[34.1626,-14.3952,1338.8201],[34.1431,-14.3719,1312.176],[34.1359,-14.3722,1338.8093],[34.1281,-14.3794,1347.8146],[34.1214,-14.3759,1318.9685],[34.1172,-14.3755,1312.2056],[34.1103,-14.3786,1297.8499]]]]}
,"properties": {"GID_3": "MWI.6.9.17_1","GID_0": "MWI","country": "Malawi","GID_1": "MWI.6_1","province": "Dedza","NL_NAME_1": "NA","GID_2": "MWI.6.9_1","county": "TAPemba","NL_NAME_2": "NA","city": "n.a.(1544)","VARNAME_3": "NA","NL_NAME_3": "NA","TYPE_3": "Unknown","ENGTYPE_3": "Unknown","CC_3": "NA","HASC_3": "NA","name": "n.a.(1544).city","area_km2": 16.30607,"hist_schema_id": "Elevation0-9000","hist_area_km2": {"1300": 0.57507,"1325": 6.01734,"1350": 7.04402,"1375": 2.66966}}}