{"type":"Feature","properties":{"GID_3":"MWI.9.16.4_1","GID_0":"MWI","country":"Malawi","GID_1":"MWI.9_1","province":"Kasungu","NL_NAME_1":"NA","GID_2":"MWI.9.16_1","county":"TAWimbe","NL_NAME_2":"NA","city":"n.a.(407)","VARNAME_3":"NA","NL_NAME_3":"NA","TYPE_3":"Unknown","ENGTYPE_3":"Unknown","CC_3":"NA","HASC_3":"NA","name":"n.a.(407).city"},
"geometry":{"type": "MultiPolygon","coordinates": [[[[33.6875,-12.7965,942.5692],[33.6835,-12.7995,935.1491],[33.6859,-12.8072,919.6629],[33.6814,-12.8092,950.3914],[33.6796,-12.8151,950.9213],[33.6736,-12.816,944.6766],[33.6659,-12.8107,950.4323],[33.6588,-12.8132,942.5027],[33.6519,-12.8228,949.968],[33.6442,-12.8299,946.1481],[33.6411,-12.8371,937.5918],[33.647,-12.8462,941.687],[33.6541,-12.8533,966.2323],[33.6626,-12.8553,983.6123],[33.6722,-12.8603,1014.5468],[33.6724,-12.8669,1033.3905],[33.6788,-12.8767,1072.8733],[33.6812,-12.8755,1060.4146],[33.679,-12.866,1031.8734],[33.6836,-12.8639,1005.7159],[33.6819,-12.8606,1024.9515],[33.6842,-12.8553,995.7985],[33.6842,-12.8495,982.3793],[33.6947,-12.8509,1028.6005],[33.6993,-12.8551,1046.4351],[33.7111,-12.8573,1023.5133],[33.7182,-12.8553,1017.7029],[33.7238,-12.852,989.0082],[33.7258,-12.8487,984.3638],[33.728,-12.8491,979.8658],[33.7183,-12.8336,966.5338],[33.7176,-12.8249,971.5063],[33.7222,-12.8196,950.9247],[33.7214,-12.8134,943.0391],[33.7177,-12.8152,947.8079],[33.7165,-12.813,965.962],[33.7187,-12.8105,940.3725],[33.7235,-12.8103,947.8105],[33.7239,-12.8081,949.9994],[33.716,-12.8073,936.0115],[33.7148,-12.8008,924.2425],[33.7076,-12.7963,907.338],[33.706,-12.7906,929.2946],[33.6987,-12.8012,928.2319],[33.696,-12.8006,919.688],[33.6944,-12.7967,925.3778],[33.6875,-12.7965,942.5692]]]]}}