{"type": "Feature","bbox": [34.5176,-14.3056,34.5645,-14.275],"geometry": {"type": "MultiPolygon","coordinates": [[[[34.5515,-14.2754,520.5312],[34.5426,-14.275,525.361],[34.5294,-14.2855,532.3331],[34.5238,-14.2871,533.7294],[34.5176,-14.3,604.019],[34.5207,-14.3045,577.4218],[34.5289,-14.3056,587.054],[34.5469,-14.3006,528.3856],[34.5595,-14.3053,523.5079],[34.5645,-14.295,521.8156],[34.5589,-14.2923,521.3527],[34.5522,-14.2863,526.5286],[34.5515,-14.2754,520.5312]]]]}
,"properties": {"GID_3": "MWI.6.6.19_1","GID_0": "MWI","country": "Malawi","GID_1": "MWI.6_1","province": "Dedza","NL_NAME_1": "NA","GID_2": "MWI.6.6_1","county": "TAKachindamoto","NL_NAME_2": "NA","city": "n.a.(1433)","VARNAME_3": "NA","NL_NAME_3": "NA","TYPE_3": "Unknown","ENGTYPE_3": "Unknown","CC_3": "NA","HASC_3": "NA","name": "n.a.(1433).city","area_km2": 10.272976,"hist_schema_id": "Elevation0-9000","hist_area_km2": {"525": 8.17735,"550": 1.335454,"575": 0.410905,"600": 0.287631,"625": 0.061635}}}