{"type":"Feature","properties":{"GID_3":"MWI.11.11.16_1","GID_0":"MWI","country":"Malawi","GID_1":"MWI.11_1","province":"Lilongwe","NL_NAME_1":"NA","GID_2":"MWI.11.11_1","county":"TAKalolo","NL_NAME_2":"NA","city":"n.a.(1117)","VARNAME_3":"NA","NL_NAME_3":"NA","TYPE_3":"Unknown","ENGTYPE_3":"Unknown","CC_3":"NA","HASC_3":"NA","name":"n.a.(1117).city"},
"geometry":{"type": "MultiPolygon","coordinates": [[[[33.3396,-13.9789,1102.9587],[33.3436,-13.9888,1101.2789],[33.3524,-14.002,1117.1508],[33.3514,-14.0158,1121.6865],[33.3771,-14.0162,1140.0736],[33.3924,-14.0185,1150.5327],[33.3903,-14.0149,1137.9187],[33.3842,-13.9842,1146.9685],[33.3687,-13.9759,1150.3684],[33.3435,-13.9763,1100.6683],[33.3396,-13.9789,1102.9587]]]]}}