{"type":"Feature","properties":{"GID_3":"MWI.6.10.9_1","GID_0":"MWI","country":"Malawi","GID_1":"MWI.6_1","province":"Dedza","NL_NAME_1":"NA","GID_2":"MWI.6.10_1","county":"TATambala","NL_NAME_2":"NA","city":"n.a.(1183)","VARNAME_3":"NA","NL_NAME_3":"NA","TYPE_3":"Unknown","ENGTYPE_3":"Unknown","CC_3":"NA","HASC_3":"NA","name":"n.a.(1183).city"},
"geometry":{"type": "MultiPolygon","coordinates": [[[[34.1937,-14.0669,1186.5911],[34.2051,-14.0727,1216.8252],[34.2079,-14.0668,1199.8425],[34.2079,-14.0616,1190.5061],[34.2107,-14.0568,1182.2063],[34.2123,-14.0599,1194.2369],[34.2251,-14.0672,1229.2766],[34.2319,-14.0775,1288.4286],[34.2407,-14.0785,1334.0239],[34.2402,-14.0728,1349.7173],[34.2446,-14.0635,1330.5919],[34.2376,-14.0489,1277.9641],[34.2358,-14.0478,1266.614],[34.198,-14.0439,1097.2115],[34.1854,-14.0474,1119.9186],[34.1771,-14.0454,1100.0188],[34.1745,-14.0465,1098.8296],[34.1874,-14.0622,1175.6594],[34.1937,-14.0669,1186.5911]]]]}}