{"type":"Feature","properties":{"GID_3":"MWI.13.13.21_1","GID_0":"MWI","country":"Malawi","GID_1":"MWI.13_1","province":"Mangochi","NL_NAME_1":"NA","GID_2":"MWI.13.13_1","county":"TANankumba","NL_NAME_2":"NA","city":"n.a.(1583)","VARNAME_3":"NA","NL_NAME_3":"NA","TYPE_3":"Unknown","ENGTYPE_3":"Unknown","CC_3":"NA","HASC_3":"NA","name":"n.a.(1583).city"},
"geometry":{"type": "MultiPolygon","coordinates": [[[[34.7905,-14.4485,537.7368],[34.7948,-14.4568,541.325],[34.7976,-14.4714,551.209],[34.8017,-14.478,556.0986],[34.8081,-14.4839,561.0507],[34.8174,-14.4863,565.5135],[34.8249,-14.4843,569.0819],[34.8366,-14.4915,575.6116],[34.8455,-14.4907,583.3629],[34.8643,-14.4925,603.7764],[34.8637,-14.486,595.0968],[34.8659,-14.4829,593.1627],[34.8721,-14.4802,601.3171],[34.8848,-14.4796,629.486],[34.8933,-14.4748,617.588],[34.8904,-14.47,611.5021],[34.8868,-14.4686,605.0237],[34.8801,-14.4602,593.3683],[34.8773,-14.4594,598.6959],[34.8767,-14.4567,593.8568],[34.8791,-14.4529,589.692],[34.8777,-14.4517,588.5211],[34.8648,-14.4493,581.0301],[34.8696,-14.4554,590.694],[34.8695,-14.4611,596.8198],[34.8551,-14.4582,573.4138],[34.8534,-14.4547,571.7666],[34.8454,-14.4518,563.6044],[34.845,-14.4462,565.1116],[34.839,-14.4455,559.4934],[34.8268,-14.4405,545.8009],[34.8228,-14.4361,541.9386],[34.8211,-14.4275,536.7943],[34.8166,-14.4252,533.8243],[34.8144,-14.4201,531.4135],[34.8117,-14.4202,527.9681],[34.807,-14.4169,526.3047],[34.8009,-14.4173,524.478],[34.807,-14.4347,534.7963],[34.7905,-14.4485,537.7368]]]]}}