{"type": "Feature","bbox": [35.7195,-15.6832,35.7545,-15.6505],"geometry": {"type": "MultiPolygon","coordinates": [[[[35.7234,-15.6646,659.176],[35.7195,-15.6716,661.6928],[35.722,-15.682,665.5807],[35.7242,-15.6832,667.548],[35.7245,-15.6784,666.7808],[35.7419,-15.6764,662.0292],[35.744,-15.6682,655.2063],[35.743,-15.6562,647.1346],[35.7545,-15.6511,640.5984],[35.7403,-15.6505,646.7618],[35.73,-15.6592,654.1364],[35.7253,-15.6582,654.0323],[35.7262,-15.6622,658.0675],[35.7234,-15.6646,659.176]]]]}
,"properties": {"GID_3": "MWI.24.2.25_1","GID_0": "MWI","country": "Malawi","GID_1": "MWI.24_1","province": "Phalombe","NL_NAME_1": "NA","GID_2": "MWI.24.2_1","county": "TAMkhumba","NL_NAME_2": "NA","city": "n.a.(2417)","VARNAME_3": "NA","NL_NAME_3": "NA","TYPE_3": "Unknown","ENGTYPE_3": "Unknown","CC_3": "NA","HASC_3": "NA","name": "n.a.(2417).city","area_km2": 5.981474,"hist_schema_id": "Elevation0-9000","hist_area_km2": {"650": 5.042449,"675": 0.939026}}}