{"type": "Feature","bbox": [33.5709,-13.1651,33.6814,-13.1071],"geometry": {"type": "MultiPolygon","coordinates": [[[[33.5986,-13.1105,1157.5073],[33.582,-13.1249,1123.3621],[33.5739,-13.1244,1117.8119],[33.5711,-13.1269,1117.4668],[33.5709,-13.1585,1092.3628],[33.5727,-13.1651,1090.0675],[33.5746,-13.1575,1088.5212],[33.5796,-13.1527,1098.2849],[33.6221,-13.1363,1126.7438],[33.6191,-13.1442,1128.356],[33.6187,-13.1509,1126.6345],[33.6203,-13.1565,1137.0911],[33.6262,-13.1629,1124.3188],[33.6272,-13.1572,1128.4229],[33.6312,-13.1546,1122.4076],[33.6432,-13.1543,1103.1178],[33.6534,-13.1503,1081.9182],[33.6625,-13.1542,1081.8149],[33.6807,-13.1545,1069.642],[33.6814,-13.148,1084.1688],[33.6754,-13.1249,1129.0771],[33.6688,-13.1159,1137.8396],[33.6527,-13.1129,1132.4806],[33.6372,-13.1071,1132.726],[33.6354,-13.1134,1124.4861],[33.6365,-13.121,1113.1216],[33.6315,-13.125,1111.5255],[33.6107,-13.113,1136.4874],[33.6053,-13.1117,1146.667],[33.6009,-13.1125,1153.5814],[33.5986,-13.1105,1157.5073]]]]}
,"properties": {"GID_3": "MWI.9.3.6_1","GID_0": "MWI","country": "Malawi","GID_1": "MWI.9_1","province": "Kasungu","NL_NAME_1": "NA","GID_2": "MWI.9.3_1","county": "SCChilowamatambe","NL_NAME_2": "NA","city": "n.a.(497)","VARNAME_3": "NA","NL_NAME_3": "NA","TYPE_3": "Unknown","ENGTYPE_3": "Unknown","CC_3": "NA","HASC_3": "NA","name": "n.a.(497).city","area_km2": 44.51613,"hist_schema_id": "Elevation0-9000","hist_area_km2": {"1075": 2.02333,"1100": 14.4323,"1125": 21.76272,"1150": 6.29778}}}