{"type": "Feature","bbox": [33.998,-10.7352,34.1109,-10.6368],"geometry": {"type": "MultiPolygon","coordinates": [[[[33.998,-10.7088,2034.2628],[34.0127,-10.7146,1684.4231],[34.0153,-10.7237,1541.4911],[34.0236,-10.7257,1421.8521],[34.0258,-10.7295,1384.9407],[34.0336,-10.7352,1285.9683],[34.0434,-10.7278,1266.0508],[34.0512,-10.7322,1265.3557],[34.0747,-10.7333,1309.6936],[34.0773,-10.7308,1314.062],[34.0778,-10.7214,1292.2336],[34.0802,-10.7187,1327.0491],[34.0941,-10.7158,1293.512],[34.103,-10.7186,1328.7694],[34.1109,-10.7153,1273.6897],[34.1108,-10.708,1223.7001],[34.1065,-10.7045,1193.2059],[34.1042,-10.6964,1155.3113],[34.1041,-10.6874,1116.9469],[34.0886,-10.6845,1208.8916],[34.0765,-10.6901,1366.2799],[34.0709,-10.69,1357.7719],[34.0689,-10.6877,1380.8649],[34.0695,-10.6741,1163.6975],[34.0654,-10.6758,1221.348],[34.0408,-10.6638,1844.1377],[34.0446,-10.6551,1641.6758],[34.0403,-10.6437,1256.933],[34.0409,-10.6395,1294.6486],[34.0239,-10.6368,1329.6385],[34.0111,-10.6481,1506.446],[34.0082,-10.6606,1641.6509],[34.0174,-10.6695,1897.7407],[34.0155,-10.6765,2138.1584],[34.0249,-10.6831,1954.2648],[34.0226,-10.6852,1900.6058],[34.0191,-10.6849,1984.2849],[34.0209,-10.6916,1801.6007],[34.0158,-10.6904,1936.1896],[34.0147,-10.6914,2065.3958],[34.0146,-10.6974,2070.3938],[34.0103,-10.7062,1775.1277],[34.0048,-10.7047,2008.0693],[33.998,-10.7088,2034.2628]]]]}
,"properties": {"GID_3": "MWI.25.5.2_1","GID_0": "MWI","country": "Malawi","GID_1": "MWI.25_1","province": "Rumphi","NL_NAME_1": "NA","GID_2": "MWI.25.5_1","county": "SCKachulu","NL_NAME_2": "NA","city": "n.a.(111)","VARNAME_3": "NA","NL_NAME_3": "NA","TYPE_3": "Unknown","ENGTYPE_3": "Unknown","CC_3": "NA","HASC_3": "NA","name": "n.a.(111).city","area_km2": 66.60613,"hist_schema_id": "Elevation0-9000","hist_area_km2": {"1025": 0.02083,"1050": 0.0625,"1075": 0.0625,"1100": 0.10417,"1125": 0.0625,"1150": 0.18751,"1175": 0.60419,"1200": 0.9792,"1225": 1.95838,"1250": 3.4583,"1275": 6.47902,"1300": 7.8541,"1325": 6.20832,"1350": 4.70843,"1375": 3.27091,"1400": 2.56261,"1425": 1.97927,"1450": 1.58343,"1475": 1.47925,"1500": 1.45843,"1525": 1.52093,"1550": 1.52092,"1575": 1.58344,"1600": 1.2709,"1625": 1.54176,"1650": 1.12508,"1675": 1.47926,"1700": 1.22925,"1725": 1.22926,"1750": 0.9584,"1775": 0.97924,"1800": 1.10423,"1825": 1.10425,"1850": 0.93757,"1875": 0.77089,"1900": 0.62505,"1925": 0.64587,"1950": 0.4167,"1975": 0.45836,"2000": 0.31251,"2025": 0.20835,"2050": 0.20835,"2075": 0.14585,"2100": 0.08334,"2150": 0.06251}}}