{"type":"Feature","properties":{"GID_3":"MWI.4.3.2_1","GID_0":"MWI","country":"Malawi","GID_1":"MWI.4_1","province":"Chiradzulu","NL_NAME_1":"NA","GID_2":"MWI.4.3_1","county":"TAKadewere","NL_NAME_2":"NA","city":"n.a.(2400)","VARNAME_3":"NA","NL_NAME_3":"NA","TYPE_3":"Unknown","ENGTYPE_3":"Unknown","CC_3":"NA","HASC_3":"NA","name":"n.a.(2400).city"},
"geometry":{"type": "MultiPolygon","coordinates": [[[[35.1769,-15.6467,1031.3925],[35.1864,-15.6579,978.0414],[35.1884,-15.6577,978.0414],[35.1909,-15.6603,949.3748],[35.2025,-15.6608,924.572],[35.206,-15.6584,929.6996],[35.2096,-15.6586,913.1179],[35.2124,-15.6623,901.9168],[35.2113,-15.6674,907.4953],[35.2083,-15.6714,925.3969],[35.2202,-15.6718,896.5021],[35.2254,-15.6661,889.8618],[35.23,-15.6656,876.7472],[35.2032,-15.6353,932.8489],[35.2002,-15.641,941.8434],[35.1887,-15.6515,992.5774],[35.1769,-15.6467,1031.3925]]]]}}