{"type": "Feature","bbox": [33.4872,-13.1032,33.5297,-13.0425],"geometry": {"type": "MultiPolygon","coordinates": [[[[33.4872,-13.0586,1049.0],[33.4917,-13.0676,1053.7538],[33.4929,-13.0721,1057.3878],[33.4921,-13.0804,1064.5063],[33.4958,-13.0887,1071.6317],[33.5075,-13.0939,1091.5326],[33.5168,-13.1001,1109.1097],[33.5188,-13.1032,1119.7471],[33.5288,-13.0913,1124.5372],[33.5097,-13.0712,1090.1631],[33.5147,-13.0691,1100.2103],[33.5194,-13.0709,1103.241],[33.5252,-13.0683,1092.5153],[33.5297,-13.0518,1076.5396],[33.5154,-13.0488,1069.2687],[33.5124,-13.043,1059.1771],[33.5009,-13.0425,1063.6776],[33.4986,-13.0582,1065.9111],[33.4872,-13.0586,1049.0]]]]}
,"properties": {"GID_3": "MWI.9.12.6_1","GID_0": "MWI","country": "Malawi","GID_1": "MWI.9_1","province": "Kasungu","NL_NAME_1": "NA","GID_2": "MWI.9.12_1","county": "TAKaomba","NL_NAME_2": "NA","city": "n.a.(479)","VARNAME_3": "NA","NL_NAME_3": "NA","TYPE_3": "Unknown","ENGTYPE_3": "Unknown","CC_3": "NA","HASC_3": "NA","name": "n.a.(479).city","area_km2": 17.26582,"hist_schema_id": "Elevation0-9000","hist_area_km2": {"1050": 1.07398,"1075": 9.08746,"1100": 6.13378,"1125": 0.9706}}}