{"type": "Feature","bbox": [33.8009,-13.5693,33.8605,-13.5267],"geometry": {"type": "MultiPolygon","coordinates": [[[[33.8437,-13.5693,1318.9489],[33.8565,-13.5664,1360.3405],[33.8596,-13.5617,1376.4896],[33.852,-13.5614,1343.7046],[33.8501,-13.5583,1342.9226],[33.8605,-13.53,1370.4111],[33.852,-13.5267,1345.5552],[33.8464,-13.5323,1331.0153],[33.846,-13.5409,1335.6036],[33.8446,-13.5425,1342.8846],[33.8381,-13.5415,1328.7745],[33.8324,-13.5365,1354.6055],[33.8258,-13.5382,1366.1873],[33.8184,-13.5362,1296.5723],[33.8153,-13.5428,1296.0306],[33.8119,-13.5443,1288.3616],[33.8013,-13.5394,1269.5673],[33.8009,-13.5468,1266.9463],[33.8025,-13.5508,1259.0911],[33.8109,-13.55,1270.7948],[33.8147,-13.5513,1276.2495],[33.8234,-13.567,1286.6183],[33.8299,-13.5689,1293.0806],[33.838,-13.5663,1305.2906],[33.8437,-13.5693,1318.9489]]]]}
,"properties": {"GID_3": "MWI.7.9.9_1","GID_0": "MWI","country": "Malawi","GID_1": "MWI.7_1","province": "Dowa","NL_NAME_1": "NA","GID_2": "MWI.7.9_1","county": "TAMsakambewa","NL_NAME_2": "NA","city": "n.a.(707)","VARNAME_3": "NA","NL_NAME_3": "NA","TYPE_3": "Unknown","ENGTYPE_3": "Unknown","CC_3": "NA","HASC_3": "NA","name": "n.a.(707).city","area_km2": 15.56208,"hist_schema_id": "Elevation0-9000","hist_area_km2": {"1250": 0.02061,"1275": 1.64897,"1300": 2.90625,"1325": 3.19478,"1350": 4.4316,"1375": 1.91697,"1400": 0.94819,"1425": 0.49471}}}