{"type": "Feature","bbox": [34.9452,-14.7746,35.0031,-14.6957],"geometry": {"type": "MultiPolygon","coordinates": [[[[35.0026,-14.7723,694.8164],[35.0031,-14.7684,690.8444],[34.9971,-14.7629,697.4838],[34.9963,-14.7566,711.1539],[34.9993,-14.7424,726.0464],[34.9976,-14.7404,729.6696],[34.9982,-14.7359,743.6299],[34.9952,-14.7335,735.7761],[35.0012,-14.7288,758.4492],[35.0014,-14.715,792.2133],[34.9993,-14.7112,841.3636],[34.9961,-14.709,829.5407],[34.988,-14.709,790.3543],[34.9866,-14.7026,780.8306],[34.979,-14.7102,760.0968],[34.9702,-14.7118,785.4889],[34.9646,-14.7016,851.4077],[34.9577,-14.7044,869.6461],[34.952,-14.7033,787.6056],[34.9509,-14.7017,782.3254],[34.9525,-14.6962,813.6479],[34.9496,-14.6957,828.7305],[34.9452,-14.7044,771.0092],[34.949,-14.7092,765.3826],[34.9516,-14.7181,758.1064],[34.9609,-14.7292,740.5354],[34.9577,-14.75,725.9581],[34.9674,-14.7704,714.132],[34.9711,-14.7746,704.8196],[35.0026,-14.7723,694.8164]]]]}
,"properties": {"GID_3": "MWI.13.8.27_1","GID_0": "MWI","country": "Malawi","GID_1": "MWI.13_1","province": "Mangochi","NL_NAME_1": "NA","GID_2": "MWI.13.8_1","county": "TAChimwala","NL_NAME_2": "NA","city": "n.a.(1751)","VARNAME_3": "NA","NL_NAME_3": "NA","TYPE_3": "Unknown","ENGTYPE_3": "Unknown","CC_3": "NA","HASC_3": "NA","name": "n.a.(1751).city","area_km2": 32.84855,"hist_schema_id": "Elevation0-9000","hist_area_km2": {"675": 0.18452,"700": 1.29162,"725": 9.34934,"750": 12.52849,"775": 7.23879,"800": 1.70209,"825": 0.34862,"850": 0.08203,"875": 0.10254,"925": 0.02051}}}