{"type": "Feature","bbox": [35.2131,-16.211,35.2865,-16.1653],"geometry": {"type": "MultiPolygon","coordinates": [[[[35.2818,-16.188,415.6027],[35.2792,-16.1892,410.7919],[35.2745,-16.1863,449.0678],[35.2677,-16.1894,466.1711],[35.2631,-16.1884,472.7208],[35.2504,-16.177,550.9434],[35.2442,-16.1753,510.7562],[35.2423,-16.171,546.8263],[35.2355,-16.1732,479.7547],[35.2353,-16.1697,495.9062],[35.232,-16.168,482.6768],[35.2319,-16.1653,489.356],[35.2292,-16.1685,495.5312],[35.2255,-16.1692,488.2776],[35.2263,-16.1713,498.2384],[35.2218,-16.176,545.8925],[35.2215,-16.1787,527.3658],[35.2166,-16.1807,543.0497],[35.2178,-16.1847,548.2723],[35.2131,-16.1892,620.4594],[35.2192,-16.1939,663.1329],[35.2348,-16.192,534.3964],[35.2395,-16.1928,525.8722],[35.2394,-16.1971,542.78],[35.2422,-16.1996,604.4362],[35.2481,-16.1991,541.2927],[35.2464,-16.2069,616.8451],[35.2498,-16.2094,612.3931],[35.2574,-16.2092,636.5061],[35.2612,-16.211,581.2537],[35.2642,-16.2073,559.7877],[35.2741,-16.2041,502.4033],[35.2829,-16.1945,442.7353],[35.2865,-16.1937,410.0987],[35.2864,-16.19,405.7035],[35.2818,-16.188,415.6027]]]]}
,"properties": {"GID_3": "MWI.27.3.1_1","GID_0": "MWI","country": "Malawi","GID_1": "MWI.27_1","province": "Thyolo","NL_NAME_1": "NA","GID_2": "MWI.27.3_1","county": "SCMbawela","NL_NAME_2": "NA","city": "n.a.(2953)","VARNAME_3": "NA","NL_NAME_3": "NA","TYPE_3": "Unknown","ENGTYPE_3": "Unknown","CC_3": "NA","HASC_3": "NA","name": "n.a.(2953).city","area_km2": 16.94067,"hist_schema_id": "Elevation0-9000","hist_area_km2": {"400": 0.22397,"425": 0.61084,"450": 1.77144,"475": 2.87098,"500": 2.50446,"525": 1.95467,"550": 1.99543,"575": 1.64927,"600": 1.58818,"625": 1.1606,"650": 0.52939,"675": 0.08145}}}