{"type":"Feature","properties":{"GID_3":"MWI.11.7.21_1","GID_0":"MWI","country":"Malawi","GID_1":"MWI.11_1","province":"Lilongwe","NL_NAME_1":"NA","GID_2":"MWI.11.7_1","county":"TAChimutu","NL_NAME_2":"NA","city":"n.a.(979)","VARNAME_3":"NA","NL_NAME_3":"NA","TYPE_3":"Unknown","ENGTYPE_3":"Unknown","CC_3":"NA","HASC_3":"NA","name":"n.a.(979).city"},
"geometry":{"type": "MultiPolygon","coordinates": [[[[33.9154,-13.8606,1171.3785],[33.9146,-13.8508,1187.0095],[33.906,-13.8466,1222.6658],[33.8979,-13.8318,1239.1843],[33.8948,-13.8321,1236.001],[33.8907,-13.8298,1217.4127],[33.8835,-13.8196,1209.2356],[33.8847,-13.8315,1175.7534],[33.8818,-13.8344,1167.2611],[33.8816,-13.8412,1138.2034],[33.8828,-13.8448,1118.9651],[33.886,-13.8463,1152.5411],[33.8853,-13.8488,1129.3722],[33.8881,-13.8577,1085.0294],[33.8876,-13.8619,1071.8104],[33.8845,-13.8634,1067.6698],[33.8854,-13.8692,1061.3289],[33.8921,-13.8693,1139.5774],[33.8964,-13.8676,1131.1084],[33.8979,-13.8705,1110.4427],[33.903,-13.8665,1143.5331],[33.9156,-13.865,1191.7659],[33.9169,-13.8643,1159.7788],[33.9154,-13.8606,1171.3785]]]]}}