{"type":"Feature","properties":{"GID_3":"MWI.1.3.47_1","GID_0":"MWI","country":"Malawi","GID_1":"MWI.1_1","province":"Balaka","NL_NAME_1":"NA","GID_2":"MWI.1.3_1","county":"TANsamala","NL_NAME_2":"NA","city":"n.a.(2066)","VARNAME_3":"NA","NL_NAME_3":"NA","TYPE_3":"Unknown","ENGTYPE_3":"Unknown","CC_3":"NA","HASC_3":"NA","name":"n.a.(2066).city"},
"geometry":{"type": "MultiPolygon","coordinates": [[[[35.0881,-15.2193,490.4797],[35.086,-15.227,484.7206],[35.0932,-15.2301,484.9796],[35.0993,-15.237,481.7135],[35.1061,-15.2349,482.4657],[35.1071,-15.2403,480.1974],[35.1136,-15.2445,479.136],[35.1137,-15.2484,475.8684],[35.1165,-15.2495,479.1146],[35.1169,-15.2527,475.5991],[35.1153,-15.2549,474.6385],[35.1152,-15.261,473.987],[35.1234,-15.2574,474.3154],[35.1381,-15.2365,473.7657],[35.1362,-15.2339,477.8222],[35.0998,-15.2142,501.4826],[35.0881,-15.2193,490.4797]]]]}}