{"type":"Feature","properties":{"GID_3":"MWI.27.6.22_1","GID_0":"MWI","country":"Malawi","GID_1":"MWI.27_1","province":"Thyolo","NL_NAME_1":"NA","GID_2":"MWI.27.6_1","county":"TABvumbwe","NL_NAME_2":"NA","city":"n.a.(2725)","VARNAME_3":"NA","NL_NAME_3":"NA","TYPE_3":"Unknown","ENGTYPE_3":"Unknown","CC_3":"NA","HASC_3":"NA","name":"n.a.(2725).city"},
"geometry":{"type": "MultiPolygon","coordinates": [[[[35.0119,-15.9735,970.6711],[35.0118,-15.9771,954.0327],[35.0146,-15.9774,970.6603],[35.0145,-15.9792,976.7405],[35.0185,-15.9812,1007.0342],[35.0183,-15.9847,998.8223],[35.0207,-15.9861,1016.1775],[35.0239,-15.9917,1031.4166],[35.0211,-15.9964,1053.3102],[35.0208,-16.0001,1052.2144],[35.0187,-16.0019,1070.438],[35.0186,-16.0073,1089.1143],[35.0237,-16.0109,1128.0911],[35.0262,-16.0092,1161.7419],[35.0336,-16.0086,1172.3077],[35.0345,-16.0053,1135.824],[35.042,-16.0044,1172.9082],[35.0462,-15.9955,1120.0583],[35.0461,-15.9917,1095.0071],[35.0457,-15.9899,1110.5911],[35.0429,-15.9898,1104.0343],[35.0391,-15.9859,1096.2987],[35.0435,-15.9803,1117.8469],[35.0433,-15.9772,1123.8492],[35.0239,-15.9655,1035.3861],[35.0163,-15.9688,1008.1605],[35.0119,-15.9735,970.6711]]]]}}