{"type": "Feature","bbox": [35.1253,-15.1236,35.1866,-15.0822],"geometry": {"type": "MultiPolygon","coordinates": [[[[35.1345,-15.0881,520.5991],[35.1253,-15.0906,528.4235],[35.1288,-15.0951,522.4929],[35.1282,-15.0984,521.4015],[35.1306,-15.1051,513.4355],[35.1353,-15.1114,508.3083],[35.1368,-15.1204,511.1234],[35.1387,-15.1225,507.5312],[35.1498,-15.1236,500.3306],[35.1646,-15.118,496.6834],[35.1734,-15.1035,491.2824],[35.1811,-15.0983,488.7462],[35.1834,-15.094,492.5356],[35.1866,-15.0919,490.3875],[35.173,-15.0867,497.4707],[35.1675,-15.0822,506.4567],[35.1604,-15.0909,508.5396],[35.1483,-15.0961,508.5647],[35.1422,-15.0897,513.9644],[35.1345,-15.0881,520.5991]]]]}
,"properties": {"GID_3": "MWI.1.3.34_1","GID_0": "MWI","country": "Malawi","GID_1": "MWI.1_1","province": "Balaka","NL_NAME_1": "NA","GID_2": "MWI.1.3_1","county": "TANsamala","NL_NAME_2": "NA","city": "n.a.(2011)","VARNAME_3": "NA","NL_NAME_3": "NA","TYPE_3": "Unknown","ENGTYPE_3": "Unknown","CC_3": "NA","HASC_3": "NA","name": "n.a.(2011).city","area_km2": 16.17118,"hist_schema_id": "Elevation0-9000","hist_area_km2": {"500": 13.14158,"525": 3.0296}}}