{"type":"Feature","properties":{"GID_3":"MWI.20.9.4_1","GID_0":"MWI","country":"Malawi","GID_1":"MWI.20_1","province":"Nkhotakota","NL_NAME_1":"NA","GID_2":"MWI.20.9_1","county":"TAMwadzama","NL_NAME_2":"NA","city":"n.a.(511)","VARNAME_3":"NA","NL_NAME_3":"NA","TYPE_3":"Unknown","ENGTYPE_3":"Unknown","CC_3":"NA","HASC_3":"NA","name":"n.a.(511).city"},
"geometry":{"type": "MultiPolygon","coordinates": [[[[34.3331,-13.1505,477.5921],[34.3269,-13.1527,480.4637],[34.3266,-13.1754,490.2358],[34.3246,-13.1883,485.572],[34.3168,-13.204,504.3337],[34.3162,-13.2081,509.0373],[34.328,-13.214,495.5081],[34.3368,-13.213,478.6538],[34.3349,-13.2064,480.8985],[34.3381,-13.2019,478.3304],[34.3357,-13.198,477.6782],[34.3365,-13.1925,477.4836],[34.3323,-13.1849,479.4488],[34.3323,-13.1745,483.1827],[34.3379,-13.1643,481.2081],[34.3331,-13.1505,477.5921]]]]}}