{"type":"Feature","properties":{"GID_3":"MWI.7.3.28_1","GID_0":"MWI","country":"Malawi","GID_1":"MWI.7_1","province":"Dowa","NL_NAME_1":"NA","GID_2":"MWI.7.3_1","county":"SCChakhaza","NL_NAME_2":"NA","city":"n.a.(641)","VARNAME_3":"NA","NL_NAME_3":"NA","TYPE_3":"Unknown","ENGTYPE_3":"Unknown","CC_3":"NA","HASC_3":"NA","name":"n.a.(641).city"},
"geometry":{"type": "MultiPolygon","coordinates": [[[[33.6326,-13.4357,1119.5571],[33.6266,-13.4383,1130.0481],[33.6263,-13.4397,1131.0857],[33.6347,-13.4574,1145.2202],[33.6247,-13.4572,1132.776],[33.608,-13.4628,1147.6427],[33.5914,-13.464,1128.2335],[33.591,-13.4685,1128.1244],[33.5981,-13.4728,1148.2463],[33.6004,-13.4762,1150.6594],[33.6015,-13.4838,1168.7717],[33.5999,-13.4964,1206.4944],[33.6097,-13.4978,1174.0009],[33.6242,-13.4973,1161.5321],[33.6315,-13.4788,1167.6992],[33.6372,-13.4693,1149.5674],[33.6403,-13.4663,1141.3049],[33.6446,-13.4672,1121.9261],[33.6418,-13.4508,1114.7635],[33.6401,-13.4495,1115.0696],[33.6419,-13.4455,1124.2053],[33.6392,-13.4426,1118.0273],[33.6382,-13.4382,1118.5782],[33.6326,-13.4357,1119.5571]]]]}}