{"type": "Feature","bbox": [33.7802,-11.471,33.8848,-11.3796],"geometry": {"type": "MultiPolygon","coordinates": [[[[33.8784,-11.4273,1199.488],[33.8785,-11.4181,1205.051],[33.8848,-11.4131,1184.4984],[33.8769,-11.4011,1195.8667],[33.8784,-11.3948,1177.3857],[33.8765,-11.3907,1180.4662],[33.8776,-11.3863,1177.1772],[33.8756,-11.3833,1181.5524],[33.8773,-11.3796,1188.5294],[33.8713,-11.3822,1166.8811],[33.8688,-11.3813,1163.2869],[33.8666,-11.3855,1178.5731],[33.857,-11.4055,1214.7245],[33.8558,-11.4119,1226.6646],[33.8568,-11.419,1231.9474],[33.8486,-11.4202,1246.7009],[33.8261,-11.4318,1263.2881],[33.8136,-11.4284,1301.2551],[33.7895,-11.4338,1265.6683],[33.7802,-11.4665,1358.5642],[33.7954,-11.4682,1373.1676],[33.8042,-11.4616,1401.7441],[33.809,-11.4621,1332.6831],[33.8139,-11.4594,1317.4141],[33.8225,-11.4449,1280.3975],[33.8329,-11.4413,1254.4939],[33.8417,-11.4446,1268.3362],[33.8462,-11.4479,1272.6866],[33.8424,-11.471,1294.8027],[33.8577,-11.4656,1328.3849],[33.8607,-11.4605,1309.6095],[33.8694,-11.4331,1256.5857],[33.8751,-11.4267,1232.2253],[33.8784,-11.4273,1199.488]]]]}
,"properties": {"GID_3": "MWI.17.10.27_1","GID_0": "MWI","country": "Malawi","GID_1": "MWI.17_1","province": "Mzimba","NL_NAME_1": "NA","GID_2": "MWI.17.10_1","county": "TAMtwalo","NL_NAME_2": "NA","city": "n.a.(202)","VARNAME_3": "NA","NL_NAME_3": "NA","TYPE_3": "Unknown","ENGTYPE_3": "Unknown","CC_3": "NA","HASC_3": "NA","name": "n.a.(202).city","area_km2": 39.85868,"hist_schema_id": "Elevation0-9000","hist_area_km2": {"1150": 0.02079,"1175": 0.87296,"1200": 3.2007,"1225": 6.4219,"1250": 6.73329,"1275": 7.91755,"1300": 8.18747,"1325": 3.92737,"1350": 1.08053,"1375": 0.47793,"1400": 0.54027,"1425": 0.33247,"1450": 0.12468,"1475": 0.02078}}}