{"type": "Feature","bbox": [35.3773,-15.3951,35.434,-15.3697],"geometry": {"type": "MultiPolygon","coordinates": [[[[35.3937,-15.3712,768.7693],[35.3875,-15.3762,776.5386],[35.3791,-15.3786,789.4568],[35.3773,-15.3867,811.8864],[35.3835,-15.3885,806.8283],[35.393,-15.3951,777.503],[35.4041,-15.3925,762.5932],[35.4317,-15.3936,735.0549],[35.434,-15.3837,734.3322],[35.4283,-15.383,737.3663],[35.4312,-15.3713,718.7402],[35.4278,-15.3744,720.7507],[35.4249,-15.3748,732.8944],[35.4141,-15.3697,753.6734],[35.4047,-15.3765,773.7954],[35.3985,-15.379,780.3335],[35.3955,-15.3781,780.4379],[35.3937,-15.3712,768.7693]]]]}
,"properties": {"GID_3": "MWI.28.5.22_1","GID_0": "MWI","country": "Malawi","GID_1": "MWI.28_1","province": "Zomba","NL_NAME_1": "NA","GID_2": "MWI.28.5_1","county": "TAKuntumanji","NL_NAME_2": "NA","city": "n.a.(2149)","VARNAME_3": "NA","NL_NAME_3": "NA","TYPE_3": "Unknown","ENGTYPE_3": "Unknown","CC_3": "NA","HASC_3": "NA","name": "n.a.(2149).city","area_km2": 11.243407,"hist_schema_id": "Elevation0-9000","hist_area_km2": {"725": 1.042594,"750": 5.233274,"775": 3.597899,"800": 1.36964}}}