{"type":"Feature","properties":{"GID_3":"MWI.6.7.37_1","GID_0":"MWI","country":"Malawi","GID_1":"MWI.6_1","province":"Dedza","NL_NAME_1":"NA","GID_2":"MWI.6.7_1","county":"TAKaphuka","NL_NAME_2":"NA","city":"n.a.(1493)","VARNAME_3":"NA","NL_NAME_3":"NA","TYPE_3":"Unknown","ENGTYPE_3":"Unknown","CC_3":"NA","HASC_3":"NA","name":"n.a.(1493).city"},
"geometry":{"type": "MultiPolygon","coordinates": [[[[34.2039,-14.334,1332.2563],[34.2064,-14.3481,1354.5446],[34.211,-14.354,1349.9636],[34.2097,-14.3551,1351.012],[34.2113,-14.3627,1364.4922],[34.2105,-14.3749,1390.3772],[34.2137,-14.3794,1394.726],[34.2291,-14.3853,1428.9567],[34.2397,-14.3872,1454.2554],[34.2494,-14.3867,1412.6488],[34.2492,-14.3849,1416.7944],[34.2427,-14.3796,1405.3577],[34.246,-14.377,1438.1027],[34.2503,-14.3783,1431.7001],[34.2507,-14.3732,1448.6938],[34.2534,-14.373,1444.9392],[34.2552,-14.371,1454.498],[34.2473,-14.3463,1496.3632],[34.2484,-14.3375,1513.9199],[34.2329,-14.3464,1470.8147],[34.2039,-14.334,1332.2563]]]]}}