{"type":"Feature","properties":{"featurecla":"River","scalerank":3,"rivernum":71,"dissolve":"71River","name":"Shire2","name_alt":null,"note":null,"min_zoom":3.0,"strokeweig":0.45,"name_en":"Shire","min_label":4.0},
"geometry":{"type": "LineString","coordinates": [[35.27783203125,-14.75750090938088,474.9761],[35.27783203125,-14.75750090938088,474.9761],[35.27783203125,-14.75750090938088,474.9761],[35.27783203125,-14.75750090938088,474.9761],[35.27783203125,-14.75750090938088,474.9761],[35.301513671875,-14.78215911250588,487.0569],[35.312744140625,-14.825518487505889,491.7991],[35.31494140625,-14.87249114375588,486.1047],[35.30517578125,-14.95330169063088,480.201],[35.298583984375,-14.974932550005889,485.4652],[35.287988281250023,-14.98406340938088,485.7414],[35.27294921875,-14.99431731563088,475.5101],[35.242578125000023,-15.040069268755886,480.3748],[35.236230468750023,-15.05242278438088,480.2219],[35.2333984375,-15.06121184688088,482.024],[35.23203125,-15.07659270625588,496.8437],[35.22998046875,-15.086455987505886,511.2274],[35.212304687500023,-15.12175872188088,489.1159],[35.206298828125,-15.14812590938088,515.1738],[35.191650390625,-15.18547942500588,573.6765],[35.188378906250023,-15.206377862505889,590.2325],[35.1806640625,-15.22283294063088,561.4419],[35.126953125,-15.271514581255886,483.1503],[35.107324218750023,-15.30266692500588,487.808]]}}