{"type":"Feature","properties":{"GID_3":"MWI.1.3.4_1","GID_0":"MWI","country":"Malawi","GID_1":"MWI.1_1","province":"Balaka","NL_NAME_1":"NA","GID_2":"MWI.1.3_1","county":"TANsamala","NL_NAME_2":"NA","city":"n.a.(1907)","VARNAME_3":"NA","NL_NAME_3":"NA","TYPE_3":"Unknown","ENGTYPE_3":"Unknown","CC_3":"NA","HASC_3":"NA","name":"n.a.(1907).city"},
"geometry":{"type": "MultiPolygon","coordinates": [[[[35.0141,-14.9063,688.7194],[35.0064,-14.9034,672.4641],[34.9959,-14.904,658.1891],[34.9921,-14.9096,650.5366],[34.9914,-14.9139,643.5103],[34.9954,-14.9266,651.3467],[34.9863,-14.9276,633.2627],[34.9767,-14.9262,621.983],[34.9715,-14.929,622.5018],[34.9738,-14.9346,618.96],[34.9712,-14.9385,616.611],[34.9713,-14.946,618.7319],[34.9744,-14.9481,616.7476],[34.9738,-14.951,615.9996],[34.9768,-14.9514,614.164],[34.9814,-14.9493,616.6312],[34.9911,-14.9415,638.8848],[35.0037,-14.9442,637.0767],[35.0151,-14.9426,645.7065],[35.0253,-14.9385,646.3182],[35.039,-14.9397,663.8459],[35.0384,-14.9281,653.6052],[35.0399,-14.9246,652.8711],[35.0338,-14.9253,654.5885],[35.0326,-14.9189,660.3269],[35.0145,-14.9082,688.0112],[35.0141,-14.9063,688.7194]]]]}}