{"type":"Feature","properties":{"GID_3":"MWI.24.3.7_1","GID_0":"MWI","country":"Malawi","GID_1":"MWI.24_1","province":"Phalombe","NL_NAME_1":"NA","GID_2":"MWI.24.3_1","county":"TANazombe","NL_NAME_2":"NA","city":"n.a.(2337)","VARNAME_3":"NA","NL_NAME_3":"NA","TYPE_3":"Unknown","ENGTYPE_3":"Unknown","CC_3":"NA","HASC_3":"NA","name":"n.a.(2337).city"},
"geometry":{"type": "MultiPolygon","coordinates": [[[[35.7288,-15.6087,632.8492],[35.7318,-15.6083,632.996],[35.7381,-15.6133,634.1926],[35.7417,-15.6143,634.2654],[35.7487,-15.6105,637.2053],[35.7516,-15.6108,639.249],[35.753,-15.6044,643.5707],[35.7555,-15.6011,644.8538],[35.7696,-15.5997,660.4196],[35.7727,-15.6021,663.0594],[35.7738,-15.6066,665.9764],[35.7843,-15.5967,675.838],[35.7683,-15.5916,653.3622],[35.7653,-15.589,648.7866],[35.7589,-15.5765,640.2969],[35.7201,-15.5915,650.8748],[35.7202,-15.5962,722.6284],[35.7179,-15.5975,633.0068],[35.7201,-15.6029,630.8427],[35.7247,-15.6031,631.4091],[35.7288,-15.6087,632.8492]]]]}}