{"type": "Feature","bbox": [33.3462,-12.2381,33.4295,-12.1356],"geometry": {"type": "MultiPolygon","coordinates": [[[[33.3707,-12.1408,1216.1144],[33.3654,-12.1485,1211.939],[33.3658,-12.153,1210.3026],[33.3627,-12.1549,1218.2826],[33.3612,-12.1582,1212.9869],[33.3578,-12.1596,1214.7329],[33.3562,-12.168,1215.0488],[33.352,-12.1726,1215.7955],[33.3537,-12.1805,1215.21],[33.3501,-12.1835,1221.4474],[33.3462,-12.1842,1225.4569],[33.3478,-12.1904,1218.5228],[33.3524,-12.1974,1222.4917],[33.3509,-12.2018,1222.9553],[33.3523,-12.207,1223.4635],[33.3586,-12.2112,1230.1516],[33.3623,-12.2114,1230.9424],[33.3619,-12.2148,1223.3521],[33.365,-12.2174,1229.7544],[33.374,-12.2174,1227.5842],[33.3788,-12.2137,1235.8635],[33.3805,-12.2181,1226.7856],[33.3795,-12.2216,1233.6471],[33.3856,-12.2275,1229.9359],[33.3853,-12.2319,1230.7573],[33.3882,-12.2381,1234.4897],[33.3918,-12.2369,1233.0771],[33.3979,-12.2377,1244.0955],[33.4008,-12.2349,1247.6351],[33.4159,-12.2281,1265.8666],[33.4287,-12.2314,1274.9277],[33.4295,-12.2126,1283.1689],[33.4199,-12.2067,1265.4862],[33.4108,-12.1975,1251.0789],[33.4098,-12.1938,1251.3798],[33.4117,-12.1787,1231.4943],[33.4025,-12.1604,1217.9165],[33.3924,-12.1514,1212.7423],[33.3831,-12.1356,1220.5626],[33.3806,-12.1366,1220.7979],[33.3796,-12.1401,1211.7559],[33.3743,-12.1387,1216.7012],[33.3707,-12.1408,1216.1144]]]]}
,"properties": {"GID_3": "MWI.17.12.4_1","GID_0": "MWI","country": "Malawi","GID_1": "MWI.17_1","province": "Mzimba","NL_NAME_1": "NA","GID_2": "MWI.17.12_1","county": "TAMzukuzuku","NL_NAME_2": "NA","city": "n.a.(306)","VARNAME_3": "NA","NL_NAME_3": "NA","TYPE_3": "Unknown","ENGTYPE_3": "Unknown","CC_3": "NA","HASC_3": "NA","name": "n.a.(306).city","area_km2": 56.76328,"hist_schema_id": "Elevation0-9000","hist_area_km2": {"1200": 1.24365,"1225": 32.06126,"1250": 15.97773,"1275": 7.16982,"1300": 0.31082}}}