{"type": "Feature","bbox": [34.8547,-16.1039,34.9332,-16.0268],"geometry": {"type": "MultiPolygon","coordinates": [[[[34.8547,-16.0889,71.0],[34.8594,-16.0903,72.5687],[34.8659,-16.0883,73.2245],[34.8708,-16.0889,84.0488],[34.8732,-16.0913,71.0392],[34.8744,-16.0966,70.0],[34.8805,-16.0928,76.2941],[34.8841,-16.0931,74.929],[34.8867,-16.0963,73.656],[34.8858,-16.1022,69.297],[34.892,-16.1021,70.3822],[34.8954,-16.1039,72.4418],[34.8991,-16.0982,76.4084],[34.9102,-16.0996,81.7156],[34.9117,-16.0931,117.8248],[34.9171,-16.088,154.0182],[34.9237,-16.0861,180.8711],[34.9261,-16.0841,171.4581],[34.927,-16.0805,181.7926],[34.9288,-16.08,188.7322],[34.9297,-16.0817,168.7797],[34.9321,-16.0803,171.4757],[34.9311,-16.0769,223.7881],[34.9332,-16.0748,190.3136],[34.9298,-16.0686,215.9699],[34.9262,-16.0657,248.8098],[34.9261,-16.063,282.5783],[34.9226,-16.0625,264.9724],[34.9158,-16.0561,251.2849],[34.9161,-16.0499,249.7457],[34.9117,-16.032,277.1249],[34.9073,-16.0268,347.4678],[34.8993,-16.0305,356.2827],[34.897,-16.0375,344.4373],[34.8885,-16.0476,251.1413],[34.8974,-16.0603,179.3983],[34.8885,-16.0669,156.9015],[34.8856,-16.0715,147.971],[34.8762,-16.0644,167.6471],[34.8708,-16.0646,106.1221],[34.8656,-16.0794,78.1486],[34.8547,-16.0889,71.0]]]]}
,"properties": {"GID_3": "MWI.3.10.2_1","GID_0": "MWI","country": "Malawi","GID_1": "MWI.3_1","province": "Chikwawa","NL_NAME_1": "NA","GID_2": "MWI.3.10_1","county": "TAMaseya","NL_NAME_2": "NA","city": "n.a.(2800)","VARNAME_3": "NA","NL_NAME_3": "NA","TYPE_3": "Unknown","ENGTYPE_3": "Unknown","CC_3": "NA","HASC_3": "NA","name": "n.a.(2800).city","area_km2": 31.33454,"hist_schema_id": "Elevation0-9000","hist_area_km2": {"75": 7.00788,"100": 2.8929,"125": 1.40573,"150": 2.75035,"175": 3.4227,"200": 4.2378,"225": 3.4841,"250": 2.34315,"275": 1.36515,"300": 0.87617,"325": 0.99844,"350": 0.32604,"375": 0.18339,"400": 0.04076}}}