{"type": "Feature","bbox": [35.3078,-15.7277,35.3538,-15.6942],"geometry": {"type": "MultiPolygon","coordinates": [[[[35.3078,-15.7245,787.6421],[35.3234,-15.7235,772.9363],[35.3246,-15.7273,775.327],[35.3358,-15.7277,768.7272],[35.3421,-15.7198,763.4492],[35.3352,-15.7141,770.6887],[35.329,-15.7133,773.2288],[35.33,-15.7115,776.4887],[35.3407,-15.7096,763.3811],[35.3454,-15.7153,758.275],[35.3511,-15.7158,753.9923],[35.3538,-15.7083,758.9025],[35.3485,-15.7091,764.3154],[35.3397,-15.7021,769.489],[35.3377,-15.6956,772.2485],[35.3341,-15.6981,774.4814],[35.3255,-15.6942,781.2013],[35.3229,-15.6987,778.6612],[35.319,-15.6984,782.4978],[35.3078,-15.7245,787.6421]]]]}
,"properties": {"GID_3": "MWI.15.3.9_1","GID_0": "MWI","country": "Malawi","GID_1": "MWI.15_1","province": "Mulanje","NL_NAME_1": "NA","GID_2": "MWI.15.3_1","county": "SCJuma","NL_NAME_2": "NA","city": "n.a.(2463)","VARNAME_3": "NA","NL_NAME_3": "NA","TYPE_3": "Unknown","ENGTYPE_3": "Unknown","CC_3": "NA","HASC_3": "NA","name": "n.a.(2463).city","area_km2": 9.551867,"hist_schema_id": "Elevation0-9000","hist_area_km2": {"750": 0.632703,"775": 8.878345,"800": 0.040819}}}