{"type": "Feature","bbox": [35.2372,-15.8099,35.2692,-15.77],"geometry": {"type": "MultiPolygon","coordinates": [[[[35.2511,-15.77,842.8268],[35.2524,-15.7738,845.6715],[35.242,-15.7808,866.0104],[35.2372,-15.7898,947.0511],[35.2397,-15.8009,921.4469],[35.2427,-15.8001,935.4126],[35.2452,-15.8016,959.7682],[35.2494,-15.8099,972.2237],[35.2517,-15.8052,992.4908],[35.2553,-15.8054,877.2533],[35.2646,-15.797,834.4415],[35.2692,-15.7842,819.8771],[35.2667,-15.7774,816.6251],[35.2633,-15.7794,823.9489],[35.2614,-15.7743,826.7772],[35.2511,-15.77,842.8268]]]]}
,"properties": {"GID_3": "MWI.4.3.16_1","GID_0": "MWI","country": "Malawi","GID_1": "MWI.4_1","province": "Chiradzulu","NL_NAME_1": "NA","GID_2": "MWI.4.3_1","county": "TAKadewere","NL_NAME_2": "NA","city": "n.a.(2542)","VARNAME_3": "NA","NL_NAME_3": "NA","TYPE_3": "Unknown","ENGTYPE_3": "Unknown","CC_3": "NA","HASC_3": "NA","name": "n.a.(2542).city","area_km2": 8.77295,"hist_schema_id": "Elevation0-9000","hist_area_km2": {"825": 1.530217,"850": 3.121581,"875": 1.713778,"900": 0.856876,"925": 0.530441,"950": 0.346826,"975": 0.142808,"1000": 0.183609,"1025": 0.204009,"1050": 0.040802,"1075": 0.040802,"1100": 0.040802,"1125": 0.020401}}}