{"type":"Feature","properties":{"GID_3":"MWI.11.11.26_1","GID_0":"MWI","country":"Malawi","GID_1":"MWI.11_1","province":"Lilongwe","NL_NAME_1":"NA","GID_2":"MWI.11.11_1","county":"TAKalolo","NL_NAME_2":"NA","city":"n.a.(1175)","VARNAME_3":"NA","NL_NAME_3":"NA","TYPE_3":"Unknown","ENGTYPE_3":"Unknown","CC_3":"NA","HASC_3":"NA","name":"n.a.(1175).city"},
"geometry":{"type": "MultiPolygon","coordinates": [[[[33.3805,-14.0626,1176.0454],[33.3905,-14.0779,1179.0535],[33.3943,-14.0873,1200.6409],[33.3892,-14.0994,1200.2581],[33.4017,-14.1087,1175.6465],[33.4053,-14.1069,1171.1394],[33.4146,-14.1068,1170.3938],[33.4188,-14.1099,1163.6077],[33.4176,-14.0942,1190.6094],[33.4115,-14.0738,1197.7554],[33.4132,-14.0688,1203.6388],[33.413,-14.056,1184.9719],[33.4003,-14.0514,1183.5629],[33.3908,-14.0368,1154.8013],[33.3895,-14.0369,1152.7048],[33.3841,-14.0439,1153.6279],[33.3849,-14.0473,1159.5448],[33.3805,-14.0626,1176.0454]]]]}}