{"type":"Feature","properties":{"GID_3":"MWI.9.9.3_1","GID_0":"MWI","country":"Malawi","GID_1":"MWI.9_1","province":"Kasungu","NL_NAME_1":"NA","GID_2":"MWI.9.9_1","county":"SCSimlemba","NL_NAME_2":"NA","city":"n.a.(395)","VARNAME_3":"NA","NL_NAME_3":"NA","TYPE_3":"Unknown","ENGTYPE_3":"Unknown","CC_3":"NA","HASC_3":"NA","name":"n.a.(395).city"},
"geometry":{"type": "MultiPolygon","coordinates": [[[[33.7043,-12.7179,1001.9037],[33.6913,-12.7239,1006.3947],[33.6866,-12.7281,1016.9351],[33.6703,-12.7286,1043.0652],[33.6606,-12.737,1074.8744],[33.6643,-12.7436,1061.3499],[33.6742,-12.7501,1023.1384],[33.6622,-12.7603,1038.7239],[33.6554,-12.7718,1017.7112],[33.6482,-12.7739,1034.6768],[33.6528,-12.7769,1017.8019],[33.6557,-12.783,1000.3527],[33.6644,-12.7917,1006.259],[33.664,-12.8108,950.3215],[33.6683,-12.8115,945.7916],[33.6736,-12.816,944.6766],[33.6796,-12.8151,950.9213],[33.6814,-12.8092,950.3914],[33.6859,-12.8072,919.6629],[33.6835,-12.7995,935.1491],[33.6875,-12.7965,942.5692],[33.684,-12.7896,983.3347],[33.6898,-12.7753,950.7141],[33.6839,-12.7683,982.8517],[33.6913,-12.7582,1022.4794],[33.6924,-12.7528,1074.4597],[33.6918,-12.7507,1063.1517],[33.6871,-12.751,1023.9402],[33.6876,-12.7492,1016.3404],[33.6939,-12.742,1006.3344],[33.6999,-12.7402,983.2989],[33.7063,-12.7435,968.2919],[33.7081,-12.7475,957.8461],[33.71,-12.7476,965.7477],[33.7127,-12.7412,976.5249],[33.7189,-12.7359,972.2639],[33.7112,-12.7301,997.5225],[33.704,-12.7202,974.0208],[33.7043,-12.7179,1001.9037]]]]}}