{"type":"Feature","properties":{"GID_3":"MWI.11.8.40_1","GID_0":"MWI","country":"Malawi","GID_1":"MWI.11_1","province":"Lilongwe","NL_NAME_1":"NA","GID_2":"MWI.11.8_1","county":"TAChiseka","NL_NAME_2":"NA","city":"n.a.(1395)","VARNAME_3":"NA","NL_NAME_3":"NA","TYPE_3":"Unknown","ENGTYPE_3":"Unknown","CC_3":"NA","HASC_3":"NA","name":"n.a.(1395).city"},
"geometry":{"type": "MultiPolygon","coordinates": [[[[33.7795,-14.2346,1194.142],[33.7798,-14.2528,1212.1855],[33.7839,-14.2496,1210.5107],[33.7852,-14.2439,1198.533],[33.7844,-14.239,1198.5182],[33.7795,-14.2346,1194.142]]]]}}