{"type":"Feature","properties":{"GID_3":"MWI.11.8.4_1","GID_0":"MWI","country":"Malawi","GID_1":"MWI.11_1","province":"Lilongwe","NL_NAME_1":"NA","GID_2":"MWI.11.8_1","county":"TAChiseka","NL_NAME_2":"NA","city":"n.a.(1239)","VARNAME_3":"NA","NL_NAME_3":"NA","TYPE_3":"Unknown","ENGTYPE_3":"Unknown","CC_3":"NA","HASC_3":"NA","name":"n.a.(1239).city"},
"geometry":{"type": "MultiPolygon","coordinates": [[[[33.7659,-14.0945,1142.8657],[33.7447,-14.0896,1128.3113],[33.7339,-14.0911,1111.9518],[33.7287,-14.0896,1095.0093],[33.7275,-14.0957,1099.5967],[33.745,-14.1038,1140.8645],[33.7523,-14.1093,1185.949],[33.7483,-14.1131,1169.745],[33.7487,-14.1188,1164.5035],[33.7545,-14.1203,1166.426],[33.7582,-14.1243,1164.4404],[33.763,-14.1264,1164.7473],[33.7703,-14.1271,1159.5079],[33.7752,-14.126,1152.4785],[33.7752,-14.1229,1144.9838],[33.767,-14.1013,1156.1335],[33.7659,-14.0945,1142.8657]]]]}}