{"type":"Feature","properties":{"GID_3":"MWI.26.4.6_1","GID_0":"MWI","country":"Malawi","GID_1":"MWI.26_1","province":"Salima","NL_NAME_1":"NA","GID_2":"MWI.26.4_1","county":"SCKambwiri","NL_NAME_2":"NA","city":"n.a.(964)","VARNAME_3":"NA","NL_NAME_3":"NA","TYPE_3":"Unknown","ENGTYPE_3":"Unknown","CC_3":"NA","HASC_3":"NA","name":"n.a.(964).city"},
"geometry":{"type": "MultiPolygon","coordinates": [[[[34.4443,-13.8506,509.9973],[34.435,-13.8317,521.2597],[34.4361,-13.8305,516.781],[34.4383,-13.8312,515.2682],[34.4346,-13.8232,518.8154],[34.4414,-13.8074,513.7329],[34.429,-13.8008,520.6418],[34.4177,-13.7993,515.0703],[34.4148,-13.8017,518.5665],[34.4121,-13.8081,524.0309],[34.4084,-13.8218,536.1022],[34.4048,-13.8241,538.1199],[34.4003,-13.8209,537.8657],[34.3903,-13.8345,548.2919],[34.3833,-13.8354,559.7178],[34.384,-13.8373,553.7823],[34.3818,-13.8408,568.4854],[34.3832,-13.8425,559.5977],[34.3815,-13.8452,569.3682],[34.3828,-13.8459,564.1013],[34.383,-13.8496,570.3619],[34.3801,-13.8595,576.8285],[34.3833,-13.8639,581.4357],[34.383,-13.8681,601.4691],[34.3888,-13.8662,659.8548],[34.396,-13.8609,686.2034],[34.4121,-13.861,562.1882],[34.435,-13.8556,521.6871],[34.4394,-13.8519,514.5399],[34.4443,-13.8506,509.9973]]]]}}