{"type": "Feature","bbox": [34.2487,-16.6917,35.1121,-15.7389],"geometry": {"type": "MultiPolygon","coordinates": [[[[34.9286,-16.6421,208.3618],[34.9327,-16.6357,283.7479],[34.9415,-16.6334,231.0636],[34.947,-16.6296,175.181],[34.9618,-16.6258,171.4761],[34.9718,-16.6164,150.0466],[34.9778,-16.6071,136.2381],[34.9735,-16.6003,124.972],[34.9708,-16.5996,129.2602],[34.9748,-16.594,117.8177],[34.9751,-16.5904,120.8828],[34.9723,-16.585,118.8831],[34.9768,-16.5796,113.8419],[34.9769,-16.568,103.4185],[34.987,-16.5586,100.1373],[34.9922,-16.56,95.2034],[35.0043,-16.5484,88.7655],[35.0079,-16.5474,85.0209],[35.0081,-16.5448,86.2411],[35.0048,-16.541,85.9712],[35.0122,-16.5371,76.9113],[35.0103,-16.5326,79.279],[35.0151,-16.5301,75.5065],[35.0135,-16.5272,74.9174],[35.0261,-16.526,67.2894],[35.029,-16.5212,64.3562],[35.0289,-16.5176,67.3838],[35.0452,-16.5074,55.9578],[35.0513,-16.4993,51.9617],[35.0574,-16.4795,49.8245],[35.0593,-16.4673,50.2791],[35.0696,-16.4397,49.7452],[35.0834,-16.3864,51.2894],[35.0956,-16.3491,67.1743],[35.0946,-16.3396,82.0956],[35.1026,-16.3239,238.529],[35.1121,-16.312,340.1425],[35.1033,-16.3014,654.8253],[35.0998,-16.2947,658.0896],[35.1027,-16.2815,372.3285],[35.0962,-16.2785,312.4755],[35.0854,-16.2703,168.4066],[35.0749,-16.2602,231.3505],[35.0588,-16.2543,164.893],[35.0521,-16.249,138.705],[35.0494,-16.2413,138.0306],[35.0327,-16.2189,184.5505],[35.0314,-16.2082,152.1565],[35.0171,-16.1937,120.8635],[35.0246,-16.1815,139.9341],[34.9932,-16.1464,407.5492],[34.9601,-16.1283,239.1735],[34.9498,-16.1143,466.9189],[34.944,-16.1011,314.8992],[34.9361,-16.0889,208.365],[34.9311,-16.0834,170.6394],[34.9263,-16.0834,171.4581],[34.927,-16.0805,181.7926],[34.9288,-16.08,188.7322],[34.9297,-16.0817,168.7797],[34.9321,-16.0803,171.4757],[34.9311,-16.0769,223.7881],[34.9332,-16.0748,190.3136],[34.9298,-16.0686,215.9699],[34.9262,-16.0657,248.8098],[34.9261,-16.063,282.5783],[34.9226,-16.0625,264.9724],[34.9158,-16.0561,251.2849],[34.9161,-16.0499,249.7457],[34.9117,-16.032,277.1249],[34.9035,-16.0222,287.8615],[34.9055,-16.0132,266.8825],[34.9018,-16.0109,297.8824],[34.899,-16.0128,251.5177],[34.8964,-16.0098,292.0934],[34.8884,-16.0146,203.8868],[34.8886,-16.0071,271.1048],[34.8841,-15.9988,320.5781],[34.8865,-15.9958,402.6709],[34.8863,-15.9916,417.0724],[34.8893,-15.9896,443.0269],[34.8923,-15.9838,474.8132],[34.8888,-15.966,396.7966],[34.8798,-15.9592,347.8496],[34.8731,-15.9611,315.8236],[34.8677,-15.9607,344.8426],[34.8614,-15.9632,274.4323],[34.85,-15.971,188.2827],[34.8481,-15.9696,212.1295],[34.8458,-15.9626,217.7732],[34.8464,-15.958,258.0078],[34.8553,-15.9475,256.6714],[34.8589,-15.9351,270.4153],[34.8663,-15.9253,274.2536],[34.8659,-15.9199,291.5556],[34.8686,-15.9177,309.1454],[34.8641,-15.9147,299.187],[34.8611,-15.9053,305.7285],[34.8598,-15.9039,328.986],[34.856,-15.9041,306.2418],[34.8543,-15.899,344.0107],[34.8601,-15.8945,332.9134],[34.8794,-15.8587,374.1776],[34.8747,-15.8427,366.3196],[34.8757,-15.8383,381.8381],[34.8716,-15.827,393.7236],[34.8662,-15.8197,391.0872],[34.527,-15.8135,716.335],[34.5231,-15.809,772.6061],[34.5081,-15.8025,665.4774],[34.3535,-15.74,795.3117],[34.349,-15.7419,809.7965],[34.3363,-15.7389,613.9373],[34.3281,-15.7426,605.3226],[34.326,-15.7419,618.472],[34.3225,-15.7467,616.9465],[34.3117,-15.7544,589.3149],[34.2996,-15.7585,588.8983],[34.2977,-15.7689,557.4388],[34.2924,-15.7751,548.9072],[34.2871,-15.7849,514.101],[34.2854,-15.7855,514.101],[34.2829,-15.7838,503.3862],[34.2796,-15.788,512.4742],[34.2727,-15.7918,409.812],[34.2704,-15.8013,397.5471],[34.2726,-15.8125,405.1895],[34.2679,-15.8159,398.6872],[34.2633,-15.8161,399.9355],[34.2586,-15.8208,390.0702],[34.2545,-15.8351,388.6455],[34.2487,-15.8402,391.9095],[34.2521,-15.8457,393.7823],[34.2515,-15.8485,393.7915],[34.261,-15.8644,405.3283],[34.2594,-15.8673,422.5679],[34.2555,-15.8679,412.564],[34.2504,-15.8755,429.6128],[34.2625,-15.8859,634.2462],[34.2549,-15.8895,480.5551],[34.2525,-15.8926,601.5945],[34.2542,-15.9077,753.6129],[34.2572,-15.9109,913.7824],[34.2578,-15.9161,908.2316],[34.2705,-15.9173,800.5806],[34.274,-15.9216,812.8596],[34.2747,-15.9249,756.4775],[34.2773,-15.9234,745.2143],[34.2819,-15.9277,597.634],[34.289,-15.9287,436.6541],[34.2992,-15.925,394.1481],[34.3045,-15.926,426.8049],[34.3224,-15.9382,350.7309],[34.3297,-15.955,347.5498],[34.3274,-15.9566,349.1955],[34.3551,-15.9612,351.9999],[34.3627,-15.9672,339.5635],[34.3728,-16.0,349.5734],[34.3842,-16.0159,349.0619],[34.4194,-16.0334,348.0612],[34.4251,-16.0399,368.5553],[34.4263,-16.0447,363.7736],[34.4251,-16.0513,339.913],[34.4273,-16.0545,335.8716],[34.4363,-16.0589,343.0941],[34.4375,-16.0616,341.9637],[34.4207,-16.08,330.5048],[34.4072,-16.1045,316.369],[34.3989,-16.1121,309.6775],[34.3925,-16.1277,303.2159],[34.3931,-16.1442,299.2819],[34.4042,-16.1621,292.9832],[34.404,-16.1662,290.045],[34.3995,-16.1717,287.9535],[34.3996,-16.1853,283.1731],[34.4046,-16.1917,288.6974],[34.4072,-16.2116,290.3004],[34.4108,-16.2178,293.8121],[34.4184,-16.2187,296.8161],[34.4203,-16.2306,292.6968],[34.4225,-16.235,292.9741],[34.4235,-16.254,325.5488],[34.4314,-16.2623,325.4611],[34.4318,-16.2646,339.4506],[34.4456,-16.2707,292.8711],[34.4532,-16.2705,284.3464],[34.4587,-16.2728,282.0168],[34.4704,-16.2835,282.0511],[34.4899,-16.2945,274.7989],[34.5004,-16.2979,265.6888],[34.5118,-16.2864,274.8561],[34.5222,-16.2809,314.1407],[34.5286,-16.2815,302.8754],[34.5382,-16.2932,311.7349],[34.5732,-16.3211,317.3962],[34.5744,-16.3287,283.6233],[34.5718,-16.3378,285.0907],[34.5726,-16.3459,292.889],[34.5888,-16.3614,255.0139],[34.5888,-16.3736,266.1534],[34.5841,-16.3896,251.2068],[34.5851,-16.3979,241.488],[34.5942,-16.4112,282.6944],[34.6185,-16.4235,277.7522],[34.6534,-16.4507,282.4239],[34.664,-16.4433,265.2705],[34.6693,-16.4442,275.2224],[34.6777,-16.4554,266.304],[34.6782,-16.4662,260.5056],[34.6747,-16.4779,267.653],[34.6788,-16.4914,288.7182],[34.6874,-16.4996,329.757],[34.6952,-16.4998,314.7323],[34.7181,-16.4952,291.5403],[34.7201,-16.4954,290.9421],[34.7212,-16.4981,290.5468],[34.7256,-16.4949,281.9229],[34.7405,-16.507,273.5516],[34.7576,-16.5109,280.2794],[34.7588,-16.5177,265.4797],[34.7686,-16.5291,264.533],[34.7636,-16.5294,265.3578],[34.7663,-16.5366,274.6764],[34.7761,-16.5442,289.7253],[34.7783,-16.5503,290.4735],[34.7784,-16.5614,310.2177],[34.7808,-16.569,334.9164],[34.7743,-16.5744,316.2947],[34.7717,-16.5802,348.0644],[34.7727,-16.5835,347.4671],[34.7745,-16.5847,338.64],[34.7784,-16.5801,322.3594],[34.7825,-16.5834,311.2687],[34.7932,-16.585,311.9629],[34.8117,-16.5951,357.0358],[34.8158,-16.6022,356.8517],[34.8207,-16.6016,381.0562],[34.8275,-16.6049,378.6237],[34.8341,-16.598,402.3014],[34.8373,-16.5997,391.567],[34.838,-16.6028,388.2041],[34.842,-16.604,415.9493],[34.8424,-16.6076,501.6544],[34.8464,-16.6098,380.8727],[34.8532,-16.6178,345.5837],[34.8578,-16.6336,348.4507],[34.8581,-16.6547,345.8953],[34.8608,-16.6735,328.1427],[34.8644,-16.6761,320.4667],[34.8676,-16.6751,318.88],[34.8732,-16.678,327.5248],[34.8808,-16.6866,307.8372],[34.8867,-16.6869,307.9226],[34.8902,-16.6844,308.4179],[34.9105,-16.6917,296.4653],[34.9109,-16.6887,294.8255],[34.9063,-16.6837,284.6291],[34.909,-16.6729,280.1327],[34.9083,-16.6663,268.8141],[34.9158,-16.6591,247.266],[34.9214,-16.6477,241.9245],[34.9286,-16.6421,208.3618]]]]}
,"properties": {"GID_1": "MWI.3_1","GID_0": "MWI","country": "Malawi","province": "Chikwawa","VARNAME_1": "NA","NL_NAME_1": "NA","TYPE_1": "District","ENGTYPE_1": "District","CC_1": "NA","HASC_1": "MW.CK","ISO_1": "MW-CK","name": "Chikwawa.province","area_km2": 4896.552,"hist_schema_id": "Elevation0-9000","hist_area_km2": {"50": 409.046,"75": 594.786,"100": 395.567,"125": 323.232,"150": 344.199,"175": 326.911,"200": 336.702,"225": 324.265,"250": 298.655,"275": 280.831,"300": 207.398,"325": 169.423,"350": 146.377,"375": 112.255,"400": 82.292,"425": 71.834,"450": 69.616,"475": 74.597,"500": 74.256,"525": 72.669,"550": 57.497,"575": 46.855,"600": 30.762,"625": 17.931,"650": 7.567,"675": 4.405,"700": 3.365,"725": 2.692,"750": 2.917,"775": 2.346,"800": 1.897,"825": 1.469,"850": 0.816,"875": 0.367,"900": 0.286,"925": 0.326,"950": 0.122}}}