{"type":"Feature","properties":{"ISO3166-1-Alpha-3":"MWI","country":"Malawi","fill":"#FF0","id":"1916","name":"Chikwawa"},
"geometry":{"type": "Polygon","coordinates": [[[34.7498,-15.81221,246.9495],[34.53704,-15.80679,692.6392],[34.49746,-15.7948,500.2518],[34.35659,-15.73604,747.1881],[34.34222,-15.73032,595.1904],[34.34181,-15.73087,595.1904],[34.33096,-15.73707,598.8522],[34.31029,-15.74328,565.4892],[34.29334,-15.75113,562.7891],[34.27556,-15.76436,526.0715],[34.24714,-15.79413,357.5508],[34.23639,-15.81924,371.9736],[34.23133,-15.85417,391.8853],[34.23319,-15.88983,524.6218],[34.24404,-15.91763,634.266],[34.25644,-15.92817,565.5883],[34.28972,-15.94347,362.8676],[34.30429,-15.95215,348.1563],[34.3877,-16.037,340.8487],[34.40455,-16.05974,326.5723],[34.40899,-16.08785,321.3419],[34.38925,-16.15245,290.7339],[34.38522,-16.18645,282.0569],[34.42646,-16.27389,300.5262],[34.44599,-16.29322,279.8699],[34.48041,-16.29446,273.4339],[34.52474,-16.30076,288.2274],[34.54707,-16.32309,260.6684],[34.57508,-16.39233,244.7535],[34.58583,-16.40783,272.44],[34.59833,-16.41972,293.616],[34.63068,-16.44339,286.5208],[34.6374,-16.45052,266.7404],[34.64267,-16.45972,261.9565],[34.65497,-16.48938,261.2577],[34.66117,-16.49393,274.0367],[34.66872,-16.49661,282.1365],[34.73207,-16.52917,266.0887],[34.74499,-16.54292,246.9491],[34.76287,-16.5764,294.1083],[34.773,-16.58974,337.1897],[34.81951,-16.62777,290.2707],[34.82757,-16.64152,302.7598],[34.8348,-16.66312,352.6157],[34.84462,-16.67841,305.9454],[34.85992,-16.6872,312.2827],[34.87749,-16.69443,302.3717],[34.88661,-16.70085,295.0625],[34.89361,-16.69035,302.0273],[34.89377,-16.6903,302.0273],[34.91521,-16.65847,247.266],[34.93211,-16.64286,243.1879],[34.95009,-16.63232,171.9295],[34.96239,-16.62689,161.174],[34.96766,-16.62162,166.5005],[34.96828,-16.61588,156.315],[34.96611,-16.60772,159.6968],[34.96518,-16.59733,134.8547],[34.97061,-16.57981,116.0392],[34.97666,-16.56963,106.3639],[35.03081,-16.51088,61.4623],[35.05004,-16.49346,49.6155],[35.05732,-16.48912,48.1532],[35.06058,-16.48514,49.1292],[35.06337,-16.47832,49.7547],[35.09613,-16.33135,94.6482],[35.08311,-16.28898,380.9023],[35.08435,-16.28164,404.3335],[35.08388,-16.27141,154.4484],[35.08233,-16.26417,316.1314],[34.94885,-16.11607,510.4033],[34.8916,-16.02667,288.3547],[34.8854,-16.03148,298.9389],[34.88245,-16.02941,191.7504],[34.87966,-16.02419,198.2473],[34.87547,-16.00884,431.5828],[34.87532,-16.00037,499.7118],[34.87656,-15.99417,537.681],[34.884,-15.98466,525.4229],[34.88462,-15.97933,478.619],[34.88074,-15.97401,493.4929],[34.87005,-15.97158,351.8177],[34.85997,-15.97251,275.1475],[34.85051,-15.97236,167.9865],[34.84555,-15.96786,227.3769],[34.84628,-15.9568,269.0446],[34.86137,-15.92843,285.0616],[34.86261,-15.91991,321.4809],[34.86106,-15.9011,374.9561],[34.864,-15.89035,320.5244],[34.87532,-15.87081,339.858],[34.87904,-15.86172,347.2733],[34.87919,-15.85552,353.0197],[34.87749,-15.85004,365.1414],[34.87501,-15.84523,378.012],[34.86958,-15.83149,405.6076],[34.86757,-15.82766,409.2678],[34.86354,-15.82374,401.4333],[34.85082,-15.82141,456.0327],[34.7498,-15.81221,246.9495]]]}}