{"type":"Feature","properties":{"featurecla":"River","scalerank":3,"rivernum":71,"dissolve":"71River","name":"Shire3","name_alt":null,"note":null,"min_zoom":3.0,"strokeweig":0.6,"name_en":"Shire","min_label":4.0},
"geometry":{"type": "LineString","coordinates": [[34.795312500000023,-15.99089934688088,80.002],[34.802978515625,-16.02483489375588,79.9961],[34.811279296875,-16.04119231563088,102.7173],[34.816650390625,-16.05754973750588,93.5075],[34.812255859375,-16.07341887813088,85.0017],[34.81689453125,-16.074053643755889,87.8906],[34.8193359375,-16.075713800005886,81.1439],[34.821679687500023,-16.077959893755889,79.1512],[34.825292968750006,-16.08025481563088,79.6719],[34.825292968750006,-16.07341887813088,79.3431],[34.869873046875,-16.105498956255886,74.4795],[34.89697265625,-16.15178801875588,68.4213],[34.9078125,-16.164873956255889,71.5316],[34.9208984375,-16.17644622188088,67.0449],[34.918701171875,-16.197100518755889,66.1429],[34.92919921875,-16.222491143755889,63.4409],[34.9365234375,-16.249541925005886,61.4253],[34.92431640625,-16.27581145625588,61.1703],[34.918212890625,-16.29607512813088,59.5416],[34.921875,-16.32659270625588,57.7909],[34.930078125000023,-16.355498956255886,56.145],[34.938232421875,-16.371416925005889,56.619],[34.949462890625,-16.37737395625588,55.8812],[34.974511718750023,-16.38420989375588,54.6424],[34.9859375,-16.391924737505889,54.0262],[35.001953125,-16.405303643755886,53.9339],[35.0859375,-16.45501067500588,50.8853],[35.099609375,-16.47063567500588,50.6648],[35.126953125,-16.517901300005889,48.3549],[35.130078125000011,-16.53386809688088,47.8255],[35.147851562500023,-16.58196380000588,48.4951],[35.163964843750023,-16.60662200313088,45.4137],[35.168066406250006,-16.617022393755889,47.0193],[35.173828125,-16.62542083125588,45.8342],[35.184960937500023,-16.628936456255886,45.336],[35.194238281250023,-16.63054778438088,45.7462],[35.216210937500023,-16.63860442500588,43.9316],[35.222558593750023,-16.64202239375588,43.4029],[35.227148437500006,-16.646807550005889,43.6714],[35.232177734375,-16.65715911250588,43.2723],[35.236230468750023,-16.662432550005889,43.1411],[35.2392578125,-16.66448333125588,42.7977],[35.24765625,-16.667998956255886,42.9498],[35.25048828125,-16.66985442500588,42.4997],[35.274511718750006,-16.695342706255886,42.805],[35.27783203125,-16.70061614375588,41.9771],[35.280517578125,-16.76677825313088,50.1167],[35.284570312500023,-16.786651300005886,45.4986],[35.3046875,-16.825518487505889,49.0905],[35.309667968750006,-16.85051848750588,39.4935],[35.284765625,-16.870928643755889,40.0558],[35.282324218750006,-16.89202239375588,37.7462],[35.284570312500023,-16.930010675005889,36.6726],[35.281347656250006,-16.934600518755886,37.4615],[35.275390625,-16.93914153438088,37.3913],[35.270410156250023,-16.944170831255889,37.3501],[35.27099609375,-16.950518487505889,37.3139],[35.275634765625,-16.955108331255886,36.6607],[35.307861328125,-16.97356536250588,34.8816],[35.313867187500023,-16.982256768755889,35.0],[35.308837890625,-16.995147393755886,36.5537],[35.298095703125,-17.013506768755889,36.2374],[35.296875,-17.029620050005889,35.9565],[35.3056640625,-17.067217706255889,34.8756],[35.307031250000023,-17.087432550005886,34.349],[35.304443359375,-17.104034112505886,34.262],[35.298925781250006,-17.11785247188088,34.0089],[35.291406250000023,-17.129229425005889,35.2059]]}}