{"type": "Feature","bbox": [35.0777,-16.0624,35.3218,-15.8834],"geometry": {"type": "MultiPolygon","coordinates": [[[[35.3151,-16.039,643.2745],[35.3129,-16.0293,652.3442],[35.3104,-16.0253,650.921],[35.3119,-16.0228,668.7253],[35.3078,-16.0234,652.8621],[35.301,-16.0189,672.7649],[35.2994,-16.0198,670.3528],[35.2959,-16.0191,679.8369],[35.2934,-16.0166,684.1765],[35.2909,-16.0172,683.3278],[35.2853,-15.9962,689.5338],[35.2881,-15.9914,688.9668],[35.2901,-15.9925,684.0377],[35.2909,-15.989,694.4913],[35.2853,-15.9886,693.0416],[35.2777,-15.9771,702.5836],[35.2676,-15.9697,708.6882],[35.2669,-15.966,711.213],[35.2697,-15.9641,713.8523],[35.2591,-15.9618,713.3115],[35.2589,-15.9582,724.2341],[35.2614,-15.9543,716.7111],[35.2589,-15.9488,720.1089],[35.2597,-15.9362,726.9995],[35.256,-15.9299,735.3718],[35.2608,-15.9233,747.6857],[35.2527,-15.9142,768.017],[35.2472,-15.9138,749.415],[35.2508,-15.9067,753.6096],[35.2468,-15.9016,763.3442],[35.2422,-15.9021,760.8423],[35.2418,-15.8959,768.8496],[35.2195,-15.8884,780.9925],[35.2146,-15.8896,782.5338],[35.2116,-15.8868,790.937],[35.2088,-15.8872,795.6846],[35.2066,-15.8897,791.3463],[35.2035,-15.8854,794.2885],[35.202,-15.886,802.0449],[35.2024,-15.8877,794.5516],[35.1975,-15.8834,802.3527],[35.1942,-15.8846,810.4525],[35.1861,-15.8925,838.7092],[35.1834,-15.8923,839.1308],[35.1811,-15.8991,857.8207],[35.1768,-15.9027,864.3166],[35.1598,-15.9047,909.4347],[35.1572,-15.9024,917.605],[35.1592,-15.9006,918.8981],[35.1566,-15.8997,916.2406],[35.146,-15.9008,944.7087],[35.1449,-15.9033,946.7728],[35.1377,-15.9083,942.8123],[35.1374,-15.9178,952.5358],[35.1242,-15.9246,1013.6631],[35.1219,-15.925,1014.35],[35.1204,-15.9228,1043.9774],[35.1176,-15.9291,1039.1396],[35.1113,-15.9328,1048.3096],[35.1023,-15.9514,1062.8888],[35.101,-15.9509,1089.3242],[35.0899,-15.9615,1110.1442],[35.0812,-15.9779,1174.3756],[35.0803,-15.9842,1172.6012],[35.0777,-15.9869,1192.5017],[35.0817,-15.9993,1176.7433],[35.0817,-16.0078,1183.3536],[35.0866,-16.0131,1180.0472],[35.0946,-16.016,1119.4657],[35.0968,-16.023,1115.4119],[35.0996,-16.0255,1110.6974],[35.101,-16.0257,1095.2499],[35.1032,-16.0206,1066.9427],[35.1106,-16.0132,1033.8711],[35.118,-16.0114,1013.3945],[35.1255,-16.0124,996.8135],[35.1322,-16.0171,966.3548],[35.1389,-16.0166,957.876],[35.1445,-16.0195,936.139],[35.1441,-16.022,918.2401],[35.1468,-16.0234,915.2271],[35.1462,-16.0272,890.3566],[35.1568,-16.0299,865.6797],[35.1626,-16.0343,844.0674],[35.1685,-16.0318,838.9594],[35.1766,-16.0378,828.5236],[35.1871,-16.0355,812.735],[35.1878,-16.0369,803.1465],[35.1903,-16.0332,819.1591],[35.1916,-16.0343,801.9834],[35.1961,-16.0326,796.3441],[35.203,-16.0279,797.3971],[35.2064,-16.0314,779.7733],[35.2092,-16.0316,771.3837],[35.2101,-16.0295,781.1307],[35.2146,-16.0286,783.2132],[35.215,-16.0302,770.9001],[35.2199,-16.0325,772.9797],[35.226,-16.0292,769.6815],[35.2267,-16.0318,754.3046],[35.2328,-16.0316,755.2487],[35.2376,-16.0355,749.4114],[35.2443,-16.0309,742.8207],[35.2465,-16.0324,737.1105],[35.2493,-16.0301,738.8781],[35.2531,-16.0301,727.6039],[35.2547,-16.0309,735.7659],[35.2536,-16.0341,724.6086],[35.2575,-16.0403,710.2546],[35.2594,-16.0512,698.6654],[35.2633,-16.0507,709.9636],[35.2657,-16.053,697.0884],[35.2689,-16.0517,697.4879],[35.2688,-16.0544,694.4433],[35.2704,-16.0554,691.3056],[35.2741,-16.0513,687.3483],[35.278,-16.0513,679.2937],[35.2802,-16.0496,678.4509],[35.2805,-16.0478,679.4268],[35.2784,-16.0462,681.5073],[35.2799,-16.045,674.0505],[35.286,-16.0443,677.5947],[35.289,-16.0477,671.2893],[35.2955,-16.0475,678.2224],[35.2945,-16.051,667.2152],[35.2962,-16.0517,659.865],[35.3001,-16.0485,666.5004],[35.3016,-16.052,656.0441],[35.3039,-16.0504,671.7518],[35.3099,-16.0533,648.7644],[35.3116,-16.0526,654.0538],[35.3132,-16.0572,640.4747],[35.3194,-16.0599,639.6882],[35.3202,-16.0624,631.6981],[35.3218,-16.0598,644.9121],[35.3212,-16.0573,641.5038],[35.3133,-16.0462,639.8067],[35.3151,-16.039,643.2745]]]]}
,"properties": {"GID_2": "MWI.27.8_1","GID_0": "MWI","country": "Malawi","GID_1": "MWI.27_1","province": "Thyolo","NL_NAME_1": "NA","county": "TAChimaliro","VARNAME_2": "NA","NL_NAME_2": "NA","TYPE_2": "TraditionalAuthority","ENGTYPE_2": "TraditionalAuthority","CC_2": "NA","HASC_2": "NA","name": "T_A_Chimaliro.county","area_km2": 279.9073,"hist_schema_id": "Elevation0-9000","hist_area_km2": {"625": 0.0204,"650": 2.4859,"675": 6.052,"700": 11.8199,"725": 19.3416,"750": 23.7664,"775": 23.4007,"800": 23.4837,"825": 22.2198,"850": 19.1214,"875": 15.3496,"900": 14.2486,"925": 14.0449,"950": 13.5353,"975": 12.0881,"1000": 11.0892,"1025": 9.438,"1050": 8.0517,"1075": 8.133,"1100": 7.073,"1125": 5.2179,"1150": 5.0957,"1175": 3.4854,"1200": 1.3452}}}