{"type": "Feature","bbox": [34.7358,-14.3428,34.874,-14.2512],"geometry": {"type": "MultiPolygon","coordinates": [[[[34.7387,-14.2768,474.5],[34.7384,-14.2794,475.3343],[34.7358,-14.2815,476.4839],[34.7413,-14.2944,478.0853],[34.7393,-14.3022,478.706],[34.7418,-14.3088,479.9933],[34.7402,-14.3113,481.169],[34.7398,-14.3226,483.7039],[34.743,-14.3428,488.1774],[34.7605,-14.3371,490.043],[34.7654,-14.3408,490.9462],[34.7895,-14.3354,488.8513],[34.8042,-14.3341,490.6239],[34.809,-14.3353,491.1138],[34.813,-14.3326,494.3976],[34.8133,-14.3288,497.3064],[34.8187,-14.326,502.2748],[34.8355,-14.3293,526.8713],[34.8479,-14.3245,538.1393],[34.8602,-14.3147,556.6685],[34.874,-14.3109,569.1022],[34.8686,-14.3023,613.9357],[34.8715,-14.2975,624.3716],[34.8695,-14.2863,625.8354],[34.8608,-14.2751,633.3342],[34.8626,-14.2618,652.161],[34.8403,-14.2591,530.1448],[34.833,-14.2519,529.4564],[34.8085,-14.2512,474.5],[34.8051,-14.2546,474.5],[34.7946,-14.26,474.5],[34.7907,-14.2598,474.5],[34.7636,-14.2708,474.5],[34.7387,-14.2768,474.5]]]]}
,"properties": {"GID_3": "MWI.13.13.14_1","GID_0": "MWI","country": "Malawi","GID_1": "MWI.13_1","province": "Mangochi","NL_NAME_1": "NA","GID_2": "MWI.13.13_1","county": "TANankumba","NL_NAME_2": "NA","city": "n.a.(1408)","VARNAME_3": "NA","NL_NAME_3": "NA","TYPE_3": "Unknown","ENGTYPE_3": "Unknown","CC_3": "NA","HASC_3": "NA","name": "n.a.(1408).city","area_km2": 107.24784,"hist_schema_id": "Elevation0-9000","hist_area_km2": {"475": 55.32961,"500": 21.42815,"525": 6.80057,"550": 3.45155,"575": 2.32159,"600": 1.7669,"625": 3.02029,"650": 2.7327,"675": 1.49989,"700": 1.7259,"725": 1.2328,"750": 1.00677,"775": 0.94513,"800": 0.96568,"825": 0.65748,"850": 0.78075,"875": 0.59584,"900": 0.51365,"925": 0.18492,"950": 0.16437,"975": 0.04109,"1000": 0.08218}}}