{"type":"Feature","properties":{"GID_3":"MWI.14.3.3_1","GID_0":"MWI","country":"Malawi","GID_1":"MWI.14_1","province":"Mchinji","NL_NAME_1":"NA","GID_2":"MWI.14.3_1","county":"SCMavwere","NL_NAME_2":"NA","city":"n.a.(1029)","VARNAME_3":"NA","NL_NAME_3":"NA","TYPE_3":"Unknown","ENGTYPE_3":"Unknown","CC_3":"NA","HASC_3":"NA","name":"n.a.(1029).city"},
"geometry":{"type": "MultiPolygon","coordinates": [[[[33.2011,-13.9227,1101.4541],[33.212,-13.922,1106.7284],[33.224,-13.9265,1118.9556],[33.2277,-13.9265,1111.8826],[33.2265,-13.9171,1116.1842],[33.2317,-13.9134,1112.506],[33.2276,-13.9042,1109.5154],[33.2277,-13.8978,1106.417],[33.2419,-13.8753,1095.3931],[33.2322,-13.8735,1089.1765],[33.2312,-13.8779,1092.0542],[33.1975,-13.8801,1080.4559],[33.2052,-13.8966,1092.8091],[33.1969,-13.9048,1099.7985],[33.2011,-13.9227,1101.4541]]]]}}