{"type":"Feature","properties":{"GID_3":"MWI.13.13.20_1","GID_0":"MWI","country":"Malawi","GID_1":"MWI.13_1","province":"Mangochi","NL_NAME_1":"NA","GID_2":"MWI.13.13_1","county":"TANankumba","NL_NAME_2":"NA","city":"n.a.(1565)","VARNAME_3":"NA","NL_NAME_3":"NA","TYPE_3":"Unknown","ENGTYPE_3":"Unknown","CC_3":"NA","HASC_3":"NA","name":"n.a.(1565).city"},
"geometry":{"type": "MultiPolygon","coordinates": [[[[34.9441,-14.429,683.4863],[34.9061,-14.4252,687.8472],[34.8984,-14.427,688.047],[34.8964,-14.429,668.8417],[34.8855,-14.4184,633.5867],[34.8837,-14.4145,614.4295],[34.887,-14.4035,647.642],[34.8835,-14.3948,642.2764],[34.8776,-14.3939,629.2375],[34.8718,-14.3905,621.8354],[34.8725,-14.3934,663.7445],[34.8711,-14.397,765.3566],[34.8598,-14.4014,610.8098],[34.8554,-14.4012,567.0602],[34.8491,-14.397,556.5062],[34.8367,-14.3987,539.2018],[34.8357,-14.4109,543.5596],[34.8253,-14.4129,537.4457],[34.8144,-14.4201,531.4135],[34.8166,-14.4252,533.8243],[34.8211,-14.4275,536.7943],[34.8228,-14.4361,541.9386],[34.8268,-14.4405,545.8009],[34.839,-14.4455,559.4934],[34.845,-14.4462,565.1116],[34.8461,-14.4479,565.3476],[34.8445,-14.4502,563.4485],[34.8467,-14.4531,562.0884],[34.8526,-14.4542,573.0574],[34.8551,-14.4582,573.4138],[34.8594,-14.458,581.3712],[34.8646,-14.4609,588.7148],[34.8695,-14.4611,596.8198],[34.87,-14.4581,598.0389],[34.8691,-14.4546,602.3302],[34.8648,-14.4493,581.0301],[34.8777,-14.4517,588.5211],[34.8791,-14.4529,589.692],[34.8767,-14.4567,593.8568],[34.8773,-14.4594,598.6959],[34.8801,-14.4602,593.3683],[34.8868,-14.4686,605.0237],[34.8904,-14.47,611.5021],[34.8924,-14.4745,617.4618],[34.9002,-14.4744,626.158],[34.9036,-14.4777,630.5956],[34.9078,-14.4767,635.9676],[34.9114,-14.4679,663.3885],[34.9192,-14.4624,702.4077],[34.9181,-14.4576,667.6159],[34.9224,-14.4477,757.7252],[34.926,-14.4457,750.8154],[34.943,-14.4439,697.3981],[34.9439,-14.4364,690.2018],[34.9426,-14.432,690.9587],[34.9441,-14.429,683.4863]]]]}}