{"type": "Feature","bbox": [35.0171,-16.206,35.0728,-16.1547],"geometry": {"type": "MultiPolygon","coordinates": [[[[35.0171,-16.1937,120.8635],[35.0296,-16.206,190.9458],[35.0338,-16.2021,238.7081],[35.0344,-16.1989,333.879],[35.0505,-16.1936,569.6571],[35.0567,-16.1943,688.6636],[35.0621,-16.1895,852.649],[35.0643,-16.1854,853.9039],[35.0711,-16.1814,822.6457],[35.0688,-16.1766,762.1111],[35.0728,-16.1733,781.938],[35.0652,-16.1725,754.1205],[35.0625,-16.1671,764.1038],[35.065,-16.1614,691.4593],[35.0607,-16.1547,586.0238],[35.0586,-16.1549,579.5632],[35.048,-16.1661,391.7676],[35.0391,-16.1691,252.4262],[35.0371,-16.1723,228.8778],[35.0309,-16.1747,193.831],[35.0224,-16.1844,167.7028],[35.0171,-16.1937,120.8635]]]]}
,"properties": {"GID_3": "MWI.27.2.8_1","GID_0": "MWI","country": "Malawi","GID_1": "MWI.27_1","province": "Thyolo","NL_NAME_1": "NA","GID_2": "MWI.27.2_1","county": "SCKwethemule","NL_NAME_2": "NA","city": "n.a.(2944)","VARNAME_3": "NA","NL_NAME_3": "NA","TYPE_3": "Unknown","ENGTYPE_3": "Unknown","CC_3": "NA","HASC_3": "NA","name": "n.a.(2944).city","area_km2": 15.67892,"hist_schema_id": "Elevation0-9000","hist_area_km2": {"100": 0.04072,"125": 0.24434,"150": 0.32579,"175": 0.48868,"200": 0.67193,"225": 1.03844,"250": 0.83484,"275": 0.57013,"300": 0.46832,"325": 0.52942,"350": 0.63123,"375": 0.46833,"400": 0.46833,"425": 0.59051,"450": 0.36652,"475": 0.40725,"500": 0.40724,"525": 0.46834,"550": 0.57016,"575": 0.40727,"600": 0.61088,"625": 0.50906,"650": 0.4887,"675": 0.40724,"700": 0.63123,"725": 0.69232,"750": 1.05885,"775": 0.61088,"800": 0.3258,"825": 0.18326,"850": 0.16289}}}