{"type": "Feature","bbox": [34.4039,-13.7595,34.4692,-13.674],"geometry": {"type": "MultiPolygon","coordinates": [[[[34.4283,-13.749,513.5275],[34.4333,-13.7432,513.9435],[34.4341,-13.7337,516.4548],[34.4455,-13.7284,511.5697],[34.4536,-13.7182,509.5779],[34.4576,-13.7159,504.1485],[34.4642,-13.7158,502.8149],[34.4692,-13.6982,499.8627],[34.4644,-13.6901,498.27],[34.4604,-13.6771,496.6308],[34.4516,-13.6785,503.1624],[34.4381,-13.674,499.3759],[34.4265,-13.6774,505.9095],[34.4203,-13.6764,500.6559],[34.4083,-13.7035,507.9448],[34.4042,-13.7071,509.571],[34.4039,-13.7222,512.9586],[34.4072,-13.7253,509.4806],[34.4084,-13.7297,512.3815],[34.4151,-13.7312,508.3099],[34.4138,-13.7358,510.8011],[34.4104,-13.739,514.6809],[34.4112,-13.7452,509.2346],[34.4088,-13.7572,511.7202],[34.4145,-13.7572,516.1477],[34.4194,-13.7595,518.95],[34.4196,-13.7504,514.6793],[34.4283,-13.749,513.5275]]]]}
,"properties": {"GID_3": "MWI.26.6.5_1","GID_0": "MWI","country": "Malawi","GID_1": "MWI.26_1","province": "Salima","NL_NAME_1": "NA","GID_2": "MWI.26.6_1","county": "TAKaronga","NL_NAME_2": "NA","city": "n.a.(825)","VARNAME_3": "NA","NL_NAME_3": "NA","TYPE_3": "Unknown","ENGTYPE_3": "Unknown","CC_3": "NA","HASC_3": "NA","name": "n.a.(825).city","area_km2": 38.93057,"hist_schema_id": "Elevation0-9000","hist_area_km2": {"500": 26.81928,"525": 12.11129}}}