{"type": "Feature","bbox": [34.6401,-14.575,34.6775,-14.5087],"geometry": {"type": "MultiPolygon","coordinates": [[[[34.6459,-14.575,774.1401],[34.6578,-14.5692,679.1255],[34.6555,-14.5621,662.5551],[34.6564,-14.56,658.2083],[34.6696,-14.5554,617.3383],[34.6707,-14.5474,604.6176],[34.6775,-14.5351,586.9401],[34.6705,-14.5299,590.4451],[34.6683,-14.5087,577.5818],[34.6677,-14.5167,588.7919],[34.6626,-14.5259,592.7465],[34.6401,-14.5287,661.0931],[34.6503,-14.55,685.7299],[34.6517,-14.5559,688.0718],[34.6507,-14.5604,713.8118],[34.6447,-14.5676,768.4515],[34.6459,-14.575,774.1401]]]]}
,"properties": {"GID_3": "MWI.22.3.7_1","GID_0": "MWI","country": "Malawi","GID_1": "MWI.22_1","province": "Ntcheu","NL_NAME_1": "NA","GID_2": "MWI.22.3_1","county": "SCGoodsonGanya","NL_NAME_2": "NA","city": "n.a.(1650)","VARNAME_3": "NA","NL_NAME_3": "NA","TYPE_3": "Unknown","ENGTYPE_3": "Unknown","CC_3": "NA","HASC_3": "NA","name": "n.a.(1650).city","area_km2": 11.698034,"hist_schema_id": "Elevation0-9000","hist_area_km2": {"575": 0.266821,"600": 5.048801,"625": 2.770565,"650": 0.985094,"675": 1.108222,"700": 0.656671,"725": 0.205206,"750": 0.287285,"775": 0.287286,"800": 0.082083}}}