{"type":"Feature","properties":{"GID_3":"MWI.26.7.16_1","GID_0":"MWI","country":"Malawi","GID_1":"MWI.26_1","province":"Salima","NL_NAME_1":"NA","GID_2":"MWI.26.7_1","county":"TAKhombedza","NL_NAME_2":"NA","city":"n.a.(780)","VARNAME_3":"NA","NL_NAME_3":"NA","TYPE_3":"Unknown","ENGTYPE_3":"Unknown","CC_3":"NA","HASC_3":"NA","name":"n.a.(780).city"},
"geometry":{"type": "MultiPolygon","coordinates": [[[[34.278,-13.6755,594.1201],[34.277,-13.666,588.1677],[34.2742,-13.6647,594.9362],[34.271,-13.6598,587.0565],[34.2764,-13.6557,576.9808],[34.2782,-13.6485,573.0018],[34.2847,-13.6394,569.1343],[34.2961,-13.63,556.507],[34.2962,-13.6277,550.5266],[34.2878,-13.6318,560.0481],[34.2834,-13.6311,563.4382],[34.2797,-13.6375,577.1501],[34.2806,-13.6419,566.0916],[34.2785,-13.6418,571.969],[34.2781,-13.6439,574.0492],[34.2727,-13.6432,580.7334],[34.2673,-13.6478,585.8947],[34.2563,-13.6494,596.6093],[34.2501,-13.653,612.4962],[34.2442,-13.6577,617.9394],[34.2423,-13.6659,619.5536],[34.2386,-13.6648,624.2044],[34.2268,-13.6685,652.4333],[34.2115,-13.6677,669.2607],[34.2045,-13.6818,707.4199],[34.2014,-13.6807,714.1594],[34.2014,-13.6852,712.6003],[34.2074,-13.6906,712.7921],[34.2055,-13.7019,721.074],[34.2161,-13.7012,705.6378],[34.2234,-13.6974,685.3489],[34.2326,-13.698,664.8749],[34.2374,-13.6927,652.6116],[34.2407,-13.6931,646.0727],[34.2523,-13.6853,629.6844],[34.2686,-13.6805,613.5651],[34.2731,-13.6744,599.6451],[34.2756,-13.6738,595.4187],[34.278,-13.6755,594.1201]]]]}}