{"type":"Feature","properties":{"GID_3":"MWI.17.9.4_1","GID_0":"MWI","country":"Malawi","GID_1":"MWI.17_1","province":"Mzimba","NL_NAME_1":"NA","GID_2":"MWI.17.9_1","county":"TAMpherembe","NL_NAME_2":"NA","city":"n.a.(169)","VARNAME_3":"NA","NL_NAME_3":"NA","TYPE_3":"Unknown","ENGTYPE_3":"Unknown","CC_3":"NA","HASC_3":"NA","name":"n.a.(169).city"},
"geometry":{"type": "MultiPolygon","coordinates": [[[[33.5818,-11.248,1143.1738],[33.5783,-11.2509,1151.0281],[33.5751,-11.2573,1157.5858],[33.5626,-11.2613,1169.5118],[33.5612,-11.2637,1162.2273],[33.5541,-11.2677,1172.2197],[33.5539,-11.2714,1160.9984],[33.5563,-11.2772,1164.8623],[33.551,-11.2869,1173.6882],[33.5493,-11.2989,1180.113],[33.5515,-11.304,1172.1638],[33.5598,-11.3093,1189.4312],[33.5694,-11.3048,1222.8351],[33.573,-11.3052,1219.4745],[33.5819,-11.322,1221.5151],[33.5908,-11.3137,1201.1206],[33.5944,-11.308,1197.0983],[33.5941,-11.3039,1188.8427],[33.5895,-11.2992,1192.9917],[33.5891,-11.2966,1189.4524],[33.5914,-11.2916,1183.1917],[33.5973,-11.2891,1179.0623],[33.5971,-11.2824,1170.3256],[33.6061,-11.2681,1176.0228],[33.609,-11.2713,1169.9242],[33.6107,-11.2706,1178.6729],[33.6132,-11.2731,1177.3301],[33.6168,-11.2737,1187.5997],[33.6205,-11.2779,1188.4469],[33.6307,-11.2781,1206.3273],[33.6352,-11.2817,1221.3214],[33.6514,-11.2834,1211.9855],[33.6532,-11.2734,1201.5524],[33.6567,-11.2689,1185.7935],[33.6559,-11.2658,1182.754],[33.6576,-11.266,1178.6646],[33.6558,-11.2549,1176.2295],[33.6572,-11.2452,1244.8081],[33.6596,-11.2415,1171.7399],[33.6579,-11.2353,1158.2881],[33.6555,-11.2346,1160.6301],[33.6551,-11.2326,1161.3857],[33.6573,-11.2303,1154.7018],[33.6553,-11.2214,1146.5045],[33.6483,-11.2172,1142.8854],[33.6497,-11.2012,1145.4814],[33.6567,-11.1917,1128.9445],[33.6545,-11.1833,1124.7734],[33.6553,-11.1788,1114.2448],[33.6486,-11.1738,1107.0513],[33.6495,-11.1676,1102.5367],[33.6529,-11.1617,1097.6719],[33.6498,-11.1583,1093.7928],[33.645,-11.1625,1119.2961],[33.6441,-11.1681,1102.8413],[33.6409,-11.1728,1113.4196],[33.6404,-11.1858,1102.6166],[33.6326,-11.1973,1117.1241],[33.6314,-11.2017,1113.3732],[33.6211,-11.2128,1122.0583],[33.6146,-11.2144,1130.8457],[33.6135,-11.216,1127.4924],[33.6161,-11.227,1141.3875],[33.6193,-11.2255,1136.0171],[33.6206,-11.2339,1158.437],[33.6239,-11.2384,1163.8556],[33.6222,-11.2489,1191.3793],[33.6144,-11.2527,1188.8168],[33.6017,-11.2527,1151.6537],[33.5892,-11.2422,1136.7826],[33.5857,-11.241,1141.9225],[33.5839,-11.2417,1144.375],[33.5818,-11.248,1143.1738]]]]}}