{"type": "Feature","bbox": [33.532,-12.4722,33.7523,-12.3153],"geometry": {"type": "MultiPolygon","coordinates": [[[[33.5815,-12.3833,1387.238],[33.5878,-12.3757,1390.8927],[33.5911,-12.374,1403.4087],[33.6058,-12.3733,1484.2722],[33.5815,-12.4259,1407.8877],[33.583,-12.4455,1289.3615],[33.5449,-12.4564,1413.2925],[33.5354,-12.4613,1301.45],[33.532,-12.461,1314.3206],[33.5339,-12.466,1294.2322],[33.5421,-12.4722,1290.9363],[33.5501,-12.4684,1327.1145],[33.5544,-12.4714,1295.0123],[33.5597,-12.4669,1288.1489],[33.5671,-12.4566,1272.8629],[33.5716,-12.4576,1270.519],[33.5772,-12.454,1311.4301],[33.5875,-12.4557,1238.1301],[33.5955,-12.4522,1255.3896],[33.6011,-12.4538,1238.4282],[33.6069,-12.4534,1228.704],[33.6113,-12.4562,1220.6661],[33.6138,-12.4525,1241.0511],[33.622,-12.4479,1258.4126],[33.6283,-12.4396,1277.2017],[33.644,-12.4281,1337.8228],[33.6618,-12.4302,1408.6239],[33.6751,-12.4256,1392.3672],[33.688,-12.4275,1329.5447],[33.6896,-12.4116,1355.3368],[33.6938,-12.4012,1380.5935],[33.6982,-12.4021,1365.9485],[33.7047,-12.4004,1442.1147],[33.702,-12.3925,1459.3409],[33.7017,-12.3833,1464.3981],[33.7057,-12.3772,1512.9347],[33.7025,-12.3703,1590.3613],[33.7124,-12.3699,1489.0417],[33.7224,-12.3668,1468.7283],[33.7259,-12.3612,1469.2732],[33.7323,-12.3597,1445.6589],[33.7402,-12.3492,1442.5537],[33.7446,-12.3475,1440.4812],[33.7523,-12.3353,1425.1227],[33.7438,-12.3365,1433.4485],[33.7412,-12.3297,1431.8083],[33.7415,-12.3191,1419.4305],[33.7325,-12.3158,1455.1157],[33.7298,-12.3163,1444.3524],[33.724,-12.3212,1471.9183],[33.7093,-12.3221,1458.022],[33.7,-12.3153,1473.6873],[33.6864,-12.3201,1471.9504],[33.6722,-12.3301,1479.9199],[33.6724,-12.3415,1489.553],[33.6699,-12.3467,1500.5757],[33.6544,-12.3512,1541.4507],[33.65,-12.3561,1541.8267],[33.6491,-12.3731,1614.592],[33.6458,-12.3755,1626.3756],[33.6408,-12.3716,1601.5177],[33.631,-12.3534,1564.6296],[33.6332,-12.3424,1535.8358],[33.629,-12.3349,1527.9213],[33.615,-12.3322,1490.061],[33.6154,-12.3355,1478.7615],[33.6194,-12.3395,1490.0273],[33.617,-12.3465,1489.1613],[33.6102,-12.3504,1467.1294],[33.6004,-12.3472,1450.6521],[33.5947,-12.348,1424.7192],[33.5813,-12.3668,1396.4562],[33.5769,-12.3651,1410.9028],[33.5714,-12.367,1405.4287],[33.5609,-12.3676,1408.7705],[33.5597,-12.3758,1426.8204],[33.5648,-12.3824,1408.7406],[33.5815,-12.3833,1387.238]]]]}
,"properties": {"GID_3": "MWI.17.8.1_1","GID_0": "MWI","country": "Malawi","GID_1": "MWI.17_1","province": "Mzimba","NL_NAME_1": "NA","GID_2": "MWI.17.8_1","county": "TAMabulabo","NL_NAME_2": "NA","city": "n.a.(326)","VARNAME_3": "NA","NL_NAME_3": "NA","TYPE_3": "Unknown","ENGTYPE_3": "Unknown","CC_3": "NA","HASC_3": "NA","name": "n.a.(326).city","area_km2": 159.002,"hist_schema_id": "Elevation0-9000","hist_area_km2": {"1225": 0.2484,"1250": 3.1884,"1275": 3.6439,"1300": 4.824,"1325": 4.6171,"1350": 3.9132,"1375": 4.0583,"1400": 7.6414,"1425": 8.9462,"1450": 10.1476,"1475": 11.8048,"1500": 14.3522,"1525": 13.9585,"1550": 11.1832,"1575": 11.1211,"1600": 8.9466,"1625": 7.9732,"1650": 6.4406,"1675": 6.3785,"1700": 5.4259,"1725": 4.9288,"1750": 3.0649,"1775": 1.2425,"1800": 0.7455,"1825": 0.2071}}}