{"type": "Feature","bbox": [35.0259,-16.1245,35.062,-16.0913],"geometry": {"type": "MultiPolygon","coordinates": [[[[35.0558,-16.121,641.8429],[35.0568,-16.1188,671.7721],[35.0548,-16.1139,689.5817],[35.0564,-16.1132,689.5817],[35.0556,-16.1075,827.8351],[35.062,-16.101,913.006],[35.0582,-16.1013,923.5527],[35.0543,-16.0921,1059.1686],[35.0489,-16.0913,1142.9503],[35.042,-16.0954,1073.9626],[35.035,-16.1035,955.5685],[35.0307,-16.1128,686.8821],[35.0268,-16.1154,524.0159],[35.0259,-16.1198,412.8309],[35.0373,-16.1212,569.2518],[35.0417,-16.1201,633.3134],[35.0461,-16.1166,781.365],[35.0483,-16.1203,628.1072],[35.046,-16.1245,565.38],[35.0524,-16.1245,576.3047],[35.0558,-16.121,641.8429]]]]}
,"properties": {"GID_3": "MWI.27.4.13_1","GID_0": "MWI","country": "Malawi","GID_1": "MWI.27_1","province": "Thyolo","NL_NAME_1": "NA","GID_2": "MWI.27.4_1","county": "SCMphuka","NL_NAME_2": "NA","city": "n.a.(2897)","VARNAME_3": "NA","NL_NAME_3": "NA","TYPE_3": "Unknown","ENGTYPE_3": "Unknown","CC_3": "NA","HASC_3": "NA","name": "n.a.(2897).city","area_km2": 7.760868,"hist_schema_id": "Elevation0-9000","hist_area_km2": {"425": 0.020369,"450": 0.081475,"475": 0.061106,"500": 0.183319,"525": 0.061105,"550": 0.203687,"575": 0.285162,"600": 0.14258,"625": 0.285162,"650": 0.285163,"675": 0.264796,"700": 0.24443,"725": 0.346276,"750": 0.224062,"775": 0.30554,"800": 0.264802,"825": 0.305542,"850": 0.285174,"875": 0.407394,"900": 0.448138,"925": 0.570362,"950": 0.325924,"975": 0.407409,"1000": 0.407409,"1025": 0.224078,"1050": 0.285191,"1075": 0.366678,"1100": 0.346308,"1125": 0.081485,"1150": 0.040743}}}