{"type": "Feature","bbox": [33.0869,-13.7514,33.1746,-13.7104],"geometry": {"type": "MultiPolygon","coordinates": [[[[33.0869,-13.7351,1098.0913],[33.09,-13.7421,1094.562],[33.0883,-13.7514,1078.4534],[33.0926,-13.7475,1085.2736],[33.0974,-13.7456,1070.4685],[33.11,-13.7504,1074.5193],[33.1194,-13.7502,1072.384],[33.1273,-13.747,1072.5332],[33.145,-13.745,1070.9819],[33.1576,-13.7398,1064.3574],[33.1689,-13.7423,1060.238],[33.1746,-13.74,1060.6082],[33.1674,-13.7276,1084.5459],[33.1664,-13.7188,1087.7764],[33.1605,-13.718,1087.0731],[33.1535,-13.7127,1096.2565],[33.1399,-13.7136,1091.2123],[33.135,-13.7116,1092.7852],[33.1281,-13.7126,1094.5034],[33.1205,-13.7104,1098.9017],[33.1081,-13.7159,1120.7195],[33.1128,-13.7297,1109.0579],[33.0869,-13.7351,1098.0913]]]]}
,"properties": {"GID_3": "MWI.14.4.18_1","GID_0": "MWI","country": "Malawi","GID_1": "MWI.14_1","province": "Mchinji","NL_NAME_1": "NA","GID_2": "MWI.14.4_1","county": "SCMduwa","NL_NAME_2": "NA","city": "n.a.(869)","VARNAME_3": "NA","NL_NAME_3": "NA","TYPE_3": "Unknown","ENGTYPE_3": "Unknown","CC_3": "NA","HASC_3": "NA","name": "n.a.(869).city","area_km2": 26.42497,"hist_schema_id": "Elevation0-9000","hist_area_km2": {"1050": 0.26774,"1075": 13.38736,"1100": 12.06956,"1125": 0.7003}}}