{"type":"Feature","properties":{"GID_3":"MWI.24.2.53_1","GID_0":"MWI","country":"Malawi","GID_1":"MWI.24_1","province":"Phalombe","NL_NAME_1":"NA","GID_2":"MWI.24.2_1","county":"TAMkhumba","NL_NAME_2":"NA","city":"n.a.(2547)","VARNAME_3":"NA","NL_NAME_3":"NA","TYPE_3":"Unknown","ENGTYPE_3":"Unknown","CC_3":"NA","HASC_3":"NA","name":"n.a.(2547).city"},
"geometry":{"type": "MultiPolygon","coordinates": [[[[35.5717,-15.7756,744.6564],[35.5696,-15.783,740.0921],[35.5752,-15.7837,731.1661],[35.5739,-15.799,720.2816],[35.5786,-15.8036,724.3293],[35.5825,-15.8042,725.1392],[35.5849,-15.8112,728.9119],[35.5797,-15.814,726.8594],[35.5778,-15.8202,741.4899],[35.5844,-15.8282,785.9154],[35.5872,-15.8285,823.9441],[35.5931,-15.8252,839.0348],[35.5899,-15.8153,734.2014],[35.5909,-15.8127,732.7713],[35.5988,-15.8104,734.3195],[35.5908,-15.7955,727.0741],[35.5862,-15.7941,726.2429],[35.5871,-15.7904,750.6757],[35.5844,-15.7845,743.996],[35.5784,-15.7816,731.866],[35.5806,-15.7793,737.0781],[35.5717,-15.7756,744.6564]]]]}}