{"type": "Feature","bbox": [35.1928,-15.7909,35.246,-15.7545],"geometry": {"type": "MultiPolygon","coordinates": [[[[35.2089,-15.7613,918.8883],[35.2027,-15.7681,960.4333],[35.1957,-15.7639,917.9833],[35.1928,-15.7674,923.3275],[35.1928,-15.7718,935.716],[35.2025,-15.7881,957.2574],[35.2107,-15.7871,914.1329],[35.2154,-15.7909,931.1442],[35.2162,-15.7813,900.365],[35.2194,-15.7751,868.8992],[35.2289,-15.7726,856.1791],[35.234,-15.7757,851.9937],[35.236,-15.7735,854.4902],[35.2349,-15.7709,846.7169],[35.2365,-15.7688,844.1549],[35.2391,-15.7679,840.9351],[35.2408,-15.7647,842.7054],[35.246,-15.7628,836.8035],[35.2376,-15.7607,852.6478],[35.2325,-15.7545,869.2208],[35.2249,-15.7616,889.6633],[35.226,-15.764,873.8103],[35.2089,-15.7613,918.8883]]]]}
,"properties": {"GID_3": "MWI.4.3.12_1","GID_0": "MWI","country": "Malawi","GID_1": "MWI.4_1","province": "Chiradzulu","NL_NAME_1": "NA","GID_2": "MWI.4.3_1","county": "TAKadewere","NL_NAME_2": "NA","city": "n.a.(2520)","VARNAME_3": "NA","NL_NAME_3": "NA","TYPE_3": "Unknown","ENGTYPE_3": "Unknown","CC_3": "NA","HASC_3": "NA","name": "n.a.(2520).city","area_km2": 9.508271,"hist_schema_id": "Elevation0-9000","hist_area_km2": {"850": 1.816005,"875": 2.02003,"900": 1.734319,"925": 2.285206,"950": 1.142613,"975": 0.204039,"1000": 0.204039,"1025": 0.10202}}}