{"type":"Feature","properties":{"GID_3":"MWI.8.7.10_1","GID_0":"MWI","country":"Malawi","GID_1":"MWI.8_1","province":"Karonga","NL_NAME_1":"NA","GID_2":"MWI.8.7_1","county":"TAKyungu","NL_NAME_2":"NA","city":"n.a.(69)","VARNAME_3":"NA","NL_NAME_3":"NA","TYPE_3":"Unknown","ENGTYPE_3":"Unknown","CC_3":"NA","HASC_3":"NA","name":"n.a.(69).city"},
"geometry":{"type": "MultiPolygon","coordinates": [[[[33.7629,-10.1607,1050.306],[33.7673,-10.1679,1011.7481],[33.8063,-10.1743,1094.1741],[33.8108,-10.1821,1143.5553],[33.8332,-10.1835,985.0691],[33.8515,-10.1876,920.8358],[33.8707,-10.1698,891.0404],[33.8739,-10.1641,845.3742],[33.8895,-10.1553,762.8638],[33.8923,-10.1521,816.6016],[33.8978,-10.1507,789.4677],[33.9055,-10.1415,874.1276],[33.9098,-10.1389,874.746],[33.9275,-10.1377,726.9088],[33.9368,-10.1335,606.4143],[33.942,-10.1372,629.9008],[33.9659,-10.1372,649.248],[33.9723,-10.1407,621.6509],[33.9798,-10.1367,593.4742],[33.9903,-10.1387,573.6511],[33.997,-10.143,557.1433],[33.9968,-10.1395,581.4016],[33.9989,-10.1365,561.5018],[34.0021,-10.1378,552.8755],[34.0036,-10.1367,551.3574],[33.9931,-10.1175,521.0157],[33.9746,-10.1039,538.0992],[33.9742,-10.0969,541.7815],[33.9711,-10.0918,528.8669],[33.9636,-10.0919,558.5514],[33.9623,-10.0821,503.2038],[33.9588,-10.077,519.0526],[33.9492,-10.0746,548.1904],[33.9452,-10.0713,567.8011],[33.9416,-10.064,555.2183],[33.9423,-10.0525,544.9523],[33.9354,-10.0537,555.0062],[33.9334,-10.0563,566.8387],[33.9262,-10.06,607.2692],[33.9111,-10.0613,687.7145],[33.9072,-10.0632,730.8751],[33.9091,-10.0705,662.6625],[33.9079,-10.0786,670.4944],[33.9107,-10.0847,656.2307],[33.9126,-10.0971,656.4653],[33.9074,-10.0932,669.3124],[33.899,-10.0961,740.131],[33.8949,-10.1012,728.7656],[33.8577,-10.0957,806.591],[33.8482,-10.1034,838.9848],[33.8438,-10.1047,870.676],[33.8305,-10.0999,936.7932],[33.8378,-10.0839,820.4681],[33.8471,-10.0777,773.738],[33.842,-10.0478,708.6618],[33.8436,-10.0464,741.4691],[33.847,-10.0471,780.2991],[33.8521,-10.0449,762.976],[33.857,-10.0448,747.9163],[33.8598,-10.0425,720.4271],[33.8665,-10.043,690.2373],[33.8672,-10.0323,694.3148],[33.8707,-10.0277,664.7774],[33.8717,-10.0212,662.351],[33.8771,-10.0075,670.0164],[33.88,-10.0013,686.2366],[33.8853,-9.9994,651.1342],[33.868899999999996,-9.9777,650.1621],[33.8555,-9.9506,555.3372],[33.8486,-9.9472,645.9518],[33.8442,-9.9422,506.4659],[33.839,-9.9438,508.9937],[33.8355,-9.9396,506.176],[33.8298,-9.9392,508.6251],[33.8208,-9.9435,515.8052],[33.8201,-9.9513,514.3712],[33.8171,-9.9543,515.8254],[33.822,-9.9663,527.0],[33.8206,-9.9691,529.2098],[33.795,-9.9703,671.2513],[33.7958,-9.9753,620.0571],[33.7989,-9.9793,608.1661],[33.7977,-9.9869,623.395],[33.8007,-9.9983,644.6668],[33.7939,-10.026,808.8602],[33.7941,-10.0336,814.4064],[33.8028,-10.0656,808.0198],[33.8067,-10.0942,903.5795],[33.8105,-10.1097,901.7294],[33.8083,-10.1113,909.5797],[33.8,-10.1123,946.2184],[33.7944,-10.1114,1042.3013],[33.7874,-10.115,991.2296],[33.7809,-10.1123,1103.2418],[33.7765,-10.1123,1110.2499],[33.77,-10.1169,1032.3241],[33.7622,-10.118,971.5547],[33.7527,-10.1169,931.812],[33.7504,-10.1152,940.7805],[33.7482,-10.1173,904.5721],[33.741,-10.1155,879.1478],[33.7456,-10.1224,900.3548],[33.7458,-10.1252,911.806],[33.7408,-10.1278,925.6749],[33.7629,-10.1607,1050.306]]]]}}