{"type":"Feature","properties":{"GID_3":"MWI.3.8.7_1","GID_0":"MWI","country":"Malawi","GID_1":"MWI.3_1","province":"Chikwawa","NL_NAME_1":"NA","GID_2":"MWI.3.8_1","county":"TALundu","NL_NAME_2":"NA","city":"n.a.(2977)","VARNAME_3":"NA","NL_NAME_3":"NA","TYPE_3":"Unknown","ENGTYPE_3":"Unknown","CC_3":"NA","HASC_3":"NA","name":"n.a.(2977).city"},
"geometry":{"type": "MultiPolygon","coordinates": [[[[34.9066,-16.2414,67.2103],[34.9108,-16.2407,66.65],[34.9179,-16.251,63.7767],[34.9238,-16.2529,62.258],[34.9269,-16.2465,64.8043],[34.9279,-16.2367,63.488],[34.9211,-16.2355,63.5979],[34.9174,-16.2269,65.5352],[34.9098,-16.2326,65.864],[34.9129,-16.2374,64.9417],[34.9066,-16.2414,67.2103]]]]}}