{"type": "Feature","bbox": [35.5633,-15.6531,35.6173,-15.5814],"geometry": {"type": "MultiPolygon","coordinates": [[[[35.5797,-15.5885,661.3149],[35.5877,-15.5913,660.9485],[35.5836,-15.5951,662.8698],[35.5813,-15.6002,667.1103],[35.579,-15.623,680.8187],[35.5633,-15.6239,683.3776],[35.5733,-15.6304,685.6387],[35.5858,-15.65,691.1553],[35.6013,-15.648,692.8956],[35.6067,-15.6531,697.24],[35.6087,-15.653,697.7797],[35.6151,-15.6441,688.4615],[35.6161,-15.6327,680.6716],[35.6149,-15.6239,674.9751],[35.6173,-15.6155,669.9233],[35.5969,-15.6201,677.1008],[35.5965,-15.6124,672.0361],[35.5994,-15.5983,662.67],[35.593,-15.5981,665.8187],[35.5933,-15.5869,655.8489],[35.5919,-15.5826,652.7811],[35.5931,-15.5814,652.7811],[35.5904,-15.5822,654.3533],[35.5878,-15.5835,654.7133],[35.5797,-15.5885,661.3149]]]]}
,"properties": {"GID_3": "MWI.24.2.12_1","GID_0": "MWI","country": "Malawi","GID_1": "MWI.24_1","province": "Phalombe","NL_NAME_1": "NA","GID_2": "MWI.24.2_1","county": "TAMkhumba","NL_NAME_2": "NA","city": "n.a.(2345)","VARNAME_3": "NA","NL_NAME_3": "NA","TYPE_3": "Unknown","ENGTYPE_3": "Unknown","CC_3": "NA","HASC_3": "NA","name": "n.a.(2345).city","area_km2": 20.17372,"hist_schema_id": "Elevation0-9000","hist_area_km2": {"650": 1.24576,"675": 14.45667,"700": 4.45088,"725": 0.02042}}}