{"type": "Feature","bbox": [33.3145,-10.2457,33.6366,-9.8553],"geometry": {"type": "MultiPolygon","coordinates": [[[[33.5376,-10.0106,1260.6564],[33.5341,-10.0008,1253.1335],[33.5371,-9.9974,1244.6025],[33.5353,-9.9931,1299.1683],[33.524,-9.9871,1336.3853],[33.5105,-9.9834,1327.1763],[33.4996,-9.9685,1454.9147],[33.4966,-9.9686,1470.2461],[33.4919,-9.9718,1457.8715],[33.4898,-9.9787,1528.1672],[33.4828,-9.978,1488.1177],[33.4703,-9.9734,1506.266],[33.4734,-9.9678,1426.6239],[33.4732,-9.9564,1409.0435],[33.4765,-9.9494,1345.1677],[33.4721,-9.939,1341.7273],[33.4846,-9.9342,1448.1345],[33.4891,-9.9292,1397.5728],[33.5043,-9.9253,1362.6271],[33.508,-9.9211,1293.4634],[33.5134,-9.9195,1334.332],[33.5159,-9.9152,1315.3943],[33.5194,-9.9182,1248.2089],[33.5304,-9.9164,1206.749],[33.5348,-9.9079,1135.6096],[33.5349,-9.9014,1174.6982],[33.5408,-9.8968,1135.9419],[33.5402,-9.8947,1111.3433],[33.5331,-9.8943,1173.8013],[33.5244,-9.8876,1182.3285],[33.5145,-9.8831,1201.946],[33.5124,-9.8553,1092.853],[33.4995,-9.8553,1149.0708],[33.4814,-9.8635,1187.6888],[33.4765,-9.8784,1473.1417],[33.47,-9.8845,1503.7974],[33.4647,-9.8982,1497.4751],[33.4558,-9.9128,1382.2183],[33.4476,-9.9227,1422.1075],[33.4382,-9.9189,1394.8938],[33.4268,-9.9187,1460.754],[33.4228,-9.9145,1505.0341],[33.4069,-9.9103,1654.0769],[33.3953,-9.9096,1729.1882],[33.3957,-9.9167,1761.2288],[33.3935,-9.9224,1628.3214],[33.3757,-9.9319,1699.1931],[33.3711,-9.9369,1765.9811],[33.3649,-9.9472,2090.2329],[33.3635,-9.9568,1941.4484],[33.3569,-9.9762,2158.2944],[33.3481,-9.992,2208.1165],[33.3447,-10.0022,2186.897],[33.3323,-10.0152,2224.6274],[33.3283,-10.0245,2107.2134],[33.3219,-10.0578,1648.2061],[33.3145,-10.0652,1634.5333],[33.3159,-10.0693,1530.1865],[33.3269,-10.0743,1599.9033],[33.3233,-10.0826,1536.9393],[33.3357,-10.0871,1526.8075],[33.3429,-10.0942,1525.7017],[33.3469,-10.1042,1586.2563],[33.3465,-10.112,1522.927],[33.3481,-10.1159,1498.5911],[33.3627,-10.1095,1568.3315],[33.3817,-10.1075,1560.7095],[33.3873,-10.1079,1616.2292],[33.3935,-10.1112,1883.0581],[33.3999,-10.1175,1916.4395],[33.4073,-10.1209,1915.9255],[33.4097,-10.1275,1887.3274],[33.4153,-10.1347,1936.5677],[33.4287,-10.1435,1850.3451],[33.4371,-10.154,1923.8243],[33.4413,-10.1642,1975.0825],[33.4439,-10.1665,1913.8806],[33.4513,-10.1687,1904.9802],[33.4625,-10.1775,1969.7222],[33.4795,-10.1778,1934.7004],[33.4951,-10.1816,1868.9275],[33.5143,-10.1943,1543.948],[33.5215,-10.2146,1500.4242],[33.5353,-10.2173,1502.1132],[33.5395,-10.2201,1504.0673],[33.5443,-10.2289,1497.7209],[33.5439,-10.2334,1513.687],[33.5491,-10.245,1479.0808],[33.5537,-10.2439,1492.3258],[33.5602,-10.2457,1518.1941],[33.5632,-10.2371,1628.4382],[33.5623,-10.234,1579.8621],[33.5707,-10.2242,1634.823],[33.6361,-10.1333,1685.7412],[33.6366,-10.1306,1633.3782],[33.6329,-10.121,1661.1719],[33.6319,-10.1059,1704.4996],[33.6365,-10.1004,1697.3442],[33.6354,-10.0957,1789.8359],[33.6316,-10.0928,1770.1866],[33.6295,-10.0885,1756.7524],[33.618,-10.0798,1659.3989],[33.6211,-10.0685,1617.5292],[33.6201,-10.0669,1570.502],[33.6213,-10.0625,1598.5284],[33.6146,-10.0619,1592.3845],[33.6085,-10.0593,1670.9771],[33.6082,-10.0494,1656.6868],[33.6026,-10.0444,1704.0649],[33.5997,-10.035,1666.6198],[33.5907,-10.0254,1572.6858],[33.5894,-10.0158,1677.2712],[33.5842,-10.0131,1566.4177],[33.5771,-10.0159,1573.3506],[33.5714,-10.0108,1556.2642],[33.5561,-10.0138,1490.844],[33.5523,-10.0137,1409.8141],[33.5475,-10.0106,1405.0277],[33.5376,-10.0106,1260.6564]]]]}
,"properties": {"GID_2": "MWI.5.6_1","GID_0": "MWI","country": "Malawi","GID_1": "MWI.5_1","province": "Chitipa","NL_NAME_1": "NA","county": "TAMwenewenya","VARNAME_2": "NA","NL_NAME_2": "NA","TYPE_2": "TraditionalAuthority","ENGTYPE_2": "TraditionalAuthority","CC_2": "NA","HASC_2": "NA","name": "T_A_Mwenewenya.county","area_km2": 746.3263,"hist_schema_id": "Elevation0-9000","hist_area_km2": {"1050": 0.0836,"1075": 0.7938,"1100": 1.3786,"1125": 1.9635,"1150": 1.9844,"1175": 1.5248,"1200": 1.1906,"1225": 1.2532,"1250": 2.1092,"1275": 3.1947,"1300": 4.1759,"1325": 8.2679,"1350": 17.4538,"1375": 26.1597,"1400": 38.1443,"1425": 46.2878,"1450": 48.9178,"1475": 51.7962,"1500": 57.5962,"1525": 57.1177,"1550": 52.6497,"1575": 41.1256,"1600": 32.5037,"1625": 28.6206,"1650": 27.4515,"1675": 24.6325,"1700": 21.7096,"1725": 19.7048,"1750": 16.2602,"1775": 14.6739,"1800": 14.4859,"1825": 15.1958,"1850": 15.0703,"1875": 14.1307,"1900": 11.5007,"1925": 9.33,"1950": 5.1973,"1975": 2.5467,"2000": 1.5449,"2025": 0.9605,"2050": 0.7726,"2075": 0.8352,"2100": 0.689,"2125": 0.877,"2150": 0.9396,"2175": 0.7308,"2200": 0.4385,"2225": 0.3549}}}