{"type": "Feature","bbox": [35.7459,-15.7667,35.7916,-15.7094],"geometry": {"type": "MultiPolygon","coordinates": [[[[35.7459,-15.7389,868.2522],[35.7535,-15.7448,831.8247],[35.7509,-15.7502,812.2293],[35.7575,-15.7595,769.1802],[35.76,-15.7667,750.7034],[35.7621,-15.7635,764.7928],[35.7684,-15.7608,740.1981],[35.774,-15.762,715.7524],[35.779,-15.7597,708.0245],[35.79,-15.7605,688.2337],[35.7916,-15.7621,684.3878],[35.7893,-15.7529,683.8398],[35.7814,-15.7454,697.0047],[35.7802,-15.7389,689.545],[35.7638,-15.7094,685.955],[35.761,-15.7147,699.1359],[35.7541,-15.7177,755.4382],[35.7501,-15.7318,861.7886],[35.7459,-15.7389,868.2522]]]]}
,"properties": {"GID_3": "MWI.24.3.14_1","GID_0": "MWI","country": "Malawi","GID_1": "MWI.24_1","province": "Phalombe","NL_NAME_1": "NA","GID_2": "MWI.24.3_1","county": "TANazombe","NL_NAME_2": "NA","city": "n.a.(2481)","VARNAME_3": "NA","NL_NAME_3": "NA","TYPE_3": "Unknown","ENGTYPE_3": "Unknown","CC_3": "NA","HASC_3": "NA","name": "n.a.(2481).city","area_km2": 15.3461,"hist_schema_id": "Elevation0-9000","hist_area_km2": {"675": 1.04083,"700": 4.67333,"725": 2.6529,"750": 1.24479,"775": 1.71411,"800": 1.10195,"825": 0.89789,"850": 0.9387,"875": 0.71425,"900": 0.22448,"925": 0.10204,"950": 0.04081}}}