{"type":"Feature","properties":{"GID_3":"MWI.13.8.16_1","GID_0":"MWI","country":"Malawi","GID_1":"MWI.13_1","province":"Mangochi","NL_NAME_1":"NA","GID_2":"MWI.13.8_1","county":"TAChimwala","NL_NAME_2":"NA","city":"n.a.(1709)","VARNAME_3":"NA","NL_NAME_3":"NA","TYPE_3":"Unknown","ENGTYPE_3":"Unknown","CC_3":"NA","HASC_3":"NA","name":"n.a.(1709).city"},
"geometry":{"type": "MultiPolygon","coordinates": [[[[34.9341,-14.6251,795.1781],[34.9309,-14.6354,742.8625],[34.9396,-14.6486,793.5909],[34.9307,-14.6524,794.1509],[34.9295,-14.6566,784.1578],[34.9243,-14.6585,774.7815],[34.9223,-14.6617,771.4153],[34.9136,-14.6617,765.9847],[34.8997,-14.6649,753.564],[34.8983,-14.6676,748.5165],[34.9001,-14.6745,760.3839],[34.8993,-14.6773,763.0043],[34.8889,-14.6783,741.3472],[34.9083,-14.6972,811.9181],[34.9113,-14.6949,812.7641],[34.9114,-14.6891,789.5465],[34.9132,-14.6869,805.7192],[34.9277,-14.6828,792.4577],[34.9365,-14.6839,807.7814],[34.9418,-14.6813,821.4669],[34.9469,-14.6821,829.2048],[34.9507,-14.681,826.0856],[34.9583,-14.6844,814.1411],[34.9639,-14.6787,805.6335],[34.9632,-14.6712,819.2427],[34.9551,-14.6616,834.3765],[34.9613,-14.6566,825.5637],[34.9606,-14.6517,810.3124],[34.9448,-14.6388,789.5323],[34.9444,-14.6369,802.5271],[34.9478,-14.6345,823.4318],[34.9472,-14.6316,847.4913],[34.9341,-14.6251,795.1781]]]]}}