{"type": "Feature","bbox": [35.2351,-15.6269,35.2685,-15.5837],"geometry": {"type": "MultiPolygon","coordinates": [[[[35.2351,-15.5962,887.5638],[35.2374,-15.5986,883.2661],[35.241,-15.598,887.9541],[35.2394,-15.6029,880.9731],[35.2409,-15.604,874.0229],[35.2433,-15.6147,864.4402],[35.2455,-15.6166,860.3386],[35.2441,-15.619,860.7192],[35.2467,-15.623,856.3388],[35.2452,-15.6239,860.8872],[35.2474,-15.6238,856.3388],[35.2505,-15.6269,854.9963],[35.2652,-15.6117,882.1393],[35.2635,-15.609,886.0918],[35.2583,-15.6067,890.8538],[35.2671,-15.5969,885.8109],[35.2684,-15.5925,882.1928],[35.2658,-15.5926,874.718],[35.2685,-15.5847,877.7489],[35.2609,-15.5842,895.0235],[35.2535,-15.5859,919.2843],[35.2523,-15.5837,920.357],[35.2377,-15.5853,898.3708],[35.2353,-15.5871,890.6617],[35.2366,-15.5928,890.5776],[35.2351,-15.5962,887.5638]]]]}
,"properties": {"GID_3": "MWI.28.2.29_1","GID_0": "MWI","country": "Malawi","GID_1": "MWI.28_1","province": "Zomba","NL_NAME_1": "NA","GID_2": "MWI.28.2_1","county": "SCMbiza","NL_NAME_2": "NA","city": "n.a.(2346)","VARNAME_3": "NA","NL_NAME_3": "NA","TYPE_3": "Unknown","ENGTYPE_3": "Unknown","CC_3": "NA","HASC_3": "NA","name": "n.a.(2346).city","area_km2": 10.721058,"hist_schema_id": "Elevation0-9000","hist_area_km2": {"850": 0.122514,"875": 4.472056,"900": 5.595505,"925": 0.530983}}}