{"type":"Feature","properties":{"GID_3":"MWI.26.10.2_1","GID_0":"MWI","country":"Malawi","GID_1":"MWI.26_1","province":"Salima","NL_NAME_1":"NA","GID_2":"MWI.26.10_1","county":"TANdindi","NL_NAME_2":"NA","city":"n.a.(1053)","VARNAME_3":"NA","NL_NAME_3":"NA","TYPE_3":"Unknown","ENGTYPE_3":"Unknown","CC_3":"NA","HASC_3":"NA","name":"n.a.(1053).city"},
"geometry":{"type": "MultiPolygon","coordinates": [[[[34.5194,-13.9212,486.8641],[34.5153,-13.9226,488.5891],[34.5033,-13.9161,495.0313],[34.5092,-13.9083,491.8103],[34.5109,-13.9023,491.1554],[34.4872,-13.9152,503.047],[34.4788,-13.9116,505.8798],[34.4742,-13.917,510.837],[34.4933,-13.9316,500.3935],[34.496,-13.939,500.7216],[34.4984,-13.9393,497.5389],[34.5078,-13.9385,485.4745],[34.5124,-13.9405,481.369],[34.5228,-13.9341,480.6846],[34.5245,-13.9301,481.0343],[34.5234,-13.9255,483.651],[34.5272,-13.919,483.1834],[34.5194,-13.9212,486.8641]]]]}}