{"type":"Feature","properties":{"GID_3":"MWI.11.13.13_1","GID_0":"MWI","country":"Malawi","GID_1":"MWI.11_1","province":"Lilongwe","NL_NAME_1":"NA","GID_2":"MWI.11.13_1","county":"TAKalumbu","NL_NAME_2":"NA","city":"n.a.(1314)","VARNAME_3":"NA","NL_NAME_3":"NA","TYPE_3":"Unknown","ENGTYPE_3":"Unknown","CC_3":"NA","HASC_3":"NA","name":"n.a.(1314).city"},
"geometry":{"type": "MultiPolygon","coordinates": [[[[33.91,-14.1668,1142.839],[33.9061,-14.1819,1143.1372],[33.9067,-14.1922,1153.4044],[33.9017,-14.2121,1190.3844],[33.9053,-14.2177,1197.4934],[33.9147,-14.2161,1207.0774],[33.9327,-14.2084,1195.5576],[33.9273,-14.205,1195.2108],[33.929,-14.2011,1195.4417],[33.9337,-14.196,1200.7034],[33.9415,-14.1943,1203.2385],[33.9319,-14.1908,1199.8633],[33.9368,-14.1832,1213.0483],[33.9318,-14.1805,1193.924],[33.9347,-14.1788,1207.1699],[33.924,-14.1769,1152.9696],[33.9221,-14.1681,1142.3751],[33.9195,-14.1666,1135.2256],[33.9163,-14.1614,1122.1122],[33.9133,-14.1601,1124.6062],[33.91,-14.1668,1142.839]]]]}}