{"type": "Feature","bbox": [35.778,-15.9808,35.804,-15.9547],"geometry": {"type": "MultiPolygon","coordinates": [[[[35.778,-15.9567,750.036],[35.7812,-15.9701,714.1366],[35.7848,-15.9702,709.6493],[35.7925,-15.9787,689.2653],[35.804,-15.9808,674.3875],[35.8026,-15.976,680.3973],[35.8035,-15.9566,685.462],[35.7936,-15.9547,699.6159],[35.7821,-15.9551,726.062],[35.778,-15.9567,750.036]]]]}
,"properties": {"GID_3": "MWI.15.4.3_1","GID_0": "MWI","country": "Malawi","GID_1": "MWI.15_1","province": "Mulanje","NL_NAME_1": "NA","GID_2": "MWI.15.4_1","county": "SCLastonNjema","NL_NAME_2": "NA","city": "n.a.(2714)","VARNAME_3": "NA","NL_NAME_3": "NA","TYPE_3": "Unknown","ENGTYPE_3": "Unknown","CC_3": "NA","HASC_3": "NA","name": "n.a.(2714).city","area_km2": 5.891076,"hist_schema_id": "Elevation0-9000","hist_area_km2": {"675": 1.651095,"700": 3.241126,"725": 0.835776,"750": 0.16308}}}