{"type":"Feature","properties":{"GID_3":"MWI.9.16.18_1","GID_0":"MWI","country":"Malawi","GID_1":"MWI.9_1","province":"Kasungu","NL_NAME_1":"NA","GID_2":"MWI.9.16_1","county":"TAWimbe","NL_NAME_2":"NA","city":"n.a.(454)","VARNAME_3":"NA","NL_NAME_3":"NA","TYPE_3":"Unknown","ENGTYPE_3":"Unknown","CC_3":"NA","HASC_3":"NA","name":"n.a.(454).city"},
"geometry":{"type": "MultiPolygon","coordinates": [[[[33.6825,-12.9742,1145.6072],[33.6695,-12.9835,1121.4609],[33.6726,-12.9855,1120.6117],[33.6767,-12.9916,1138.7192],[33.6841,-12.9949,1182.7865],[33.7134,-12.9945,1149.0762],[33.7166,-12.9996,1136.8059],[33.7209,-12.9994,1142.8342],[33.7242,-13.0063,1151.4301],[33.7218,-13.0125,1160.6884],[33.7226,-13.0142,1160.7993],[33.7295,-13.0147,1147.4324],[33.7328,-13.011,1142.7124],[33.7392,-13.0102,1133.7672],[33.7485,-13.0048,1105.283],[33.7576,-13.0045,1093.4781],[33.7622,-12.9999,1086.0042],[33.7528,-12.9922,1100.1528],[33.7463,-12.9827,1119.5952],[33.7416,-12.9804,1132.4955],[33.7404,-12.9747,1134.6615],[33.7257,-12.9788,1137.7405],[33.7242,-12.9744,1153.4464],[33.7205,-12.973,1163.1056],[33.7184,-12.969,1158.1398],[33.7123,-12.9691,1163.8452],[33.7134,-12.9623,1129.0149],[33.7086,-12.9647,1148.1768],[33.6998,-12.974,1162.6704],[33.692,-12.9678,1132.1145],[33.6825,-12.9742,1145.6072]]]]}}