{"type":"Feature","properties":{"GID_3":"MWI.7.4.9_1","GID_0":"MWI","country":"Malawi","GID_1":"MWI.7_1","province":"Dowa","NL_NAME_1":"NA","GID_2":"MWI.7.4_1","county":"SCKayembe","NL_NAME_2":"NA","city":"n.a.(751)","VARNAME_3":"NA","NL_NAME_3":"NA","TYPE_3":"Unknown","ENGTYPE_3":"Unknown","CC_3":"NA","HASC_3":"NA","name":"n.a.(751).city"},
"geometry":{"type": "MultiPolygon","coordinates": [[[[33.4488,-13.5901,1066.5375],[33.45,-13.5964,1070.9489],[33.4492,-13.6112,1065.9215],[33.454,-13.6099,1091.4481],[33.466,-13.6111,1105.7029],[33.4772,-13.6244,1119.8156],[33.477,-13.6313,1123.3308],[33.4866,-13.6356,1121.1948],[33.4929,-13.6296,1112.1503],[33.5045,-13.6254,1119.0189],[33.5095,-13.6164,1115.4528],[33.5208,-13.6143,1129.3262],[33.5204,-13.6069,1140.3613],[33.5172,-13.602,1131.9033],[33.5017,-13.5912,1119.4657],[33.4865,-13.5924,1101.749],[33.4785,-13.6027,1093.5648],[33.4747,-13.5994,1098.2156],[33.4669,-13.599,1087.8619],[33.4573,-13.5929,1082.2812],[33.4488,-13.5901,1066.5375]]]]}}