{"type": "Feature","bbox": [34.2945,-13.0813,34.3268,-13.0428],"geometry": {"type": "MultiPolygon","coordinates": [[[[34.3259,-13.0457,480.0722],[34.312,-13.0459,518.1335],[34.3033,-13.0428,524.3013],[34.2957,-13.0448,540.7045],[34.2945,-13.0526,538.6017],[34.3003,-13.0761,524.699],[34.3069,-13.0761,515.686],[34.3097,-13.074,508.3089],[34.3162,-13.0747,488.5359],[34.3245,-13.0813,478.3128],[34.3262,-13.0708,476.1965],[34.3226,-13.062,479.4531],[34.3268,-13.0466,479.901],[34.3259,-13.0457,480.0722]]]]}
,"properties": {"GID_3": "MWI.20.8.11_1","GID_0": "MWI","country": "Malawi","GID_1": "MWI.20_1","province": "Nkhotakota","NL_NAME_1": "NA","GID_2": "MWI.20.8_1","county": "TAMalengaChanzi","NL_NAME_2": "NA","city": "n.a.(480)","VARNAME_3": "NA","NL_NAME_3": "NA","TYPE_3": "Unknown","ENGTYPE_3": "Unknown","CC_3": "NA","HASC_3": "NA","name": "n.a.(480).city","area_km2": 10.616047,"hist_schema_id": "Elevation0-9000","hist_area_km2": {"475": 2.127296,"500": 4.006842,"525": 3.800314,"550": 0.681595}}}