{"type": "Feature","bbox": [35.2191,-16.0099,35.2606,-15.9786],"geometry": {"type": "MultiPolygon","coordinates": [[[[35.2519,-15.9803,735.1661],[35.2468,-15.984,740.9034],[35.2391,-15.9833,766.4741],[35.2288,-15.9936,785.014],[35.2269,-15.9938,793.2937],[35.224,-15.9908,798.2982],[35.2211,-15.9935,816.4853],[35.2191,-16.0012,793.6497],[35.2215,-16.0098,754.2773],[35.2273,-16.0074,760.3452],[35.2319,-16.0099,741.4758],[35.2307,-16.0078,753.9857],[35.2352,-16.0087,743.9944],[35.2483,-16.0041,733.3369],[35.2494,-16.0051,725.3901],[35.2547,-16.0015,716.5794],[35.2499,-15.9985,739.9308],[35.26,-15.997,723.4359],[35.2552,-15.9883,749.1163],[35.2606,-15.9868,747.4351],[35.2594,-15.9786,724.496],[35.2519,-15.9803,735.1661]]]]}
,"properties": {"GID_3": "MWI.27.8.23_1","GID_0": "MWI","country": "Malawi","GID_1": "MWI.27_1","province": "Thyolo","NL_NAME_1": "NA","GID_2": "MWI.27.8_1","county": "TAChimaliro","NL_NAME_2": "NA","city": "n.a.(2739)","VARNAME_3": "NA","NL_NAME_3": "NA","TYPE_3": "Unknown","ENGTYPE_3": "Unknown","CC_3": "NA","HASC_3": "NA","name": "n.a.(2739).city","area_km2": 9.008552,"hist_schema_id": "Elevation0-9000","hist_area_km2": {"725": 1.324831,"750": 3.8113069999999998,"775": 2.547641,"800": 1.324773}}}