{"type": "Feature","bbox": [33.3631,-13.3981,33.466,-13.3252],"geometry": {"type": "MultiPolygon","coordinates": [[[[33.4511,-13.3296,1038.2585],[33.4415,-13.3317,1038.6765],[33.4384,-13.3302,1037.9879],[33.4361,-13.326,1038.4192],[33.4281,-13.3252,1037.9043],[33.4289,-13.3411,1039.1897],[33.4239,-13.3422,1046.3855],[33.4257,-13.3468,1039.5225],[33.4233,-13.3498,1038.0948],[33.4136,-13.3541,1038.3407],[33.4116,-13.3525,1039.2732],[33.4114,-13.3466,1038.4474],[33.4053,-13.3403,1040.1362],[33.4054,-13.3368,1040.7975],[33.3953,-13.3408,1039.7197],[33.3897,-13.3356,1043.7571],[33.3848,-13.3362,1043.5762],[33.3797,-13.3395,1039.4751],[33.374,-13.3508,1039.4196],[33.3631,-13.3519,1041.225],[33.3671,-13.3594,1040.4708],[33.3689,-13.3693,1042.292],[33.3766,-13.3697,1057.9181],[33.381,-13.3719,1067.8113],[33.4003,-13.369,1047.2428],[33.4036,-13.383,1057.8436],[33.41,-13.3981,1065.8284],[33.4126,-13.3869,1069.2222],[33.4157,-13.3841,1070.1387],[33.4316,-13.3815,1062.6145],[33.4471,-13.3813,1050.9016],[33.457,-13.3784,1041.9318],[33.4583,-13.3775,1043.6654],[33.453,-13.3709,1040.7723],[33.4645,-13.3637,1039.5784],[33.466,-13.3599,1041.3215],[33.4643,-13.3572,1041.3727],[33.4608,-13.3559,1039.8584],[33.4627,-13.3499,1041.5802],[33.4616,-13.3455,1042.2422],[33.4513,-13.3369,1038.6724],[33.4511,-13.3296,1038.2585]]]]}
,"properties": {"GID_3": "MWI.9.15.3_1","GID_0": "MWI","country": "Malawi","GID_1": "MWI.9_1","province": "Kasungu","NL_NAME_1": "NA","GID_2": "MWI.9.15_1","county": "TASanthe","NL_NAME_2": "NA","city": "n.a.(577)","VARNAME_3": "NA","NL_NAME_3": "NA","TYPE_3": "Unknown","ENGTYPE_3": "Unknown","CC_3": "NA","HASC_3": "NA","name": "n.a.(577).city","area_km2": 43.05175,"hist_schema_id": "Elevation0-9000","hist_area_km2": {"1025": 0.30946,"1050": 40.32897,"1075": 2.41332}}}