{"type":"Feature","properties":{"GID_3":"MWI.7.3.17_1","GID_0":"MWI","country":"Malawi","GID_1":"MWI.7_1","province":"Dowa","NL_NAME_1":"NA","GID_2":"MWI.7.3_1","county":"SCChakhaza","NL_NAME_2":"NA","city":"n.a.(607)","VARNAME_3":"NA","NL_NAME_3":"NA","TYPE_3":"Unknown","ENGTYPE_3":"Unknown","CC_3":"NA","HASC_3":"NA","name":"n.a.(607).city"},
"geometry":{"type": "MultiPolygon","coordinates": [[[[33.5824,-13.371,1131.366],[33.5217,-13.3711,1068.2455],[33.5272,-13.3809,1064.7968],[33.5305,-13.3921,1074.3236],[33.5509,-13.3907,1103.7743],[33.568,-13.4085,1138.8684],[33.5789,-13.4114,1133.5823],[33.5854,-13.3967,1126.5681],[33.5923,-13.3904,1122.1023],[33.5896,-13.3882,1126.9713],[33.5824,-13.371,1131.366]]]]}}