{"type": "Feature","bbox": [35.3606,-15.2516,35.4273,-15.2245],"geometry": {"type": "MultiPolygon","coordinates": [[[[35.4273,-15.2268,686.8888],[35.4173,-15.2256,695.6216],[35.4112,-15.2276,697.7426],[35.4078,-15.2245,703.1697],[35.3936,-15.2309,720.8857],[35.3744,-15.2327,753.0653],[35.3723,-15.2337,765.7682],[35.374,-15.2356,754.6085],[35.3606,-15.239,828.7592],[35.3613,-15.2444,837.9418],[35.3673,-15.2516,851.5712],[35.3742,-15.2464,763.0546],[35.3758,-15.2431,753.1777],[35.3794,-15.2418,749.5882],[35.3944,-15.2467,717.3675],[35.3924,-15.2442,728.5072],[35.3979,-15.2313,712.7585],[35.4036,-15.2309,707.7546],[35.4118,-15.2328,710.5441],[35.4171,-15.237,694.6608],[35.4219,-15.2379,685.089],[35.4218,-15.2361,689.6695],[35.4253,-15.2351,682.2177],[35.427,-15.2327,682.3397],[35.4273,-15.2268,686.8888]]]]}
,"properties": {"GID_3": "MWI.28.6.6_1","GID_0": "MWI","country": "Malawi","GID_1": "MWI.28_1","province": "Zomba","NL_NAME_1": "NA","GID_2": "MWI.28.6_1","county": "TAMalemia","NL_NAME_2": "NA","city": "n.a.(2071)","VARNAME_3": "NA","NL_NAME_3": "NA","TYPE_3": "Unknown","ENGTYPE_3": "Unknown","CC_3": "NA","HASC_3": "NA","name": "n.a.(2071).city","area_km2": 7.384963,"hist_schema_id": "Elevation0-9000","hist_area_km2": {"675": 0.286405,"700": 2.229871,"725": 1.657016,"750": 1.554712,"775": 0.675063,"800": 0.450039,"825": 0.42958,"850": 0.102279}}}