{"type":"Feature","properties":{"GID_3":"MWI.28.5.19_1","GID_0":"MWI","country":"Malawi","GID_1":"MWI.28_1","province":"Zomba","NL_NAME_1":"NA","GID_2":"MWI.28.5_1","county":"TAKuntumanji","NL_NAME_2":"NA","city":"n.a.(2140)","VARNAME_3":"NA","NL_NAME_3":"NA","TYPE_3":"Unknown","ENGTYPE_3":"Unknown","CC_3":"NA","HASC_3":"NA","name":"n.a.(2140).city"},
"geometry":{"type": "MultiPolygon","coordinates": [[[[35.5738,-15.3555,622.5],[35.5657,-15.3572,622.5],[35.558,-15.3612,622.5],[35.5282,-15.3676,624.6077],[35.5144,-15.3642,630.8838],[35.5148,-15.3698,631.6714],[35.5131,-15.3744,638.2482],[35.5015,-15.3793,657.2659],[35.5116,-15.3884,848.083],[35.5136,-15.3935,934.0223],[35.5192,-15.4004,694.7051],[35.5387,-15.3934,632.3969],[35.5575,-15.3842,628.5306],[35.562,-15.3761,626.3849],[35.5856,-15.3642,622.5],[35.5865,-15.362,622.5],[35.5847,-15.3567,622.5],[35.5794,-15.3577,622.5],[35.5738,-15.3555,622.5]]]]}}