{"type":"Feature","properties":{"GID_3":"MWI.11.2.9_1","GID_0":"MWI","country":"Malawi","GID_1":"MWI.11_1","province":"Lilongwe","NL_NAME_1":"NA","GID_2":"MWI.11.2_1","county":"SCChitekwele","NL_NAME_2":"NA","city":"n.a.(1110)","VARNAME_3":"NA","NL_NAME_3":"NA","TYPE_3":"Unknown","ENGTYPE_3":"Unknown","CC_3":"NA","HASC_3":"NA","name":"n.a.(1110).city"},
"geometry":{"type": "MultiPolygon","coordinates": [[[[34.1492,-14.0245,1070.3678],[34.1532,-14.024,1060.835],[34.1621,-14.0267,1031.2814],[34.1683,-14.0237,1026.5573],[34.1773,-13.9986,969.7823],[34.179,-13.9883,942.4178],[34.1831,-13.9851,914.3647],[34.1892,-13.9728,876.2141],[34.182,-13.9709,949.8236],[34.1692,-13.9733,1054.879],[34.1635,-13.9844,1051.6229],[34.1602,-13.9862,1089.7704],[34.1485,-13.9879,1124.2429],[34.1479,-13.9912,1152.7087],[34.1444,-13.9943,1144.7152],[34.1396,-13.9941,1096.5781],[34.1354,-13.9918,1065.5115],[34.1337,-13.9886,1057.1927],[34.1305,-13.9905,1058.0767],[34.1261,-14.0003,1093.4578],[34.1272,-14.0082,1129.6868],[34.122,-14.0103,1123.7041],[34.1197,-14.0174,1151.048],[34.1237,-14.0185,1145.3696],[34.1349,-14.0261,1130.9369],[34.1357,-14.0295,1093.0345],[34.1417,-14.0319,1068.5424],[34.1456,-14.0258,1070.9205],[34.1492,-14.0245,1070.3678]]]]}}