{"type": "Feature","bbox": [35.1808,-16.7248,35.2451,-16.6591],"geometry": {"type": "MultiPolygon","coordinates": [[[[35.1808,-16.703,130.225],[35.1981,-16.7193,126.7273],[35.2057,-16.7247,120.979],[35.2067,-16.7232,121.0703],[35.2321,-16.7248,88.3761],[35.2416,-16.7135,74.9153],[35.2324,-16.7004,70.0577],[35.2365,-16.6945,59.9025],[35.2397,-16.6829,48.503],[35.2451,-16.6763,41.6323],[35.2446,-16.6749,43.983],[35.2366,-16.6699,43.5454],[35.2307,-16.6591,43.0705],[35.2182,-16.6686,51.3238],[35.2097,-16.6708,61.6153],[35.2036,-16.688,86.7346],[35.1988,-16.6956,97.4241],[35.1896,-16.6982,114.054],[35.1808,-16.703,130.225]]]]}
,"properties": {"GID_3": "MWI.21.11.2_1","GID_0": "MWI","country": "Malawi","GID_1": "MWI.21_1","province": "Nsanje","NL_NAME_1": "NA","GID_2": "MWI.21.11_1","county": "TATengani","NL_NAME_2": "NA","city": "n.a.(3088)","VARNAME_3": "NA","NL_NAME_3": "NA","TYPE_3": "Unknown","ENGTYPE_3": "Unknown","CC_3": "NA","HASC_3": "NA","name": "n.a.(3088).city","area_km2": 27.29432,"hist_schema_id": "Elevation0-9000","hist_area_km2": {"50": 6.92586,"75": 8.89503,"100": 7.77759,"125": 3.69584}}}