{"type": "Feature","bbox": [33.5724,-13.221,33.6642,-13.1363],"geometry": {"type": "MultiPolygon","coordinates": [[[[33.6642,-13.202,1042.6827],[33.6522,-13.1873,1074.8933],[33.6203,-13.1565,1137.0911],[33.6185,-13.1472,1125.5042],[33.6221,-13.1363,1126.7438],[33.5847,-13.1499,1100.6311],[33.5746,-13.1575,1088.5212],[33.5724,-13.1686,1093.9878],[33.577,-13.1755,1080.7972],[33.5806,-13.1767,1077.3264],[33.5863,-13.1833,1084.1302],[33.5881,-13.1898,1065.2378],[33.6006,-13.1922,1070.8909],[33.604,-13.1944,1077.4076],[33.609,-13.2012,1060.4395],[33.6095,-13.2081,1053.4584],[33.6143,-13.2077,1068.7275],[33.6206,-13.2104,1072.0936],[33.6291,-13.2165,1057.8892],[33.6389,-13.221,1052.5779],[33.6487,-13.2159,1048.0154],[33.6561,-13.2064,1052.801],[33.6642,-13.202,1042.6827]]]]}
,"properties": {"GID_3": "MWI.9.3.7_1","GID_0": "MWI","country": "Malawi","GID_1": "MWI.9_1","province": "Kasungu","NL_NAME_1": "NA","GID_2": "MWI.9.3_1","county": "SCChilowamatambe","NL_NAME_2": "NA","city": "n.a.(508)","VARNAME_3": "NA","NL_NAME_3": "NA","TYPE_3": "Unknown","ENGTYPE_3": "Unknown","CC_3": "NA","HASC_3": "NA","name": "n.a.(508).city","area_km2": 44.54909,"hist_schema_id": "Elevation0-9000","hist_area_km2": {"1050": 2.53887,"1075": 14.86256,"1100": 18.00169,"1125": 8.19628,"1150": 0.9497}}}