{"type": "Feature","bbox": [35.4833,-15.4412,35.5137,-15.4063],"geometry": {"type": "MultiPolygon","coordinates": [[[[35.4918,-15.4097,671.0989],[35.4833,-15.44,681.4188],[35.4975,-15.4412,663.2919],[35.5023,-15.4385,660.8301],[35.5087,-15.4306,660.0486],[35.5136,-15.4277,656.859],[35.5118,-15.427,662.2064],[35.511,-15.4233,662.5536],[35.5083,-15.4232,663.8847],[35.5082,-15.4194,663.1526],[35.5137,-15.4086,653.6519],[35.5077,-15.4063,659.3679],[35.5003,-15.4097,666.213],[35.4918,-15.4097,671.0989]]]]}
,"properties": {"GID_3": "MWI.28.8.13_1","GID_0": "MWI","country": "Malawi","GID_1": "MWI.28_1","province": "Zomba","NL_NAME_1": "NA","GID_2": "MWI.28.8_1","county": "TAMwambo","NL_NAME_2": "NA","city": "n.a.(2180)","VARNAME_3": "NA","NL_NAME_3": "NA","TYPE_3": "Unknown","ENGTYPE_3": "Unknown","CC_3": "NA","HASC_3": "NA","name": "n.a.(2180).city","area_km2": 8.134541,"hist_schema_id": "Elevation0-9000","hist_area_km2": {"650": 1.635087,"675": 6.499454}}}