{"type": "Feature","bbox": [35.4343,-14.9013,35.4864,-14.8695],"geometry": {"type": "MultiPolygon","coordinates": [[[[35.4751,-14.8775,577.7247],[35.4726,-14.875,577.934],[35.4637,-14.8755,566.2654],[35.45,-14.8703,550.3848],[35.4434,-14.8695,543.037],[35.4389,-14.8885,540.6952],[35.4343,-14.8991,535.0225],[35.4385,-14.8975,539.402],[35.4466,-14.8976,543.4489],[35.4547,-14.9013,550.3531],[35.4609,-14.9013,556.313],[35.4665,-14.9003,565.7086],[35.4727,-14.8967,576.7524],[35.4756,-14.8977,580.1877],[35.4836,-14.8961,626.5887],[35.4864,-14.894,631.6842],[35.4797,-14.8873,602.019],[35.4751,-14.8775,577.7247]]]]}
,"properties": {"GID_3": "MWI.12.13.10_1","GID_0": "MWI","country": "Malawi","GID_1": "MWI.12_1","province": "Machinga","NL_NAME_1": "NA","GID_2": "MWI.12.13_1","county": "TALiwonde","NL_NAME_2": "NA","city": "n.a.(1881)","VARNAME_3": "NA","NL_NAME_3": "NA","TYPE_3": "Unknown","ENGTYPE_3": "Unknown","CC_3": "NA","HASC_3": "NA","name": "n.a.(1881).city","area_km2": 12.396775,"hist_schema_id": "Elevation0-9000","hist_area_km2": {"525": 0.061469,"550": 7.745425,"575": 3.729298,"600": 0.676173,"625": 0.184409}}}