{"type":"Feature","properties":{"GID_3":"MWI.28.7.39_1","GID_0":"MWI","country":"Malawi","GID_1":"MWI.28_1","province":"Zomba","NL_NAME_1":"NA","GID_2":"MWI.28.7_1","county":"TAMlumbe","NL_NAME_2":"NA","city":"n.a.(2201)","VARNAME_3":"NA","NL_NAME_3":"NA","TYPE_3":"Unknown","ENGTYPE_3":"Unknown","CC_3":"NA","HASC_3":"NA","name":"n.a.(2201).city"},
"geometry":{"type": "MultiPolygon","coordinates": [[[[35.2176,-15.439,1135.189],[35.2163,-15.4379,1116.2928],[35.2108,-15.4383,1121.4773],[35.201,-15.4338,1116.5714],[35.1914,-15.4359,793.3835],[35.1929,-15.4441,1030.2744],[35.1921,-15.4495,1000.9756],[35.1986,-15.4607,1158.5848],[35.2064,-15.46,1140.4297],[35.2087,-15.4627,1128.386],[35.2092,-15.4673,1128.2664],[35.2118,-15.4687,1131.1887],[35.224,-15.4678,1075.8158],[35.2258,-15.4615,1072.283],[35.2242,-15.4602,1082.3975],[35.2297,-15.4492,1075.3906],[35.2299,-15.4478,1091.3237],[35.2261,-15.4476,1087.2461],[35.2161,-15.452,1157.0942],[35.2176,-15.439,1135.189]]]]}}