{"type":"Feature","properties":{"GID_3":"MWI.22.7.3_1","GID_0":"MWI","country":"Malawi","GID_1":"MWI.22_1","province":"Ntcheu","NL_NAME_1":"NA","GID_2":"MWI.22.7_1","county":"TAMasasa","NL_NAME_2":"NA","city":"n.a.(1574)","VARNAME_3":"NA","NL_NAME_3":"NA","TYPE_3":"Unknown","ENGTYPE_3":"Unknown","CC_3":"NA","HASC_3":"NA","name":"n.a.(1574).city"},
"geometry":{"type": "MultiPolygon","coordinates": [[[[34.4474,-14.4078,1442.4194],[34.4447,-14.4054,1471.5155],[34.4402,-14.4052,1476.3806],[34.4392,-14.4077,1465.1001],[34.4407,-14.4136,1471.2102],[34.4387,-14.4162,1478.6379],[34.4252,-14.4152,1487.6957],[34.4156,-14.4103,1519.0693],[34.4001,-14.412,1568.5327],[34.4024,-14.4179,1538.6141],[34.4181,-14.4287,1540.5151],[34.4197,-14.4403,1558.1251],[34.4215,-14.4412,1544.8792],[34.4293,-14.4595,1500.9781],[34.4366,-14.464,1530.177],[34.4432,-14.4726,1513.5173],[34.4476,-14.4678,1454.7832],[34.4518,-14.4661,1395.9604],[34.4533,-14.4589,1387.7437],[34.4572,-14.4543,1343.9432],[34.4636,-14.452,1263.5686],[34.462,-14.4427,1530.2418],[34.4569,-14.4352,1645.5952],[34.4547,-14.4285,1570.882],[34.4528,-14.4273,1625.2803],[34.457,-14.4235,1527.5859],[34.4576,-14.4175,1388.246],[34.4518,-14.4145,1421.4937],[34.4474,-14.4078,1442.4194]]]]}}