{"type": "Feature","bbox": [33.028,-13.8372,33.0486,-13.8241],"geometry": {"type": "MultiPolygon","coordinates": [[[[33.028,-13.8285,1114.2831],[33.0293,-13.8305,1111.5447],[33.0353,-13.8325,1131.3556],[33.0415,-13.8325,1133.3188],[33.0463,-13.8372,1134.4355],[33.0486,-13.8348,1139.5201],[33.0418,-13.8293,1138.8845],[33.0442,-13.825,1138.1167],[33.0356,-13.8259,1141.6903],[33.0301,-13.8241,1129.4855],[33.028,-13.8285,1114.2831]]]]}
,"properties": {"GID_3": "MWI.14.7.19_1","GID_0": "MWI","country": "Malawi","GID_1": "MWI.14_1","province": "Mchinji","NL_NAME_1": "NA","GID_2": "MWI.14.7_1","county": "TAZulu","NL_NAME_2": "NA","city": "n.a.(982)","VARNAME_3": "NA","NL_NAME_3": "NA","TYPE_3": "Unknown","ENGTYPE_3": "Unknown","CC_3": "NA","HASC_3": "NA","name": "n.a.(982).city","area_km2": 1.35878,"hist_schema_id": "Elevation0-9000","hist_area_km2": {"1125": 0.905853,"1150": 0.452928}}}