{"type":"Feature","properties":{"GID_3":"MWI.28.5.17_1","GID_0":"MWI","country":"Malawi","GID_1":"MWI.28_1","province":"Zomba","NL_NAME_1":"NA","GID_2":"MWI.28.5_1","county":"TAKuntumanji","NL_NAME_2":"NA","city":"n.a.(2137)","VARNAME_3":"NA","NL_NAME_3":"NA","TYPE_3":"Unknown","ENGTYPE_3":"Unknown","CC_3":"NA","HASC_3":"NA","name":"n.a.(2137).city"},
"geometry":{"type": "MultiPolygon","coordinates": [[[[35.4988,-15.355,641.5838],[35.4952,-15.3646,645.3468],[35.492,-15.3648,651.6185],[35.4908,-15.3681,654.4329],[35.4882,-15.3692,669.7804],[35.4851,-15.3735,665.2904],[35.4874,-15.3758,669.1609],[35.488,-15.3812,674.4542],[35.4955,-15.379,669.1379],[35.5015,-15.3793,657.2659],[35.5131,-15.3744,638.2482],[35.5148,-15.3698,631.6714],[35.5144,-15.3642,630.8838],[35.5282,-15.3676,624.6077],[35.5136,-15.3598,633.1775],[35.5111,-15.357,638.1443],[35.5108,-15.3542,634.1439],[35.5066,-15.3524,636.4609],[35.4988,-15.355,641.5838]]]]}}