{"type":"Feature","properties":{"GID_3":"MWI.8.7.7_1","GID_0":"MWI","country":"Malawi","GID_1":"MWI.8_1","province":"Karonga","NL_NAME_1":"NA","GID_2":"MWI.8.7_1","county":"TAKyungu","NL_NAME_2":"NA","city":"n.a.(59)","VARNAME_3":"NA","NL_NAME_3":"NA","TYPE_3":"Unknown","ENGTYPE_3":"Unknown","CC_3":"NA","HASC_3":"NA","name":"n.a.(59).city"},
"geometry":{"type": "MultiPolygon","coordinates": [[[[33.9447,-9.9028,475.9972],[33.9414,-9.9018,476.2094],[33.9388,-9.8975,476.5494],[33.939,-9.8921,474.5],[33.9331,-9.8949,476.0728],[33.9278,-9.8924,474.5],[33.9222,-9.8836,476.4311],[33.9131,-9.8912,479.7122],[33.9134,-9.8947,483.3058],[33.9086,-9.8994,484.8014],[33.908,-9.9027,486.711],[33.9029,-9.906,485.9084],[33.9031,-9.9167,487.9001],[33.9073,-9.9239,486.4962],[33.9447,-9.9028,475.9972]]]]}}