{"type": "Feature","bbox": [33.3821,-13.9945,33.4638,-13.9508],"geometry": {"type": "MultiPolygon","coordinates": [[[[33.3876,-13.9853,1149.0469],[33.4003,-13.9925,1170.5304],[33.4146,-13.9792,1165.5416],[33.4336,-13.9857,1186.9932],[33.4496,-13.9945,1220.8619],[33.4493,-13.9886,1219.4011],[33.4518,-13.9782,1224.7448],[33.4596,-13.9664,1209.4712],[33.4633,-13.9647,1202.2469],[33.4638,-13.9514,1198.6758],[33.4578,-13.9508,1206.6228],[33.451,-13.9527,1214.5164],[33.444,-13.9653,1218.2373],[33.4313,-13.9702,1202.1045],[33.4245,-13.9688,1187.2705],[33.4152,-13.964,1178.6638],[33.4055,-13.9671,1166.1025],[33.3946,-13.9671,1166.2131],[33.3884,-13.9639,1154.0574],[33.3839,-13.9589,1148.3594],[33.3821,-13.9668,1153.9207],[33.3867,-13.9713,1160.0015],[33.3865,-13.9742,1158.9587],[33.3884,-13.9773,1158.3535],[33.3876,-13.9853,1149.0469]]]]}
,"properties": {"GID_3": "MWI.11.11.14_1","GID_0": "MWI","country": "Malawi","GID_1": "MWI.11_1","province": "Lilongwe","NL_NAME_1": "NA","GID_2": "MWI.11.11_1","county": "TAKalolo","NL_NAME_2": "NA","city": "n.a.(1095)","VARNAME_3": "NA","NL_NAME_3": "NA","TYPE_3": "Unknown","ENGTYPE_3": "Unknown","CC_3": "NA","HASC_3": "NA","name": "n.a.(1095).city","area_km2": 19.11395,"hist_schema_id": "Elevation0-9000","hist_area_km2": {"1150": 2.83926,"1175": 6.50159,"1200": 5.37,"1225": 4.4031}}}