{"type":"Feature","properties":{"GID_3":"MWI.28.6.7_1","GID_0":"MWI","country":"Malawi","GID_1":"MWI.28_1","province":"Zomba","NL_NAME_1":"NA","GID_2":"MWI.28.6_1","county":"TAMalemia","NL_NAME_2":"NA","city":"n.a.(2075)","VARNAME_3":"NA","NL_NAME_3":"NA","TYPE_3":"Unknown","ENGTYPE_3":"Unknown","CC_3":"NA","HASC_3":"NA","name":"n.a.(2075).city"},
"geometry":{"type": "MultiPolygon","coordinates": [[[[35.3681,-15.2746,858.3483],[35.3758,-15.2708,782.1523],[35.3777,-15.2676,786.8557],[35.3885,-15.2594,760.7615],[35.4044,-15.255,703.8774],[35.4085,-15.2584,711.2266],[35.4118,-15.257,697.2612],[35.414,-15.2544,692.0896],[35.4126,-15.2521,702.9129],[35.4164,-15.2479,690.5952],[35.4173,-15.2433,688.7155],[35.4137,-15.244,696.4096],[35.4104,-15.2424,699.6489],[35.41,-15.233,710.8329],[35.4036,-15.2309,707.7546],[35.3979,-15.2313,712.7585],[35.3924,-15.2442,728.5072],[35.3944,-15.2467,717.3675],[35.3823,-15.242,743.9949],[35.3758,-15.2431,753.1777],[35.3742,-15.2464,763.0546],[35.3673,-15.2516,851.5712],[35.369,-15.2598,868.5728],[35.367,-15.2678,876.7222],[35.3681,-15.2746,858.3483]]]]}}