{"type":"Feature","properties":{"GID_2":"MWI.2.2_1","GID_0":"MWI","country":"Malawi","GID_1":"MWI.2_1","province":"Blantyre","NL_NAME_1":"NA","county":"TAChigaru","VARNAME_2":"NA","NL_NAME_2":"NA","TYPE_2":"TraditionalAuthority","ENGTYPE_2":"TraditionalAuthority","CC_2":"NA","HASC_2":"NA","name":"T_A_Chigaru.county"},
"geometry":{"type": "MultiPolygon","coordinates": [[[[34.9608,-15.5094,511.4014],[34.9625,-15.5103,516.704],[34.9619,-15.5122,519.4675],[34.9666,-15.5131,519.9096],[34.9699,-15.5104,534.0368],[34.9735,-15.5116,525.8133],[34.9738,-15.5134,524.5394],[34.9813,-15.5134,545.0867],[34.9837,-15.5149,540.3972],[34.9869,-15.5136,544.9618],[34.987,-15.5154,539.9347],[34.9915,-15.5184,546.3047],[34.9971,-15.5177,558.7234],[35.0002,-15.5208,554.8172],[35.0068,-15.5204,562.1902],[35.0098,-15.5261,574.2269],[35.0114,-15.5271,566.174],[35.0137,-15.5259,577.1072],[35.0177,-15.5297,585.4524],[35.0197,-15.5161,587.9033],[35.0224,-15.5152,593.8069],[35.0242,-15.512,588.9177],[35.0225,-15.4949,574.0706],[35.0164,-15.4665,539.5868],[35.0219,-15.442,516.3638],[35.0112,-15.4144,498.6263],[35.0072,-15.4103,496.3654],[35.0059,-15.406,493.6244],[35.0063,-15.3654,473.8811],[35.0044,-15.3633,472.5297],[35.0039,-15.3556,469.0667],[35.001,-15.3528,469.0848],[34.9962,-15.3512,469.5975],[34.9912,-15.3513,469.8361],[34.988,-15.355,469.5692],[34.9849,-15.3555,469.6517],[34.9681,-15.3488,469.063],[34.9621,-15.3512,468.7742],[34.9537,-15.349,470.903],[34.9461,-15.3561,474.2451],[34.931,-15.3573,477.4476],[34.9246,-15.3595,473.5322],[34.92,-15.3709,465.2215],[34.9111,-15.3834,461.1807],[34.9073,-15.3864,464.0493],[34.9029,-15.3864,464.5439],[34.9004,-15.3898,461.0956],[34.8967,-15.3899,449.207],[34.8939,-15.3926,447.0121],[34.8912,-15.3997,429.9924],[34.8878,-15.403,424.1766],[34.8816,-15.4138,438.3622],[34.8841,-15.4187,411.5623],[34.8714,-15.4393,402.1372],[34.8648,-15.4392,408.4358],[34.8635,-15.4477,394.7705],[34.8666,-15.4512,407.0992],[34.8659,-15.4551,387.4403],[34.8597,-15.467,385.9895],[34.8586,-15.4772,394.5671],[34.8513,-15.4837,392.9929],[34.8549,-15.4867,383.2198],[34.8612,-15.4988,395.0841],[34.863,-15.4988,406.8699],[34.8659,-15.4949,436.7308],[34.8677,-15.4946,427.6958],[34.8748,-15.4994,435.7369],[34.8791,-15.4973,455.0155],[34.8828,-15.4983,435.1482],[34.8909,-15.5082,437.8491],[34.8946,-15.5096,445.4436],[34.9013,-15.5107,455.9287],[34.9086,-15.5088,455.3486],[34.9121,-15.5134,453.4532],[34.9104,-15.5164,460.2856],[34.9161,-15.5188,462.5989],[34.921,-15.5256,478.2883],[34.9254,-15.5236,488.4321],[34.9318,-15.5249,486.2632],[34.9359,-15.5231,498.4339],[34.9389,-15.525,491.3557],[34.9425,-15.5191,512.2593],[34.9452,-15.5192,500.2802],[34.9459,-15.5174,502.2366],[34.9485,-15.5181,500.1329],[34.9499,-15.5148,505.8649],[34.9525,-15.5158,504.9562],[34.9538,-15.5135,509.4169],[34.9563,-15.5142,505.9189],[34.9581,-15.5073,514.7614],[34.9608,-15.5094,511.4014]]]]}}