{"type": "Feature","bbox": [35.5902,-14.376,35.6053,-14.3664],"geometry": {"type": "MultiPolygon","coordinates": [[[[35.6017,-14.376,789.2122],[35.6053,-14.3735,785.8748],[35.603,-14.3695,788.2804],[35.5902,-14.3664,824.1044],[35.5921,-14.3721,821.2381],[35.6017,-14.376,789.2122]]]]}
,"properties": {"GID_3": "MWI.13.9.21_1","GID_0": "MWI","country": "Malawi","GID_1": "MWI.13_1","province": "Mangochi","NL_NAME_1": "NA","GID_2": "MWI.13.9_1","county": "TAJalasi","NL_NAME_2": "NA","city": "n.a.(1535)","VARNAME_3": "NA","NL_NAME_3": "NA","TYPE_3": "Unknown","ENGTYPE_3": "Unknown","CC_3": "NA","HASC_3": "NA","name": "n.a.(1535).city","area_km2": 0.9037053,"hist_schema_id": "Elevation0-9000","hist_area_km2": {"775": 0.1026923,"800": 0.5956235,"825": 0.2053894}}}