{"type": "Feature","bbox": [34.4294,-16.0181,34.4819,-15.9426],"geometry": {"type": "MultiPolygon","coordinates": [[[[34.4683,-16.0181,208.5647],[34.4747,-16.014,187.0787],[34.4781,-16.0097,184.9541],[34.4759,-16.0036,187.08],[34.4771,-15.9965,193.0665],[34.4711,-15.9922,190.2838],[34.4747,-15.9815,213.6159],[34.4736,-15.9794,216.6651],[34.4819,-15.9678,275.0166],[34.4689,-15.9563,230.5931],[34.4645,-15.9553,235.1479],[34.4555,-15.9426,270.0681],[34.4533,-15.9438,222.19],[34.4529,-15.9479,219.3138],[34.4514,-15.9468,224.0317],[34.4464,-15.949,220.6194],[34.4421,-15.9481,207.1533],[34.4317,-15.9552,233.2859],[34.4421,-15.9624,219.4031],[34.4449,-15.9681,217.7534],[34.438,-15.974,215.3122],[34.4374,-15.9787,204.6138],[34.4345,-15.9801,204.7937],[34.4346,-15.984,203.0899],[34.4316,-15.9859,211.0275],[34.4294,-15.9991,234.4153],[34.4683,-16.0181,208.5647]],
[[34.4644,-15.9694,218.9209],[34.467,-15.9692,221.1304],[34.4673,-15.9706,218.7276],[34.4629,-15.9861,194.2856],[34.451,-15.9823,195.3974],[34.4491,-15.9769,198.3083],[34.4542,-15.9669,203.0984],[34.4644,-15.9694,218.9209]]]]}
,"properties": {"GID_3": "MWI.3.5.11_1","GID_0": "MWI","country": "Malawi","GID_1": "MWI.3_1","province": "Chikwawa","NL_NAME_1": "NA","GID_2": "MWI.3.5_1","county": "TAChapananga","NL_NAME_2": "NA","city": "n.a.(2698)","VARNAME_3": "NA","NL_NAME_3": "NA","TYPE_3": "Unknown","ENGTYPE_3": "Unknown","CC_3": "NA","HASC_3": "NA","name": "n.a.(2698).city","area_km2": 25.86559,"hist_schema_id": "Elevation0-9000","hist_area_km2": {"175": 0.71331,"200": 13.28907,"225": 11.06822,"250": 0.77461,"275": 0.02038}}}