{"type": "Feature","bbox": [35.4529,-15.0256,35.5054,-14.9639],"geometry": {"type": "MultiPolygon","coordinates": [[[[35.5054,-14.9694,691.1621],[35.496,-14.9654,666.1531],[35.4751,-14.9693,631.6583],[35.4639,-14.9639,576.8971],[35.4602,-14.9737,571.2426],[35.4529,-14.9842,568.8931],[35.4557,-14.9837,575.8557],[35.4581,-14.9803,579.6733],[35.462,-14.9802,585.2228],[35.464,-14.9828,599.9623],[35.4676,-14.9838,596.8077],[35.4681,-14.9865,621.465],[35.4661,-14.9907,623.9318],[35.4693,-14.9908,605.0111],[35.4611,-14.9991,654.5634],[35.4663,-15.0107,677.1804],[35.4574,-15.025,752.9824],[35.4654,-15.0256,715.3599],[35.4691,-15.0241,704.0643],[35.4895,-14.9973,680.599],[35.4844,-14.9944,654.5225],[35.4838,-14.9867,638.9535],[35.4812,-14.9813,647.0681],[35.4821,-14.9796,644.7801],[35.4851,-14.977,652.0236],[35.4919,-14.9756,664.5312],[35.4974,-14.9723,673.6895],[35.5,-14.9762,679.2388],[35.5054,-14.9694,691.1621]]]]}
,"properties": {"GID_3": "MWI.12.13.19_1","GID_0": "MWI","country": "Malawi","GID_1": "MWI.12_1","province": "Machinga","NL_NAME_1": "NA","GID_2": "MWI.12.13_1","county": "TALiwonde","NL_NAME_2": "NA","city": "n.a.(1945)","VARNAME_3": "NA","NL_NAME_3": "NA","TYPE_3": "Unknown","ENGTYPE_3": "Unknown","CC_3": "NA","HASC_3": "NA","name": "n.a.(1945).city","area_km2": 14.95092,"hist_schema_id": "Elevation0-9000","hist_area_km2": {"550": 0.02048,"575": 0.88073,"600": 1.96623,"625": 2.72403,"650": 3.78902,"675": 3.56354,"700": 1.51542,"725": 0.43003,"750": 0.06143}}}