{"type":"Feature","properties":{"GID_3":"MWI.1.3.13_1","GID_0":"MWI","country":"Malawi","GID_1":"MWI.1_1","province":"Balaka","NL_NAME_1":"NA","GID_2":"MWI.1.3_1","county":"TANsamala","NL_NAME_2":"NA","city":"n.a.(1943)","VARNAME_3":"NA","NL_NAME_3":"NA","TYPE_3":"Unknown","ENGTYPE_3":"Unknown","CC_3":"NA","HASC_3":"NA","name":"n.a.(1943).city"},
"geometry":{"type": "MultiPolygon","coordinates": [[[[35.0378,-14.9618,656.6813],[35.0176,-14.9598,615.889],[35.0036,-14.9673,603.1919],[34.9991,-14.9672,601.5408],[35.0013,-14.9699,600.1302],[34.9998,-14.9731,599.4662],[35.0018,-14.9758,598.8778],[35.0009,-14.9775,598.7698],[34.9984,-14.9775,598.1705],[34.9953,-14.9834,595.3184],[34.9961,-14.9869,593.521],[34.993,-14.9887,594.2694],[34.9957,-14.9946,591.0891],[34.9934,-14.9973,591.4699],[34.9992,-15.0023,587.6521],[35.0007,-15.0009,589.2339],[35.0096,-15.0018,586.0415],[35.0124,-14.9933,592.3955],[35.0238,-14.9865,610.1865],[35.0313,-14.9847,645.9575],[35.039,-14.9873,657.321],[35.0399,-14.9829,657.6033],[35.037,-14.9736,664.9041],[35.0387,-14.9634,661.4231],[35.0378,-14.9618,656.6813]]]]}}