{"type":"Feature","properties":{"GID_3":"MWI.28.7.10_1","GID_0":"MWI","country":"Malawi","GID_1":"MWI.28_1","province":"Zomba","NL_NAME_1":"NA","GID_2":"MWI.28.7_1","county":"TAMlumbe","NL_NAME_2":"NA","city":"n.a.(2100)","VARNAME_3":"NA","NL_NAME_3":"NA","TYPE_3":"Unknown","ENGTYPE_3":"Unknown","CC_3":"NA","HASC_3":"NA","name":"n.a.(2100).city"},
"geometry":{"type": "MultiPolygon","coordinates": [[[[35.0807,-15.3002,475.2893],[35.0785,-15.3079,472.1996],[35.114,-15.3292,499.9347],[35.117,-15.3202,492.7896],[35.1206,-15.3161,497.2537],[35.1203,-15.3107,498.7874],[35.1232,-15.2994,499.8889],[35.1168,-15.2983,489.5836],[35.1083,-15.3018,491.0047],[35.0994,-15.2928,472.2869],[35.0961,-15.2956,472.1963],[35.0886,-15.2946,471.1669],[35.0855,-15.2985,472.5696],[35.0807,-15.3002,475.2893]]]]}}