{"type":"Feature","properties":{"GID_3":"MWI.6.6.9_1","GID_0":"MWI","country":"Malawi","GID_1":"MWI.6_1","province":"Dedza","NL_NAME_1":"NA","GID_2":"MWI.6.6_1","county":"TAKachindamoto","NL_NAME_2":"NA","city":"n.a.(1359)","VARNAME_3":"NA","NL_NAME_3":"NA","TYPE_3":"Unknown","ENGTYPE_3":"Unknown","CC_3":"NA","HASC_3":"NA","name":"n.a.(1359).city"},
"geometry":{"type": "MultiPolygon","coordinates": [[[[34.577,-14.2145,489.27],[34.5436,-14.217,510.8141],[34.5286,-14.2019,507.4005],[34.5223,-14.2027,513.3076],[34.5203,-14.2057,515.2216],[34.5154,-14.2082,518.0634],[34.5286,-14.2424,534.3625],[34.5144,-14.25,556.1678],[34.514,-14.2583,561.7148],[34.5261,-14.2616,542.024],[34.5272,-14.2697,542.5691],[34.5339,-14.2645,533.9204],[34.5455,-14.2587,522.6768],[34.5581,-14.2558,517.9711],[34.567,-14.2724,513.0636],[34.576,-14.2697,507.2408],[34.5809,-14.2735,507.7592],[34.5839,-14.2736,505.1625],[34.593,-14.267,502.4283],[34.5942,-14.2605,498.6433],[34.5997,-14.2604,497.8956],[34.6118,-14.2513,490.9386],[34.6067,-14.246,493.3409],[34.603,-14.2392,489.3522],[34.6009,-14.2285,488.1254],[34.5842,-14.2097,487.1365],[34.581,-14.2099,489.0195],[34.5804,-14.2137,490.0242],[34.577,-14.2145,489.27]]]]}}