{"type": "Feature","bbox": [33.1059,-13.2944,33.2087,-13.2173],"geometry": {"type": "MultiPolygon","coordinates": [[[[33.1075,-13.2388,1072.7197],[33.1059,-13.2546,1061.3098],[33.1104,-13.2722,1059.2247],[33.1097,-13.2884,1053.9893],[33.1103,-13.2934,1052.3549],[33.112,-13.2944,1052.3549],[33.1234,-13.2919,1063.376],[33.1452,-13.2816,1079.6461],[33.1551,-13.2834,1074.4589],[33.166,-13.2811,1065.5598],[33.1794,-13.2751,1057.8219],[33.1914,-13.2665,1064.5364],[33.2087,-13.2576,1053.3264],[33.1969,-13.2499,1055.5906],[33.1914,-13.2436,1056.1294],[33.1794,-13.22,1058.0598],[33.1794,-13.2173,1062.6198],[33.1641,-13.2189,1073.4192],[33.1591,-13.2223,1071.8931],[33.1457,-13.2211,1083.3293],[33.1401,-13.227,1087.3647],[33.136,-13.2259,1088.0807],[33.1267,-13.2273,1099.0675],[33.1147,-13.2358,1083.6216],[33.1075,-13.2388,1072.7197]]]]}
,"properties": {"GID_3": "MWI.9.5.5_1","GID_0": "MWI","country": "Malawi","GID_1": "MWI.9_1","province": "Kasungu","NL_NAME_1": "NA","GID_2": "MWI.9.5_1","county": "SCKawamba","NL_NAME_2": "NA","city": "n.a.(533)","VARNAME_3": "NA","NL_NAME_3": "NA","TYPE_3": "Unknown","ENGTYPE_3": "Unknown","CC_3": "NA","HASC_3": "NA","name": "n.a.(533).city","area_km2": 59.22938,"hist_schema_id": "Elevation0-9000","hist_area_km2": {"1050": 7.18177,"1075": 35.35165,"1100": 16.69596}}}