{"type":"Feature","properties":{"GID_3":"MWI.28.2.43_1","GID_0":"MWI","country":"Malawi","GID_1":"MWI.28_1","province":"Zomba","NL_NAME_1":"NA","GID_2":"MWI.28.2_1","county":"SCMbiza","NL_NAME_2":"NA","city":"n.a.(2406)","VARNAME_3":"NA","NL_NAME_3":"NA","TYPE_3":"Unknown","ENGTYPE_3":"Unknown","CC_3":"NA","HASC_3":"NA","name":"n.a.(2406).city"},
"geometry":{"type": "MultiPolygon","coordinates": [[[[35.3241,-15.6791,773.4555],[35.3297,-15.6835,769.4388],[35.335,-15.6815,764.6678],[35.3431,-15.683,760.9229],[35.3419,-15.6795,773.122],[35.3372,-15.6762,775.7543],[35.3371,-15.6736,775.8359],[35.3395,-15.6695,774.393],[35.3498,-15.6668,765.9523],[35.3436,-15.6643,770.8505],[35.3475,-15.6591,766.0327],[35.3399,-15.659,776.4821],[35.3383,-15.6531,781.4562],[35.3364,-15.6515,780.46],[35.343,-15.6405,759.4958],[35.3344,-15.6412,774.5604],[35.3283,-15.6454,780.6539],[35.3226,-15.6457,785.7938],[35.3214,-15.6471,790.5605],[35.3202,-15.6517,792.6763],[35.3265,-15.655,789.8218],[35.3271,-15.6585,786.2203],[35.3244,-15.6636,786.1993],[35.3197,-15.6668,793.3218],[35.3208,-15.6703,791.4545],[35.3173,-15.674,778.2588],[35.3183,-15.6768,781.902],[35.3241,-15.6791,773.4555]]]]}}