{"type":"Feature","properties":{"GID_3":"MWI.7.5.16_1","GID_0":"MWI","country":"Malawi","GID_1":"MWI.7_1","province":"Dowa","NL_NAME_1":"NA","GID_2":"MWI.7.5_1","county":"SCMkukula","NL_NAME_2":"NA","city":"n.a.(877)","VARNAME_3":"NA","NL_NAME_3":"NA","TYPE_3":"Unknown","ENGTYPE_3":"Unknown","CC_3":"NA","HASC_3":"NA","name":"n.a.(877).city"},
"geometry":{"type": "MultiPolygon","coordinates": [[[[34.0244,-13.743,1283.4572],[34.03,-13.7489,1241.446],[34.0311,-13.7703,1118.6831],[34.0393,-13.7791,1081.9946],[34.0438,-13.7805,1076.8809],[34.0459,-13.7785,1078.5549],[34.0523,-13.78,1071.0049],[34.0535,-13.7766,1086.7422],[34.0528,-13.7692,1134.2224],[34.0547,-13.7672,1125.3224],[34.0626,-13.772,1075.2396],[34.079,-13.7749,1022.2081],[34.08,-13.7733,993.0028],[34.0755,-13.7675,1004.8438],[34.0652,-13.7642,1067.1903],[34.0626,-13.7557,1084.2764],[34.0635,-13.7522,1092.5825],[34.0573,-13.7478,1126.2737],[34.0528,-13.7357,1153.9697],[34.0507,-13.7243,1216.8293],[34.0469,-13.7208,1233.666],[34.0377,-13.7241,1236.3947],[34.0336,-13.7222,1246.6602],[34.0277,-13.7304,1266.719],[34.0244,-13.743,1283.4572]]]]}}