{"type":"Feature","properties":{"GID_3":"MWI.6.4.13_1","GID_0":"MWI","country":"Malawi","GID_1":"MWI.6_1","province":"Dedza","NL_NAME_1":"NA","GID_2":"MWI.6.4_1","county":"SCChilikumwendo","NL_NAME_2":"NA","city":"n.a.(1503)","VARNAME_3":"NA","NL_NAME_3":"NA","TYPE_3":"Unknown","ENGTYPE_3":"Unknown","CC_3":"NA","HASC_3":"NA","name":"n.a.(1503).city"},
"geometry":{"type": "MultiPolygon","coordinates": [[[[33.9569,-14.3476,1213.1581],[33.9569,-14.3495,1207.1185],[33.9543,-14.3501,1201.1782],[33.9554,-14.3528,1206.3331],[33.9604,-14.354,1209.1423],[33.956,-14.355,1216.6658],[33.9587,-14.3643,1228.1693],[33.9603,-14.3656,1228.9431],[33.9659,-14.3636,1225.5902],[33.9706,-14.3741,1237.877],[33.978,-14.3748,1245.1443],[33.9829,-14.3774,1254.9939],[33.9913,-14.375,1248.095],[33.9942,-14.3699,1255.8099],[34.0065,-14.3596,1295.6732],[34.011,-14.3512,1268.0664],[33.9998,-14.3517,1274.3101],[33.9907,-14.3449,1256.0686],[33.9777,-14.3404,1240.4373],[33.9686,-14.3414,1225.4381],[33.9671,-14.3442,1221.6259],[33.9644,-14.3448,1219.0948],[33.9672,-14.3453,1223.7635],[33.9684,-14.3475,1228.7166],[33.9638,-14.3477,1215.4158],[33.9617,-14.3518,1205.5544],[33.9592,-14.3482,1206.4409],[33.9569,-14.3476,1213.1581]]]]}}