{"type":"Feature","properties":{"GID_3":"MWI.3.7.6_1","GID_0":"MWI","country":"Malawi","GID_1":"MWI.3_1","province":"Chikwawa","NL_NAME_1":"NA","GID_2":"MWI.3.7_1","county":"TAKatunga","NL_NAME_2":"NA","city":"n.a.(2929)","VARNAME_3":"NA","NL_NAME_3":"NA","TYPE_3":"Unknown","ENGTYPE_3":"Unknown","CC_3":"NA","HASC_3":"NA","name":"n.a.(2929).city"},
"geometry":{"type": "MultiPolygon","coordinates": [[[[34.7183,-16.1698,107.9575],[34.7235,-16.1694,107.8063],[34.7255,-16.1661,107.7187],[34.7325,-16.167,106.6152],[34.735,-16.1657,104.3246],[34.7359,-16.1624,105.6362],[34.7335,-16.1557,103.4132],[34.7352,-16.1538,103.3011],[34.746,-16.1569,101.484],[34.7603,-16.1536,100.5965],[34.7614,-16.1554,96.7462],[34.7609,-16.1607,98.2725],[34.766,-16.1633,96.8685],[34.7683,-16.163,96.596],[34.772,-16.1529,96.8268],[34.7724,-16.1367,94.6146],[34.7407,-16.1325,112.8885],[34.7365,-16.1297,116.2902],[34.7229,-16.1273,127.3107],[34.7061,-16.1338,163.8742],[34.7031,-16.1445,143.566],[34.7041,-16.1466,113.4597],[34.7011,-16.149,114.4684],[34.7066,-16.1523,113.3144],[34.7126,-16.1519,115.9951],[34.7149,-16.1579,112.0452],[34.7115,-16.163,110.172],[34.7183,-16.1698,107.9575]]]]}}