{"type":"Feature","properties":{"GID_3":"MWI.18.3.4_1","GID_0":"MWI","country":"Malawi","GID_1":"MWI.18_1","province":"Neno","NL_NAME_1":"NA","GID_2":"MWI.18.3_1","county":"TAMlauli","NL_NAME_2":"NA","city":"n.a.(2247)","VARNAME_3":"NA","NL_NAME_3":"NA","TYPE_3":"Unknown","ENGTYPE_3":"Unknown","CC_3":"NA","HASC_3":"NA","name":"n.a.(2247).city"},
"geometry":{"type": "MultiPolygon","coordinates": [[[[34.5842,-15.5959,381.2087],[34.5865,-15.5944,407.4891],[34.5904,-15.5953,403.1622],[34.5981,-15.593,449.6171],[34.6088,-15.5832,509.0599],[34.6218,-15.5803,552.0674],[34.6298,-15.5744,515.256],[34.6372,-15.5787,479.9896],[34.6428,-15.5779,479.8996],[34.6445,-15.581,466.1286],[34.6518,-15.5791,446.6724],[34.6513,-15.5655,476.2528],[34.6562,-15.5514,538.6043],[34.6558,-15.5475,620.7784],[34.6627,-15.5386,612.0126],[34.6621,-15.5282,674.417],[34.6688,-15.5196,659.4634],[34.6601,-15.518,651.048],[34.6711,-15.4977,697.9113],[34.6676,-15.4888,742.341],[34.6409,-15.4954,602.3892],[34.6303,-15.5014,549.8732],[34.6214,-15.4928,653.7484],[34.6158,-15.4907,663.187],[34.6031,-15.4893,621.0125],[34.6019,-15.4875,607.9913],[34.6021,-15.4911,615.6928],[34.5978,-15.4933,609.8909],[34.5978,-15.496,595.1827],[34.5951,-15.4986,593.3976],[34.5927,-15.5089,533.7167],[34.5957,-15.5149,523.4609],[34.5956,-15.5196,495.1668],[34.6016,-15.5246,470.1812],[34.6011,-15.5284,469.8596],[34.5969,-15.5322,469.2728],[34.5994,-15.5386,454.5385],[34.5987,-15.5413,447.6844],[34.5917,-15.5389,466.7756],[34.5828,-15.5424,472.1718],[34.5668,-15.5526,454.5995],[34.5698,-15.5611,415.955],[34.5703,-15.5684,411.8953],[34.5681,-15.5713,408.8163],[34.5701,-15.5782,401.8101],[34.5762,-15.5804,405.0303],[34.5788,-15.5867,390.926],[34.5824,-15.5867,393.9399],[34.5842,-15.5959,381.2087]]]]}}