{"type":"Feature","properties":{"GID_3":"MWI.18.4.6_1","GID_0":"MWI","country":"Malawi","GID_1":"MWI.18_1","province":"Neno","NL_NAME_1":"NA","GID_2":"MWI.18.4_1","county":"TANgozi","NL_NAME_2":"NA","city":"n.a.(2171)","VARNAME_3":"NA","NL_NAME_3":"NA","TYPE_3":"Unknown","ENGTYPE_3":"Unknown","CC_3":"NA","HASC_3":"NA","name":"n.a.(2171).city"},
"geometry":{"type": "MultiPolygon","coordinates": [[[[34.6008,-15.4297,761.4019],[34.6021,-15.4337,761.3311],[34.5992,-15.436,766.5443],[34.6042,-15.4456,679.0587],[34.6036,-15.4511,682.9264],[34.5958,-15.4538,679.0163],[34.5949,-15.4554,661.5209],[34.5967,-15.4583,653.907],[34.6458,-15.4584,707.5202],[34.6663,-15.449,670.693],[34.6685,-15.446,731.8239],[34.6882,-15.4425,600.8367],[34.6944,-15.4383,575.3923],[34.6926,-15.4363,619.6018],[34.6917,-15.4287,657.2753],[34.6954,-15.4029,686.9785],[34.6941,-15.402,692.0653],[34.6721,-15.4093,794.0879],[34.6672,-15.4154,798.1624],[34.6557,-15.4041,887.73],[34.6529,-15.398,905.7487],[34.6487,-15.3991,889.5975],[34.6445,-15.396,865.2433],[34.6403,-15.4071,831.4173],[34.6438,-15.4084,815.9244],[34.6474,-15.4138,773.7592],[34.6455,-15.418,748.8494],[34.6416,-15.4205,747.6165],[34.6251,-15.4229,728.5223],[34.6156,-15.4162,706.0977],[34.6054,-15.4159,823.7084],[34.6008,-15.4297,761.4019]]]]}}