{"type": "Feature","bbox": [33.7656,-12.8374,33.8256,-12.7539],"geometry": {"type": "MultiPolygon","coordinates": [[[[33.8179,-12.8117,1006.8066],[33.8135,-12.8051,1024.5929],[33.8159,-12.804,997.0935],[33.816,-12.7966,989.2075],[33.8196,-12.7878,983.1641],[33.819,-12.7774,990.3736],[33.8211,-12.7756,972.9971],[33.821,-12.7711,991.0607],[33.8256,-12.7683,960.9553],[33.822,-12.7626,1007.9287],[33.8225,-12.7584,974.5874],[33.8168,-12.7539,924.7998],[33.8138,-12.7561,1005.6537],[33.8117,-12.7608,993.9146],[33.8044,-12.7606,1036.8462],[33.7963,-12.7758,1126.5481],[33.7972,-12.7863,1028.936],[33.7949,-12.7892,1052.3428],[33.7875,-12.7917,1060.1776],[33.7848,-12.7945,1041.3301],[33.7834,-12.8105,1080.0781],[33.7802,-12.8137,1058.3453],[33.7768,-12.8123,1045.2092],[33.773,-12.8007,1012.3698],[33.7674,-12.8133,1072.8656],[33.7656,-12.825,1048.3499],[33.7694,-12.8303,1057.8854],[33.778,-12.8305,1061.2917],[33.7923,-12.8374,1103.0587],[33.7957,-12.8373,1102.7427],[33.8039,-12.8311,1058.7415],[33.8117,-12.8278,1037.989],[33.8125,-12.825,1033.8298],[33.8157,-12.8232,1028.3492],[33.8189,-12.8184,1023.9047],[33.8158,-12.8146,1021.2079],[33.8179,-12.8117,1006.8066]]]]}
,"properties": {"GID_3": "MWI.9.16.2_1","GID_0": "MWI","country": "Malawi","GID_1": "MWI.9_1","province": "Kasungu","NL_NAME_1": "NA","GID_2": "MWI.9.16_1","county": "TAWimbe","NL_NAME_2": "NA","city": "n.a.(400)","VARNAME_3": "NA","NL_NAME_3": "NA","TYPE_3": "Unknown","ENGTYPE_3": "Unknown","CC_3": "NA","HASC_3": "NA","name": "n.a.(400).city","area_km2": 29.35872,"hist_schema_id": "Elevation0-9000","hist_area_km2": {"925": 0.12407,"950": 0.74442,"975": 1.73692,"1000": 3.22555,"1025": 4.59001,"1050": 6.9261,"1075": 7.79424,"1100": 2.52219,"1125": 1.38513,"1150": 0.31009}}}