{"type":"Feature","properties":{"GID_3":"MWI.11.8.37_1","GID_0":"MWI","country":"Malawi","GID_1":"MWI.11_1","province":"Lilongwe","NL_NAME_1":"NA","GID_2":"MWI.11.8_1","county":"TAChiseka","NL_NAME_2":"NA","city":"n.a.(1385)","VARNAME_3":"NA","NL_NAME_3":"NA","TYPE_3":"Unknown","ENGTYPE_3":"Unknown","CC_3":"NA","HASC_3":"NA","name":"n.a.(1385).city"},
"geometry":{"type": "MultiPolygon","coordinates": [[[[33.6971,-14.2453,1140.4026],[33.6941,-14.2476,1147.088],[33.6932,-14.2504,1139.8097],[33.6899,-14.2517,1147.186],[33.6932,-14.2599,1149.1792],[33.6992,-14.2626,1161.9006],[33.7023,-14.2684,1172.4949],[33.6957,-14.2834,1187.6787],[33.7079,-14.2842,1183.0734],[33.712,-14.2815,1176.406],[33.719,-14.284,1160.1696],[33.7227,-14.2819,1156.4497],[33.729,-14.2709,1142.9114],[33.7291,-14.2624,1138.3258],[33.7254,-14.2564,1148.0769],[33.7214,-14.2556,1131.8215],[33.7205,-14.2495,1127.4014],[33.7215,-14.2477,1140.9203],[33.7179,-14.2425,1127.6056],[33.7161,-14.2312,1129.5513],[33.7093,-14.227,1120.9565],[33.7084,-14.2346,1127.9001],[33.6971,-14.2453,1140.4026]]]]}}