{"type": "Feature","bbox": [34.5756,-15.1869,34.6427,-15.1413],"geometry": {"type": "MultiPolygon","coordinates": [[[[34.6239,-15.1716,1505.8312],[34.6256,-15.1787,1543.5164],[34.6221,-15.1819,1507.144],[34.6136,-15.1836,1591.4021],[34.6071,-15.1815,1569.7333],[34.6104,-15.185,1623.6949],[34.6166,-15.1869,1597.7695],[34.6419,-15.1845,1487.7639],[34.6427,-15.1776,1438.3621],[34.6407,-15.1701,1439.3558],[34.6304,-15.1703,1477.9512],[34.6266,-15.1725,1505.5625],[34.6239,-15.1716,1505.8312]]],
[[[34.5774,-15.1473,1580.0739],[34.5776,-15.1517,1591.8226],[34.5815,-15.1611,1646.7377],[34.5765,-15.1624,1637.5289],[34.5756,-15.1652,1654.7343],[34.5828,-15.1811,1684.8071],[34.5869,-15.1817,1707.9792],[34.588,-15.1849,1700.4836],[34.5941,-15.1853,1616.0869],[34.599,-15.1821,1560.4731],[34.6071,-15.1815,1569.7333],[34.5982,-15.1751,1550.3104],[34.5961,-15.1681,1546.4192],[34.6139,-15.1661,1540.0778],[34.6191,-15.1682,1540.4911],[34.6208,-15.1628,1533.6392],[34.6249,-15.1579,1479.7773],[34.6229,-15.1541,1448.512],[34.6161,-15.1586,1519.5151],[34.6124,-15.1575,1505.4191],[34.6131,-15.1413,1446.9933],[34.605,-15.1485,1477.516],[34.5932,-15.1448,1543.6343],[34.5922,-15.1509,1535.3871],[34.5878,-15.1479,1540.1958],[34.5774,-15.1473,1580.0739]]]]}
,"properties": {"GID_3": "MWI.22.8.13_1","GID_0": "MWI","country": "Malawi","GID_1": "MWI.22_1","province": "Ntcheu","NL_NAME_1": "NA","GID_2": "MWI.22.8_1","county": "TAMpando","NL_NAME_2": "NA","city": "n.a.(2043)","VARNAME_3": "NA","NL_NAME_3": "NA","TYPE_3": "Unknown","ENGTYPE_3": "Unknown","CC_3": "NA","HASC_3": "NA","name": "n.a.(2043).city","area_km2": 16.94397,"hist_schema_id": "Elevation0-9000","hist_area_km2": {"1425": 0.22509,"1450": 1.39157,"1475": 2.06687,"1500": 3.13098,"1525": 2.88539,"1550": 2.21008,"1575": 1.73941,"1600": 0.7776,"1625": 0.79807,"1650": 0.73668,"1675": 0.3888,"1700": 0.30694,"1725": 0.18417,"1750": 0.10231}}}