{"type": "Feature","bbox": [35.1517,-15.0417,35.2187,-15.005],"geometry": {"type": "MultiPolygon","coordinates": [[[[35.1517,-15.0166,538.4827],[35.1637,-15.0213,525.0611],[35.1812,-15.0324,505.567],[35.1843,-15.0348,502.0294],[35.1832,-15.036,502.0294],[35.1841,-15.0377,501.4831],[35.1928,-15.0379,496.6355],[35.1947,-15.0417,494.3635],[35.1962,-15.0388,494.7324],[35.1988,-15.0386,490.5928],[35.2006,-15.0352,491.5019],[35.2156,-15.0341,480.7709],[35.2156,-15.0245,482.5194],[35.2187,-15.0172,482.1254],[35.2061,-15.0162,491.1696],[35.198,-15.005,498.7412],[35.183,-15.0056,507.5228],[35.1753,-15.0084,515.0961],[35.1759,-15.0113,515.7952],[35.1616,-15.0164,528.9008],[35.1517,-15.0166,538.4827]]]]}
,"properties": {"GID_3": "MWI.1.2.35_1","GID_0": "MWI","country": "Malawi","GID_1": "MWI.1_1","province": "Balaka","NL_NAME_1": "NA","GID_2": "MWI.1.2_1","county": "TAKalembo","NL_NAME_2": "NA","city": "n.a.(1973)","VARNAME_3": "NA","NL_NAME_3": "NA","TYPE_3": "Unknown","ENGTYPE_3": "Unknown","CC_3": "NA","HASC_3": "NA","name": "n.a.(1973).city","area_km2": 14.60058,"hist_schema_id": "Elevation0-9000","hist_area_km2": {"475": 1.92487,"500": 10.40266,"525": 2.27306}}}