{"type": "Feature","bbox": [33.9645,-14.3397,34.0247,-14.2956],"geometry": {"type": "MultiPolygon","coordinates": [[[[33.9822,-14.2958,1235.2662],[33.9783,-14.2956,1229.15],[33.9764,-14.3028,1219.9591],[33.973,-14.3036,1217.7688],[33.9762,-14.3043,1221.0321],[33.9756,-14.3063,1225.2976],[33.9726,-14.3067,1221.6057],[33.9755,-14.3075,1225.2976],[33.9752,-14.309,1221.7343],[33.9645,-14.317,1215.6938],[33.9735,-14.3212,1230.9043],[33.9759,-14.3199,1232.874],[34.0031,-14.32,1231.3787],[34.0019,-14.323,1237.0533],[34.0037,-14.3262,1240.7935],[34.0089,-14.3276,1233.2622],[34.0054,-14.3294,1239.3462],[34.0112,-14.3393,1243.9451],[34.0158,-14.3397,1262.0319],[34.0201,-14.3372,1273.5171],[34.0247,-14.3223,1250.4365],[34.0238,-14.3138,1245.5017],[34.0197,-14.3066,1234.2928],[34.0204,-14.3035,1231.3939],[33.9822,-14.2958,1235.2662]]]]}
,"properties": {"GID_3": "MWI.6.4.6_1","GID_0": "MWI","country": "Malawi","GID_1": "MWI.6_1","province": "Dedza","NL_NAME_1": "NA","GID_2": "MWI.6.4_1","county": "SCChilikumwendo","NL_NAME_2": "NA","city": "n.a.(1456)","VARNAME_3": "NA","NL_NAME_3": "NA","TYPE_3": "Unknown","ENGTYPE_3": "Unknown","CC_3": "NA","HASC_3": "NA","name": "n.a.(1456).city","area_km2": 15.92158,"hist_schema_id": "Elevation0-9000","hist_area_km2": {"1225": 8.66964,"1250": 7.0876,"1275": 0.16434}}}