{"type":"Feature","properties":{"GID_3":"MWI.11.14.15_1","GID_0":"MWI","country":"Malawi","GID_1":"MWI.11_1","province":"Lilongwe","NL_NAME_1":"NA","GID_2":"MWI.11.14_1","county":"TAKhongoni","NL_NAME_2":"NA","city":"n.a.(853)","VARNAME_3":"NA","NL_NAME_3":"NA","TYPE_3":"Unknown","ENGTYPE_3":"Unknown","CC_3":"NA","HASC_3":"NA","name":"n.a.(853).city"},
"geometry":{"type": "MultiPolygon","coordinates": [[[[33.3623,-13.7147,1098.9087],[33.3454,-13.7276,1105.1166],[33.3449,-13.7374,1090.8584],[33.3477,-13.7416,1090.2412],[33.35,-13.7416,1094.9376],[33.3556,-13.7376,1104.0027],[33.3714,-13.7374,1112.5311],[33.3787,-13.7317,1120.8855],[33.3863,-13.7301,1127.3135],[33.3908,-13.7309,1129.5967],[33.3977,-13.7276,1129.6985],[33.407,-13.728,1149.4099],[33.4137,-13.7046,1126.146],[33.4049,-13.6989,1114.2397],[33.3932,-13.6986,1106.7786],[33.385,-13.7007,1100.0817],[33.3708,-13.7108,1096.4619],[33.3623,-13.7147,1098.9087]]]]}}