{"type": "Feature","bbox": [33.9771,-12.3217,34.0378,-12.2215],"geometry": {"type": "MultiPolygon","coordinates": [[[[34.031,-12.2991,477.538],[34.0257,-12.2987,481.3464],[34.0166,-12.3064,485.5014],[34.0179,-12.3146,506.0844],[34.0258,-12.3217,535.4411],[34.0329,-12.3192,521.2917],[34.0378,-12.3128,479.6067],[34.031,-12.2991,477.538]]],
[[[33.9809,-12.2295,490.3344],[33.9811,-12.2334,496.7601],[33.9771,-12.2473,534.9928],[33.9963,-12.2491,489.7412],[33.9979,-12.2383,482.8252],[33.9964,-12.2325,488.7175],[33.9976,-12.2241,490.5735],[33.9903,-12.2215,486.8487],[33.9869,-12.2244,494.27],[33.9831,-12.224,491.1969],[33.9809,-12.2295,490.3344]]]]}
,"properties": {"GID_3": "MWI.20.4.3_1","GID_0": "MWI","country": "Malawi","GID_1": "MWI.20_1","province": "Nkhotakota","NL_NAME_1": "NA","GID_2": "MWI.20.4_1","county": "SCKafuzila","NL_NAME_2": "NA","city": "n.a.(316)","VARNAME_3": "NA","NL_NAME_3": "NA","TYPE_3": "Unknown","ENGTYPE_3": "Unknown","CC_3": "NA","HASC_3": "NA","name": "n.a.(316).city","area_km2": 8.991623,"hist_schema_id": "Elevation0-9000","hist_area_km2": {"475": 1.885325,"500": 4.93104,"525": 2.133829,"550": 0.041428}}}