{"type":"Feature","properties":{"GID_3":"MWI.13.13.10_1","GID_0":"MWI","country":"Malawi","GID_1":"MWI.13_1","province":"Mangochi","NL_NAME_1":"NA","GID_2":"MWI.13.13_1","county":"TANankumba","NL_NAME_2":"NA","city":"n.a.(1368)","VARNAME_3":"NA","NL_NAME_3":"NA","TYPE_3":"Unknown","ENGTYPE_3":"Unknown","CC_3":"NA","HASC_3":"NA","name":"n.a.(1368).city"},
"geometry":{"type": "MultiPolygon","coordinates": [[[[35.0657,-14.2094,474.5],[35.062,-14.2119,478.2315],[35.0584,-14.2222,486.5749],[35.0496,-14.2272,491.0845],[35.0692,-14.2473,491.6332],[35.0782,-14.2468,485.4077],[35.0835,-14.2403,478.0922],[35.0827,-14.2298,479.705],[35.0772,-14.2149,474.9613],[35.0705,-14.2146,475.1897],[35.0657,-14.2094,474.5]]]]}}