{"type": "Feature","bbox": [35.0555,-15.2562,35.1137,-15.2082],"geometry": {"type": "MultiPolygon","coordinates": [[[[35.0837,-15.2082,488.8937],[35.0789,-15.2108,494.6281],[35.0753,-15.2176,494.1096],[35.063,-15.2204,504.5795],[35.0573,-15.2274,500.5825],[35.0555,-15.2322,495.3085],[35.0651,-15.2562,489.6326],[35.0734,-15.25,493.3828],[35.0907,-15.2445,486.2022],[35.1065,-15.2454,482.267],[35.1137,-15.2484,475.8684],[35.1136,-15.2445,479.136],[35.1071,-15.2403,480.1974],[35.1061,-15.2349,482.4657],[35.0993,-15.237,481.7135],[35.0932,-15.2301,484.9796],[35.086,-15.227,484.7206],[35.0881,-15.2193,490.4797],[35.0823,-15.2104,492.684],[35.0837,-15.2082,488.8937]]]]}
,"properties": {"GID_3": "MWI.1.3.46_1","GID_0": "MWI","country": "Malawi","GID_1": "MWI.1_1","province": "Balaka","NL_NAME_1": "NA","GID_2": "MWI.1.3_1","county": "TANsamala","NL_NAME_2": "NA","city": "n.a.(2064)","VARNAME_3": "NA","NL_NAME_3": "NA","TYPE_3": "Unknown","ENGTYPE_3": "Unknown","CC_3": "NA","HASC_3": "NA","name": "n.a.(2064).city","area_km2": 14.40183,"hist_schema_id": "Elevation0-9000","hist_area_km2": {"475": 3.7027,"500": 10.69913}}}