{"type": "Feature","bbox": [33.6317,-12.2375,33.8453,-11.8934],"geometry": {"type": "MultiPolygon","coordinates": [[[[33.6449,-12.0172,1515.5004],[33.6317,-12.0388,1572.2679],[33.6336,-12.0515,1599.5504],[33.6464,-12.0531,1605.0947],[33.6516,-12.0589,1616.7778],[33.664,-12.0671,1649.7352],[33.6667,-12.0725,1645.9053],[33.6665,-12.0757,1649.4907],[33.6566,-12.0864,1618.7456],[33.655,-12.0929,1595.0035],[33.6478,-12.103,1565.3037],[33.6469,-12.1134,1569.1603],[33.6527,-12.1202,1564.2471],[33.6568,-12.1316,1609.7244],[33.6541,-12.1444,1577.6122],[33.6575,-12.1566,1562.9604],[33.6576,-12.1633,1539.4955],[33.654,-12.1737,1513.0129],[33.6555,-12.1783,1474.6155],[33.6528,-12.1806,1475.8129],[33.6531,-12.1864,1470.1104],[33.6649,-12.1831,1496.7509],[33.6772,-12.176,1537.3005],[33.6801,-12.1752,1543.5018],[33.6817,-12.1764,1542.5557],[33.684,-12.1845,1508.1963],[33.6808,-12.1911,1496.3549],[33.6835,-12.1985,1479.5339],[33.6858,-12.2145,1465.6903],[33.6916,-12.2248,1448.5178],[33.7028,-12.2323,1439.8352],[33.7063,-12.2366,1450.019],[33.7099,-12.2375,1435.394],[33.7184,-12.2353,1434.6702],[33.7289,-12.2279,1444.4285],[33.7324,-12.2295,1422.155],[33.7409,-12.2296,1418.6426],[33.7446,-12.2273,1393.6442],[33.75,-12.2266,1408.2509],[33.7545,-12.2286,1386.7758],[33.7659,-12.2238,1394.3088],[33.7717,-12.223,1388.6226],[33.7733,-12.2176,1389.999],[33.7833,-12.2086,1343.2393],[33.7878,-12.208,1340.5347],[33.7965,-12.2017,1304.7007],[33.7981,-12.1953,1343.0637],[33.8078,-12.1905,1295.9244],[33.8156,-12.1895,1232.4541],[33.8264,-12.1755,1215.6139],[33.8257,-12.171,1183.174],[33.8232,-12.1663,1207.6808],[33.8076,-12.1513,1206.031],[33.8026,-12.1315,1243.1042],[33.787,-12.1069,1390.7144],[33.783,-12.0978,1575.321],[33.7768,-12.0624,1747.5089],[33.7839,-12.0534,1756.3201],[33.7922,-12.0491,1762.272],[33.7992,-12.0325,1726.0359],[33.8034,-12.0277,1805.1879],[33.8074,-12.0267,1808.3252],[33.8142,-12.0279,1754.0776],[33.82,-12.0238,1714.7107],[33.8341,-12.0246,1893.9316],[33.8443,-12.0213,1882.6538],[33.8453,-12.0175,1926.9863],[33.8413,-12.0135,1882.8187],[33.8413,-12.0083,1869.3279],[33.8381,-12.0057,1840.2622],[33.8342,-12.0056,1815.1577],[33.8258,-12.0087,1788.903],[33.8175,-12.0079,1734.3827],[33.8155,-12.0022,1754.6384],[33.8099,-11.9945,1726.9474],[33.7995,-11.9916,1722.6899],[33.7937,-11.9809,1765.072],[33.787,-11.9773,1765.7327],[33.7875,-11.9738,1793.6968],[33.7954,-11.9716,1816.068],[33.8017,-11.9648,1784.6661],[33.8056,-11.9529,1762.7146],[33.8039,-11.9493,1744.6287],[33.7979,-11.9439,1773.1135],[33.7924,-11.9332,1738.0891],[33.792,-11.9284,1756.0734],[33.7945,-11.9241,1745.2941],[33.7924,-11.92,1756.8698],[33.7938,-11.9135,1716.9202],[33.7896,-11.909,1694.1733],[33.7885,-11.9042,1667.915],[33.782,-11.9011,1672.717],[33.7781,-11.8934,1682.0205],[33.7748,-11.8994,1658.0149],[33.7702,-11.926,1664.2998],[33.7679,-11.9305,1657.885],[33.7889,-11.9446,1637.3691],[33.7901,-11.947,1649.4103],[33.7875,-11.9501,1663.9412],[33.7784,-11.9542,1583.366],[33.7659,-11.963,1503.8513],[33.7614,-11.9738,1514.5596],[33.7555,-11.9829,1481.3268],[33.749,-11.9796,1517.322],[33.7454,-11.9872,1460.2983],[33.7437,-11.9848,1469.6526],[33.7399,-11.9843,1473.9984],[33.7298,-11.9882,1439.7886],[33.7249,-11.9924,1449.4097],[33.7158,-11.9952,1431.5247],[33.7065,-11.9933,1417.9561],[33.701,-11.9957,1399.1942],[33.6959,-12.0005,1454.1908],[33.6945,-12.0062,1448.3157],[33.6909,-12.01,1420.994],[33.6935,-12.0185,1456.2485],[33.6899,-12.0286,1521.7981],[33.6819,-12.0358,1485.7771],[33.6708,-12.0298,1527.9143],[33.6715,-12.024,1428.4878],[33.6673,-12.0181,1433.5049],[33.6449,-12.0172,1515.5004]]]]}
,"properties": {"GID_3": "MWI.17.11.3_1","GID_0": "MWI","country": "Malawi","GID_1": "MWI.17_1","province": "Mzimba","NL_NAME_1": "NA","GID_2": "MWI.17.11_1","county": "TAMzikubola","NL_NAME_2": "NA","city": "n.a.(281)","VARNAME_3": "NA","NL_NAME_3": "NA","TYPE_3": "Unknown","ENGTYPE_3": "Unknown","CC_3": "NA","HASC_3": "NA","name": "n.a.(281).city","area_km2": 419.4381,"hist_schema_id": "Elevation0-9000","hist_area_km2": {"1175": 0.2902,"1200": 1.513,"1225": 3.026,"1250": 4.0209,"1275": 4.8707,"1300": 4.8914,"1325": 4.7257,"1350": 4.7048,"1375": 5.0779,"1400": 5.8446,"1425": 10.1359,"1450": 18.5103,"1475": 26.056,"1500": 31.0325,"1525": 35.1586,"1550": 37.129,"1575": 37.9803,"1600": 40.5102,"1625": 37.588,"1650": 31.4939,"1675": 23.5131,"1700": 16.4435,"1725": 11.737,"1750": 10.099,"1775": 5.8066,"1800": 3.7744,"1825": 1.5761,"1850": 1.0991,"1875": 0.6221,"1900": 0.2074}}}