{"type": "Feature","bbox": [34.0032,-14.0319,34.2779,-13.7967],"geometry": {"type": "MultiPolygon","coordinates": [[[[34.1463,-14.0254,1070.9205],[34.1524,-14.0239,1060.835],[34.1629,-14.0267,1031.2814],[34.1686,-14.0231,1026.5573],[34.1773,-13.9986,969.7823],[34.179,-13.9883,942.4178],[34.1831,-13.9851,914.3647],[34.1892,-13.9728,876.2141],[34.1951,-13.9692,853.4339],[34.2026,-13.9536,837.2509],[34.2072,-13.9351,854.4247],[34.2033,-13.934,786.8179],[34.2006,-13.9379,793.255],[34.1998,-13.9352,798.3834],[34.2023,-13.9316,851.2759],[34.2078,-13.928,790.1859],[34.2139,-13.9317,768.5115],[34.218,-13.9303,816.099],[34.221,-13.9363,798.3668],[34.2237,-13.9357,759.09],[34.226,-13.9278,854.6025],[34.2239,-13.9213,730.5581],[34.2327,-13.9185,765.5853],[34.242,-13.9,711.5817],[34.2488,-13.9002,732.9259],[34.2531,-13.8964,674.1277],[34.2583,-13.8986,679.8969],[34.2626,-13.897,655.5743],[34.263,-13.8934,656.1147],[34.2616,-13.8918,749.2711],[34.2761,-13.87,682.1559],[34.2779,-13.8599,665.9442],[34.2741,-13.8621,649.8908],[34.2665,-13.859,667.5219],[34.2632,-13.8605,676.6279],[34.2611,-13.8595,678.6836],[34.259,-13.8609,684.6383],[34.2603,-13.8642,695.6104],[34.2578,-13.8667,710.6499],[34.2557,-13.8666,754.446],[34.252,-13.8628,756.434],[34.2511,-13.8662,774.981],[34.2464,-13.8644,771.3096],[34.2401,-13.8699,787.376],[34.236,-13.8647,807.1018],[34.2287,-13.8715,858.5071],[34.2236,-13.8698,866.6102],[34.2172,-13.8791,889.2054],[34.207,-13.8874,949.6501],[34.2026,-13.8887,985.2582],[34.1994,-13.8875,992.6375],[34.1946,-13.88,1127.7144],[34.1903,-13.8812,1240.2463],[34.1858,-13.878,1273.4924],[34.2063,-13.8501,1158.1188],[34.2132,-13.847,1104.6544],[34.2151,-13.8432,1118.5077],[34.2208,-13.8396,1072.1855],[34.2234,-13.835,980.8197],[34.2286,-13.8335,961.8658],[34.2381,-13.8345,847.7509],[34.2368,-13.8283,799.5753],[34.2397,-13.8186,728.5263],[34.2318,-13.8124,677.356],[34.2351,-13.8012,621.8502],[34.233,-13.7994,664.7783],[34.2272,-13.803,634.1774],[34.2281,-13.8089,630.7318],[34.2145,-13.8181,647.064],[34.2104,-13.8189,670.33],[34.2078,-13.8177,689.0143],[34.2074,-13.8122,652.1833],[34.2,-13.8062,667.0334],[34.1742,-13.7967,708.4292],[34.1721,-13.7971,751.3547],[34.1646,-13.8062,724.7854],[34.1466,-13.8208,756.4434],[34.1345,-13.8194,810.6924],[34.1349,-13.8237,725.7137],[34.129,-13.8258,773.5649],[34.1257,-13.8338,751.9847],[34.1233,-13.8337,753.4778],[34.1215,-13.8281,768.7431],[34.1147,-13.831,805.6075],[34.1148,-13.8345,776.0189],[34.1119,-13.8405,875.2181],[34.0945,-13.8537,823.0242],[34.0909,-13.8531,831.1873],[34.0873,-13.8496,833.6205],[34.082,-13.8505,866.5792],[34.0808,-13.8539,862.21],[34.0821,-13.8605,817.5458],[34.0816,-13.8708,821.5841],[34.0744,-13.882,865.1092],[34.0668,-13.8823,946.5466],[34.0687,-13.8854,875.2291],[34.0677,-13.8902,848.1162],[34.0585,-13.8952,902.9619],[34.0558,-13.9008,899.2395],[34.0486,-13.9025,901.9348],[34.0471,-13.9084,875.1396],[34.0482,-13.9152,872.5029],[34.0468,-13.9178,872.9026],[34.0323,-13.9183,894.1343],[34.0274,-13.9139,984.5304],[34.0274,-13.9098,906.9316],[34.021,-13.9073,920.4609],[34.0126,-13.9128,940.0974],[34.0069,-13.9125,965.8586],[34.0032,-13.9174,919.39],[34.0183,-13.9347,1066.7887],[34.0204,-13.9404,1076.6376],[34.0196,-13.9478,1065.9602],[34.0209,-13.9535,1070.3469],[34.027,-13.9668,1090.797],[34.0368,-13.9765,1130.0311],[34.0397,-13.9763,1121.2067],[34.0477,-13.9694,1116.1034],[34.0514,-13.969,1135.0786],[34.0592,-13.9743,1152.3284],[34.064,-13.9851,1171.0762],[34.0707,-13.99,1209.5662],[34.0757,-13.9916,1211.3671],[34.0781,-13.9955,1225.3677],[34.0832,-13.998,1241.6334],[34.0868,-14.0029,1239.2102],[34.0929,-14.0074,1219.9354],[34.0972,-14.008,1201.9071],[34.1083,-14.0146,1175.3715],[34.1144,-14.015,1164.8389],[34.1237,-14.0185,1145.3696],[34.1349,-14.0261,1130.9369],[34.1351,-14.0291,1093.0345],[34.1417,-14.0319,1068.5424],[34.1463,-14.0254,1070.9205]]]]}
,"properties": {"GID_2": "MWI.11.2_1","GID_0": "MWI","country": "Malawi","GID_1": "MWI.11_1","province": "Lilongwe","NL_NAME_1": "NA","county": "SCChitekwele","VARNAME_2": "NA","NL_NAME_2": "NA","TYPE_2": "Sub-chief","ENGTYPE_2": "Sub-chief","CC_2": "NA","HASC_2": "NA","name": "S_C_Chitekwele.county","area_km2": 372.6222,"hist_schema_id": "Elevation0-9000","hist_area_km2": {"625": 0.6177,"650": 0.8235,"675": 1.9558,"700": 3.2116,"725": 4.2821,"750": 5.5378,"775": 6.9376,"800": 8.0079,"825": 8.5223,"850": 9.3248,"875": 11.1768,"900": 13.0291,"925": 15.1895,"950": 15.4978,"975": 15.7032,"1000": 15.8466,"1025": 19.9618,"1050": 23.3154,"1075": 23.1713,"1100": 26.3603,"1125": 27.7186,"1150": 21.8751,"1175": 20.6195,"1200": 20.2687,"1225": 19.5483,"1250": 14.8565,"1275": 6.5849,"1300": 3.4986,"1325": 2.5726,"1350": 1.9963,"1375": 1.1114,"1400": 1.0496,"1425": 0.6586,"1450": 0.6998,"1475": 0.4528,"1500": 0.3499,"1525": 0.2881}}}