{"type": "Feature","bbox": [35.2859,-15.8673,35.3183,-15.8314],"geometry": {"type": "MultiPolygon","coordinates": [[[[35.2942,-15.8314,773.1964],[35.291,-15.837,779.5099],[35.2865,-15.8387,787.457],[35.2859,-15.8451,783.686],[35.2989,-15.856,763.7729],[35.3004,-15.864,750.1598],[35.3117,-15.8673,741.8096],[35.3183,-15.867,732.2874],[35.317,-15.8504,743.9946],[35.3092,-15.8421,750.9633],[35.3039,-15.8329,768.1227],[35.3006,-15.8341,766.452],[35.2942,-15.8314,773.1964]]]]}
,"properties": {"GID_3": "MWI.4.3.24_1","GID_0": "MWI","country": "Malawi","GID_1": "MWI.4_1","province": "Chiradzulu","NL_NAME_1": "NA","GID_2": "MWI.4.3_1","county": "TAKadewere","NL_NAME_2": "NA","city": "n.a.(2595)","VARNAME_3": "NA","NL_NAME_3": "NA","TYPE_3": "Unknown","ENGTYPE_3": "Unknown","CC_3": "NA","HASC_3": "NA","name": "n.a.(2595).city","area_km2": 8.056472,"hist_schema_id": "Elevation0-9000","hist_area_km2": {"725": 0.367109,"750": 4.344294,"775": 3.100309,"800": 0.244761}}}