{"type": "Feature","bbox": [35.748,-15.7888,35.7876,-15.7693],"geometry": {"type": "MultiPolygon","coordinates": [[[[35.748,-15.7707,802.2032],[35.7551,-15.7793,781.2648],[35.7571,-15.7888,804.3779],[35.7876,-15.7753,691.8241],[35.7849,-15.7719,696.4098],[35.7759,-15.7722,705.0126],[35.7656,-15.778,719.1863],[35.7649,-15.775,731.7034],[35.762,-15.7742,735.21],[35.759,-15.7693,748.1505],[35.748,-15.7707,802.2032]]]]}
,"properties": {"GID_3": "MWI.24.3.19_1","GID_0": "MWI","country": "Malawi","GID_1": "MWI.24_1","province": "Phalombe","NL_NAME_1": "NA","GID_2": "MWI.24.3_1","county": "TANazombe","NL_NAME_2": "NA","city": "n.a.(2540)","VARNAME_3": "NA","NL_NAME_3": "NA","TYPE_3": "Unknown","ENGTYPE_3": "Unknown","CC_3": "NA","HASC_3": "NA","name": "n.a.(2540).city","area_km2": 3.856239,"hist_schema_id": "Elevation0-9000","hist_area_km2": {"700": 1.244617,"725": 0.938546,"750": 0.897751,"775": 0.632505,"800": 0.14282}}}