{"type": "Feature","bbox": [34.465,-13.9178,34.5794,-13.8082],"geometry": {"type": "MultiPolygon","coordinates": [[[[34.5589,-13.8672,481.2148],[34.5478,-13.8563,484.0921],[34.5328,-13.8258,490.072],[34.522,-13.8128,493.3891],[34.5126,-13.812,493.1489],[34.5086,-13.8132,495.7536],[34.5011,-13.8114,497.6414],[34.493899999999996,-13.8163,492.0582],[34.4861,-13.8129,497.1311],[34.4771,-13.8142,496.1699],[34.4761,-13.8096,495.7333],[34.4738,-13.8082,500.532],[34.4659,-13.8167,499.167],[34.4693,-13.826,498.3301],[34.471,-13.888,503.8449],[34.4706,-13.895,509.4385],[34.465,-13.9005,514.1042],[34.4697,-13.9118,516.2457],[34.4735,-13.9168,510.837],[34.4755,-13.9163,510.24],[34.4788,-13.9116,505.8798],[34.4872,-13.9152,503.047],[34.5051,-13.9044,493.2331],[34.5214,-13.9007,487.6497],[34.5358,-13.9036,481.1631],[34.5415,-13.9067,480.9393],[34.5443,-13.9115,479.9123],[34.5443,-13.9152,479.1453],[34.5542,-13.915,478.5862],[34.5631,-13.9178,476.3607],[34.5679,-13.9164,476.9467],[34.5726,-13.9109,477.3006],[34.573,-13.9068,477.5185],[34.5771,-13.8985,477.4443],[34.5794,-13.8838,477.1271],[34.5771,-13.8863,478.2662],[34.5779,-13.8799,477.9495],[34.5589,-13.8672,481.2148]]]]}
,"properties": {"GID_2": "MWI.26.11_1","GID_0": "MWI","country": "Malawi","GID_1": "MWI.26_1","province": "Salima","NL_NAME_1": "NA","county": "TAPemba","VARNAME_2": "NA","NL_NAME_2": "NA","TYPE_2": "TraditionalAuthority","ENGTYPE_2": "TraditionalAuthority","CC_2": "NA","HASC_2": "NA","name": "T_A_Pemba.county","area_km2": 99.36005,"hist_schema_id": "Elevation0-9000","hist_area_km2": {"475": 44.54183,"500": 53.8715,"525": 0.94672}}}