{"type":"Feature","properties":{"GID_3":"MWI.16.4.9_1","GID_0":"MWI","country":"Malawi","GID_1":"MWI.16_1","province":"Mwanza","NL_NAME_1":"NA","GID_2":"MWI.16.4_1","county":"TANthache","NL_NAME_2":"NA","city":"n.a.(2471)","VARNAME_3":"NA","NL_NAME_3":"NA","TYPE_3":"Unknown","ENGTYPE_3":"Unknown","CC_3":"NA","HASC_3":"NA","name":"n.a.(2471).city"},
"geometry":{"type": "MultiPolygon","coordinates": [[[[34.5126,-15.7123,557.611],[34.4925,-15.7099,607.317],[34.4779,-15.7106,689.441],[34.475,-15.7027,641.2404],[34.4632,-15.7133,757.4186],[34.4596,-15.7198,829.3354],[34.4588,-15.7254,826.1513],[34.4602,-15.7273,801.6584],[34.4548,-15.7329,980.1886],[34.462,-15.7408,815.425],[34.4706,-15.7474,631.7299],[34.4768,-15.75,656.5396],[34.4815,-15.7655,636.945],[34.4807,-15.7757,569.1906],[34.4888,-15.7821,509.3836],[34.5006,-15.7517,521.6255],[34.5028,-15.7497,526.4655],[34.5033,-15.7448,532.0662],[34.5011,-15.7346,545.3455],[34.5053,-15.7329,538.7819],[34.5065,-15.7283,545.3899],[34.5121,-15.725,545.2164],[34.5086,-15.7206,549.4055],[34.509,-15.7161,559.0813],[34.5127,-15.715,555.8792],[34.5126,-15.7123,557.611]]]]}}