{"type":"Feature","properties":{"GID_3":"MWI.27.7.1_1","GID_0":"MWI","country":"Malawi","GID_1":"MWI.27_1","province":"Thyolo","NL_NAME_1":"NA","GID_2":"MWI.27.7_1","county":"TAChangata","NL_NAME_2":"NA","city":"n.a.(2942)","VARNAME_3":"NA","NL_NAME_3":"NA","TYPE_3":"Unknown","ENGTYPE_3":"Unknown","CC_3":"NA","HASC_3":"NA","name":"n.a.(2942).city"},
"geometry":{"type": "MultiPolygon","coordinates": [[[[35.228,-16.1684,495.5312],[35.2255,-16.1635,501.2128],[35.2171,-16.163,504.6353],[35.216,-16.1596,504.2768],[35.2119,-16.1558,552.4697],[35.2051,-16.1525,514.3059],[35.1966,-16.1585,641.3255],[35.1978,-16.1625,529.0972],[35.1969,-16.1648,533.8562],[35.1985,-16.167,538.2524],[35.1963,-16.1704,584.4092],[35.1972,-16.1729,624.3588],[35.1991,-16.1735,662.4775],[35.1957,-16.1751,664.5873],[35.1927,-16.1798,691.4922],[35.1957,-16.1821,696.4962],[35.1968,-16.1855,699.4312],[35.2051,-16.1879,578.1069],[35.1914,-16.1987,621.4544],[35.1816,-16.2015,662.4056],[35.1774,-16.2045,730.4557],[35.174,-16.2043,693.6254],[35.173,-16.2059,671.6595],[35.1714,-16.2043,696.5794],[35.1647,-16.2071,702.4269],[35.1648,-16.209,702.2425],[35.1608,-16.2141,705.3184],[35.1625,-16.2174,709.0444],[35.1685,-16.2182,865.1831],[35.1671,-16.2267,747.4656],[35.1807,-16.2254,713.9792],[35.183,-16.2239,685.9039],[35.1823,-16.2214,696.9282],[35.1895,-16.2189,676.1367],[35.1907,-16.2175,660.3327],[35.1894,-16.2158,694.7661],[35.1991,-16.2093,640.8755],[35.2047,-16.197,614.4822],[35.2082,-16.1959,600.1046],[35.2103,-16.1901,606.2913],[35.2121,-16.1907,616.3517],[35.2178,-16.1847,548.2723],[35.2166,-16.1807,543.0497],[35.2215,-16.1787,527.3658],[35.2218,-16.176,545.8925],[35.2263,-16.1713,498.2384],[35.225,-16.17,495.8477],[35.228,-16.1684,495.5312]]]]}}