{"type": "Feature","bbox": [33.8243,-13.8942,33.8511,-13.8761],"geometry": {"type": "MultiPolygon","coordinates": [[[[33.8276,-13.8926,1066.7266],[33.8471,-13.8942,1098.7683],[33.8511,-13.8914,1084.9326],[33.8455,-13.884,1109.0059],[33.8427,-13.8817,1108.7083],[33.8394,-13.8815,1123.2354],[33.8371,-13.8778,1107.4524],[33.8278,-13.8761,1107.7932],[33.8261,-13.8785,1088.7954],[33.8243,-13.8777,1094.3933],[33.8252,-13.8799,1086.7288],[33.8302,-13.8822,1091.0054],[33.8285,-13.8867,1079.2335],[33.8303,-13.8869,1079.2335],[33.8303,-13.8892,1072.4353],[33.8276,-13.8926,1066.7266]]]]}
,"properties": {"GID_3": "MWI.11.7.8_1","GID_0": "MWI","country": "Malawi","GID_1": "MWI.11_1","province": "Lilongwe","NL_NAME_1": "NA","GID_2": "MWI.11.7_1","county": "TAChimutu","NL_NAME_2": "NA","city": "n.a.(1033)","VARNAME_3": "NA","NL_NAME_3": "NA","TYPE_3": "Unknown","ENGTYPE_3": "Unknown","CC_3": "NA","HASC_3": "NA","name": "n.a.(1033).city","area_km2": 3.272626,"hist_schema_id": "Elevation0-9000","hist_area_km2": {"1050": 0.020582,"1075": 0.596896,"1100": 1.255542,"1125": 1.358442,"1150": 0.041164}}}