{"type":"Feature","properties":{"GID_3":"MWI.26.4.3_1","GID_0":"MWI","country":"Malawi","GID_1":"MWI.26_1","province":"Salima","NL_NAME_1":"NA","GID_2":"MWI.26.4_1","county":"SCKambwiri","NL_NAME_2":"NA","city":"n.a.(937)","VARNAME_3":"NA","NL_NAME_3":"NA","TYPE_3":"Unknown","ENGTYPE_3":"Unknown","CC_3":"NA","HASC_3":"NA","name":"n.a.(937).city"},
"geometry":{"type": "MultiPolygon","coordinates": [[[[34.4176,-13.7789,508.01],[34.4098,-13.7871,515.4506],[34.4058,-13.7875,514.9059],[34.3999,-13.7843,528.5497],[34.3943,-13.7896,522.7975],[34.3834,-13.7937,527.0504],[34.3848,-13.7974,521.0027],[34.3835,-13.803,520.0148],[34.39,-13.8088,530.563],[34.3937,-13.8164,535.3027],[34.4048,-13.8241,538.1199],[34.4093,-13.8205,532.7625],[34.4118,-13.8091,524.0309],[34.4168,-13.7994,515.0703],[34.429,-13.8008,520.6418],[34.4298,-13.7915,504.8857],[34.4342,-13.7837,501.5103],[34.4256,-13.7751,514.2878],[34.4229,-13.7749,509.2213],[34.4176,-13.7789,508.01]]]]}}