{"type":"Feature","properties":{"GID_3":"MWI.3.9.2_1","GID_0":"MWI","country":"Malawi","GID_1":"MWI.3_1","province":"Chikwawa","NL_NAME_1":"NA","GID_2":"MWI.3.9_1","county":"TAMakhwira","NL_NAME_2":"NA","city":"n.a.(2912)","VARNAME_3":"NA","NL_NAME_3":"NA","TYPE_3":"Unknown","ENGTYPE_3":"Unknown","CC_3":"NA","HASC_3":"NA","name":"n.a.(2912).city"},
"geometry":{"type": "MultiPolygon","coordinates": [[[[34.92,-16.16,66.7848],[34.9412,-16.1609,71.9374],[34.9524,-16.1432,84.0117],[34.9655,-16.1336,156.9348],[34.966,-16.1316,163.8205],[34.958,-16.126,226.3965],[34.9483,-16.111,345.5796],[34.9396,-16.1068,222.5435],[34.9342,-16.1079,270.5157],[34.9302,-16.1106,176.8012],[34.9266,-16.121,80.5896],[34.8998,-16.1271,70.6152],[34.9023,-16.1304,69.3912],[34.9009,-16.1357,68.2748],[34.9066,-16.1386,67.7888],[34.9071,-16.1441,66.975],[34.915,-16.1496,68.4771],[34.9148,-16.1539,67.5679],[34.9119,-16.1554,66.0],[34.92,-16.16,66.7848]]]]}}