{"type": "Feature","bbox": [34.9538,-14.9908,34.9704,-14.9736],"geometry": {"type": "MultiPolygon","coordinates": [[[[34.9549,-14.9803,636.7136],[34.9564,-14.9859,637.4852],[34.9662,-14.9908,627.5763],[34.9704,-14.985,617.478],[34.9598,-14.9814,633.9002],[34.9657,-14.9743,625.496],[34.9538,-14.9736,642.511],[34.9549,-14.9803,636.7136]]]]}
,"properties": {"GID_3": "MWI.1.1.2_1","GID_0": "MWI","country": "Malawi","GID_1": "MWI.1_1","province": "Balaka","NL_NAME_1": "NA","GID_2": "MWI.1.1_1","county": "BalakaTown","NL_NAME_2": "NA","city": "n.a.(1953)","VARNAME_3": "NA","NL_NAME_3": "NA","TYPE_3": "Unknown","ENGTYPE_3": "Unknown","CC_3": "NA","HASC_3": "NA","name": "n.a.(1953).city","area_km2": 1.699965,"hist_schema_id": "Elevation0-9000","hist_area_km2": {"625": 1.638521,"650": 0.061444}}}