{"type": "Feature","bbox": [35.3605,-15.5921,35.3985,-15.5644],"geometry": {"type": "MultiPolygon","coordinates": [[[[35.3623,-15.5677,780.1665],[35.3609,-15.5701,786.8514],[35.3625,-15.5764,798.0524],[35.3605,-15.5823,788.6058],[35.3685,-15.5826,784.1155],[35.3761,-15.5891,765.7404],[35.3862,-15.5921,754.2997],[35.3856,-15.5824,764.1498],[35.3926,-15.5814,754.2509],[35.3915,-15.5759,758.5842],[35.3985,-15.5721,747.4177],[35.3852,-15.569,763.2732],[35.3829,-15.5706,773.1467],[35.3762,-15.5708,786.87],[35.3761,-15.5644,776.1392],[35.3666,-15.5692,789.9252],[35.3623,-15.5677,780.1665]]]]}
,"properties": {"GID_3": "MWI.28.2.23_1","GID_0": "MWI","country": "Malawi","GID_1": "MWI.28_1","province": "Zomba","NL_NAME_1": "NA","GID_2": "MWI.28.2_1","county": "SCMbiza","NL_NAME_2": "NA","city": "n.a.(2328)","VARNAME_3": "NA","NL_NAME_3": "NA","TYPE_3": "Unknown","ENGTYPE_3": "Unknown","CC_3": "NA","HASC_3": "NA","name": "n.a.(2328).city","area_km2": 6.351678,"hist_schema_id": "Elevation0-9000","hist_area_km2": {"750": 1.041587,"775": 3.553655,"800": 1.756435}}}