{"type":"Feature","properties":{"GID_3":"MWI.13.11.7_1","GID_0":"MWI","country":"Malawi","GID_1":"MWI.13_1","province":"Mangochi","NL_NAME_1":"NA","GID_2":"MWI.13.11_1","county":"TAMakanjila","NL_NAME_2":"NA","city":"n.a.(775)","VARNAME_3":"NA","NL_NAME_3":"NA","TYPE_3":"Unknown","ENGTYPE_3":"Unknown","CC_3":"NA","HASC_3":"NA","name":"n.a.(775).city"},
"geometry":{"type": "MultiPolygon","coordinates": [[[[34.8487,-13.6606,474.5],[34.8497,-13.6603,474.7897],[34.8529,-13.6693,479.926],[34.8586,-13.6674,483.9073],[34.866,-13.6683,485.0338],[34.8682,-13.67,488.1634],[34.8746,-13.6681,489.5526],[34.8773,-13.6695,494.0687],[34.8775,-13.6732,502.5465],[34.8827,-13.679,511.901],[34.8966,-13.6829,506.4201],[34.9311,-13.6884,533.547],[34.9303,-13.6849,530.5507],[34.935,-13.6813,527.5664],[34.9374,-13.6738,525.9286],[34.9417,-13.6692,529.732],[34.9412,-13.6591,523.0887],[34.9384,-13.6519,518.1619],[34.9383,-13.6406,524.8605],[34.9333,-13.6367,533.3918],[34.9323,-13.6339,533.6301],[34.9333,-13.6212,540.2378],[34.9197,-13.6164,550.4331],[34.9088,-13.6181,535.7333],[34.9017,-13.629,552.9698],[34.894,-13.6316,554.29],[34.8848,-13.6317,533.044],[34.8794,-13.6345,537.0116],[34.8674,-13.6328,511.8706],[34.8647,-13.63,505.2368],[34.8539,-13.6276,474.5],[34.8555,-13.6357,474.5],[34.8541,-13.6558,474.5],[34.8487,-13.6606,474.5]]]]}}