{"type":"Feature","properties":{"GID_2":"MWI.4.2_1","GID_0":"MWI","country":"Malawi","GID_1":"MWI.4_1","province":"Chiradzulu","NL_NAME_1":"NA","county":"TAChitera","VARNAME_2":"NA","NL_NAME_2":"NA","TYPE_2":"TraditionalAuthority","ENGTYPE_2":"TraditionalAuthority","CC_2":"NA","HASC_2":"NA","name":"T_A_Chitera.county"},
"geometry":{"type": "MultiPolygon","coordinates": [[[[35.1212,-15.6912,1134.8884],[35.1202,-15.6936,1144.564],[35.1294,-15.6885,1146.2771],[35.1326,-15.685,1130.4592],[35.1355,-15.6736,1111.4828],[35.1286,-15.6685,1041.9857],[35.1268,-15.6602,999.5825],[35.133,-15.659,1058.0046],[35.1376,-15.651,1078.3942],[35.1275,-15.6366,964.8777],[35.1348,-15.6222,990.4868],[35.134,-15.6185,986.9635],[35.1299,-15.6142,986.2313],[35.1295,-15.6049,996.0053],[35.1267,-15.5995,1011.6706],[35.1312,-15.5816,1011.4271],[35.1357,-15.5762,992.366],[35.1463,-15.5683,1011.8474],[35.1518,-15.5613,1002.6573],[35.1632,-15.5697,1114.9879],[35.165,-15.5693,1168.4299],[35.1658,-15.5657,1104.2333],[35.1673,-15.5651,1089.7109],[35.1702,-15.5649,1068.5801],[35.173,-15.5687,1050.4545],[35.1769,-15.566,1031.993],[35.1802,-15.5612,1015.955],[35.1813,-15.5563,996.9092],[35.1796,-15.5467,1022.9451],[35.1857,-15.5433,992.965],[35.1833,-15.5382,1000.4332],[35.1843,-15.5338,1024.3822],[35.1902,-15.5243,1026.0305],[35.1895,-15.5231,1026.0305],[35.1723,-15.5291,1043.9702],[35.1662,-15.5275,1039.0371],[35.1574,-15.5469,963.8146],[35.1512,-15.5383,936.4622],[35.154,-15.5342,908.9579],[35.1548,-15.5287,893.9993],[35.1506,-15.5229,905.4941],[35.1479,-15.5256,876.6638],[35.1373,-15.5285,831.5665],[35.12,-15.5375,778.0739],[35.1214,-15.5459,773.22],[35.1155,-15.5534,760.0771],[35.1158,-15.5547,758.5775],[35.1218,-15.5554,789.8604],[35.1058,-15.5823,773.4586],[35.0962,-15.6207,813.8768],[35.1105,-15.6385,939.774],[35.119,-15.6444,946.4496],[35.1191,-15.6483,974.7416],[35.1132,-15.659,988.7246],[35.1132,-15.6639,990.1707],[35.111,-15.6656,995.9093],[35.1101,-15.6709,1008.3613],[35.1233,-15.6856,1127.3486],[35.1237,-15.6873,1129.6431],[35.1212,-15.6912,1134.8884]]]]}}