{"type":"Feature","properties":{"GID_3":"MWI.17.8.9_1","GID_0":"MWI","country":"Malawi","GID_1":"MWI.17_1","province":"Mzimba","NL_NAME_1":"NA","GID_2":"MWI.17.8_1","county":"TAMabulabo","NL_NAME_2":"NA","city":"n.a.(361)","VARNAME_3":"NA","NL_NAME_3":"NA","TYPE_3":"Unknown","ENGTYPE_3":"Unknown","CC_3":"NA","HASC_3":"NA","name":"n.a.(361).city"},
"geometry":{"type": "MultiPolygon","coordinates": [[[[33.551,-12.5967,1284.5375],[33.5532,-12.6273,1159.9564],[33.5564,-12.6248,1160.2749],[33.5619,-12.6258,1153.5568],[33.5642,-12.622,1154.9349],[33.5758,-12.6211,1173.3707],[33.5868,-12.6076,1160.9551],[33.5879,-12.6032,1159.4666],[33.5915,-12.6018,1150.4421],[33.5872,-12.5975,1171.0363],[33.5893,-12.5885,1179.0266],[33.5968,-12.583,1127.1978],[33.6032,-12.5872,1136.2485],[33.6105,-12.5876,1135.2922],[33.6116,-12.5755,1171.9252],[33.6174,-12.5692,1184.1763],[33.6208,-12.5614,1189.1509],[33.6076,-12.5542,1196.1068],[33.6077,-12.5437,1202.3492],[33.6035,-12.5436,1197.4764],[33.59,-12.5604,1155.3176],[33.5887,-12.565,1139.4348],[33.5845,-12.5626,1161.2528],[33.5756,-12.5681,1160.0452],[33.5559,-12.5876,1211.6974],[33.551,-12.5967,1284.5375]]]]}}