{"type": "Feature","bbox": [34.0221,-13.4783,34.114,-13.4115],"geometry": {"type": "MultiPolygon","coordinates": [[[[34.1111,-13.424,704.6599],[34.0952,-13.4115,757.9165],[34.0858,-13.4138,832.1099],[34.0855,-13.419,897.1011],[34.089,-13.4226,851.4623],[34.0802,-13.4273,885.3942],[34.0765,-13.4328,870.245],[34.063,-13.4304,919.9073],[34.0517,-13.4317,995.721],[34.0477,-13.4356,1084.8391],[34.0409,-13.4347,1039.3374],[34.0369,-13.4363,1035.3287],[34.0354,-13.4337,1041.1685],[34.0327,-13.4406,1052.6665],[34.0331,-13.4449,1086.4031],[34.0228,-13.4567,1207.6555],[34.0221,-13.4596,1178.0829],[34.0273,-13.4604,1104.1731],[34.0298,-13.4666,1103.9272],[34.0338,-13.4683,1099.5417],[34.0402,-13.467,1034.8535],[34.0453,-13.4617,1085.8308],[34.0476,-13.4661,1081.9312],[34.0523,-13.4624,1060.7932],[34.0593,-13.4621,1008.8011],[34.0739,-13.4673,948.9408],[34.0734,-13.471,940.2654],[34.0808,-13.4753,870.5077],[34.0956,-13.4783,747.8359],[34.0979,-13.4735,732.5073],[34.1019,-13.4727,750.3644],[34.1113,-13.4661,718.7321],[34.114,-13.4508,689.9668],[34.1132,-13.4331,718.1429],[34.1111,-13.424,704.6599]]]]}
,"properties": {"GID_3": "MWI.23.4.3_1","GID_0": "MWI","country": "Malawi","GID_1": "MWI.23_1","province": "Ntchisi","NL_NAME_1": "NA","GID_2": "MWI.23.4_1","county": "TAChikho","NL_NAME_2": "NA","city": "n.a.(630)","VARNAME_3": "NA","NL_NAME_3": "NA","TYPE_3": "Unknown","ENGTYPE_3": "Unknown","CC_3": "NA","HASC_3": "NA","name": "n.a.(630).city","area_km2": 42.27282,"hist_schema_id": "Elevation0-9000","hist_area_km2": {"700": 0.74235,"725": 2.43328,"750": 2.82508,"775": 2.72198,"800": 2.59829,"825": 3.21695,"850": 3.36131,"875": 2.96948,"900": 2.76319,"925": 2.6394,"950": 2.45381,"975": 1.87646,"1000": 1.81463,"1025": 1.7734,"1050": 1.794,"1075": 2.00019,"1100": 2.28885,"1125": 1.23722,"1150": 0.53614,"1175": 0.14435,"1200": 0.02062,"1225": 0.06186}}}