{"type": "Feature","bbox": [33.3794,-12.7002,33.4939,-12.6202],"geometry": {"type": "MultiPolygon","coordinates": [[[[33.4853,-12.6831,1171.5698],[33.485,-12.68,1166.6249],[33.4937,-12.6713,1152.1016],[33.4939,-12.6663,1142.9658],[33.4868,-12.662,1149.4156],[33.4822,-12.656,1154.8354],[33.474,-12.6544,1159.5356],[33.4562,-12.631,1186.4935],[33.4367,-12.6274,1195.8966],[33.4292,-12.6202,1207.1731],[33.4187,-12.6216,1209.8625],[33.4128,-12.6242,1206.8865],[33.3831,-12.6499,1160.1241],[33.3831,-12.657,1119.6621],[33.3794,-12.668,1114.4399],[33.3822,-12.6742,1112.1392],[33.3825,-12.6811,1107.0157],[33.3903,-12.6864,1106.1237],[33.3985,-12.6873,1105.1525],[33.4052,-12.6946,1096.1975],[33.4069,-12.7002,1086.8606],[33.4126,-12.6966,1103.6599],[33.4216,-12.6938,1118.807],[33.4349,-12.6834,1132.0962],[33.4435,-12.6799,1141.6957],[33.4544,-12.6648,1172.2402],[33.4584,-12.6616,1185.402],[33.4604,-12.6623,1184.3701],[33.4688,-12.6776,1179.4894],[33.4757,-12.6759,1169.2216],[33.4826,-12.6838,1168.9535],[33.4853,-12.6831,1171.5698]]]]}
,"properties": {"GID_3": "MWI.9.7.1_1","GID_0": "MWI","country": "Malawi","GID_1": "MWI.9_1","province": "Kasungu","NL_NAME_1": "NA","GID_2": "MWI.9.7_1","county": "SCM'nyanja","NL_NAME_2": "NA","city": "n.a.(378)","VARNAME_3": "NA","NL_NAME_3": "NA","TYPE_3": "Unknown","ENGTYPE_3": "Unknown","CC_3": "NA","HASC_3": "NA","name": "n.a.(378).city","area_km2": 60.15728,"hist_schema_id": "Elevation0-9000","hist_area_km2": {"1100": 2.31666,"1125": 9.66002,"1150": 16.3629,"1175": 20.14935,"1200": 11.29593,"1225": 0.37242}}}