{"type": "Feature","bbox": [33.5332,-12.3633,33.6394,-12.2212],"geometry": {"type": "MultiPolygon","coordinates": [[[[33.548,-12.3633,1427.8503],[33.5495,-12.3552,1440.199],[33.5574,-12.3484,1441.1904],[33.5722,-12.3393,1462.3302],[33.5908,-12.3307,1479.8711],[33.5939,-12.3233,1466.3977],[33.5987,-12.3171,1463.355],[33.6004,-12.3069,1450.7194],[33.6033,-12.3045,1424.323],[33.6027,-12.3032,1424.323],[33.6079,-12.3073,1430.1243],[33.6156,-12.308,1447.2227],[33.6192,-12.3067,1458.8018],[33.6246,-12.2978,1480.8716],[33.6205,-12.2872,1487.9963],[33.6307,-12.2741,1455.9062],[33.632,-12.2687,1455.4031],[33.6363,-12.265,1467.6899],[33.6394,-12.253,1521.2373],[33.6301,-12.2533,1500.4073],[33.6071,-12.2597,1463.1469],[33.6039,-12.2562,1444.1663],[33.5978,-12.2538,1424.6222],[33.5928,-12.2424,1405.4255],[33.5939,-12.2409,1401.358],[33.5913,-12.237,1405.8318],[33.5868,-12.2354,1391.259],[33.5811,-12.2289,1386.1692],[33.5812,-12.2251,1368.2635],[33.5774,-12.2212,1384.3792],[33.5707,-12.2234,1376.7848],[33.5663,-12.2299,1356.2008],[33.5626,-12.2308,1360.0742],[33.5609,-12.2347,1339.9348],[33.5543,-12.2384,1347.1423],[33.5462,-12.2395,1337.0723],[33.5383,-12.2391,1339.1917],[33.537,-12.2378,1350.4846],[33.5332,-12.2414,1329.6204],[33.5394,-12.243,1331.4292],[33.5398,-12.2477,1348.7184],[33.5494,-12.2493,1356.281],[33.5554,-12.2475,1354.9575],[33.5577,-12.249,1358.9252],[33.5651,-12.2482,1385.1132],[33.5693,-12.2588,1399.891],[33.569,-12.2661,1374.6355],[33.5749,-12.2736,1402.0708],[33.5895,-12.2867,1409.3605],[33.586,-12.289,1407.826],[33.5823,-12.2952,1399.3499],[33.5754,-12.2998,1390.4922],[33.5648,-12.3021,1376.7908],[33.5602,-12.3016,1364.9463],[33.5594,-12.2938,1375.4633],[33.5547,-12.2906,1367.7577],[33.5509,-12.2914,1368.6575],[33.5475,-12.2931,1353.4619],[33.5474,-12.2988,1364.1163],[33.5357,-12.3056,1382.8379],[33.5398,-12.3207,1406.8311],[33.5388,-12.3397,1419.6307],[33.5422,-12.3434,1424.4409],[33.5482,-12.3577,1439.7112],[33.548,-12.3633,1427.8503]]]]}
,"properties": {"GID_3": "MWI.17.11.9_1","GID_0": "MWI","country": "Malawi","GID_1": "MWI.17_1","province": "Mzimba","NL_NAME_1": "NA","GID_2": "MWI.17.11_1","county": "TAMzikubola","NL_NAME_2": "NA","city": "n.a.(315)","VARNAME_3": "NA","NL_NAME_3": "NA","TYPE_3": "Unknown","ENGTYPE_3": "Unknown","CC_3": "NA","HASC_3": "NA","name": "n.a.(315).city","area_km2": 72.38317,"hist_schema_id": "Elevation0-9000","hist_area_km2": {"1325": 0.70449,"1350": 3.35658,"1375": 9.13624,"1400": 15.26818,"1425": 19.28647,"1450": 12.18109,"1475": 7.8099,"1500": 2.96239,"1525": 0.95285,"1550": 0.57999,"1575": 0.145}}}