{"type": "Feature","bbox": [35.3943,-15.3185,35.424,-15.2844],"geometry": {"type": "MultiPolygon","coordinates": [[[[35.4209,-15.2875,733.5587],[35.4109,-15.2844,749.6661],[35.4073,-15.2897,748.5072],[35.3952,-15.3009,776.1567],[35.3943,-15.3081,780.7462],[35.4004,-15.3086,779.2972],[35.3978,-15.3111,788.2994],[35.3993,-15.3162,767.1547],[35.406,-15.3185,748.7864],[35.408,-15.3146,746.2974],[35.4166,-15.3131,728.9641],[35.4167,-15.3081,729.9418],[35.424,-15.3026,719.4022],[35.4203,-15.2981,731.6143],[35.4195,-15.291,731.1182],[35.4209,-15.2875,733.5587]]]]}
,"properties": {"GID_3": "MWI.28.6.12_1","GID_0": "MWI","country": "Malawi","GID_1": "MWI.28_1","province": "Zomba","NL_NAME_1": "NA","GID_2": "MWI.28.6_1","county": "TAMalemia","NL_NAME_2": "NA","city": "n.a.(2096)","VARNAME_3": "NA","NL_NAME_3": "NA","TYPE_3": "Unknown","ENGTYPE_3": "Unknown","CC_3": "NA","HASC_3": "NA","name": "n.a.(2096).city","area_km2": 6.994092,"hist_schema_id": "Elevation0-9000","hist_area_km2": {"725": 1.574701,"750": 3.783381,"775": 1.574661,"800": 0.061349}}}