{"type": "Feature","bbox": [33.4954,-13.0369,33.5031,-13.0265],"geometry": {"type": "MultiPolygon","coordinates": [[[[33.5021,-13.0366,1053.1271],[33.5031,-13.0303,1039.5665],[33.5011,-13.0265,1045.1714],[33.4954,-13.0277,1047.8423],[33.4954,-13.0369,1055.0229],[33.5021,-13.0366,1053.1271]]]]}
,"properties": {"GID_3": "MWI.9.1.4_1","GID_0": "MWI","country": "Malawi","GID_1": "MWI.9_1","province": "Kasungu","NL_NAME_1": "NA","GID_2": "MWI.9.1_1","county": "KasunguBoma","NL_NAME_2": "NA","city": "n.a.(473)","VARNAME_3": "NA","NL_NAME_3": "NA","TYPE_3": "Unknown","ENGTYPE_3": "Unknown","CC_3": "NA","HASC_3": "NA","name": "n.a.(473).city","area_km2": 0.9088687,"hist_schema_id": "Elevation0-9000","hist_area_km2": {"1025": 0.0413129,"1050": 0.8675557}}}