{"type":"Feature","properties":{"GID_3":"MWI.9.10.11_1","GID_0":"MWI","country":"Malawi","GID_1":"MWI.9_1","province":"Kasungu","NL_NAME_1":"NA","GID_2":"MWI.9.10_1","county":"TAChulu","NL_NAME_2":"NA","city":"n.a.(410)","VARNAME_3":"NA","NL_NAME_3":"NA","TYPE_3":"Unknown","ENGTYPE_3":"Unknown","CC_3":"NA","HASC_3":"NA","name":"n.a.(410).city"},
"geometry":{"type": "MultiPolygon","coordinates": [[[[33.2967,-12.8199,1025.2576],[33.298,-12.8219,1021.6935],[33.2966,-12.83,1018.7885],[33.2992,-12.8322,1022.4794],[33.3059,-12.826599999999999,1036.6818],[33.3105,-12.826,1046.7732],[33.3131,-12.8068,1072.5524],[33.3109,-12.8067,1068.5234],[33.306,-12.8153,1055.4508],[33.2967,-12.8199,1025.2576]]]]}}