{"type":"Feature","properties":{"GID_3":"MWI.16.4.7_1","GID_0":"MWI","country":"Malawi","GID_1":"MWI.16_1","province":"Mwanza","NL_NAME_1":"NA","GID_2":"MWI.16.4_1","county":"TANthache","NL_NAME_2":"NA","city":"n.a.(2437)","VARNAME_3":"NA","NL_NAME_3":"NA","TYPE_3":"Unknown","ENGTYPE_3":"Unknown","CC_3":"NA","HASC_3":"NA","name":"n.a.(2437).city"},
"geometry":{"type": "MultiPolygon","coordinates": [[[[34.4184,-15.669,783.431],[34.4086,-15.6694,790.0519],[34.4038,-15.6752,743.7937],[34.4038,-15.6832,761.2229],[34.3949,-15.682,718.6917],[34.391,-15.6846,720.0999],[34.3876,-15.6913,744.4708],[34.3897,-15.6987,718.8868],[34.3874,-15.7069,694.6917],[34.381,-15.7119,674.433],[34.3836,-15.7159,670.1202],[34.3901,-15.7187,668.8632],[34.3969,-15.7185,662.3604],[34.4033,-15.721,655.1683],[34.4119,-15.7194,785.6896],[34.4101,-15.7143,714.5001],[34.416,-15.7078,752.419],[34.4204,-15.6989,731.2802],[34.4207,-15.696,721.9623],[34.4184,-15.6932,701.3453],[34.4207,-15.6856,752.3558],[34.4184,-15.669,783.431]]]]}}