{"type":"Feature","properties":{"GID_3":"MWI.12.6.11_1","GID_0":"MWI","country":"Malawi","GID_1":"MWI.12_1","province":"Machinga","NL_NAME_1":"NA","GID_2":"MWI.12.6_1","county":"SCChikweo","NL_NAME_2":"NA","city":"n.a.(1845)","VARNAME_3":"NA","NL_NAME_3":"NA","TYPE_3":"Unknown","ENGTYPE_3":"Unknown","CC_3":"NA","HASC_3":"NA","name":"n.a.(1845).city"},
"geometry":{"type": "MultiPolygon","coordinates": [[[[35.6634,-14.8471,680.7393],[35.6705,-14.8654,674.8481],[35.6763,-14.8722,671.3072],[35.6802,-14.8702,672.6976],[35.6803,-14.8623,672.9764],[35.6819,-14.8586,676.9899],[35.6876,-14.8579,674.61],[35.6875,-14.8531,675.9107],[35.6975,-14.8503,669.612],[35.7147,-14.85,658.6287],[35.7115,-14.8348,658.1166],[35.6988,-14.8343,663.8412],[35.7039,-14.83,664.1817],[35.7049,-14.8272,661.76],[35.7007,-14.8246,662.7544],[35.6945,-14.8252,666.5634],[35.6834,-14.8213,670.3302],[35.6806,-14.8422,681.6099],[35.6811,-14.8481,680.8743],[35.6687,-14.8481,687.7932],[35.6664,-14.8451,687.7532],[35.6634,-14.8471,680.7393]]]]}}