{"type":"Feature","properties":{"GID_3":"MWI.14.7.17_1","GID_0":"MWI","country":"Malawi","GID_1":"MWI.14_1","province":"Mchinji","NL_NAME_1":"NA","GID_2":"MWI.14.7_1","county":"TAZulu","NL_NAME_2":"NA","city":"n.a.(970)","VARNAME_3":"NA","NL_NAME_3":"NA","TYPE_3":"Unknown","ENGTYPE_3":"Unknown","CC_3":"NA","HASC_3":"NA","name":"n.a.(970).city"},
"geometry":{"type": "MultiPolygon","coordinates": [[[[33.0431,-13.8126,1127.223],[33.0454,-13.8192,1129.5265],[33.0442,-13.825,1138.1167],[33.0506,-13.8325,1141.0677],[33.0486,-13.8348,1139.5201],[33.0586,-13.8456,1131.2367],[33.0647,-13.8476,1126.7944],[33.0947,-13.8421,1114.5571],[33.0977,-13.8211,1109.8826],[33.0673,-13.8193,1126.9318],[33.0642,-13.8244,1133.3547],[33.0612,-13.8251,1134.7354],[33.0605,-13.8215,1130.8525],[33.0553,-13.8213,1123.374],[33.0526,-13.8087,1113.1393],[33.0431,-13.8126,1127.223]]]]}}