{"type": "Feature","bbox": [33.8718,-13.1573,33.959,-13.0874],"geometry": {"type": "MultiPolygon","coordinates": [[[[33.9165,-13.0874,1036.3879],[33.911,-13.0944,1058.9952],[33.9038,-13.0973,1118.4735],[33.9022,-13.1023,1164.9189],[33.8949,-13.1124,1051.0873],[33.8942,-13.1159,1039.0128],[33.8959,-13.1229,1020.311],[33.8904,-13.1254,1018.0936],[33.8818,-13.1259,1003.0294],[33.8787,-13.1278,989.4094],[33.8718,-13.1258,965.3297],[33.873,-13.1315,980.772],[33.8746,-13.1314,970.8514],[33.8747,-13.1364,984.6019],[33.8803,-13.1329,1007.7914],[33.8878,-13.131,1026.8903],[33.9001,-13.1297,1069.1414],[33.9091,-13.1306,1056.6578],[33.9123,-13.1285,1076.2263],[33.9159,-13.1283,1093.1455],[33.9163,-13.1393,1056.3984],[33.9131,-13.1451,1028.0603],[33.918,-13.1461,1032.3044],[33.9235,-13.1521,1059.3662],[33.9415,-13.1512,1119.8711],[33.9475,-13.1573,1166.6252],[33.9555,-13.1508,1172.2214],[33.958,-13.1465,1150.6584],[33.959,-13.1393,1107.4523],[33.9577,-13.1263,1148.7905],[33.956,-13.1254,1128.4377],[33.9539,-13.1274,1142.8594],[33.9445,-13.1235,1150.3534],[33.9416,-13.1187,1153.6416],[33.9427,-13.1137,1161.8486],[33.9403,-13.109,1165.5253],[33.9345,-13.1085,1118.0807],[33.9315,-13.1064,1135.1772],[33.9173,-13.105,1063.4081],[33.9144,-13.0975,1059.3164],[33.9174,-13.09,1031.3258],[33.9165,-13.0874,1036.3879]]]]}
,"properties": {"GID_3": "MWI.23.2.3_1","GID_0": "MWI","country": "Malawi","GID_1": "MWI.23_1","province": "Ntchisi","NL_NAME_1": "NA","GID_2": "MWI.23.2_1","county": "SCChilooko","NL_NAME_2": "NA","city": "n.a.(492)","VARNAME_3": "NA","NL_NAME_3": "NA","TYPE_3": "Unknown","ENGTYPE_3": "Unknown","CC_3": "NA","HASC_3": "NA","name": "n.a.(492).city","area_km2": 28.57711,"hist_schema_id": "Elevation0-9000","hist_area_km2": {"975": 0.39231,"1000": 1.115,"1025": 1.87901,"1050": 4.68713,"1075": 6.48355,"1100": 6.00862,"1125": 4.54258,"1150": 3.13855,"1175": 0.33036}}}