{"type":"Feature","properties":{"GID_3":"MWI.23.4.4_1","GID_0":"MWI","country":"Malawi","GID_1":"MWI.23_1","province":"Ntchisi","NL_NAME_1":"NA","GID_2":"MWI.23.4_1","county":"TAChikho","NL_NAME_2":"NA","city":"n.a.(645)","VARNAME_3":"NA","NL_NAME_3":"NA","TYPE_3":"Unknown","ENGTYPE_3":"Unknown","CC_3":"NA","HASC_3":"NA","name":"n.a.(645).city"},
"geometry":{"type": "MultiPolygon","coordinates": [[[[33.9528,-13.5129,1257.2933],[33.9598,-13.514,1241.702],[33.9726,-13.5058,1252.8457],[33.9789,-13.5087,1166.9224],[33.9899,-13.5018,1231.38],[34.0016,-13.4988,1099.7208],[34.0045,-13.4967,1111.5439],[34.0029,-13.4894,1118.7336],[33.9978,-13.4843,1185.6467],[33.9983,-13.4799,1198.9495],[33.9942,-13.4767,1346.6956],[33.9983,-13.465,1279.297],[33.9963,-13.4594,1320.2845],[33.9975,-13.4558,1299.3826],[33.9961,-13.4476,1345.1628],[33.9829,-13.4464,1492.1978],[33.9804,-13.4414,1510.9716],[33.9747,-13.4397,1460.5623],[33.9647,-13.447,1404.1588],[33.9498,-13.4473,1432.4148],[33.9438,-13.4535,1473.7584],[33.9379,-13.451599999999999,1474.5459],[33.9307,-13.4528,1502.3368],[33.9292,-13.464,1441.6189],[33.9216,-13.4791,1392.37],[33.9285,-13.4814,1404.3712],[33.9319,-13.4863,1367.8568],[33.9319,-13.4904,1354.0372],[33.9348,-13.4949,1348.3226],[33.9367,-13.4944,1344.1279],[33.9423,-13.4999,1309.9575],[33.9435,-13.5072,1299.3396],[33.9484,-13.5086,1271.9595],[33.9528,-13.5129,1257.2933]]]]}}