{"type": "Feature","bbox": [34.9602,-16.1101,35.0026,-16.0504],"geometry": {"type": "MultiPolygon","coordinates": [[[[34.9929,-16.0578,616.4425],[34.9863,-16.0504,592.3362],[34.9807,-16.0505,574.393],[34.979,-16.0537,557.3024],[34.9761,-16.0549,519.1199],[34.9778,-16.0581,552.1382],[34.9839,-16.0608,622.9943],[34.9811,-16.0608,590.2406],[34.975,-16.0652,517.7576],[34.9748,-16.0678,502.3494],[34.9799,-16.0707,575.859],[34.9708,-16.09,506.956],[34.9637,-16.0932,305.0635],[34.9668,-16.0953,332.1595],[34.9717,-16.0958,397.2914],[34.9602,-16.107,420.5207],[34.9673,-16.1101,231.2456],[34.9721,-16.1019,283.6939],[34.9784,-16.0969,414.6959],[34.9885,-16.1061,352.3602],[34.99,-16.1056,309.1696],[34.9915,-16.1045,312.8235],[34.991,-16.1009,323.8238],[34.9963,-16.0987,370.2061],[34.9991,-16.0907,423.6481],[35.0026,-16.0898,395.6086],[35.0025,-16.0822,453.1765],[34.9971,-16.0758,488.1406],[34.9929,-16.0618,679.1992],[34.991,-16.0622,679.1992],[34.9938,-16.0598,644.1655],[34.9929,-16.0578,616.4425]]]]}
,"properties": {"GID_3": "MWI.27.4.4_1","GID_0": "MWI","country": "Malawi","GID_1": "MWI.27_1","province": "Thyolo","NL_NAME_1": "NA","GID_2": "MWI.27.4_1","county": "SCMphuka","NL_NAME_2": "NA","city": "n.a.(2836)","VARNAME_3": "NA","NL_NAME_3": "NA","TYPE_3": "Unknown","ENGTYPE_3": "Unknown","CC_3": "NA","HASC_3": "NA","name": "n.a.(2836).city","area_km2": 13.7718,"hist_schema_id": "Elevation0-9000","hist_area_km2": {"225": 0.02037,"250": 0.10185,"275": 0.18333,"300": 0.16296,"325": 0.44815,"350": 0.40741,"375": 0.26482,"400": 0.55002,"425": 0.75374,"450": 0.71301,"475": 0.73337,"500": 0.73339,"525": 1.16124,"550": 1.48722,"575": 1.52801,"600": 1.79285,"625": 1.40577,"650": 0.87606,"675": 0.44823}}}