{"type": "Feature","bbox": [35.6703,-15.4964,35.8427,-15.4315],"geometry": {"type": "MultiPolygon","coordinates": [[[[35.6844,-15.4775,622.5],[35.6866,-15.4776,622.5],[35.6922,-15.486,622.5],[35.6998,-15.4914,622.5],[35.7049,-15.4904,622.5],[35.72,-15.4953,622.5],[35.7286,-15.4937,622.5],[35.7291,-15.4964,622.5],[35.7464,-15.4887,622.5],[35.7547,-15.4914,622.5],[35.774,-15.4916,622.5],[35.7815,-15.4937,622.5],[35.7884,-15.4915,622.5],[35.8004,-15.4911,622.5],[35.8084,-15.4878,622.5],[35.8177,-15.4879,622.5],[35.8196,-15.4843,622.5],[35.826,-15.482,622.5],[35.8337,-15.4685,622.5],[35.8377,-15.4698,622.5],[35.838,-15.4586,622.5],[35.8406,-15.4574,622.5],[35.8402,-15.4546,622.5],[35.8427,-15.4532,622.5],[35.8426,-15.4505,622.5],[35.8368,-15.4493,622.5],[35.8292,-15.4445,622.5],[35.7735,-15.4315,622.5],[35.7501,-15.4315,622.5],[35.693,-15.4414,622.5],[35.6703,-15.4515,622.5],[35.673,-15.4562,622.5],[35.6757,-15.4568,622.5],[35.6823,-15.464,622.5],[35.683,-15.4731,622.5],[35.6854,-15.4759,622.5],[35.6844,-15.4775,622.5]]]]}
,"properties": {"GID_3": "MWI.24.1.1_1","GID_0": "MWI","country": "Malawi","GID_1": "MWI.24_1","province": "Phalombe","NL_NAME_1": "NA","GID_2": "MWI.24.1_1","county": "LakeChilwa","NL_NAME_2": "NA","city": "n.a.(2200)","VARNAME_3": "NA","NL_NAME_3": "NA","TYPE_3": "Unknown","ENGTYPE_3": "Unknown","CC_3": "NA","HASC_3": "NA","name": "n.a.(2200).city","area_km2": 97.28981,"hist_schema_id": "Elevation0-9000","hist_area_km2": {"625": 97.28981}}}