{"type": "Feature","bbox": [33.8856,-11.0994,34.0548,-10.9925],"geometry": {"type": "MultiPolygon","coordinates": [[[[33.9382,-11.0499,1083.5597],[33.9494,-11.0578,1123.8425],[33.9496,-11.0604,1126.2283],[33.9461,-11.0674,1131.7927],[33.9495,-11.072,1093.9922],[33.9494,-11.0745,1092.1562],[33.9437,-11.0729,1095.25],[33.9395,-11.08,1083.8234],[33.9311,-11.0773,1067.8768],[33.9249,-11.0819,1089.6658],[33.9221,-11.0822,1087.8331],[33.9183,-11.0795,1067.0446],[33.9132,-11.0841,1082.2522],[33.9116,-11.0743,1039.1873],[33.8948,-11.0687,1044.7502],[33.8929,-11.073,1040.3248],[33.8895,-11.0742,1129.3893],[33.8905,-11.0768,1040.9324],[33.8875,-11.0817,1045.0896],[33.8879,-11.0869,1039.0415],[33.8856,-11.0894,1039.7449],[33.8949,-11.0985,1066.5492],[33.9087,-11.0994,1113.1985],[34.0548,-11.0977,1936.2095],[34.0518,-11.0753,1783.0968],[34.0485,-11.074,1788.6177],[34.0521,-11.064,1677.9778],[34.0516,-11.0612,1644.3815],[34.0304,-11.0387,1353.8623],[34.0166,-11.0299,1287.6758],[34.0138,-11.0246,1270.2583],[33.9994,-11.0111,1229.9939],[33.992,-11.0121,1218.1609],[33.9896,-11.0067,1173.0583],[33.985,-11.0066,1241.4364],[33.9832,-11.002,1148.3752],[33.9802,-11.002,1149.9426],[33.9711,-10.9925,1069.7209],[33.9701,-10.9971,1092.9031],[33.9731,-11.0008,1143.6775],[33.9743,-11.0079,1104.9922],[33.9765,-11.0093,1152.6102],[33.9797,-11.0182,1140.7694],[33.9794,-11.021,1145.905],[33.9739,-11.0261,1155.0767],[33.9693,-11.0268,1146.1665],[33.9557,-11.0138,1076.6534],[33.948,-11.023,1069.8033],[33.9504,-11.038,1107.1533],[33.9423,-11.0425,1078.1761],[33.9382,-11.0499,1083.5597]]]]}
,"properties": {"GID_3": "MWI.17.3.2_1","GID_0": "MWI","country": "Malawi","GID_1": "MWI.17_1","province": "Mzimba","NL_NAME_1": "NA","GID_2": "MWI.17.3_1","county": "SCJaravikubaMunthali","NL_NAME_2": "NA","city": "n.a.(146)","VARNAME_3": "NA","NL_NAME_3": "NA","TYPE_3": "Unknown","ENGTYPE_3": "Unknown","CC_3": "NA","HASC_3": "NA","name": "n.a.(146).city","area_km2": 109.7629,"hist_schema_id": "Elevation0-9000","hist_area_km2": {"1025": 2.10153,"1050": 3.59954,"1075": 3.5580599999999998,"1100": 4.68182,"1125": 5.24374,"1150": 7.179,"1175": 7.74077,"1200": 9.09337,"1225": 6.72145,"1250": 4.82784,"1275": 4.20344,"1300": 3.39188,"1325": 2.89246,"1350": 2.4138,"1375": 2.62189,"1400": 3.5166,"1425": 4.82747,"1450": 4.80649,"1475": 4.63995,"1500": 2.87136,"1525": 1.87265,"1550": 1.35248,"1575": 1.26925,"1600": 1.01955,"1625": 1.24844,"1650": 1.51893,"1675": 1.56053,"1700": 1.24842,"1725": 1.62293,"1750": 1.45649,"1775": 1.56052,"1800": 1.01955,"1825": 0.76986,"1850": 0.66583,"1875": 0.41614,"1900": 0.22888}}}