{"type": "Feature","bbox": [35.4999,-14.6195,35.5508,-14.543],"geometry": {"type": "MultiPolygon","coordinates": [[[[35.4999,-14.6195,894.6983],[35.5043,-14.6188,919.233],[35.5056,-14.6144,908.1381],[35.5085,-14.6123,901.014],[35.5114,-14.6128,899.4653],[35.5183,-14.6184,883.6144],[35.531,-14.6174,888.3867],[35.5355,-14.615,865.6907],[35.5333,-14.6092,877.7354],[35.5222,-14.6041,916.8997],[35.5208,-14.5967,946.767],[35.5137,-14.5888,986.4642],[35.513,-14.5861,1042.0463],[35.5183,-14.5881,969.2588],[35.5254,-14.5876,944.8626],[35.5255,-14.5895,943.5352],[35.531,-14.5822,934.3405],[35.5316,-14.5783,928.4053],[35.5355,-14.5793,947.6803],[35.5398,-14.5839,957.5793],[35.5439,-14.5843,977.275],[35.5476,-14.5809,929.214],[35.548,-14.5753,917.6885],[35.5508,-14.5736,947.0569],[35.5453,-14.567,920.2983],[35.5378,-14.5678,910.4907],[35.5329,-14.5666,921.6041],[35.5313,-14.5644,964.0331],[35.5342,-14.5516,910.0608],[35.5422,-14.5461,922.7493],[35.5393,-14.5462,952.8363],[35.539,-14.543,1022.9311],[35.5142,-14.5441,992.7666],[35.5106,-14.5533,1023.0936],[35.5065,-14.5577,981.3223],[35.5061,-14.5615,970.1891],[35.5076,-14.563,981.4523],[35.521,-14.5664,968.1638],[35.5237,-14.5692,976.1355],[35.517,-14.5768,1078.0718],[35.5108,-14.5805,1288.5354],[35.5104,-14.5896,990.2488],[35.502,-14.6022,903.8611],[35.4999,-14.6195,894.6983]]]]}
,"properties": {"GID_3": "MWI.13.6.16_1","GID_0": "MWI","country": "Malawi","GID_1": "MWI.13_1","province": "Mangochi","NL_NAME_1": "NA","GID_2": "MWI.13.6_1","county": "SCMbwanaNyambi","NL_NAME_2": "NA","city": "n.a.(1668)","VARNAME_3": "NA","NL_NAME_3": "NA","TYPE_3": "Unknown","ENGTYPE_3": "Unknown","CC_3": "NA","HASC_3": "NA","name": "n.a.(1668).city","area_km2": 20.39631,"hist_schema_id": "Elevation0-9000","hist_area_km2": {"875": 0.49239,"900": 2.89287,"925": 6.36104,"950": 4.98642,"975": 3.71419,"1000": 0.92341,"1025": 0.513,"1050": 0.16416,"1075": 0.1026,"1100": 0.1026,"1125": 0.04104,"1150": 0.02052,"1175": 0.02052,"1200": 0.02052,"1250": 0.02052,"1275": 0.02052}}}