{"type":"Feature","properties":{"GID_3":"MWI.14.7.12_1","GID_0":"MWI","country":"Malawi","GID_1":"MWI.14_1","province":"Mchinji","NL_NAME_1":"NA","GID_2":"MWI.14.7_1","county":"TAZulu","NL_NAME_2":"NA","city":"n.a.(921)","VARNAME_3":"NA","NL_NAME_3":"NA","TYPE_3":"Unknown","ENGTYPE_3":"Unknown","CC_3":"NA","HASC_3":"NA","name":"n.a.(921).city"},
"geometry":{"type": "MultiPolygon","coordinates": [[[[33.0858,-13.7764,1101.8728],[33.0907,-13.7918,1099.8147],[33.0961,-13.8001,1099.8195],[33.12,-13.7992,1103.5718],[33.1208,-13.818,1102.4105],[33.13,-13.8169,1105.9902],[33.144,-13.8222,1097.3822],[33.169,-13.82,1077.5596],[33.1723,-13.8182,1088.7317],[33.1663,-13.7995,1108.5326],[33.1499,-13.8004,1093.916],[33.1473,-13.798,1095.9886],[33.1427,-13.786,1107.1523],[33.1445,-13.781,1110.5286],[33.1515,-13.7744,1098.6506],[33.1489,-13.7737,1102.6799],[33.1478,-13.7712,1099.5977],[33.1412,-13.7748,1107.5735],[33.1246,-13.7773,1094.26],[33.115,-13.7761,1080.9867],[33.1187,-13.769,1079.0758],[33.1184,-13.7663,1081.4688],[33.1074,-13.7663,1098.1467],[33.0858,-13.7764,1101.8728]]]]}}