{"type":"Feature","properties":{"GID_3":"MWI.27.4.8_1","GID_0":"MWI","country":"Malawi","GID_1":"MWI.27_1","province":"Thyolo","NL_NAME_1":"NA","GID_2":"MWI.27.4_1","county":"SCMphuka","NL_NAME_2":"NA","city":"n.a.(2854)","VARNAME_3":"NA","NL_NAME_3":"NA","TYPE_3":"Unknown","ENGTYPE_3":"Unknown","CC_3":"NA","HASC_3":"NA","name":"n.a.(2854).city"},
"geometry":{"type": "MultiPolygon","coordinates": [[[[35.0938,-16.0802,884.0203],[35.098,-16.0747,897.782],[35.0926,-16.0686,915.6138],[35.0893,-16.07,904.1381],[35.0922,-16.0645,938.9395],[35.0806,-16.0601,934.6807],[35.0774,-16.0622,930.2066],[35.0757,-16.0674,969.9449],[35.0771,-16.0678,969.9449],[35.0776,-16.0722,971.7434],[35.0833,-16.0776,957.6571],[35.089,-16.0758,933.7346],[35.0938,-16.0802,884.0203]]]]}}