{"type": "Feature","bbox": [34.9018,-16.4063,35.3314,-15.853],"geometry": {"type": "MultiPolygon","coordinates": [[[[35.1142,-16.3124,343.8374],[35.1229,-16.3247,621.2823],[35.1286,-16.3261,679.8291],[35.1495,-16.3365,734.4161],[35.1507,-16.345,680.7092],[35.1535,-16.3484,670.3927],[35.1535,-16.3532,583.3041],[35.1563,-16.357,537.5383],[35.1588,-16.3687,321.6076],[35.1638,-16.369,399.1487],[35.166,-16.3711,415.5012],[35.1988,-16.3687,330.0715],[35.2114,-16.3805,276.5596],[35.2151,-16.3818,253.5182],[35.2168,-16.3871,226.8911],[35.2161,-16.3908,220.9164],[35.2214,-16.3934,210.0719],[35.2234,-16.3976,189.5376],[35.2274,-16.4002,180.4925],[35.2405,-16.398,161.0207],[35.2489,-16.4003,152.0701],[35.2543,-16.4063,137.5285],[35.2578,-16.4048,148.3968],[35.2614,-16.4062,125.506],[35.2636,-16.4053,125.8401],[35.2622,-16.4019,127.7801],[35.2659,-16.3891,146.6736],[35.2764,-16.3762,172.9161],[35.2886,-16.3665,162.5861],[35.2972,-16.3547,173.198],[35.2976,-16.3492,205.375],[35.2957,-16.3446,215.0226],[35.2871,-16.3397,313.5287],[35.2779,-16.321,227.8269],[35.292,-16.2859,325.6413],[35.2949,-16.2832,327.2489],[35.2938,-16.2759,322.626],[35.2979,-16.265,325.4987],[35.2932,-16.2509,353.066],[35.2933,-16.2378,359.5484],[35.2967,-16.2297,364.692],[35.3065,-16.2241,373.9063],[35.3077,-16.2156,377.9909],[35.297,-16.2021,404.4559],[35.2873,-16.1991,405.4919],[35.2864,-16.19,405.7035],[35.2799,-16.1874,422.6861],[35.278,-16.1844,422.7088],[35.2839,-16.1773,448.3233],[35.287,-16.1623,469.4368],[35.2931,-16.157,455.6457],[35.2919,-16.1523,457.8021],[35.2959,-16.1471,459.6874],[35.3087,-16.1401,485.0894],[35.3199,-16.14,487.9686],[35.3212,-16.1377,492.0226],[35.3203,-16.1314,498.5572],[35.3262,-16.1283,493.6543],[35.3289,-16.1246,495.9298],[35.3314,-16.1076,520.3638],[35.3293,-16.1034,561.7649],[35.3291,-16.0988,557.3693],[35.3277,-16.0967,567.8546],[35.321,-16.0958,579.8642],[35.32,-16.0943,583.3976],[35.3252,-16.0724,592.0398],[35.3234,-16.0675,626.15],[35.3194,-16.0637,634.5278],[35.3218,-16.0598,644.9121],[35.3212,-16.0573,641.5038],[35.3133,-16.0462,639.8067],[35.3151,-16.0381,643.2745],[35.3103,-16.0244,652.0306],[35.3134,-16.0221,658.7876],[35.3194,-16.0243,650.3923],[35.3197,-16.0188,652.2409],[35.3156,-16.0082,655.3246],[35.318,-16.0042,666.9506],[35.3215,-16.0027,660.5482],[35.319,-15.9998,661.8756],[35.3235,-15.9977,678.1315],[35.3305,-15.9892,694.0784],[35.3133,-15.9893,665.9603],[35.3038,-16.0011,666.7878],[35.2992,-16.0035,672.6094],[35.2956,-16.0024,682.0351],[35.2947,-15.9998,682.7042],[35.2968,-15.9969,687.1061],[35.2904,-15.9953,683.5411],[35.2909,-15.989,694.4913],[35.2853,-15.9886,693.0416],[35.2777,-15.9771,702.5836],[35.2676,-15.9697,708.6882],[35.2669,-15.966,711.213],[35.2697,-15.9641,713.8523],[35.2591,-15.9618,713.3115],[35.2589,-15.9582,724.2341],[35.2614,-15.9543,716.7111],[35.2589,-15.9488,720.1089],[35.2597,-15.9362,726.9995],[35.256,-15.9299,735.3718],[35.2608,-15.9233,747.6857],[35.2527,-15.9142,768.017],[35.2472,-15.9138,749.415],[35.2508,-15.9067,753.6096],[35.2468,-15.9016,763.3442],[35.2422,-15.9021,760.8423],[35.2418,-15.8959,768.8496],[35.2195,-15.8884,780.9925],[35.2146,-15.8896,782.5338],[35.2116,-15.8868,790.937],[35.2088,-15.8872,795.6846],[35.2075,-15.8896,790.9263],[35.2051,-15.8886,791.0756],[35.2032,-15.8835,797.21],[35.2053,-15.8794,804.5491],[35.2043,-15.8758,809.3547],[35.1957,-15.8705,825.5175],[35.1971,-15.8652,824.3821],[35.1962,-15.8636,840.2178],[35.2004,-15.8604,831.6445],[35.1982,-15.8543,844.1498],[35.1903,-15.8534,857.1785],[35.1877,-15.8569,854.0037],[35.1857,-15.857,851.7253],[35.1857,-15.8595,848.385],[35.1799,-15.8591,860.9755],[35.1778,-15.8627,855.3083],[35.1752,-15.8585,870.304],[35.1681,-15.8596,862.7754],[35.1685,-15.8558,878.2645],[35.166,-15.8548,869.9212],[35.1615,-15.8565,875.6514],[35.158,-15.8554,883.8649],[35.1552,-15.8579,895.0222],[35.1516,-15.858,884.0839],[35.1492,-15.8619,884.4767],[35.1459,-15.8593,906.9967],[35.1389,-15.8576,926.2218],[35.1376,-15.8537,949.8274],[35.136,-15.853,939.0518],[35.1306,-15.8556,940.5234],[35.1296,-15.858,950.4052],[35.1228,-15.8576,971.9354],[35.117,-15.8617,980.6696],[35.1166,-15.8651,963.8441],[35.1134,-15.8645,1027.2944],[35.11,-15.8684,1015.6873],[35.1082,-15.8766,996.2546],[35.0953,-15.8817,1030.1115],[35.0915,-15.8887,1058.6821],[35.0881,-15.8895,1072.0828],[35.0836,-15.888,1074.1588],[35.0818,-15.8912,1082.9034],[35.065,-15.9023,1146.9214],[35.0644,-15.9058,1141.551],[35.0543,-15.9103,1128.7302],[35.0501,-15.9141,1119.1541],[35.0407,-15.9117,1033.9618],[35.0343,-15.9206,996.5919],[35.0267,-15.9253,980.5604],[35.0219,-15.9233,947.1766],[35.0129,-15.9129,909.5577],[35.0119,-15.9139,905.1154],[35.0133,-15.9159,915.9339],[35.011,-15.9179,897.9659],[35.0071,-15.9124,893.1603],[34.9982,-15.9149,895.0995],[34.9963,-15.9193,869.6294],[34.9847,-15.9249,806.1942],[34.9835,-15.9325,801.5269],[34.9809,-15.9363,773.624],[34.9781,-15.9344,774.5714],[34.9712,-15.9438,694.6512],[34.9651,-15.942,647.3138],[34.962,-15.9446,694.9826],[34.9634,-15.9584,551.4287],[34.9569,-15.9637,570.4716],[34.9534,-15.9641,477.9965],[34.9546,-15.9713,440.8459],[34.9498,-15.9718,479.6103],[34.9478,-15.9737,462.9311],[34.9517,-15.9773,405.8832],[34.9497,-15.9838,445.1689],[34.9402,-15.99,380.465],[34.9385,-15.9931,345.6233],[34.9306,-15.9897,339.3086],[34.925,-15.9903,328.9288],[34.9209,-15.9942,369.4954],[34.9208,-15.9971,308.1137],[34.9223,-15.9992,280.8071],[34.927,-16.0008,275.5999],[34.9268,-16.0025,273.1755],[34.9189,-16.0049,269.6235],[34.9155,-16.0035,281.316],[34.9093,-16.0051,245.1987],[34.9018,-16.0109,297.8824],[34.9057,-16.0137,266.8825],[34.9037,-16.0227,287.8615],[34.9117,-16.032,277.1249],[34.9161,-16.0499,249.7457],[34.9158,-16.0561,251.2849],[34.9226,-16.0625,264.9724],[34.9261,-16.063,282.5783],[34.9262,-16.0657,248.8098],[34.9298,-16.0686,215.9699],[34.9332,-16.0748,190.3136],[34.9311,-16.0769,223.7881],[34.9321,-16.0803,171.4757],[34.9297,-16.0817,168.7797],[34.9288,-16.08,188.7322],[34.927,-16.0805,181.7926],[34.9263,-16.0834,171.4581],[34.9311,-16.0834,170.6394],[34.9361,-16.0889,208.365],[34.944,-16.1011,314.8992],[34.9498,-16.1143,466.9189],[34.9601,-16.1283,239.1735],[34.9932,-16.1464,407.5492],[35.0246,-16.1815,139.9341],[35.0171,-16.1937,120.8635],[35.0314,-16.2082,152.1565],[35.0327,-16.2189,184.5505],[35.0494,-16.2413,138.0306],[35.0521,-16.249,138.705],[35.0588,-16.2543,164.893],[35.0749,-16.2602,231.3505],[35.0854,-16.2703,168.4066],[35.0962,-16.2785,312.4755],[35.1027,-16.2815,372.3285],[35.0998,-16.2947,658.0896],[35.1033,-16.3014,654.8253],[35.1142,-16.3124,343.8374]]]]}
,"properties": {"GID_1": "MWI.27_1","GID_0": "MWI","country": "Malawi","province": "Thyolo","VARNAME_1": "Cholo","NL_NAME_1": "NA","TYPE_1": "District","ENGTYPE_1": "District","CC_1": "NA","HASC_1": "MW.TH","ISO_1": "MW-TH","name": "Thyolo.province","area_km2": 1671.7,"hist_schema_id": "Elevation0-9000","hist_area_km2": {"100": 0.041,"125": 0.529,"150": 3.255,"175": 9.808,"200": 12.436,"225": 14.554,"250": 14.78,"275": 16.776,"300": 18.894,"325": 20.827,"350": 21.398,"375": 21.478,"400": 26.302,"425": 27.218,"450": 28.623,"475": 31.597,"500": 30.906,"525": 30.214,"550": 30.908,"575": 33.373,"600": 39.545,"625": 45.289,"650": 54.64,"675": 68.68,"700": 71.248,"725": 78.626,"750": 80.974,"775": 79.449,"800": 75.377,"825": 79.311,"850": 77.908,"875": 70.921,"900": 53.953,"925": 45.38,"950": 40.861,"975": 38.988,"1000": 38.562,"1025": 36.424,"1050": 34.528,"1075": 32.613,"1100": 33.571,"1125": 32.023,"1150": 31.166,"1175": 17.793,"1200": 7.092,"1225": 3.118,"1250": 2.221,"1275": 1.508,"1300": 1.548,"1325": 1.263,"1350": 1.121,"1375": 1.243,"1400": 0.611,"1425": 0.183,"1450": 0.041}}}