{"type": "Feature","bbox": [35.167,-16.703,35.2311,-16.6506],"geometry": {"type": "MultiPolygon","coordinates": [[[[35.167,-16.6918,137.7458],[35.1808,-16.703,130.225],[35.1896,-16.6982,114.054],[35.1988,-16.6956,97.4241],[35.2036,-16.688,86.7346],[35.2097,-16.6708,61.6153],[35.2182,-16.6686,51.3238],[35.2311,-16.659,43.0705],[35.2288,-16.6516,43.8557],[35.2247,-16.6509,45.4364],[35.2205,-16.6532,44.8542],[35.2155,-16.6532,45.3601],[35.2136,-16.6506,45.3528],[35.2023,-16.6574,55.143],[35.1768,-16.6787,100.7498],[35.1766,-16.6879,114.4116],[35.1699,-16.6918,131.6762],[35.167,-16.6918,137.7458]]]]}
,"properties": {"GID_3": "MWI.21.11.1_1","GID_0": "MWI","country": "Malawi","GID_1": "MWI.21_1","province": "Nsanje","NL_NAME_1": "NA","GID_2": "MWI.21.11_1","county": "TATengani","NL_NAME_2": "NA","city": "n.a.(3087)","VARNAME_3": "NA","NL_NAME_3": "NA","TYPE_3": "Unknown","ENGTYPE_3": "Unknown","CC_3": "NA","HASC_3": "NA","name": "n.a.(3087).city","area_km2": 15.67971,"hist_schema_id": "Elevation0-9000","hist_area_km2": {"50": 4.77337,"75": 3.45284,"100": 4.30566,"125": 3.14785}}}