{"type":"Feature","properties":{"GID_3":"MWI.9.16.21_1","GID_0":"MWI","country":"Malawi","GID_1":"MWI.9_1","province":"Kasungu","NL_NAME_1":"NA","GID_2":"MWI.9.16_1","county":"TAWimbe","NL_NAME_2":"NA","city":"n.a.(462)","VARNAME_3":"NA","NL_NAME_3":"NA","TYPE_3":"Unknown","ENGTYPE_3":"Unknown","CC_3":"NA","HASC_3":"NA","name":"n.a.(462).city"},
"geometry":{"type": "MultiPolygon","coordinates": [[[[33.6632,-13.0176,1158.5339],[33.6709,-13.0235,1174.7524],[33.6754,-13.0242,1170.051],[33.6832,-13.0205,1167.6512],[33.6918,-13.0197,1168.6965],[33.6926,-13.0281,1155.344],[33.6994,-13.0353,1146.5308],[33.6914,-13.0395,1155.1954],[33.686,-13.0488,1168.4058],[33.6909,-13.0544,1157.1172],[33.7013,-13.0513,1135.8331],[33.7093,-13.0445,1144.6489],[33.7107,-13.0402,1150.7469],[33.7066,-13.0341,1158.6957],[33.7063,-13.0305,1166.2295],[33.7177,-13.0277,1125.1038],[33.7245,-13.0223,1136.7632],[33.7295,-13.0147,1147.4324],[33.7222,-13.014,1160.7993],[33.7242,-13.0063,1151.4301],[33.7209,-12.9994,1142.8342],[33.7166,-12.9996,1136.8059],[33.7134,-12.9945,1149.0762],[33.6872,-12.9946,1187.9121],[33.6836,-12.9949,1182.7865],[33.6717,-13.0074,1162.2535],[33.6693,-13.0129,1180.566],[33.6632,-13.0176,1158.5339]]]]}}