{"type": "Feature","bbox": [33.3781,-13.1943,33.4616,-13.1171],"geometry": {"type": "MultiPolygon","coordinates": [[[[33.4162,-13.1859,1086.5867],[33.4198,-13.1905,1082.9225],[33.428,-13.1943,1076.2615],[33.4485,-13.178,1069.5066],[33.4537,-13.1759,1067.92],[33.4573,-13.1644,1087.9924],[33.4568,-13.1437,1100.9268],[33.4616,-13.1342,1111.422],[33.4518,-13.1327,1097.9988],[33.4403,-13.127,1098.8132],[33.4337,-13.1254,1095.6479],[33.4328,-13.1276,1093.9663],[33.4308,-13.1253,1094.8835],[33.4239,-13.123,1092.5547],[33.3983,-13.1171,1098.2137],[33.394,-13.137,1101.8936],[33.3824,-13.1584,1104.9402],[33.3781,-13.1636,1099.8728],[33.3946,-13.1666,1093.5868],[33.4002,-13.1728,1090.5422],[33.4095,-13.1777,1090.666],[33.4135,-13.1846,1083.6936],[33.4162,-13.1859,1086.5867]]]]}
,"properties": {"GID_3": "MWI.9.6.6_1","GID_0": "MWI","country": "Malawi","GID_1": "MWI.9_1","province": "Kasungu","NL_NAME_1": "NA","GID_2": "MWI.9.6_1","county": "SCLukwa","NL_NAME_2": "NA","city": "n.a.(500)","VARNAME_3": "NA","NL_NAME_3": "NA","TYPE_3": "Unknown","ENGTYPE_3": "Unknown","CC_3": "NA","HASC_3": "NA","name": "n.a.(500).city","area_km2": 46.43268,"hist_schema_id": "Elevation0-9000","hist_area_km2": {"1075": 14.59621,"1100": 30.7629,"1125": 1.07356}}}