{"type": "Feature","bbox": [33.2991,-14.066,33.3547,-14.0153],"geometry": {"type": "MultiPolygon","coordinates": [[[[33.3547,-14.0183,1109.7548],[33.3299,-14.0153,1147.8158],[33.3285,-14.0183,1145.7411],[33.3135,-14.0227,1161.9014],[33.3075,-14.0274,1166.9875],[33.3007,-14.0374,1163.3409],[33.2991,-14.0377,1163.8417],[33.3036,-14.048,1162.0605],[33.3041,-14.0586,1163.243],[33.3082,-14.066,1165.6694],[33.3142,-14.0627,1158.853],[33.3145,-14.0531,1148.9875],[33.3216,-14.0463,1142.0826],[33.336,-14.0435,1126.4478],[33.3304,-14.0352,1128.9651],[33.3335,-14.0265,1121.5957],[33.3489,-14.0245,1113.7173],[33.3547,-14.0183,1109.7548]]]]}
,"properties": {"GID_3": "MWI.14.3.20_1","GID_0": "MWI","country": "Malawi","GID_1": "MWI.14_1","province": "Mchinji","NL_NAME_1": "NA","GID_2": "MWI.14.3_1","county": "SCMavwere","NL_NAME_2": "NA","city": "n.a.(1149)","VARNAME_3": "NA","NL_NAME_3": "NA","TYPE_3": "Unknown","ENGTYPE_3": "Unknown","CC_3": "NA","HASC_3": "NA","name": "n.a.(1149).city","area_km2": 13.08202,"hist_schema_id": "Elevation0-9000","hist_area_km2": {"1100": 0.12342,"1125": 3.66143,"1150": 8.16592,"1175": 1.13125}}}