{"type": "Feature","bbox": [34.5504,-14.2896,34.796,-13.4793],"geometry": {"type": "MultiPolygon","coordinates": [[[[34.5678,-14.1334,474.5],[34.5804,-14.1383,474.5],[34.5912,-14.1502,475.3758],[34.5945,-14.1511,474.5],[34.5966,-14.1665,478.8492],[34.6009,-14.1762,476.5325],[34.5991,-14.1818,476.708],[34.6012,-14.1855,474.5],[34.6075,-14.1893,474.5],[34.6137,-14.2015,475.7535],[34.6301,-14.2136,474.5],[34.6383,-14.2161,474.5],[34.6422,-14.2146,474.5],[34.6448,-14.2192,476.0758],[34.655,-14.2208,474.5],[34.6731,-14.2272,474.5],[34.6879,-14.2288,474.5],[34.6923,-14.2331,474.5],[34.6933,-14.2381,474.5],[34.6899,-14.2568,476.4966],[34.6897,-14.267,475.5674],[34.6861,-14.2704,475.7219],[34.6864,-14.2738,474.5],[34.6808,-14.278,476.1283],[34.6882,-14.2874,474.5],[34.704,-14.2896,475.2577],[34.7126,-14.2874,474.5],[34.713,-14.2862,474.5],[34.7199,-14.2864,474.6521],[34.7259,-14.2824,474.5],[34.7295,-14.2776,474.5],[34.7393,-14.2768,474.5],[34.7566,-14.2429,474.5],[34.7649,-14.2077,474.5],[34.7814,-14.1125,474.5],[34.796,-13.9628,474.5],[34.796,-13.8839,474.5],[34.7824,-13.7883,474.5],[34.7911,-13.6622,474.5],[34.7629,-13.5637,474.5],[34.7768,-13.4793,474.5],[34.6468,-13.482,474.5],[34.6385,-13.7066,474.5],[34.6439,-13.8353,474.5],[34.6452,-13.9156,474.5],[34.6429,-13.9397,474.5],[34.6317,-13.9878,474.5],[34.6076,-14.0416,474.5],[34.5951,-14.0643,474.5],[34.5768,-14.0843,474.5],[34.5504,-14.1036,477.1608],[34.561,-14.1219,474.5],[34.5625,-14.1296,474.9372],[34.5678,-14.1334,474.5]]]]}
,"properties": {"GID_2": "MWI.6.2_1","GID_0": "MWI","country": "Malawi","GID_1": "MWI.6_1","province": "Dedza","NL_NAME_1": "NA","county": "LakeMalawi","VARNAME_2": "NA","NL_NAME_2": "NA","TYPE_2": "Waterbody","ENGTYPE_2": "Waterbody","CC_2": "NA","HASC_2": "NA","name": "Lake_Malawi.county","area_km2": 1428.106,"hist_schema_id": "Elevation0-9000","hist_area_km2": {"475": 1427.735,"500": 0.144,"525": 0.206,"550": 0.021}}}