{"type": "Feature","bbox": [34.5727,-15.3255,34.649,-15.255],"geometry": {"type": "MultiPolygon","coordinates": [[[[34.6033,-15.269,1419.9517],[34.6017,-15.2679,1449.0767],[34.6005,-15.2693,1431.4238],[34.5979,-15.2814,1518.9905],[34.5858,-15.2952,1582.4989],[34.5742,-15.3052,1585.7372],[34.5727,-15.3086,1620.1125],[34.5761,-15.312,1521.0879],[34.5853,-15.3162,1408.5466],[34.5973,-15.3182,1282.6014],[34.6002,-15.3123,1199.0483],[34.6138,-15.3102,1141.1508],[34.6176,-15.3076,1132.1521],[34.6223,-15.312,1035.8159],[34.635,-15.3183,885.0072],[34.6353,-15.3227,856.3518],[34.6335,-15.3247,859.4393],[34.6418,-15.3255,831.3625],[34.6408,-15.3225,869.7516],[34.6454,-15.3215,860.9042],[34.6459,-15.3174,880.4576],[34.642,-15.3091,911.7941],[34.6432,-15.2978,1036.4576],[34.6418,-15.2885,1105.843],[34.6424,-15.2713,1255.8544],[34.649,-15.26,1191.11],[34.6455,-15.2574,1189.7874],[34.6323,-15.255,1253.7107],[34.627,-15.2571,1223.668],[34.6231,-15.2567,1291.186],[34.6237,-15.2627,1216.8735],[34.61,-15.2694,1319.078],[34.6033,-15.269,1419.9517]]]]}
,"properties": {"GID_3": "MWI.18.2.2_1","GID_0": "MWI","country": "Malawi","GID_1": "MWI.18_1","province": "Neno","NL_NAME_1": "NA","GID_2": "MWI.18.2_1","county": "TADambe","NL_NAME_2": "NA","city": "n.a.(2084)","VARNAME_3": "NA","NL_NAME_3": "NA","TYPE_3": "Unknown","ENGTYPE_3": "Unknown","CC_3": "NA","HASC_3": "NA","name": "n.a.(2084).city","area_km2": 34.29735,"hist_schema_id": "Elevation0-9000","hist_area_km2": {"850": 0.30673,"875": 0.71571,"900": 0.30674,"925": 0.51124,"950": 0.75665,"975": 0.9816,"1000": 0.67486,"1025": 0.71577,"1050": 1.18616,"1075": 1.32932,"1100": 1.14529,"1125": 1.34983,"1150": 1.65661,"1175": 1.96343,"1200": 2.57706,"1225": 2.29077,"1250": 1.96349,"1275": 1.34985,"1300": 1.39071,"1325": 1.00211,"1350": 1.00214,"1375": 1.04304,"1400": 1.04304,"1425": 1.24752,"1450": 1.16573,"1475": 1.00211,"1500": 0.85895,"1525": 0.63399,"1550": 0.98165,"1575": 0.65443,"1600": 0.40901,"1625": 0.0818}}}