{"type": "Feature","bbox": [35.1967,-16.3418,35.2365,-16.3126],"geometry": {"type": "MultiPolygon","coordinates": [[[[35.2365,-16.3175,436.8391],[35.2332,-16.3126,487.963],[35.2161,-16.316,572.8081],[35.2141,-16.3246,585.5541],[35.2039,-16.3249,629.7411],[35.2013,-16.3332,578.007],[35.1967,-16.3361,535.6965],[35.2017,-16.3349,535.6186],[35.202,-16.3379,500.2328],[35.2222,-16.3418,478.7786],[35.2301,-16.3324,601.2637],[35.2365,-16.3175,436.8391]]]]}
,"properties": {"GID_3": "MWI.27.11.9_1","GID_0": "MWI","country": "Malawi","GID_1": "MWI.27_1","province": "Thyolo","NL_NAME_1": "NA","GID_2": "MWI.27.11_1","county": "TANsabwe","NL_NAME_2": "NA","city": "n.a.(3018)","VARNAME_3": "NA","NL_NAME_3": "NA","TYPE_3": "Unknown","ENGTYPE_3": "Unknown","CC_3": "NA","HASC_3": "NA","name": "n.a.(3018).city","area_km2": 7.406344,"hist_schema_id": "Elevation0-9000","hist_area_km2": {"425": 0.345881,"450": 0.874917,"475": 1.383616,"500": 1.403963,"525": 1.098746,"550": 0.874925,"575": 0.590066,"600": 0.26451,"625": 0.386595,"650": 0.101736,"675": 0.081389}}}