{"type": "Feature","bbox": [33.4846,-14.1587,33.5365,-14.1157],"geometry": {"type": "MultiPolygon","coordinates": [[[[33.5365,-14.1158,1113.6362],[33.5287,-14.117,1117.7357],[33.5198,-14.1157,1113.5312],[33.5017,-14.1161,1123.481],[33.5052,-14.133,1147.5286],[33.4928,-14.1365,1140.9797],[33.4846,-14.149,1152.907],[33.4959,-14.1572,1167.7471],[33.5044,-14.1587,1151.9956],[33.5106,-14.157,1145.442],[33.5203,-14.1476,1135.5354],[33.5233,-14.141,1138.2844],[33.5338,-14.1283,1118.2561],[33.5365,-14.1158,1113.6362]]]]}
,"properties": {"GID_3": "MWI.11.8.8_1","GID_0": "MWI","country": "Malawi","GID_1": "MWI.11_1","province": "Lilongwe","NL_NAME_1": "NA","GID_2": "MWI.11.8_1","county": "TAChiseka","NL_NAME_2": "NA","city": "n.a.(1264)","VARNAME_3": "NA","NL_NAME_3": "NA","TYPE_3": "Unknown","ENGTYPE_3": "Unknown","CC_3": "NA","HASC_3": "NA","name": "n.a.(1264).city","area_km2": 15.11172,"hist_schema_id": "Elevation0-9000","hist_area_km2": {"1100": 1.00753,"1125": 3.51597,"1150": 9.97146,"1175": 0.61676}}}