{"type": "Feature","bbox": [35.4012,-14.2134,35.4369,-14.1724],"geometry": {"type": "MultiPolygon","coordinates": [[[[35.4012,-14.2053,1075.2903],[35.4037,-14.213,1073.7059],[35.4113,-14.2134,1034.6569],[35.4229,-14.2097,1023.8157],[35.4278,-14.2012,1011.4373],[35.4201,-14.2011,1009.8091],[35.4195,-14.1976,1005.6143],[35.4233,-14.1893,995.9272],[35.4369,-14.1783,979.3787],[35.4297,-14.1759,993.9352],[35.4286,-14.1724,1002.3255],[35.4229,-14.176,1020.0876],[35.4134,-14.1743,1027.4362],[35.4122,-14.1777,1039.7925],[35.4176,-14.1823,1022.8384],[35.4126,-14.1855,1030.6968],[35.4121,-14.1887,1033.2834],[35.406,-14.1939,1053.3169],[35.408,-14.1995,1054.3425],[35.4061,-14.2041,1071.6167],[35.4012,-14.2053,1075.2903]]]]}
,"properties": {"GID_3": "MWI.13.10.11_1","GID_0": "MWI","country": "Malawi","GID_1": "MWI.13_1","province": "Mangochi","NL_NAME_1": "NA","GID_2": "MWI.13.10_1","county": "TAKatuli","NL_NAME_2": "NA","city": "n.a.(1328)","VARNAME_3": "NA","NL_NAME_3": "NA","TYPE_3": "Unknown","ENGTYPE_3": "Unknown","CC_3": "NA","HASC_3": "NA","name": "n.a.(1328).city","area_km2": 7.502547,"hist_schema_id": "Elevation0-9000","hist_area_km2": {"975": 0.061669,"1000": 1.665024,"1025": 3.884873,"1050": 1.315477,"1075": 0.575503}}}