{"type":"Feature","properties":{"GID_3":"MWI.15.7.9_1","GID_0":"MWI","country":"Malawi","GID_1":"MWI.15_1","province":"Mulanje","NL_NAME_1":"NA","GID_2":"MWI.15.7_1","county":"TANkanda","NL_NAME_2":"NA","city":"n.a.(2599)","VARNAME_3":"NA","NL_NAME_3":"NA","TYPE_3":"Unknown","ENGTYPE_3":"Unknown","CC_3":"NA","HASC_3":"NA","name":"n.a.(2599).city"},
"geometry":{"type": "MultiPolygon","coordinates": [[[[35.5487,-15.8714,957.1573],[35.5437,-15.8661,804.3423],[35.5448,-15.8562,734.6522],[35.5535,-15.8553,730.6929],[35.5524,-15.8517,723.9908],[35.5536,-15.846,732.2836],[35.5512,-15.8471,720.3582],[35.552,-15.8431,721.8038],[35.5488,-15.8413,720.043],[35.5493,-15.8399,720.2054],[35.5444,-15.8346,717.8293],[35.5401,-15.8428,716.9546],[35.5399,-15.8538,725.3589],[35.529,-15.8592,732.1556],[35.5305,-15.8615,741.9988],[35.5356,-15.8631,754.1998],[35.5347,-15.8752,945.0264],[35.5487,-15.8714,957.1573]]]]}}