{"type":"Feature","properties":{"GID_3":"MWI.14.4.10_1","GID_0":"MWI","country":"Malawi","GID_1":"MWI.14_1","province":"Mchinji","NL_NAME_1":"NA","GID_2":"MWI.14.4_1","county":"SCMduwa","NL_NAME_2":"NA","city":"n.a.(808)","VARNAME_3":"NA","NL_NAME_3":"NA","TYPE_3":"Unknown","ENGTYPE_3":"Unknown","CC_3":"NA","HASC_3":"NA","name":"n.a.(808).city"},
"geometry":{"type": "MultiPolygon","coordinates": [[[[33.0809,-13.681,1128.0179],[33.0765,-13.6827,1132.4094],[33.0756,-13.693,1133.2188],[33.0822,-13.7011,1114.072],[33.0884,-13.7158,1097.4735],[33.0858,-13.723,1096.9714],[33.0869,-13.7351,1098.0913],[33.1128,-13.7297,1109.0579],[33.1081,-13.7167,1120.1411],[33.1089,-13.7147,1120.7195],[33.118899999999996,-13.7105,1102.3002],[33.1281,-13.7126,1094.5034],[33.1315,-13.7118,1091.0966],[33.1255,-13.7058,1101.8428],[33.1206,-13.6956,1112.7003],[33.1041,-13.6877,1124.1866],[33.1094,-13.6805,1119.7971],[33.1201,-13.6722,1115.8522],[33.1153,-13.6542,1102.8323],[33.1087,-13.6603,1099.5161],[33.0985,-13.6755,1108.3416],[33.0943,-13.6792,1111.7676],[33.0872,-13.6814,1117.9467],[33.0809,-13.681,1128.0179]]]]}}