{"type":"Feature","properties":{"GID_3":"MWI.12.12.32_1","GID_0":"MWI","country":"Malawi","GID_1":"MWI.12_1","province":"Machinga","NL_NAME_1":"NA","GID_2":"MWI.12.12_1","county":"TAKawinga","NL_NAME_2":"NA","city":"n.a.(1947)","VARNAME_3":"NA","NL_NAME_3":"NA","TYPE_3":"Unknown","ENGTYPE_3":"Unknown","CC_3":"NA","HASC_3":"NA","name":"n.a.(1947).city"},
"geometry":{"type": "MultiPolygon","coordinates": [[[[35.5808,-14.9894,634.2212],[35.5803,-14.9983,634.1226],[35.5836,-15.0035,628.5084],[35.5872,-15.0055,626.8673],[35.5892,-15.0099,624.7361],[35.62,-15.0287,624.0281],[35.6145,-15.0071,624.184],[35.6059,-14.9939,628.9766],[35.6065,-14.9891,632.4131],[35.6043,-14.9858,632.4704],[35.6066,-14.9777,634.3301],[35.6057,-14.9714,636.0807],[35.5777,-14.9794,635.4863],[35.5808,-14.9894,634.2212]]]]}}