{"type":"Feature","properties":{"GID_3":"MWI.27.2.11_1","GID_0":"MWI","country":"Malawi","GID_1":"MWI.27_1","province":"Thyolo","NL_NAME_1":"NA","GID_2":"MWI.27.2_1","county":"SCKwethemule","NL_NAME_2":"NA","city":"n.a.(2956)","VARNAME_3":"NA","NL_NAME_3":"NA","TYPE_3":"Unknown","ENGTYPE_3":"Unknown","CC_3":"NA","HASC_3":"NA","name":"n.a.(2956).city"},
"geometry":{"type": "MultiPolygon","coordinates": [[[[35.1166,-16.1724,849.656],[35.1121,-16.1777,881.0002],[35.101,-16.1832,884.121],[35.0983,-16.1796,882.644],[35.1013,-16.175,897.658],[35.1003,-16.1741,881.1013],[35.0977,-16.1745,874.3634],[35.0943,-16.1778,874.9231],[35.0902,-16.1744,855.1493],[35.0875,-16.1744,855.826],[35.0812,-16.1857,829.4597],[35.0675,-16.1955,788.4181],[35.0745,-16.1956,817.0389],[35.0796,-16.1921,833.3043],[35.0826,-16.1936,840.1151],[35.0928,-16.1927,875.0006],[35.0923,-16.1935,870.2722],[35.0897,-16.1945,858.7326],[35.0861,-16.2,888.6591],[35.1063,-16.2029,862.6434],[35.1117,-16.1993,829.2848],[35.1188,-16.1914,818.278],[35.1123,-16.1891,859.1064],[35.1124,-16.1866,861.9335],[35.1225,-16.181,834.6646],[35.1219,-16.1784,812.8057],[35.1166,-16.1724,849.656]]]]}}