{"type":"Feature","properties":{"GID_3":"MWI.6.6.11_1","GID_0":"MWI","country":"Malawi","GID_1":"MWI.6_1","province":"Dedza","NL_NAME_1":"NA","GID_2":"MWI.6.6_1","county":"TAKachindamoto","NL_NAME_2":"NA","city":"n.a.(1376)","VARNAME_3":"NA","NL_NAME_3":"NA","TYPE_3":"Unknown","ENGTYPE_3":"Unknown","CC_3":"NA","HASC_3":"NA","name":"n.a.(1376).city"},
"geometry":{"type": "MultiPolygon","coordinates": [[[[34.6431,-14.2157,474.5],[34.6403,-14.2204,476.1959],[34.6416,-14.2249,476.5965],[34.6385,-14.2346,478.1403],[34.6175,-14.2491,488.2114],[34.6118,-14.2513,490.9386],[34.611,-14.2712,492.7622],[34.6072,-14.2794,494.2497],[34.6014,-14.2828,496.8864],[34.611,-14.2922,495.8743],[34.6184,-14.2873,492.209],[34.6301,-14.2735,488.1118],[34.6398,-14.2741,486.3456],[34.6478,-14.2698,484.2003],[34.6547,-14.2714,484.6469],[34.6595,-14.2746,490.3016],[34.6673,-14.2751,484.3088],[34.6866,-14.2725,474.8554],[34.6861,-14.2704,475.7219],[34.6897,-14.267,475.5674],[34.6899,-14.2568,476.4966],[34.6933,-14.2381,474.5],[34.6926,-14.2337,474.5],[34.6901,-14.2304,474.5],[34.6872,-14.2286,474.5],[34.6738,-14.2274,474.5],[34.655,-14.2208,474.5],[34.6448,-14.2192,476.0758],[34.6431,-14.2157,474.5]]]]}}