{"type": "Feature","bbox": [35.2106,-15.3612,35.2518,-15.3019],"geometry": {"type": "MultiPolygon","coordinates": [[[[35.2518,-15.311,878.719],[35.233,-15.3019,664.7005],[35.2273,-15.3023,641.6438],[35.2275,-15.3063,649.2433],[35.2311,-15.3128,674.168],[35.2246,-15.3112,632.6316],[35.22,-15.3123,623.9173],[35.2152,-15.322,621.2008],[35.2256,-15.3227,661.6058],[35.2254,-15.3243,649.5717],[35.2297,-15.326,682.1821],[35.2308,-15.3299,693.9381],[35.2255,-15.3291,667.7779],[35.2154,-15.3329,625.0938],[35.2129,-15.3347,613.3698],[35.2133,-15.3392,619.885],[35.2106,-15.3417,622.8107],[35.2228,-15.3469,675.8605],[35.2314,-15.3486,738.8937],[35.2325,-15.3512,752.7545],[35.23,-15.3569,717.5675],[35.2309,-15.3574,717.5675],[35.2486,-15.3612,1145.7845],[35.2502,-15.3539,1122.6796],[35.246,-15.3546,1023.1347],[35.2415,-15.3525,860.0522],[35.2433,-15.3496,916.2015],[35.2413,-15.3478,849.7269],[35.2398,-15.341,837.9771],[35.2434,-15.3343,828.0261],[35.2448,-15.3231,839.8105],[35.2518,-15.311,878.719]]]]}
,"properties": {"GID_3": "MWI.28.7.14_1","GID_0": "MWI","country": "Malawi","GID_1": "MWI.28_1","province": "Zomba","NL_NAME_1": "NA","GID_2": "MWI.28.7_1","county": "TAMlumbe","NL_NAME_2": "NA","city": "n.a.(2105)","VARNAME_3": "NA","NL_NAME_3": "NA","TYPE_3": "Unknown","ENGTYPE_3": "Unknown","CC_3": "NA","HASC_3": "NA","name": "n.a.(2105).city","area_km2": 14.55883,"hist_schema_id": "Elevation0-9000","hist_area_km2": {"625": 1.4109,"650": 1.75856,"675": 1.67677,"700": 1.53363,"725": 1.43136,"750": 1.45178,"775": 1.32909,"800": 1.2882,"825": 0.94059,"850": 0.42939,"875": 0.34762,"900": 0.14313,"925": 0.08178,"950": 0.12267,"975": 0.14312,"1000": 0.04089,"1025": 0.06134,"1050": 0.04089,"1075": 0.06134,"1100": 0.12267,"1125": 0.02045,"1150": 0.06134,"1175": 0.06134}}}