{"type": "Feature","bbox": [33.7787,-14.1159,33.8388,-14.0937],"geometry": {"type": "MultiPolygon","coordinates": [[[[33.8199,-14.1138,1095.4451],[33.8228,-14.1115,1092.0466],[33.8258,-14.1114,1087.8962],[33.8388,-14.1146,1081.0909],[33.8318,-14.1058,1090.1594],[33.8206,-14.1029,1113.1089],[33.8115,-14.1025,1134.7395],[33.8009,-14.0948,1136.218],[33.7924,-14.0955,1145.2474],[33.7857,-14.0937,1155.3938],[33.7787,-14.0975,1146.2915],[33.7788,-14.1076,1145.2952],[33.79,-14.1131,1134.5509],[33.8053,-14.1159,1109.4753],[33.8087,-14.1141,1104.0598],[33.8199,-14.1138,1095.4451]]]]}
,"properties": {"GID_3": "MWI.11.12.7_1","GID_0": "MWI","country": "Malawi","GID_1": "MWI.11_1","province": "Lilongwe","NL_NAME_1": "NA","GID_2": "MWI.11.12_1","county": "TAKalumba","NL_NAME_2": "NA","city": "n.a.(1245)","VARNAME_3": "NA","NL_NAME_3": "NA","TYPE_3": "Unknown","ENGTYPE_3": "Unknown","CC_3": "NA","HASC_3": "NA","name": "n.a.(1245).city","area_km2": 9.088806,"hist_schema_id": "Elevation0-9000","hist_area_km2": {"1075": 0.061687,"1100": 2.220756,"1125": 3.804117,"1150": 3.002246}}}