{"type":"Feature","properties":{"GID_3":"MWI.12.7.5_1","GID_0":"MWI","country":"Malawi","GID_1":"MWI.12_1","province":"Machinga","NL_NAME_1":"NA","GID_2":"MWI.12.7_1","county":"SCChiwalo","NL_NAME_2":"NA","city":"n.a.(1787)","VARNAME_3":"NA","NL_NAME_3":"NA","TYPE_3":"Unknown","ENGTYPE_3":"Unknown","CC_3":"NA","HASC_3":"NA","name":"n.a.(1787).city"},
"geometry":{"type": "MultiPolygon","coordinates": [[[[35.5519,-14.7442,787.5928],[35.5383,-14.7402,834.4532],[35.5359,-14.7584,830.0609],[35.5402,-14.7731,829.1167],[35.538,-14.7875,785.8683],[35.5401,-14.7855,787.4481],[35.5472,-14.7879,775.7729],[35.5508,-14.787,770.5676],[35.5643,-14.7815,765.5391],[35.5734,-14.7748,742.6681],[35.5685,-14.772,754.0206],[35.5639,-14.7725,754.7549],[35.5617,-14.7688,757.6288],[35.5598,-14.7548,770.0225],[35.5519,-14.7442,787.5928]]]]}}