{"type":"Feature","properties":{"GID_3":"MWI.12.14.12_1","GID_0":"MWI","country":"Malawi","GID_1":"MWI.12_1","province":"Machinga","NL_NAME_1":"NA","GID_2":"MWI.12.14_1","county":"TANyambi","NL_NAME_2":"NA","city":"n.a.(1731)","VARNAME_3":"NA","NL_NAME_3":"NA","TYPE_3":"Unknown","ENGTYPE_3":"Unknown","CC_3":"NA","HASC_3":"NA","name":"n.a.(1731).city"},
"geometry":{"type": "MultiPolygon","coordinates": [[[[35.7304,-14.7084,689.6958],[35.7305,-14.706,686.3555],[35.7242,-14.7017,691.7694],[35.7216,-14.6979,698.5995],[35.7159,-14.6966,697.9539],[35.7109,-14.6905,700.2075],[35.7051,-14.6887,703.5925],[35.7046,-14.6857,708.5857],[35.6994,-14.6818,711.3543],[35.7021,-14.6757,715.4125],[35.7096,-14.6685,706.1849],[35.7103,-14.6627,708.377],[35.7086,-14.6595,713.2293],[35.6959,-14.6602,847.835],[35.6914,-14.6655,900.3922],[35.6915,-14.6691,770.9211],[35.6791,-14.6731,769.4021],[35.6792,-14.6766,803.6491],[35.6854,-14.6797,766.7661],[35.6854,-14.6823,841.9926],[35.6807,-14.6843,798.9684],[35.6807,-14.6877,720.7121],[35.6756,-14.6947,731.2111],[35.6723,-14.697,733.1193],[35.6674,-14.6969,759.049],[35.6648,-14.6998,747.2367],[35.6695,-14.6994,743.2763],[35.681,-14.7077,758.3767],[35.6887,-14.7089,773.1609],[35.6938,-14.7046,761.8311],[35.6982,-14.6958,720.6724],[35.7021,-14.6957,738.1761],[35.7054,-14.7004,830.5574],[35.7064,-14.7078,873.5829],[35.7121,-14.7086,769.1521],[35.7151,-14.7109,774.5862],[35.7123,-14.7156,795.215],[35.7028,-14.7195,850.5686],[35.7038,-14.7249,814.7169],[35.7304,-14.7084,689.6958]]]]}}