{"type":"Feature","properties":{"GID_3":"MWI.26.8.2_1","GID_0":"MWI","country":"Malawi","GID_1":"MWI.26_1","province":"Salima","NL_NAME_1":"NA","GID_2":"MWI.26.8_1","county":"TAKuluunda","NL_NAME_2":"NA","city":"n.a.(757)","VARNAME_3":"NA","NL_NAME_3":"NA","TYPE_3":"Unknown","ENGTYPE_3":"Unknown","CC_3":"NA","HASC_3":"NA","name":"n.a.(757).city"},
"geometry":{"type": "MultiPolygon","coordinates": [[[[34.5139,-13.6025,477.0798],[34.4947,-13.6148,478.626],[34.4936,-13.6175,478.6028],[34.4957,-13.6234,479.2126],[34.4741,-13.6553,487.9306],[34.4778,-13.6555,487.5146],[34.4915,-13.6856,492.513],[34.5349,-13.6672,482.3456],[34.5406,-13.6559,479.9774],[34.549,-13.6554,478.6037],[34.5634,-13.6496,474.9658],[34.546,-13.6313,475.5525],[34.5378,-13.6139,477.0994],[34.5361,-13.6156,475.801],[34.5283,-13.6105,478.1969],[34.5242,-13.5988,474.8914],[34.5183,-13.5961,474.5],[34.5124,-13.5957,474.5],[34.5167,-13.5983,475.9438],[34.5179,-13.6016,474.5],[34.5141,-13.6051,478.1205],[34.5149,-13.6077,477.4985],[34.5167,-13.6068,477.1408],[34.5173,-13.608,475.7839],[34.5153,-13.6097,475.6097],[34.5123,-13.6069,477.5842],[34.5132,-13.6104,475.5276],[34.5116,-13.6131,475.5295],[34.5097,-13.6072,476.4953],[34.5139,-13.6025,477.0798]]]]}}