{"type":"Feature","properties":{"GID_3":"MWI.28.2.26_1","GID_0":"MWI","country":"Malawi","GID_1":"MWI.28_1","province":"Zomba","NL_NAME_1":"NA","GID_2":"MWI.28.2_1","county":"SCMbiza","NL_NAME_2":"NA","city":"n.a.(2333)","VARNAME_3":"NA","NL_NAME_3":"NA","TYPE_3":"Unknown","ENGTYPE_3":"Unknown","CC_3":"NA","HASC_3":"NA","name":"n.a.(2333).city"},
"geometry":{"type": "MultiPolygon","coordinates": [[[[35.4323,-15.5765,714.2141],[35.4171,-15.5777,728.8302],[35.4138,-15.5719,731.7302],[35.4027,-15.5695,741.4727],[35.3915,-15.5759,758.5842],[35.3926,-15.5814,754.2509],[35.3856,-15.5824,764.1498],[35.3862,-15.5921,754.2997],[35.3923,-15.5933,748.3574],[35.4026,-15.6008,738.0612],[35.4097,-15.6019,731.0534],[35.4135,-15.6001,729.8215],[35.4176,-15.6023,724.0726],[35.4243,-15.5992,717.7408],[35.427,-15.5961,719.6871],[35.4333,-15.5954,711.9673],[35.4323,-15.5765,714.2141]]]]}}