{"type": "Feature","bbox": [33.8632,-11.2389,33.9089,-11.1594],"geometry": {"type": "MultiPolygon","coordinates": [[[[33.8632,-11.193,1070.2338],[33.8671,-11.1928,1073.4647],[33.8683,-11.2008,1074.2456],[33.8724,-11.2,1072.6379],[33.8717,-11.201599999999999,1072.6228],[33.874,-11.203,1072.749],[33.8737,-11.2005,1072.6418],[33.876,-11.2008,1073.7721],[33.8765,-11.2073,1074.58],[33.8737,-11.2176,1077.0734],[33.8675,-11.2193,1084.8485],[33.8673,-11.2239,1090.0148],[33.8657,-11.2258,1085.1962],[33.8668,-11.2273,1084.697],[33.8665,-11.234,1084.2174],[33.8705,-11.238,1098.4291],[33.8752,-11.2389,1138.4221],[33.8853,-11.2289,1147.1467],[33.9019,-11.2077,1122.9653],[33.9024,-11.1997,1108.3699],[33.9048,-11.2011,1109.4985],[33.9089,-11.1989,1114.4426],[33.9081,-11.1831,1130.017],[33.9073,-11.1812,1124.4307],[33.8975,-11.1772,1115.7646],[33.8927,-11.1594,1073.7197],[33.8833,-11.1674,1077.4147],[33.8792,-11.1747,1077.2681],[33.8658,-11.1882,1073.9329],[33.8632,-11.193,1070.2338]]]]}
,"properties": {"GID_3": "MWI.17.10.12_1","GID_0": "MWI","country": "Malawi","GID_1": "MWI.17_1","province": "Mzimba","NL_NAME_1": "NA","GID_2": "MWI.17.10_1","county": "TAMtwalo","NL_NAME_2": "NA","city": "n.a.(171)","VARNAME_3": "NA","NL_NAME_3": "NA","TYPE_3": "Unknown","ENGTYPE_3": "Unknown","CC_3": "NA","HASC_3": "NA","name": "n.a.(171).city","area_km2": 23.00312,"hist_schema_id": "Elevation0-9000","hist_area_km2": {"1075": 8.06981,"1100": 8.11145,"1125": 5.69883,"1150": 0.66551,"1175": 0.18717,"1200": 0.16637,"1225": 0.06239,"1250": 0.0208,"1275": 0.0208}}}