{"type": "Feature","bbox": [33.4238,-13.3403,33.6389,-13.1578],"geometry": {"type": "MultiPolygon","coordinates": [[[[33.5496,-13.3084,1039.5869],[33.5453,-13.2958,1038.3981],[33.5473,-13.283,1041.8549],[33.5502,-13.2825,1051.6511],[33.5545,-13.2864,1037.1599],[33.5556,-13.2842,1046.1738],[33.5787,-13.2813,1048.0179],[33.5829,-13.271,1055.752],[33.5905,-13.269,1035.6969],[33.5914,-13.2528,1043.8021],[33.5856,-13.2436,1045.5355],[33.584,-13.2379,1042.3168],[33.5855,-13.2349,1049.9515],[33.6045,-13.2269,1056.6206],[33.6078,-13.2272,1058.4774],[33.6109,-13.2296,1049.7432],[33.6181,-13.2282,1050.7014],[33.6216,-13.2308,1046.9091],[33.6267,-13.2296,1049.5901],[33.6328,-13.2307,1050.801],[33.635,-13.2224,1037.5161],[33.6389,-13.221,1052.5779],[33.6291,-13.2165,1057.8892],[33.6206,-13.2104,1072.0936],[33.6143,-13.2077,1068.7275],[33.6095,-13.2081,1053.4584],[33.609,-13.2012,1060.4395],[33.6029,-13.1934,1078.0142],[33.5881,-13.1898,1065.2378],[33.5866,-13.1838,1084.1302],[33.5811,-13.1771,1077.3264],[33.5715,-13.1736,1072.8052],[33.5653,-13.1655,1082.5682],[33.5512,-13.1578,1087.465],[33.5358,-13.1716,1107.5411],[33.532,-13.1796,1100.9331],[33.5233,-13.1846,1084.7114],[33.5228,-13.2007,1075.2185],[33.5208,-13.2044,1072.2521],[33.5175,-13.2001,1081.1777],[33.513,-13.1804,1100.6998],[33.5074,-13.1883,1087.0669],[33.5047,-13.1967,1072.8064],[33.4993,-13.2023,1063.1101],[33.4887,-13.1953,1057.7462],[33.4753,-13.1898,1060.2472],[33.4675,-13.1813,1062.3148],[33.4537,-13.1759,1067.92],[33.4485,-13.178,1069.5066],[33.428,-13.1943,1076.2615],[33.424,-13.1933,1080.0264],[33.4238,-13.2962,1071.4431],[33.431,-13.2965,1063.3624],[33.4393,-13.306,1054.6123],[33.445,-13.3086,1050.396],[33.4653,-13.3083,1038.3389],[33.4655,-13.3124,1045.1705],[33.4707,-13.3184,1038.9764],[33.4738,-13.318,1042.1846],[33.481,-13.3216,1050.4402],[33.4864,-13.3277,1041.7351],[33.4922,-13.328,1045.4285],[33.4981,-13.3336,1042.0035],[33.5036,-13.3361,1040.6097],[33.5112,-13.3369,1037.3053],[33.5149,-13.3292,1045.001],[33.5192,-13.3268,1045.7446],[33.5223,-13.3305,1037.4318],[33.5233,-13.3379,1039.6464],[33.5267,-13.3403,1038.2012],[33.5318,-13.3355,1045.7505],[33.5382,-13.3332,1045.948],[33.5357,-13.3102,1044.3809],[33.5448,-13.3152,1037.4331],[33.5487,-13.3157,1039.6031],[33.5515,-13.3125,1042.8022],[33.5496,-13.3084,1039.5869]]]]}
,"properties": {"GID_2": "MWI.9.8_1","GID_0": "MWI","country": "Malawi","GID_1": "MWI.9_1","province": "Kasungu","NL_NAME_1": "NA","county": "SCNjombwa","VARNAME_2": "NA","NL_NAME_2": "NA","TYPE_2": "Sub-chief","ENGTYPE_2": "Sub-chief","CC_2": "NA","HASC_2": "NA","name": "S_C_Njombwa.county","area_km2": 268.6676,"hist_schema_id": "Elevation0-9000","hist_area_km2": {"1025": 1.6508,"1050": 57.5956,"1075": 152.1691,"1100": 53.8476,"1125": 1.7745,"1150": 0.5984,"1175": 0.5571,"1200": 0.2063,"1225": 0.1857,"1250": 0.0825}}}