{"type":"Feature","properties":{"GID_3":"MWI.12.12.3_1","GID_0":"MWI","country":"Malawi","GID_1":"MWI.12_1","province":"Machinga","NL_NAME_1":"NA","GID_2":"MWI.12.12_1","county":"TAKawinga","NL_NAME_2":"NA","city":"n.a.(1797)","VARNAME_3":"NA","NL_NAME_3":"NA","TYPE_3":"Unknown","ENGTYPE_3":"Unknown","CC_3":"NA","HASC_3":"NA","name":"n.a.(1797).city"},
"geometry":{"type": "MultiPolygon","coordinates": [[[[35.6506,-14.7569,742.8591],[35.6425,-14.7527,756.7602],[35.6314,-14.7514,763.0424],[35.6301,-14.762,747.1536],[35.6246,-14.7681,736.7307],[35.632,-14.769,735.7629],[35.641,-14.7754,730.8656],[35.6424,-14.7985,703.1909],[35.6463,-14.8088,692.7953],[35.662,-14.8172,681.2351],[35.6636,-14.8151,682.2784],[35.6606,-14.8024,695.7792],[35.6591,-14.7804,713.725],[35.6506,-14.7569,742.8591]]]]}}