{"type": "Feature","bbox": [33.543,-14.0994,33.5936,-14.052],"geometry": {"type": "MultiPolygon","coordinates": [[[[33.5936,-14.0836,1097.3163],[33.5907,-14.0644,1134.7742],[33.5838,-14.0637,1130.6643],[33.5806,-14.0584,1126.9515],[33.5677,-14.0527,1141.4138],[33.5624,-14.052,1141.6041],[33.5609,-14.0521,1141.6041],[33.5615,-14.0557,1141.6597],[33.5598,-14.0609,1152.769],[33.5583,-14.0783,1145.1826],[33.5491,-14.0758,1154.3271],[33.5461,-14.0807,1144.2076],[33.543,-14.0809,1137.0789],[33.5446,-14.0846,1131.6218],[33.5554,-14.092,1125.5103],[33.5628,-14.0994,1109.9177],[33.574,-14.0909,1109.1453],[33.585,-14.0882,1101.7172],[33.5866,-14.086,1100.7336],[33.5936,-14.0836,1097.3163]]]]}
,"properties": {"GID_3": "MWI.11.15.20_1","GID_0": "MWI","country": "Malawi","GID_1": "MWI.11_1","province": "Lilongwe","NL_NAME_1": "NA","GID_2": "MWI.11.15_1","county": "TAMalili","NL_NAME_2": "NA","city": "n.a.(1191)","VARNAME_3": "NA","NL_NAME_3": "NA","TYPE_3": "Unknown","ENGTYPE_3": "Unknown","CC_3": "NA","HASC_3": "NA","name": "n.a.(1191).city","area_km2": 15.58872,"hist_schema_id": "Elevation0-9000","hist_area_km2": {"1100": 1.70687,"1125": 10.20052,"1150": 3.68133}}}