{"type":"Feature","properties":{"GID_3":"MWI.28.2.15_1","GID_0":"MWI","country":"Malawi","GID_1":"MWI.28_1","province":"Zomba","NL_NAME_1":"NA","GID_2":"MWI.28.2_1","county":"SCMbiza","NL_NAME_2":"NA","city":"n.a.(2306)","VARNAME_3":"NA","NL_NAME_3":"NA","TYPE_3":"Unknown","ENGTYPE_3":"Unknown","CC_3":"NA","HASC_3":"NA","name":"n.a.(2306).city"},
"geometry":{"type": "MultiPolygon","coordinates": [[[[35.4166,-15.549,742.7394],[35.4216,-15.5497,737.9843],[35.4351,-15.5673,709.7332],[35.4318,-15.5706,713.1682],[35.4333,-15.5954,711.9673],[35.427,-15.5961,719.6871],[35.419,-15.6018,720.0294],[35.4375,-15.6084,706.9865],[35.4465,-15.6089,700.6915],[35.448,-15.6015,699.6246],[35.4539,-15.6005,695.1086],[35.471,-15.587,683.3873],[35.4722,-15.572,687.4982],[35.4595,-15.5736,694.4139],[35.4602,-15.5665,691.4082],[35.4542,-15.5665,696.5534],[35.4326,-15.557,717.825],[35.4175,-15.5443,744.0857],[35.4166,-15.549,742.7394]]]]}}