{"type": "Feature","id": "1910","bbox": [34.736,-14.7622,35.75054,-13.51628],"geometry": {"type": "Polygon","coordinates": [[[35.75054,-14.54314,712.7393],[35.71444,-14.4987,951.7557],[35.60943,-14.36941,796.9612],[35.52282,-14.26275,915.1896],[35.45575,-14.13697,956.7052],[35.37007,-14.03723,1406.4952],[35.2787,-13.93088,1373.6295],[35.17111,-13.80572,776.0009],[35.08409,-13.70423,572.7217],[34.99655,-13.62599,538.049],[34.89444,-13.53473,559.0361],[34.8639,-13.51628,474.5],[34.736,-14.07811,474.5],[34.7484,-14.2613,474.5],[34.74825,-14.30321,479.5536],[34.75491,-14.4046,508.3024],[34.76918,-14.47467,542.4082],[34.79698,-14.55498,603.8389],[34.9132,-14.70608,859.1871],[34.92622,-14.71796,819.9834],[34.95666,-14.73099,748.878],[34.9903,-14.75538,717.6276],[35.00007,-14.75553,719.0317],[35.27504,-14.75569,473.5],[35.27643,-14.74768,473.5],[35.27597,-14.74566,473.5],[35.27132,-14.73311,474.0073],[35.27038,-14.72773,473.5],[35.26992,-14.72246,473.5],[35.27054,-14.71693,473.5],[35.27426,-14.70773,473.5],[35.27938,-14.69988,473.5],[35.28124,-14.69533,473.5],[35.28294,-14.68505,473.5],[35.28496,-14.68112,473.5],[35.2879,-14.67947,473.5],[35.29472,-14.68034,473.5],[35.29943,-14.68179,473.5],[35.30454,-14.68427,473.5],[35.31074,-14.6883,476.8203],[35.32764,-14.70308,487.1493],[35.33849,-14.71486,494.4828],[35.34919,-14.73223,498.8979],[35.35513,-14.73698,503.3159],[35.36258,-14.74013,506.6132],[35.37343,-14.74215,511.5755],[35.4251,-14.75946,549.2919],[35.43952,-14.7622,582.5558],[35.45502,-14.75946,602.4486],[35.46949,-14.75197,694.4136],[35.49585,-14.7251,683.9288],[35.51089,-14.71719,741.2634],[35.52148,-14.71362,767.6748],[35.53125,-14.70809,845.7012],[35.5421,-14.69471,876.5403],[35.5466,-14.68133,852.6772],[35.54784,-14.66737,857.9784],[35.54287,-14.63378,839.6858],[35.54334,-14.62717,863.3179],[35.54567,-14.622,876.6368],[35.56101,-14.60577,841.2642],[35.57502,-14.59699,811.606],[35.59641,-14.58877,792.4725],[35.64592,-14.5772,765.1939],[35.67041,-14.5741,761.0401],[35.70007,-14.57301,713.96],[35.72255,-14.56511,767.4542],[35.75041,-14.54325,712.7393],[35.75054,-14.54314,712.7393]]]}
,"properties": {"ISO3166-1-Alpha-3": "MWI","country": "Malawi","fill": "#00F","name": "Mangochi","area_km2": 8655.465,"hist_schema_id": "Elevation0-9000","hist_area_km2": {"475": 3050.262,"500": 658.967,"525": 502.42,"550": 354.996,"575": 250.175,"600": 204.131,"625": 185.15,"650": 159.873,"675": 156.003,"700": 185.451,"725": 230.599,"750": 229.276,"775": 209.812,"800": 217.255,"825": 216.562,"850": 223.447,"875": 202.463,"900": 168.43,"925": 153.254,"950": 178.986,"975": 176.323,"1000": 142.523,"1025": 111.349,"1050": 87.661,"1075": 56.736,"1100": 38.16,"1125": 33.765,"1150": 35.333,"1175": 28.572,"1200": 20.204,"1225": 17.242,"1250": 19.608,"1275": 23.398,"1300": 23.502,"1325": 20.58,"1350": 15.645,"1375": 13.713,"1400": 11.965,"1425": 10.218,"1450": 8.554,"1475": 6.209,"1500": 4.42,"1525": 3.536,"1550": 2.775,"1575": 1.932,"1600": 1.398,"1625": 0.966,"1650": 0.637,"1675": 0.473,"1700": 0.329,"1725": 0.165}}}