{"type":"Feature","properties":{"GID_3":"MWI.2.3.3_1","GID_0":"MWI","country":"Malawi","GID_1":"MWI.2_1","province":"Blantyre","NL_NAME_1":"NA","GID_2":"MWI.2.3_1","county":"TAKapeni","NL_NAME_2":"NA","city":"n.a.(2284)","VARNAME_3":"NA","NL_NAME_3":"NA","TYPE_3":"Unknown","ENGTYPE_3":"Unknown","CC_3":"NA","HASC_3":"NA","name":"n.a.(2284).city"},
"geometry":{"type": "MultiPolygon","coordinates": [[[[34.9383,-15.5521,521.3101],[34.946,-15.5517,535.6633],[34.9467,-15.5483,540.0009],[34.9484,-15.5477,546.5548],[34.9509,-15.5551,548.8702],[34.9619,-15.562,571.4634],[34.9616,-15.5646,585.2769],[34.9641,-15.5649,573.5958],[34.9641,-15.5693,579.7983],[34.9664,-15.5709,587.5496],[34.9678,-15.5753,587.3791],[34.9717,-15.5746,589.6524],[34.9741,-15.5708,609.2917],[34.9821,-15.5706,616.347],[34.9863,-15.5687,624.0432],[34.9854,-15.5566,607.0316],[34.9886,-15.5512,600.4045],[34.9884,-15.5466,594.7864],[34.9945,-15.5397,592.2362],[34.993,-15.5387,584.1019],[34.9933,-15.5332,566.9236],[34.9887,-15.525,565.0389],[34.9847,-15.5238,567.2825],[34.9765,-15.5283,554.0441],[34.9709,-15.5297,567.7057],[34.9693,-15.5285,556.9604],[34.9666,-15.5328,554.4905],[34.9631,-15.5298,539.6305],[34.9568,-15.5289,536.0897],[34.9505,-15.5368,544.1733],[34.9486,-15.5419,555.4449],[34.9383,-15.5521,521.3101]]]]}}