{"type":"Feature","properties":{"GID_3":"MWI.7.4.2_1","GID_0":"MWI","country":"Malawi","GID_1":"MWI.7_1","province":"Dowa","NL_NAME_1":"NA","GID_2":"MWI.7.4_1","county":"SCKayembe","NL_NAME_2":"NA","city":"n.a.(650)","VARNAME_3":"NA","NL_NAME_3":"NA","TYPE_3":"Unknown","ENGTYPE_3":"Unknown","CC_3":"NA","HASC_3":"NA","name":"n.a.(650).city"},
"geometry":{"type": "MultiPolygon","coordinates": [[[[33.428,-13.4503,1040.4969],[33.4281,-13.4567,1042.2721],[33.4235,-13.4647,1042.3623],[33.4149,-13.4699,1041.2935],[33.4095,-13.4699,1041.766],[33.4077,-13.4826,1041.1906],[33.4116,-13.4819,1042.9099],[33.4158,-13.484,1044.0234],[33.4318,-13.4969,1056.0195],[33.4381,-13.4968,1058.8513],[33.4464,-13.502,1062.5659],[33.4497,-13.5062,1064.9514],[33.4522,-13.5116,1057.1311],[33.4517,-13.5157,1052.7047],[33.4494,-13.5212,1055.9355],[33.4429,-13.5276,1058.1526],[33.442,-13.5334,1054.3246],[33.459,-13.5353,1073.9353],[33.473,-13.5438,1082.5544],[33.4754,-13.5438,1086.5132],[33.4852,-13.5324,1099.4691],[33.4871,-13.5259,1097.458],[33.4847,-13.5212,1093.0813],[33.4758,-13.5122,1082.2151],[33.4812,-13.5074,1084.1313],[33.4881,-13.5039,1087.9382],[33.4869,-13.5001,1088.9075],[33.48,-13.4924,1083.3606],[33.4823,-13.4881,1080.4193],[33.4824,-13.4809,1077.5616],[33.4711,-13.4706,1068.6018],[33.4739,-13.46,1070.3848],[33.4725,-13.4465,1068.094],[33.4624,-13.4514,1054.4645],[33.4495,-13.4552,1052.7135],[33.4327,-13.4526,1042.2068],[33.428,-13.4503,1040.4969]]]]}}