{"type": "Feature","bbox": [35.32,-16.1134,35.349,-16.076],"geometry": {"type": "MultiPolygon","coordinates": [[[[35.3414,-16.0769,659.6375],[35.3361,-16.076,646.5319],[35.3272,-16.0846,603.9865],[35.3223,-16.0828,583.2335],[35.32,-16.0943,583.3976],[35.321,-16.0958,579.8642],[35.3284,-16.0974,580.5168],[35.3314,-16.1076,520.3638],[35.3297,-16.1134,523.1218],[35.3376,-16.106,585.2137],[35.3448,-16.0922,638.6257],[35.349,-16.0885,615.887],[35.3416,-16.0828,639.1591],[35.3405,-16.0803,646.4666],[35.3414,-16.0769,659.6375]]]]}
,"properties": {"GID_3": "MWI.15.5.21_1","GID_0": "MWI","country": "Malawi","GID_1": "MWI.15_1","province": "Mulanje","NL_NAME_1": "NA","GID_2": "MWI.15.5_1","county": "TAChikumbu","NL_NAME_2": "NA","city": "n.a.(2873)","VARNAME_3": "NA","NL_NAME_3": "NA","TYPE_3": "Unknown","ENGTYPE_3": "Unknown","CC_3": "NA","HASC_3": "NA","name": "n.a.(2873).city","area_km2": 6.009585,"hist_schema_id": "Elevation0-9000","hist_area_km2": {"500": 0.061109,"525": 0.142589,"550": 0.203703,"575": 0.937068,"600": 1.181531,"625": 2.240892,"650": 1.242695}}}