{"type":"Feature","properties":{"GID_2":"MWI.12.8_1","GID_0":"MWI","country":"Malawi","GID_1":"MWI.12_1","province":"Machinga","NL_NAME_1":"NA","county":"SCMlomba","VARNAME_2":"NA","NL_NAME_2":"NA","TYPE_2":"Sub-chief","ENGTYPE_2":"Sub-chief","CC_2":"NA","HASC_2":"NA","name":"S_C_Mlomba.county"},
"geometry":{"type": "MultiPolygon","coordinates": [[[[35.7157,-15.1433,623.5513],[35.72,-15.1413,623.5406],[35.7245,-15.1424,623.2787],[35.7238,-15.0909,622.8297],[35.5893,-15.01,624.7361],[35.5872,-15.0055,626.8673],[35.5836,-15.0035,628.5084],[35.5803,-14.9983,634.1226],[35.5815,-14.9945,631.0891],[35.5806,-14.9879,633.0659],[35.576,-14.9767,637.1476],[35.564,-14.9776,651.1054],[35.5584,-14.9795,652.8145],[35.5527,-14.9789,654.5659],[35.5474,-14.9742,662.5596],[35.5403,-14.9636,672.895],[35.5263,-14.9544,688.671],[35.5043,-14.9707,688.608],[35.5,-14.9762,679.2388],[35.5015,-14.9838,682.0443],[35.4965,-14.9964,677.3851],[35.4895,-14.9973,680.599],[35.4691,-15.0241,704.0643],[35.4654,-15.0256,715.3599],[35.4574,-15.025,752.9824],[35.4508,-15.0311,742.1558],[35.4338,-15.041,745.2662],[35.4349,-15.0477,744.7781],[35.4451,-15.0516,723.2432],[35.4502,-15.0559,721.6832],[35.4501,-15.0704,704.7474],[35.4522,-15.0779,702.7781],[35.4509,-15.0829,702.2447],[35.4425,-15.0892,710.8688],[35.4396,-15.086,695.0481],[35.4357,-15.0848,703.8809],[35.4356,-15.0938,763.4765],[35.4436,-15.0944,722.485],[35.4523,-15.1066,749.1375],[35.4661,-15.1205,717.2731],[35.4704,-15.1061,672.9829],[35.4891,-15.1004,664.2255],[35.5022,-15.091,646.8749],[35.5152,-15.0927,648.9783],[35.5249,-15.0973,638.9469],[35.5517,-15.1021,623.6573],[35.6639,-15.1806,623.1666],[35.6715,-15.1771,624.0206],[35.6738,-15.1776,623.9664],[35.6753,-15.1812,622.5],[35.6794,-15.1847,622.5],[35.6816,-15.1849,622.967],[35.683,-15.1829,623.2921],[35.6821,-15.1725,623.8113],[35.6867,-15.1702,622.5],[35.6894,-15.1659,622.6912],[35.6949,-15.1665,622.5],[35.6939,-15.1605,623.1561],[35.6998,-15.1531,624.0071],[35.7068,-15.1487,623.7083],[35.7102,-15.1487,623.3072],[35.7157,-15.1433,623.5513]]]]}}