{"type": "Feature","bbox": [35.4912,-16.1092,35.5399,-16.0835],"geometry": {"type": "MultiPolygon","coordinates": [[[[35.4923,-16.0948,570.3184],[35.4926,-16.1002,583.6604],[35.4912,-16.1014,588.2305],[35.5011,-16.1073,591.8176],[35.5145,-16.1061,605.9702],[35.5202,-16.1065,610.1966],[35.5244,-16.109,608.9976],[35.5362,-16.1092,613.3248],[35.5399,-16.1031,604.5812],[35.5285,-16.1005,596.9651],[35.5204,-16.0953,590.8292],[35.5121,-16.0835,583.2553],[35.5098,-16.0862,582.1669],[35.5076,-16.0846,581.4412],[35.5049,-16.0867,579.3522],[35.5032,-16.0943,578.1519],[35.4977,-16.096,581.1339],[35.4923,-16.0948,570.3184]]]]}
,"properties": {"GID_3": "MWI.15.6.31_1","GID_0": "MWI","country": "Malawi","GID_1": "MWI.15_1","province": "Mulanje","NL_NAME_1": "NA","GID_2": "MWI.15.6_1","county": "TAMabuka","NL_NAME_2": "NA","city": "n.a.(2884)","VARNAME_3": "NA","NL_NAME_3": "NA","TYPE_3": "Unknown","ENGTYPE_3": "Unknown","CC_3": "NA","HASC_3": "NA","name": "n.a.(2884).city","area_km2": 6.946408,"hist_schema_id": "Elevation0-9000","hist_area_km2": {"575": 2.200083,"600": 4.685215,"625": 0.061109}}}