{"type":"Feature","properties":{"GID_3":"MWI.11.4.6_1","GID_0":"MWI","country":"Malawi","GID_1":"MWI.11_1","province":"Lilongwe","NL_NAME_1":"NA","GID_2":"MWI.11.4_1","county":"SCNjewa","NL_NAME_2":"NA","city":"n.a.(1088)","VARNAME_3":"NA","NL_NAME_3":"NA","TYPE_3":"Unknown","ENGTYPE_3":"Unknown","CC_3":"NA","HASC_3":"NA","name":"n.a.(1088).city"},
"geometry":{"type": "MultiPolygon","coordinates": [[[[33.6384,-13.9572,1117.252],[33.6311,-13.9621,1122.8619],[33.6201,-13.9645,1133.2521],[33.63,-13.9783,1139.7523],[33.6348,-13.9741,1138.4202],[33.6448,-13.972,1141.0385],[33.6575,-13.9575,1137.9731],[33.6738,-13.9542,1119.9607],[33.672,-13.9401,1105.5614],[33.6629,-13.9387,1114.567],[33.6561,-13.9414,1113.8077],[33.6478,-13.9459,1117.4312],[33.6408,-13.9527,1122.3252],[33.6384,-13.9572,1117.252]]]]}}