{"type":"Feature","properties":{"GID_3":"MWI.2.7.8_1","GID_0":"MWI","country":"Malawi","GID_1":"MWI.2_1","province":"Blantyre","NL_NAME_1":"NA","GID_2":"MWI.2.7_1","county":"TAMachinjili","NL_NAME_2":"NA","city":"n.a.(2623)","VARNAME_3":"NA","NL_NAME_3":"NA","TYPE_3":"Unknown","ENGTYPE_3":"Unknown","CC_3":"NA","HASC_3":"NA","name":"n.a.(2623).city"},
"geometry":{"type": "MultiPolygon","coordinates": [[[[35.0752,-15.8897,1137.4215],[35.0647,-15.8927,1190.0349],[35.0667,-15.9014,1146.9214],[35.0818,-15.8912,1082.9034],[35.0836,-15.888,1074.1588],[35.0901,-15.8894,1058.6821],[35.0927,-15.8868,1047.704],[35.0755,-15.8846,1154.9409],[35.0752,-15.8897,1137.4215]]],
[[[35.0949,-15.8822,1030.1115],[35.1082,-15.8766,996.2546],[35.1104,-15.8676,986.38],[35.1142,-15.864,1027.2944],[35.1166,-15.8651,963.8441],[35.117,-15.8617,980.6696],[35.1228,-15.8576,971.9354],[35.1158,-15.8544,994.1183],[35.1121,-15.8567,973.7302],[35.1099,-15.8541,1005.1263],[35.1028,-15.8581,991.7059],[35.1012,-15.8663,1024.1763],[35.0985,-15.87,1036.9565],[35.0897,-15.8698,1074.8032],[35.0949,-15.8822,1030.1115]]]]}}