{"type":"Feature","properties":{"GID_3":"MWI.11.16.16_1","GID_0":"MWI","country":"Malawi","GID_1":"MWI.11_1","province":"Lilongwe","NL_NAME_1":"NA","GID_2":"MWI.11.16_1","county":"TAMazengera","NL_NAME_2":"NA","city":"n.a.(1162)","VARNAME_3":"NA","NL_NAME_3":"NA","TYPE_3":"Unknown","ENGTYPE_3":"Unknown","CC_3":"NA","HASC_3":"NA","name":"n.a.(1162).city"},
"geometry":{"type": "MultiPolygon","coordinates": [[[[34.0731,-14.0247,1224.0259],[34.0708,-14.0287,1218.4224],[34.0697,-14.0361,1247.6343],[34.0794,-14.0473,1214.0769],[34.0694,-14.0585,1233.1782],[34.0655,-14.0603,1244.2628],[34.0653,-14.0638,1245.2938],[34.0668,-14.0699,1267.4735],[34.0698,-14.0734,1286.5184],[34.0746,-14.0744,1308.3862],[34.0715,-14.0803,1335.0432],[34.073,-14.0877,1320.5869],[34.0748,-14.0888,1331.7275],[34.09,-14.0742,1367.9261],[34.0992,-14.0583,1345.906],[34.0964,-14.0585,1367.0369],[34.096,-14.0412,1332.3018],[34.0893,-14.039,1355.7346],[34.0847,-14.0414,1257.4972],[34.085,-14.0384,1382.2803],[34.0785,-14.0357,1315.3369],[34.079,-14.0263,1274.9338],[34.0731,-14.0247,1224.0259]]]]}}