{"type": "Feature","bbox": [33.245,-13.848,33.3302,-13.761],"geometry": {"type": "MultiPolygon","coordinates": [[[[33.2803,-13.8438,1083.2324],[33.2831,-13.8387,1091.1517],[33.2824,-13.8333,1090.5538],[33.284,-13.8307,1099.2441],[33.2952,-13.8212,1093.3336],[33.3095,-13.8193,1081.8102],[33.3148,-13.8093,1101.0907],[33.3278,-13.801,1118.3781],[33.3302,-13.7973,1119.089],[33.3207,-13.7947,1104.1716],[33.3168,-13.7887,1094.1213],[33.3009,-13.7909,1094.9346],[33.293,-13.7936,1077.0873],[33.2878,-13.7931,1067.2378],[33.2818,-13.786,1064.2002],[33.278,-13.7702,1056.4729],[33.2733,-13.761,1056.9441],[33.2636,-13.7648,1059.9965],[33.2586,-13.7712,1056.8191],[33.2573,-13.7894,1057.2982],[33.2622,-13.7929,1056.0533],[33.2628,-13.8023,1056.8776],[33.2561,-13.8117,1058.7386],[33.2464,-13.82,1058.666],[33.245,-13.8255,1059.3867],[33.2486,-13.8393,1058.7014],[33.2575,-13.848,1061.6329],[33.2668,-13.8442,1080.6051],[33.2751,-13.8429,1084.8087],[33.2803,-13.8438,1083.2324]]]]}
,"properties": {"GID_3": "MWI.11.14.20_1","GID_0": "MWI","country": "Malawi","GID_1": "MWI.11_1","province": "Lilongwe","NL_NAME_1": "NA","GID_2": "MWI.11.14_1","county": "TAKhongoni","NL_NAME_2": "NA","city": "n.a.(917)","VARNAME_3": "NA","NL_NAME_3": "NA","TYPE_3": "Unknown","ENGTYPE_3": "Unknown","CC_3": "NA","HASC_3": "NA","name": "n.a.(917).city","area_km2": 39.34648,"hist_schema_id": "Elevation0-9000","hist_area_km2": {"1050": 9.65696,"1075": 20.34197,"1100": 9.0387,"1125": 0.30885}}}