{"type":"Feature","properties":{"GID_3":"MWI.26.10.8_1","GID_0":"MWI","country":"Malawi","GID_1":"MWI.26_1","province":"Salima","NL_NAME_1":"NA","GID_2":"MWI.26.10_1","county":"TANdindi","NL_NAME_2":"NA","city":"n.a.(1081)","VARNAME_3":"NA","NL_NAME_3":"NA","TYPE_3":"Unknown","ENGTYPE_3":"Unknown","CC_3":"NA","HASC_3":"NA","name":"n.a.(1081).city"},
"geometry":{"type": "MultiPolygon","coordinates": [[[[34.5389,-13.9362,477.7569],[34.5374,-13.9347,477.6245],[34.539,-13.9303,477.3631],[34.532,-13.931,479.8522],[34.5242,-13.9291,481.7552],[34.5228,-13.9341,480.6846],[34.5124,-13.9405,481.369],[34.5144,-13.9424,480.4185],[34.5223,-13.9445,477.6143],[34.5264,-13.9482,477.6356],[34.5389,-13.9362,477.7569]]]]}}