{"type":"Feature","properties":{"GID_3":"MWI.7.8.17_1","GID_0":"MWI","country":"Malawi","GID_1":"MWI.7_1","province":"Dowa","NL_NAME_1":"NA","GID_2":"MWI.7.8_1","county":"TADzoole","NL_NAME_2":"NA","city":"n.a.(772)","VARNAME_3":"NA","NL_NAME_3":"NA","TYPE_3":"Unknown","ENGTYPE_3":"Unknown","CC_3":"NA","HASC_3":"NA","name":"n.a.(772).city"},
"geometry":{"type": "MultiPolygon","coordinates": [[[[33.7271,-13.6443,1351.4342],[33.7201,-13.6432,1351.187],[33.6947,-13.6299,1325.2679],[33.6805,-13.625,1309.554],[33.6774,-13.6202,1296.6306],[33.6716,-13.6243,1263.4049],[33.6683,-13.6242,1252.558],[33.6668,-13.6149,1245.1027],[33.6649,-13.6147,1237.1584],[33.6623,-13.6171,1244.9319],[33.6654,-13.629,1260.9233],[33.663,-13.6384,1276.6938],[33.6707,-13.6442,1287.1575],[33.6654,-13.6481,1318.2673],[33.6776,-13.6504,1298.9026],[33.6799,-13.6501,1295.142],[33.6817,-13.6476,1282.3514],[33.6925,-13.6493,1301.9036],[33.7003,-13.6545,1316.9911],[33.7049,-13.6619,1350.0256],[33.7285,-13.6568,1379.2375],[33.7271,-13.6443,1351.4342]]]]}}