{"type": "Feature","bbox": [32.9299,-13.8302,32.9928,-13.7576],"geometry": {"type": "MultiPolygon","coordinates": [[[[32.9612,-13.7648,1134.118],[32.9612,-13.7664,1133.355],[32.9534,-13.773,1144.5535],[32.953,-13.7762,1145.153],[32.9421,-13.7869,1155.9475],[32.9402,-13.7909,1162.0868],[32.9444,-13.7917,1165.0809],[32.9442,-13.7947,1169.1277],[32.938,-13.8005,1178.6935],[32.9321,-13.811,1158.0847],[32.9326,-13.8155,1143.0948],[32.9299,-13.8188,1144.9321],[32.9305,-13.8226,1144.2917],[32.9328,-13.826,1152.2456],[32.9393,-13.8297,1144.2209],[32.943,-13.8302,1144.4039],[32.9496,-13.827,1138.9183],[32.9541,-13.8268,1122.8306],[32.9621,-13.8197,1135.7048],[32.9725,-13.826,1124.9788],[32.9756,-13.8251,1120.9141],[32.9712,-13.8106,1158.3824],[32.9755,-13.805,1153.0609],[32.9671,-13.8016,1154.0946],[32.9703,-13.7949,1143.9045],[32.9776,-13.79,1141.796],[32.9764,-13.7821,1140.6783],[32.9687,-13.7812,1143.824],[32.9642,-13.7783,1150.4709],[32.976,-13.7702,1132.8689],[32.9919,-13.7704,1116.3621],[32.9928,-13.7689,1116.5808],[32.9904,-13.7638,1120.6202],[32.9829,-13.7654,1123.7087],[32.9754,-13.7601,1123.8981],[32.9679,-13.758,1121.9077],[32.9644,-13.7576,1120.7927],[32.9637,-13.7621,1127.595],[32.9612,-13.7648,1134.118]]]]}
,"properties": {"GID_3": "MWI.14.7.9_1","GID_0": "MWI","country": "Malawi","GID_1": "MWI.14_1","province": "Mchinji","NL_NAME_1": "NA","GID_2": "MWI.14.7_1","county": "TAZulu","NL_NAME_2": "NA","city": "n.a.(912)","VARNAME_3": "NA","NL_NAME_3": "NA","TYPE_3": "Unknown","ENGTYPE_3": "Unknown","CC_3": "NA","HASC_3": "NA","name": "n.a.(912).city","area_km2": 24.70849,"hist_schema_id": "Elevation0-9000","hist_area_km2": {"1125": 4.48905,"1150": 16.12213,"1175": 3.562,"1200": 0.30883,"1225": 0.1853,"1250": 0.04118}}}