{"type": "Feature","bbox": [34.5641,-14.8307,34.6012,-14.7704],"geometry": {"type": "MultiPolygon","coordinates": [[[[34.6012,-14.7927,1268.9238],[34.5906,-14.789,1317.8276],[34.5871,-14.7859,1332.3422],[34.578,-14.7859,1359.3027],[34.5728,-14.784,1408.0811],[34.5689,-14.7793,1424.1897],[34.5653,-14.7704,1423.6387],[34.5641,-14.78,1435.3684],[34.5732,-14.79,1432.4746],[34.5829,-14.8094,1466.2576],[34.5826,-14.8129,1458.5909],[34.5767,-14.8162,1443.9978],[34.5865,-14.8256,1474.9701],[34.5929,-14.8259,1441.2526],[34.599,-14.8307,1428.5208],[34.5921,-14.8067,1467.4453],[34.5947,-14.7976,1374.7545],[34.6012,-14.7927,1268.9238]]]]}
,"properties": {"GID_3": "MWI.22.8.1_1","GID_0": "MWI","country": "Malawi","GID_1": "MWI.22_1","province": "Ntcheu","NL_NAME_1": "NA","GID_2": "MWI.22.8_1","county": "TAMpando","NL_NAME_2": "NA","city": "n.a.(1808)","VARNAME_3": "NA","NL_NAME_3": "NA","TYPE_3": "Unknown","ENGTYPE_3": "Unknown","CC_3": "NA","HASC_3": "NA","name": "n.a.(1808).city","area_km2": 8.260922,"hist_schema_id": "Elevation0-9000","hist_area_km2": {"1275": 0.081998,"1300": 0.102498,"1325": 0.143497,"1350": 0.491993,"1375": 0.532988,"1400": 0.45099,"1425": 1.475984,"1450": 2.705746,"1475": 2.15224,"1500": 0.122987}}}