{"type": "Feature","bbox": [34.2547,-13.5491,34.3589,-13.4842],"geometry": {"type": "MultiPolygon","coordinates": [[[[34.2563,-13.5413,539.9657],[34.2572,-13.5467,556.2723],[34.2612,-13.5483,561.3706],[34.2694,-13.549,555.1702],[34.2719,-13.5475,550.4484],[34.2751,-13.5491,546.734],[34.2768,-13.5469,546.6978],[34.2827,-13.5449,540.8842],[34.2875,-13.5474,536.3972],[34.2923,-13.5423,532.0876],[34.3015,-13.5384,530.741],[34.3097,-13.5372,524.9869],[34.3131,-13.5387,521.8265],[34.3187,-13.5361,516.0262],[34.3229,-13.537,513.1168],[34.3292,-13.5334,509.0507],[34.3298,-13.5303,507.7637],[34.3332,-13.5292,504.3357],[34.3357,-13.5251,504.1617],[34.3477,-13.5234,495.8967],[34.356,-13.5253,494.8907],[34.3589,-13.5231,491.095],[34.352,-13.5119,489.9766],[34.3512,-13.5006,486.1168],[34.3483,-13.4929,488.2614],[34.3408,-13.486,488.1323],[34.3292,-13.4842,492.5281],[34.3241,-13.4855,494.8185],[34.3206,-13.4888,498.1044],[34.3191,-13.4944,500.8855],[34.3115,-13.5023,506.8625],[34.3057,-13.5128,509.8804],[34.3036,-13.514,511.957],[34.3,-13.5131,513.8361],[34.2943,-13.516,523.6626],[34.2915,-13.5216,518.5059],[34.2878,-13.521,529.7068],[34.2853,-13.5227,530.4503],[34.2829,-13.5284,529.0188],[34.2753,-13.5287,538.7727],[34.2681,-13.5322,538.6896],[34.2665,-13.5354,538.9446],[34.263,-13.5352,544.9138],[34.2624,-13.5372,547.2138],[34.2578,-13.5367,553.1831],[34.2547,-13.5384,547.7919],[34.2563,-13.5413,539.9657]]]]}
,"properties": {"GID_3": "MWI.26.7.4_1","GID_0": "MWI","country": "Malawi","GID_1": "MWI.26_1","province": "Salima","NL_NAME_1": "NA","GID_2": "MWI.26.7_1","county": "TAKhombedza","NL_NAME_2": "NA","city": "n.a.(674)","VARNAME_3": "NA","NL_NAME_3": "NA","TYPE_3": "Unknown","ENGTYPE_3": "Unknown","CC_3": "NA","HASC_3": "NA","name": "n.a.(674).city","area_km2": 33.82876,"hist_schema_id": "Elevation0-9000","hist_area_km2": {"475": 0.22678,"500": 17.75009,"525": 13.33714,"550": 2.47352,"575": 0.04122}}}