{"type":"Feature","properties":{"GID_3":"MWI.28.2.42_1","GID_0":"MWI","country":"Malawi","GID_1":"MWI.28_1","province":"Zomba","NL_NAME_1":"NA","GID_2":"MWI.28.2_1","county":"SCMbiza","NL_NAME_2":"NA","city":"n.a.(2399)","VARNAME_3":"NA","NL_NAME_3":"NA","TYPE_3":"Unknown","ENGTYPE_3":"Unknown","CC_3":"NA","HASC_3":"NA","name":"n.a.(2399).city"},
"geometry":{"type": "MultiPolygon","coordinates": [[[[35.3173,-15.674,778.2588],[35.3208,-15.6703,791.4545],[35.3197,-15.6668,793.3218],[35.3244,-15.6636,786.1993],[35.3271,-15.6585,786.2203],[35.3265,-15.655,789.8218],[35.3202,-15.6517,792.6763],[35.3218,-15.6462,786.2679],[35.3283,-15.6454,780.6539],[35.3353,-15.6409,773.2404],[35.343,-15.6405,759.4958],[35.3399,-15.6363,760.8135],[35.3332,-15.6372,769.4722],[35.3275,-15.6352,775.5338],[35.3232,-15.6386,777.6936],[35.3136,-15.6388,791.4583],[35.3079,-15.6418,796.6564],[35.3073,-15.6481,800.3478],[35.2961,-15.6478,814.099],[35.2997,-15.6526,813.836],[35.2984,-15.657,817.1959],[35.3035,-15.6613,807.3544],[35.313,-15.6638,797.0529],[35.3103,-15.6687,783.3409],[35.3115,-15.6732,788.8398],[35.3149,-15.6725,785.0787],[35.3173,-15.674,778.2588]]]]}}