{"type": "Feature","bbox": [35.0511,-14.7691,35.1103,-14.6718],"geometry": {"type": "MultiPolygon","coordinates": [[[[35.0958,-14.7685,642.2751],[35.0943,-14.7583,655.7861],[35.096,-14.748,682.7471],[35.0945,-14.7285,722.0217],[35.1049,-14.7251,699.0594],[35.1084,-14.7271,709.8705],[35.1103,-14.72,739.7882],[35.1025,-14.6874,769.8864],[35.1005,-14.6867,794.5137],[35.0937,-14.6887,774.182],[35.0891,-14.6868,797.7684],[35.0811,-14.6876,837.3127],[35.0685,-14.6768,913.0548],[35.0592,-14.6725,905.2677],[35.0533,-14.6718,801.3956],[35.0511,-14.6751,772.641],[35.0514,-14.6954,742.8387],[35.0546,-14.709,736.7805],[35.0582,-14.7118,744.7444],[35.0643,-14.7092,807.5062],[35.0718,-14.7115,851.9462],[35.0708,-14.7249,890.9677],[35.0723,-14.7281,909.5408],[35.0728,-14.7413,903.734],[35.0844,-14.7601,707.8632],[35.085,-14.7691,693.2082],[35.0958,-14.7685,642.2751]]]]}
,"properties": {"GID_3": "MWI.13.8.20_1","GID_0": "MWI","country": "Malawi","GID_1": "MWI.13_1","province": "Mangochi","NL_NAME_1": "NA","GID_2": "MWI.13.8_1","county": "TAChimwala","NL_NAME_2": "NA","city": "n.a.(1735)","VARNAME_3": "NA","NL_NAME_3": "NA","TYPE_3": "Unknown","ENGTYPE_3": "Unknown","CC_3": "NA","HASC_3": "NA","name": "n.a.(1735).city","area_km2": 34.39026,"hist_schema_id": "Elevation0-9000","hist_area_km2": {"650": 0.65607,"675": 2.17334,"700": 2.17349,"725": 2.93237,"750": 4.24501,"775": 4.65533,"800": 3.21977,"825": 1.88672,"850": 1.10739,"875": 1.18941,"900": 1.53809,"925": 2.54301,"950": 2.3994,"975": 1.74314,"1000": 1.25094,"1025": 0.45117,"1050": 0.16406,"1075": 0.06153}}}