{"type": "Feature","bbox": [33.4543,-13.6027,33.5305,-13.5212],"geometry": {"type": "MultiPolygon","coordinates": [[[[33.5257,-13.5212,1097.9442],[33.4978,-13.5344,1113.1158],[33.4969,-13.536,1110.7839],[33.4992,-13.538,1112.8818],[33.5069,-13.5388,1112.8954],[33.5024,-13.5567,1108.1768],[33.4977,-13.5584,1103.6525],[33.494,-13.564,1102.4009],[33.4777,-13.5752,1093.7256],[33.4655,-13.5735,1088.1997],[33.4645,-13.5828,1093.8282],[33.4543,-13.5919,1079.0352],[33.4669,-13.599,1087.8619],[33.4747,-13.5994,1098.2156],[33.4785,-13.6027,1093.5648],[33.4852,-13.5934,1100.455],[33.4888,-13.5917,1106.1057],[33.5008,-13.591,1117.2971],[33.5116,-13.5971,1126.256],[33.5117,-13.5923,1127.5093],[33.5059,-13.5783,1136.8353],[33.5104,-13.5781,1144.9497],[33.5153,-13.5723,1138.8562],[33.5189,-13.5617,1123.7861],[33.5289,-13.5536,1126.6031],[33.5305,-13.5461,1112.8555],[33.5257,-13.5212,1097.9442]]]]}
,"properties": {"GID_3": "MWI.7.4.4_1","GID_0": "MWI","country": "Malawi","GID_1": "MWI.7_1","province": "Dowa","NL_NAME_1": "NA","GID_2": "MWI.7.4_1","county": "SCKayembe","NL_NAME_2": "NA","city": "n.a.(699)","VARNAME_3": "NA","NL_NAME_3": "NA","TYPE_3": "Unknown","ENGTYPE_3": "Unknown","CC_3": "NA","HASC_3": "NA","name": "n.a.(699).city","area_km2": 27.47396,"hist_schema_id": "Elevation0-9000","hist_area_km2": {"1075": 0.65949,"1100": 14.38597,"1125": 11.70715,"1150": 0.72135}}}