{"type": "Feature","bbox": [34.7183,-16.0146,35.1324,-15.3488],"geometry": {"type": "MultiPolygon","coordinates": [[[[34.9488,-15.9843,445.1689],[34.9517,-15.9773,405.8832],[34.9478,-15.9737,462.9311],[34.9498,-15.9718,479.6103],[34.9546,-15.9713,440.8459],[34.9534,-15.9641,477.9965],[34.9569,-15.9637,570.4716],[34.9634,-15.9584,551.4287],[34.962,-15.9446,694.9826],[34.9651,-15.942,647.3138],[34.9712,-15.9438,694.6512],[34.9781,-15.9344,774.5714],[34.9809,-15.9363,773.624],[34.9835,-15.9325,801.5269],[34.9847,-15.9249,806.1942],[34.9963,-15.9193,869.6294],[34.9982,-15.9149,895.0995],[35.0071,-15.9124,893.1603],[35.011,-15.9179,897.9659],[35.0133,-15.9159,915.9339],[35.0119,-15.9139,905.1154],[35.0129,-15.9129,909.5577],[35.0219,-15.9233,947.1766],[35.0267,-15.9253,980.5604],[35.0343,-15.9206,996.5919],[35.0407,-15.9117,1033.9618],[35.0501,-15.9141,1119.1541],[35.0543,-15.9103,1128.7302],[35.0644,-15.9058,1141.551],[35.065,-15.9023,1146.9214],[35.0818,-15.8912,1082.9034],[35.0836,-15.888,1074.1588],[35.0881,-15.8895,1072.0828],[35.0915,-15.8887,1058.6821],[35.0953,-15.8817,1030.1115],[35.1082,-15.8766,996.2546],[35.1104,-15.8676,986.38],[35.1142,-15.864,1027.2944],[35.1166,-15.8651,963.8441],[35.117,-15.8617,980.6696],[35.1228,-15.8576,971.9354],[35.1158,-15.8544,994.1183],[35.1121,-15.8567,973.7302],[35.1099,-15.8541,1005.1263],[35.1027,-15.8577,995.4265],[35.1075,-15.8469,1021.0784],[35.1083,-15.8388,1049.4469],[35.1152,-15.8225,1044.7111],[35.122,-15.8171,1011.9534],[35.124,-15.8009,1020.4022],[35.124,-15.7975,1029.8248],[35.1176,-15.7909,1047.7473],[35.1146,-15.793,1038.9133],[35.1087,-15.7872,1092.0459],[35.1123,-15.7815,1083.7632],[35.1124,-15.7761,1083.0944],[35.1095,-15.7701,1127.3241],[35.1088,-15.7613,1134.7814],[35.1053,-15.7592,1122.1687],[35.1088,-15.7493,1132.3706],[35.1222,-15.7435,1078.365],[35.1251,-15.7361,1055.2936],[35.1105,-15.7171,1136.99],[35.1147,-15.7079,1141.8993],[35.1148,-15.6979,1151.1517],[35.1202,-15.6936,1144.564],[35.1237,-15.6873,1129.6431],[35.1218,-15.6833,1121.2518],[35.1165,-15.6793,1083.5],[35.1101,-15.6709,1008.3613],[35.111,-15.6656,995.9093],[35.1132,-15.6639,990.1707],[35.1132,-15.659,988.7246],[35.1174,-15.6526,985.3466],[35.1192,-15.6453,943.5881],[35.1105,-15.6385,939.774],[35.0962,-15.6207,813.8768],[35.1058,-15.5823,773.4586],[35.1218,-15.5554,789.8604],[35.1158,-15.5547,758.5775],[35.1155,-15.5534,760.0771],[35.1214,-15.5459,773.22],[35.12,-15.5375,778.0739],[35.1287,-15.533,783.2814],[35.1265,-15.5313,785.3636],[35.1259,-15.5276,787.5676],[35.0995,-15.5156,1133.4392],[35.1324,-15.4732,1374.0068],[35.1152,-15.4717,777.6904],[35.1055,-15.4726,959.165],[35.0978,-15.4707,1167.0382],[35.0697,-15.443,828.6877],[35.058,-15.4211,519.75],[35.0578,-15.4063,511.5856],[35.0539,-15.3991,507.7852],[35.049,-15.3961,506.0029],[35.0449,-15.3966,501.5516],[35.0339,-15.3943,495.1978],[35.03,-15.3901,494.2564],[35.0267,-15.3906,490.7419],[35.0242,-15.3892,489.6228],[35.0184,-15.381,484.3216],[35.0126,-15.3776,480.9323],[35.0121,-15.372,478.7989],[35.0044,-15.3633,472.5297],[35.0039,-15.3556,469.0667],[35.001,-15.3528,469.0848],[34.9912,-15.3513,469.8361],[34.988,-15.355,469.5692],[34.9849,-15.3555,469.6517],[34.9671,-15.3488,469.063],[34.9621,-15.3512,468.7742],[34.9537,-15.349,470.903],[34.9461,-15.3561,474.2451],[34.931,-15.3573,477.4476],[34.9246,-15.3595,473.5322],[34.92,-15.3709,465.2215],[34.9111,-15.3834,461.1807],[34.9073,-15.3864,464.0493],[34.9029,-15.3864,464.5439],[34.9004,-15.3898,461.0956],[34.8967,-15.3899,449.207],[34.8939,-15.3926,447.0121],[34.8912,-15.3997,429.9924],[34.8878,-15.403,424.1766],[34.8816,-15.4138,438.3622],[34.8841,-15.4187,411.5623],[34.8719,-15.4386,402.5708],[34.8643,-15.44,405.6813],[34.8635,-15.4477,394.7705],[34.8665,-15.4522,392.0552],[34.8594,-15.468,383.5117],[34.8586,-15.4772,394.5671],[34.8513,-15.4837,392.9929],[34.8381,-15.5,400.9614],[34.8282,-15.5073,405.5502],[34.8223,-15.5233,375.2953],[34.8163,-15.5235,372.5175],[34.8176,-15.5275,328.032],[34.8146,-15.531,321.7895],[34.8082,-15.5335,323.6204],[34.8004,-15.5429,322.3826],[34.7929,-15.5487,332.3138],[34.7878,-15.557,318.7528],[34.7842,-15.5588,323.8885],[34.7793,-15.5565,304.0071],[34.751,-15.5812,265.8374],[34.7472,-15.581,280.4214],[34.7477,-15.5836,279.7645],[34.7451,-15.5878,282.6088],[34.7473,-15.6004,280.3501],[34.7532,-15.6228,274.2227],[34.7551,-15.6275,270.379],[34.7569,-15.6275,263.4922],[34.7626,-15.647,263.861],[34.7625,-15.6599,255.4342],[34.7535,-15.6732,262.1854],[34.7315,-15.6842,266.6578],[34.7208,-15.6933,264.7549],[34.7183,-15.6979,255.2911],[34.7225,-15.7094,253.9719],[34.7248,-15.7226,349.1589],[34.7305,-15.7318,228.9916],[34.7355,-15.7492,218.0032],[34.7335,-15.7566,230.5447],[34.7359,-15.783,206.821],[34.7339,-15.7911,209.9128],[34.7333,-15.8166,186.7602],[34.8662,-15.8197,391.0872],[34.8716,-15.827,393.7236],[34.8757,-15.8383,381.8381],[34.8747,-15.8427,366.3196],[34.8794,-15.8587,374.1776],[34.8601,-15.8945,332.9134],[34.8543,-15.899,344.0107],[34.856,-15.9041,306.2418],[34.8598,-15.9039,328.986],[34.8611,-15.9053,305.7285],[34.8641,-15.9147,299.187],[34.8686,-15.9177,309.1454],[34.8659,-15.9199,291.5556],[34.8663,-15.9253,274.2536],[34.8589,-15.9351,270.4153],[34.8553,-15.9475,256.6714],[34.846,-15.9589,258.0078],[34.8459,-15.9635,218.8529],[34.8487,-15.9704,212.1295],[34.85,-15.971,188.2827],[34.8671,-15.9609,353.5681],[34.8798,-15.9592,347.8496],[34.8884,-15.9656,396.7966],[34.8914,-15.974,390.9681],[34.8923,-15.9838,474.8132],[34.8893,-15.9896,443.0269],[34.8863,-15.9916,417.0724],[34.8865,-15.9958,402.6709],[34.8841,-15.9988,320.5781],[34.8886,-16.0071,271.1048],[34.8884,-16.0146,203.8868],[34.8964,-16.0098,292.0934],[34.8995,-16.0127,251.5177],[34.9093,-16.0051,245.1987],[34.9261,-16.0031,279.1734],[34.927,-16.0008,275.5999],[34.921,-15.998,280.8071],[34.9209,-15.9942,369.4954],[34.9226,-15.9919,352.5558],[34.9297,-15.9896,339.3086],[34.9385,-15.9931,345.6233],[34.9402,-15.99,380.465],[34.9488,-15.9843,445.1689]]]]}
,"properties": {"GID_1": "MWI.2_1","GID_0": "MWI","country": "Malawi","province": "Blantyre","VARNAME_1": "NA","NL_NAME_1": "NA","TYPE_1": "District","ENGTYPE_1": "District","CC_1": "NA","HASC_1": "MW.BL","ISO_1": "MW-BL","name": "Blantyre.province","area_km2": 2032.838,"hist_schema_id": "Elevation0-9000","hist_area_km2": {"150": 0.061,"175": 0.714,"200": 3.407,"225": 6.528,"250": 15.365,"275": 24.489,"300": 24.284,"325": 29.695,"350": 35.186,"375": 45.148,"400": 49.764,"425": 56.728,"450": 66.429,"475": 107.582,"500": 136.482,"525": 139.096,"550": 99.385,"575": 72.268,"600": 75.387,"625": 74.279,"650": 76.845,"675": 78.66,"700": 84.865,"725": 66.142,"750": 58.712,"775": 54.871,"800": 39.288,"825": 34.486,"850": 39.214,"875": 37.008,"900": 30.44,"925": 24.627,"950": 22.343,"975": 24.933,"1000": 31.095,"1025": 33.644,"1050": 34.744,"1075": 35.499,"1100": 36.988,"1125": 36.579,"1150": 31.762,"1175": 21.053,"1200": 11.996,"1225": 6.121,"1250": 4.468,"1275": 3.55,"1300": 2.836,"1325": 1.959,"1350": 1.469,"1375": 1.326,"1400": 1.061,"1425": 0.836,"1450": 0.51,"1475": 0.326,"1500": 0.184,"1525": 0.041,"1550": 0.02,"1575": 0.061}}}