{"type":"Feature","properties":{"ISO3166-1-Alpha-3":"MWI","country":"Malawi","fill":"#F0F","id":"1921","name":"Blantyre"},
"geometry":{"type": "Polygon","coordinates": [[[35.12946,-15.53781,840.8502],[35.12378,-15.53704,772.2738],[35.11768,-15.5343,775.4415],[35.11319,-15.52934,776.4691],[35.1121,-15.52169,862.0511],[35.11396,-15.51538,832.8467],[35.11753,-15.50944,851.5092],[35.13835,-15.48562,921.9356],[35.14068,-15.47988,1004.7894],[35.13928,-15.4758,1160.167],[35.13277,-15.47435,1374.0068],[35.11536,-15.4742,813.3853],[35.10683,-15.47265,864.5058],[35.09737,-15.46557,991.233],[35.08823,-15.45487,682.0466],[35.05469,-15.40722,512.4821],[35.0319,-15.38836,492.6546],[35.01107,-15.351,469.2796],[35.00797,-15.35245,469.3741],[34.98999,-15.36082,471.427],[34.95852,-15.36469,468.44],[34.94839,-15.36764,469.0168],[34.92054,-15.3911,522.0524],[34.91118,-15.39498,591.5176],[34.8947,-15.41854,476.0483],[34.85816,-15.5222,482.5075],[34.84287,-15.54582,457.5845],[34.82581,-15.55202,401.4721],[34.77703,-15.58241,356.4549],[34.7653,-15.59362,333.4171],[34.76297,-15.61067,311.3661],[34.7653,-15.67274,316.5865],[34.76313,-15.67956,308.594],[34.75786,-15.68762,333.1344],[34.75171,-15.69444,323.4637],[34.73652,-15.70271,287.1664],[34.73636,-15.71516,297.4815],[34.7436,-15.73759,272.3055],[34.7498,-15.81221,246.9495],[34.85082,-15.82141,456.0327],[34.86354,-15.82374,401.4333],[34.86757,-15.82766,409.2678],[34.86958,-15.83149,405.6076],[34.87501,-15.84523,378.012],[34.87749,-15.85004,365.1414],[34.87919,-15.85552,353.0197],[34.87904,-15.86172,347.2733],[34.87532,-15.87081,339.858],[34.864,-15.89035,320.5244],[34.86106,-15.9011,374.9561],[34.86261,-15.91991,321.4809],[34.86137,-15.92843,285.0616],[34.84628,-15.9568,269.0446],[34.84555,-15.96786,227.3769],[34.85051,-15.97236,167.9865],[34.85997,-15.97251,275.1475],[34.87005,-15.97158,351.8177],[34.88074,-15.97401,493.4929],[34.88462,-15.97933,478.619],[34.884,-15.98466,525.4229],[34.87656,-15.99417,537.681],[34.87532,-16.00037,499.7118],[34.87547,-16.00884,431.5828],[34.87966,-16.02419,198.2473],[34.88245,-16.02941,191.7504],[34.8854,-16.03148,298.9389],[34.8916,-16.02667,288.3547],[34.91909,-16.01933,383.7537],[34.92669,-16.01427,339.2227],[34.9518,-15.99231,559.6337],[34.96141,-15.98052,526.826],[34.98038,-15.94745,788.55],[34.9872,-15.93841,865.1714],[34.99417,-15.93195,866.4155],[34.99976,-15.92926,986.178],[35.00565,-15.92781,935.5159],[35.02508,-15.92668,960.6862],[35.03903,-15.92394,1067.553],[35.14626,-15.86094,897.1392],[35.12409,-15.81955,1013.5396],[35.11768,-15.80183,1055.3666],[35.11629,-15.78219,1067.7885],[35.11846,-15.68514,1065.0564],[35.11598,-15.65615,986.0925],[35.11195,-15.63713,963.4832],[35.10528,-15.62985,915.5829],[35.10404,-15.61584,897.0519],[35.10497,-15.60468,832.4242],[35.14238,-15.53735,883.3838],[35.12946,-15.53781,840.8502]]]}}