{"type": "Feature","bbox": [33.9865,-13.424,34.1193,-13.2965],"geometry": {"type": "MultiPolygon","coordinates": [[[[33.9876,-13.3947,1386.2598],[33.9871,-13.3979,1380.6268],[33.9907,-13.4053,1349.6647],[34.0039,-13.4137,1194.682],[34.0095,-13.4124,1180.5151],[34.0147,-13.4145,1157.3263],[34.0171,-13.4126,1166.2703],[34.0194,-13.4056,1193.2709],[34.0244,-13.4046,1230.882],[34.0379,-13.4135,1139.4894],[34.0455,-13.4135,1147.9541],[34.0502,-13.4168,1065.3981],[34.0572,-13.4103,1023.0873],[34.0589,-13.4055,984.7931],[34.0641,-13.4029,992.8926],[34.0675,-13.3954,931.2748],[34.0697,-13.3951,933.7675],[34.0894,-13.4068,801.7212],[34.0943,-13.4083,765.8886],[34.0952,-13.4115,757.9165],[34.1111,-13.424,704.6599],[34.1051,-13.3684,773.6375],[34.1056,-13.364,773.5505],[34.111,-13.3541,721.5807],[34.1161,-13.3525,717.6898],[34.1193,-13.348,692.7557],[34.1158,-13.3402,679.1453],[34.1034,-13.3436,707.8311],[34.1017,-13.3169,699.693],[34.0978,-13.3152,706.7423],[34.0945,-13.2999,704.6782],[34.0893,-13.2985,700.838],[34.0882,-13.2965,699.8682],[34.0858,-13.3045,705.7336],[34.0817,-13.3046,708.4655],[34.0787,-13.3142,720.723],[34.075,-13.3151,732.8854],[34.072,-13.3261,749.2313],[34.068,-13.3325,757.7495],[34.069,-13.3343,747.7268],[34.0661,-13.336,750.1024],[34.0665,-13.3389,760.2101],[34.0646,-13.3398,761.5259],[34.0651,-13.3423,767.0458],[34.0629,-13.3454,770.323],[34.0594,-13.342,786.4357],[34.0549,-13.3455,798.9317],[34.044,-13.3643,922.9152],[34.0297,-13.3798,1109.8313],[34.0228,-13.3921,1216.9031],[34.0198,-13.3923,1266.0876],[34.0068,-13.3852,1398.6251],[33.9946,-13.3869,1329.7053],[33.9865,-13.3839,1359.6107],[33.9876,-13.3947,1386.2598]]]]}
,"properties": {"GID_2": "MWI.23.6_1","GID_0": "MWI","country": "Malawi","GID_1": "MWI.23_1","province": "Ntchisi","NL_NAME_1": "NA","county": "TAKasakula","VARNAME_2": "NA","NL_NAME_2": "NA","TYPE_2": "TraditionalAuthority","ENGTYPE_2": "TraditionalAuthority","CC_2": "NA","HASC_2": "NA","name": "T_A_Kasakula.county","area_km2": 81.10686,"hist_schema_id": "Elevation0-9000","hist_area_km2": {"675": 0.45389,"700": 5.05474,"725": 7.53015,"750": 7.55028,"775": 7.98304,"800": 7.83841,"825": 5.30113,"850": 4.14596,"875": 3.34147,"900": 2.99084,"925": 2.39265,"950": 2.28951,"975": 1.52635,"1000": 1.48508,"1025": 1.52633,"1050": 1.65007,"1075": 2.04193,"1100": 2.41314,"1125": 1.67062,"1150": 1.27873,"1175": 0.94873,"1200": 1.21685,"1225": 1.27873,"1250": 0.68062,"1275": 0.5775,"1300": 0.86626,"1325": 1.34064,"1350": 1.2994,"1375": 1.15503,"1400": 1.09315,"1425": 0.18563}}}