{"type": "Feature","bbox": [34.0051,-13.919,34.1152,-13.8294],"geometry": {"type": "MultiPolygon","coordinates": [[[[34.0782,-13.8342,900.6775],[34.0742,-13.8373,910.6244],[34.0662,-13.8484,1025.0627],[34.0562,-13.8557,1026.6102],[34.0539,-13.8625,1060.031],[34.0493,-13.8638,1077.0641],[34.0436,-13.8707,1091.4819],[34.0281,-13.8679,1035.8629],[34.021,-13.8729,1034.8958],[34.0135,-13.874,1051.981],[34.0108,-13.8782,1078.6116],[34.0081,-13.8786,1083.1516],[34.0051,-13.8821,1075.7151],[34.0065,-13.8837,1095.2013],[34.0061,-13.8865,1100.3324],[34.008,-13.8877,1085.4846],[34.0057,-13.8926,1078.7961],[34.0082,-13.8979,1002.095],[34.0196,-13.9047,935.3414],[34.021,-13.9073,920.4609],[34.0274,-13.9098,906.9316],[34.0274,-13.9139,984.5304],[34.0316,-13.918,914.3531],[34.0364,-13.919,888.6667],[34.0468,-13.9178,872.9026],[34.0482,-13.9152,872.5029],[34.0472,-13.9076,882.8326],[34.0491,-13.9019,901.9348],[34.0558,-13.9008,899.2395],[34.0585,-13.8952,902.9619],[34.0677,-13.8902,848.1162],[34.0687,-13.8861,875.2291],[34.0673,-13.8817,843.5624],[34.0744,-13.882,865.1092],[34.0818,-13.8701,821.5841],[34.0808,-13.8539,862.21],[34.082,-13.8505,866.5792],[34.0873,-13.8496,833.6205],[34.0909,-13.8531,831.1873],[34.0945,-13.8537,823.0242],[34.103,-13.8461,874.1349],[34.1114,-13.8411,875.2181],[34.1152,-13.8323,756.1707],[34.1129,-13.8305,803.1516],[34.1068,-13.8318,794.6257],[34.103,-13.8294,872.5206],[34.099,-13.8338,828.5579],[34.0953,-13.8329,894.1331],[34.0931,-13.8347,893.0778],[34.0882,-13.8321,829.4332],[34.0794,-13.8368,832.5828],[34.078,-13.8362,850.7222],[34.0782,-13.8342,900.6775]]]]}
,"properties": {"GID_3": "MWI.11.7.24_1","GID_0": "MWI","country": "Malawi","GID_1": "MWI.11_1","province": "Lilongwe","NL_NAME_1": "NA","GID_2": "MWI.11.7_1","county": "TAChimutu","NL_NAME_2": "NA","city": "n.a.(991)","VARNAME_3": "NA","NL_NAME_3": "NA","TYPE_3": "Unknown","ENGTYPE_3": "Unknown","CC_3": "NA","HASC_3": "NA","name": "n.a.(991).city","area_km2": 41.86684,"hist_schema_id": "Elevation0-9000","hist_area_km2": {"750": 0.08235,"775": 0.30881,"800": 0.37057,"825": 0.45291,"850": 0.61758,"875": 1.83205,"900": 2.61415,"925": 3.41683,"950": 3.25218,"975": 3.8491,"1000": 4.3225,"1025": 5.20751,"1050": 5.68092,"1075": 4.85764,"1100": 3.14922,"1125": 1.09093,"1150": 0.57634,"1175": 0.14409,"1225": 0.04117}}}