{"type": "Feature","bbox": [35.1252,-15.0775,35.1947,-15.0246],"geometry": {"type": "MultiPolygon","coordinates": [[[[35.168,-15.0246,516.1776],[35.1632,-15.0316,518.7527],[35.1601,-15.04,519.2971],[35.1542,-15.0395,523.6268],[35.1272,-15.029,548.9167],[35.134,-15.0371,530.0038],[35.1345,-15.0408,532.1815],[35.1397,-15.0435,525.343],[35.1252,-15.0496,539.4572],[35.1323,-15.0568,540.5824],[35.1407,-15.0603,527.7409],[35.1449,-15.0676,519.8571],[35.1504,-15.0692,520.6176],[35.1553,-15.0775,510.0248],[35.1652,-15.0771,514.9121],[35.1701,-15.0665,504.8879],[35.1731,-15.0638,504.6338],[35.1717,-15.0538,510.1593],[35.1726,-15.0484,503.2844],[35.1767,-15.046,501.9979],[35.1854,-15.0481,499.2819],[35.1873,-15.0475,497.7853],[35.1856,-15.0467,500.0739],[35.1859,-15.0411,501.3247],[35.1947,-15.0417,494.3635],[35.1928,-15.0379,496.6355],[35.1841,-15.0377,501.4831],[35.1836,-15.0342,504.3353],[35.168,-15.0246,516.1776]]]]}
,"properties": {"GID_3": "MWI.1.3.22_1","GID_0": "MWI","country": "Malawi","GID_1": "MWI.1_1","province": "Balaka","NL_NAME_1": "NA","GID_2": "MWI.1.3_1","county": "TANsamala","NL_NAME_2": "NA","city": "n.a.(1980)","VARNAME_3": "NA","NL_NAME_3": "NA","TYPE_3": "Unknown","ENGTYPE_3": "Unknown","CC_3": "NA","HASC_3": "NA","name": "n.a.(1980).city","area_km2": 19.55358,"hist_schema_id": "Elevation0-9000","hist_area_km2": {"500": 7.76,"525": 10.97457,"550": 0.81901}}}