{"type": "Feature","bbox": [35.0039,-14.6846,35.0513,-14.6231],"geometry": {"type": "MultiPolygon","coordinates": [[[[35.0304,-14.6821,714.027],[35.0322,-14.6846,707.3413],[35.0457,-14.6795,748.288],[35.0496,-14.6819,749.2621],[35.0512,-14.6807,764.6003],[35.0513,-14.6742,778.9536],[35.0388,-14.6393,836.0154],[35.031,-14.6317,798.2248],[35.0295,-14.6277,791.7454],[35.0225,-14.6232,814.7543],[35.0185,-14.6231,807.5321],[35.0151,-14.6256,781.8063],[35.0188,-14.6313,772.0786],[35.0135,-14.6386,768.9863],[35.0142,-14.6445,755.3311],[35.0057,-14.6481,780.4678],[35.0039,-14.6506,789.8098],[35.0055,-14.6539,781.6775],[35.0112,-14.6582,772.6106],[35.0145,-14.6644,769.5265],[35.0143,-14.6691,789.7794],[35.0177,-14.6664,742.91],[35.0226,-14.6651,724.8077],[35.0311,-14.6786,709.6305],[35.0304,-14.6821,714.027]]]]}
,"properties": {"GID_3": "MWI.13.8.15_1","GID_0": "MWI","country": "Malawi","GID_1": "MWI.13_1","province": "Mangochi","NL_NAME_1": "NA","GID_2": "MWI.13.8_1","county": "TAChimwala","NL_NAME_2": "NA","city": "n.a.(1707)","VARNAME_3": "NA","NL_NAME_3": "NA","TYPE_3": "Unknown","ENGTYPE_3": "Unknown","CC_3": "NA","HASC_3": "NA","name": "n.a.(1707).city","area_km2": 17.90736,"hist_schema_id": "Elevation0-9000","hist_area_km2": {"700": 0.34867,"725": 3.48691,"750": 7.34338,"775": 5.436,"800": 1.10776,"825": 0.18463}}}