{"type": "Feature","bbox": [33.668,-14.0967,33.7109,-14.0483],"geometry": {"type": "MultiPolygon","coordinates": [[[[33.677,-14.0601,1111.8567],[33.668,-14.0654,1131.1909],[33.6784,-14.0771,1106.8506],[33.6778,-14.0833,1100.8151],[33.6807,-14.0855,1093.4755],[33.6845,-14.0851,1084.0298],[33.6878,-14.0878,1093.8282],[33.688,-14.0967,1116.1667],[33.6984,-14.0797,1083.5269],[33.7026,-14.0794,1088.9442],[33.7109,-14.0817,1061.3303],[33.709,-14.0685,1057.3752],[33.7106,-14.0591,1058.4812],[33.6953,-14.0618,1092.1731],[33.6993,-14.0483,1083.2115],[33.6786,-14.061,1111.4807],[33.677,-14.0601,1111.8567]]]]}
,"properties": {"GID_3": "MWI.11.15.19_1","GID_0": "MWI","country": "Malawi","GID_1": "MWI.11_1","province": "Lilongwe","NL_NAME_1": "NA","GID_2": "MWI.11.15_1","county": "TAMalili","NL_NAME_2": "NA","city": "n.a.(1188)","VARNAME_3": "NA","NL_NAME_3": "NA","TYPE_3": "Unknown","ENGTYPE_3": "Unknown","CC_3": "NA","HASC_3": "NA","name": "n.a.(1188).city","area_km2": 11.331904,"hist_schema_id": "Elevation0-9000","hist_area_km2": {"1050": 0.30849,"1075": 3.660724,"1100": 5.90248,"1125": 1.46021}}}