{"type":"Feature","properties":{"GID_3":"MWI.1.3.29_1","GID_0":"MWI","country":"Malawi","GID_1":"MWI.1_1","province":"Balaka","NL_NAME_1":"NA","GID_2":"MWI.1.3_1","county":"TANsamala","NL_NAME_2":"NA","city":"n.a.(1996)","VARNAME_3":"NA","NL_NAME_3":"NA","TYPE_3":"Unknown","ENGTYPE_3":"Unknown","CC_3":"NA","HASC_3":"NA","name":"n.a.(1996).city"},
"geometry":{"type": "MultiPolygon","coordinates": [[[[34.8913,-15.0498,636.4095],[34.8809,-15.0886,636.2421],[34.888,-15.0921,632.8656],[34.8964,-15.0908,628.2107],[34.9054,-15.0923,619.0574],[34.9067,-15.0937,616.2786],[34.9022,-15.1007,631.4961],[34.9115,-15.1064,611.0222],[34.9234,-15.1103,600.3271],[34.93,-15.1067,592.2369],[34.9329,-15.1075,595.0312],[34.9344,-15.111,589.6826],[34.9422,-15.1148,581.1947],[34.9441,-15.1141,579.8903],[34.9499,-15.108,579.1965],[34.9395,-15.095,595.3054],[34.9371,-15.0898,601.477],[34.9323,-15.0864,606.3455],[34.9251,-15.0775,613.3001],[34.9284,-15.0755,611.9023],[34.931,-15.0705,607.4326],[34.9204,-15.0601,616.6663],[34.915,-15.058,620.2182],[34.9149,-15.0562,626.2582],[34.9056,-15.0557,629.4782],[34.8913,-15.0498,636.4095]]]]}}