{"type":"Feature","properties":{"GID_3":"MWI.23.5.11_1","GID_0":"MWI","country":"Malawi","GID_1":"MWI.23_1","province":"Ntchisi","NL_NAME_1":"NA","GID_2":"MWI.23.5_1","county":"TAKalumo","NL_NAME_2":"NA","city":"n.a.(582)","VARNAME_3":"NA","NL_NAME_3":"NA","TYPE_3":"Unknown","ENGTYPE_3":"Unknown","CC_3":"NA","HASC_3":"NA","name":"n.a.(582).city"},
"geometry":{"type": "MultiPolygon","coordinates": [[[[33.7429,-13.362,1169.6257],[33.7479,-13.3645,1177.1318],[33.7498,-13.369,1180.0879],[33.7559,-13.3754,1195.3308],[33.7612,-13.3783,1206.3289],[33.7647,-13.3854,1211.5272],[33.7735,-13.3934,1224.8044],[33.7874,-13.3905,1260.5715],[33.8103,-13.3907,1257.3672],[33.8099,-13.3853,1254.5277],[33.8149,-13.3757,1240.7914],[33.8134,-13.3745,1247.1685],[33.8073,-13.3758,1264.3604],[33.7925,-13.3751,1253.8634],[33.7901,-13.3647,1259.576],[33.7808,-13.3507,1228.7821],[33.7622,-13.3567,1232.9658],[33.7659,-13.3349,1205.0084],[33.7633,-13.3368,1210.0569],[33.7482,-13.3365,1183.7793],[33.7346,-13.3407,1157.5787],[33.7301,-13.3398,1146.9658],[33.7315,-13.3455,1154.7643],[33.7369,-13.3506,1158.9297],[33.7429,-13.362,1169.6257]]]]}}