{"type":"Feature","properties":{"GID_3":"MWI.11.4.3_1","GID_0":"MWI","country":"Malawi","GID_1":"MWI.11_1","province":"Lilongwe","NL_NAME_1":"NA","GID_2":"MWI.11.4_1","county":"SCNjewa","NL_NAME_2":"NA","city":"n.a.(1059)","VARNAME_3":"NA","NL_NAME_3":"NA","TYPE_3":"Unknown","ENGTYPE_3":"Unknown","CC_3":"NA","HASC_3":"NA","name":"n.a.(1059).city"},
"geometry":{"type": "MultiPolygon","coordinates": [[[[33.6061,-13.9099,1100.433],[33.5963,-13.9141,1105.5253],[33.5854,-13.9247,1115.7776],[33.5775,-13.927,1116.6068],[33.5778,-13.9338,1129.8186],[33.5878,-13.9494,1157.6917],[33.5846,-13.9618,1147.4427],[33.59,-13.9603,1146.3296],[33.6044,-13.9616,1128.9702],[33.6096,-13.9606,1137.4893],[33.6106,-13.9631,1128.349],[33.6201,-13.9645,1133.2521],[33.6345,-13.9604,1123.5079],[33.6384,-13.9572,1117.252],[33.6251,-13.9558,1140.8738],[33.6129,-13.951,1151.2892],[33.6207,-13.9421,1141.7739],[33.6064,-13.9466,1152.3323],[33.6077,-13.941,1145.2275],[33.6138,-13.9297,1139.0891],[33.6067,-13.93,1130.1021],[33.6082,-13.9273,1124.6427],[33.604,-13.926,1133.7556],[33.6069,-13.9165,1120.8505],[33.6061,-13.9099,1100.433]]]]}}