{"type": "Feature","bbox": [34.9112,-15.6525,34.9521,-15.607],"geometry": {"type": "MultiPolygon","coordinates": [[[[34.9255,-15.616,653.0598],[34.9135,-15.6283,646.4048],[34.915,-15.6325,651.083],[34.9112,-15.6399,659.3923],[34.9142,-15.6434,666.6824],[34.9166,-15.6515,686.2184],[34.9287,-15.6525,709.694],[34.9387,-15.6512,688.5113],[34.9381,-15.6443,684.1714],[34.9476,-15.6438,689.0663],[34.9493,-15.6261,679.4813],[34.9521,-15.6192,671.3003],[34.9461,-15.6156,655.4179],[34.9462,-15.612,645.9172],[34.9416,-15.6112,637.0223],[34.9379,-15.607,623.615],[34.9352,-15.6122,634.9753],[34.9352,-15.6174,644.7052],[34.9283,-15.6202,652.5675],[34.9255,-15.616,653.0598]]]]}
,"properties": {"GID_3": "MWI.2.4.8_1","GID_0": "MWI","country": "Malawi","GID_1": "MWI.2_1","province": "Blantyre","NL_NAME_1": "NA","GID_2": "MWI.2.4_1","county": "TAKuntaja","NL_NAME_2": "NA","city": "n.a.(2372)","VARNAME_3": "NA","NL_NAME_3": "NA","TYPE_3": "Unknown","ENGTYPE_3": "Unknown","CC_3": "NA","HASC_3": "NA","name": "n.a.(2372).city","area_km2": 13.51666,"hist_schema_id": "Elevation0-9000","hist_area_km2": {"625": 0.38798,"650": 2.34816,"675": 5.83952,"700": 4.79806,"725": 0.14293}}}