{"type": "Feature","bbox": [33.5554,-13.3412,33.6193,-13.2785],"geometry": {"type": "MultiPolygon","coordinates": [[[[33.5808,-13.2785,1043.33],[33.578,-13.2815,1048.0179],[33.5556,-13.2842,1046.1738],[33.5576,-13.2918,1051.1576],[33.5554,-13.2976,1085.8914],[33.5588,-13.3018,1208.7827],[33.5631,-13.3039,1132.4089],[33.5662,-13.3127,1088.001],[33.5627,-13.3174,1061.2463],[33.5638,-13.325,1073.1897],[33.585,-13.3412,1115.1564],[33.5963,-13.3385,1107.6138],[33.607,-13.3401,1074.1691],[33.6177,-13.329,1070.7661],[33.6193,-13.3135,1062.3423],[33.6174,-13.3086,1073.2727],[33.6192,-13.2936,1056.3306],[33.6177,-13.2914,1063.262],[33.6042,-13.2946,1086.793],[33.5914,-13.291,1064.5566],[33.5904,-13.2849,1058.4685],[33.5808,-13.2785,1043.33]]]]}
,"properties": {"GID_3": "MWI.7.3.5_1","GID_0": "MWI","country": "Malawi","GID_1": "MWI.7_1","province": "Dowa","NL_NAME_1": "NA","GID_2": "MWI.7.3_1","county": "SCChakhaza","NL_NAME_2": "NA","city": "n.a.(558)","VARNAME_3": "NA","NL_NAME_3": "NA","TYPE_3": "Unknown","ENGTYPE_3": "Unknown","CC_3": "NA","HASC_3": "NA","name": "n.a.(558).city","area_km2": 33.48675,"hist_schema_id": "Elevation0-9000","hist_area_km2": {"1025": 0.39206,"1050": 4.58086,"1075": 8.89271,"1100": 9.24311,"1125": 3.73433,"1150": 1.40301,"1175": 0.84593,"1200": 0.80467,"1225": 0.53644,"1250": 0.49518,"1275": 0.47455,"1300": 0.47455,"1325": 0.41265,"1350": 0.24759,"1375": 0.22696,"1400": 0.20633,"1425": 0.1238,"1450": 0.12379,"1475": 0.16506,"1500": 0.02063,"1525": 0.08253}}}