{"type":"Feature","properties":{"GID_3":"MWI.4.6.8_1","GID_0":"MWI","country":"Malawi","GID_1":"MWI.4_1","province":"Chiradzulu","NL_NAME_1":"NA","GID_2":"MWI.4.6_1","county":"TANchema","NL_NAME_2":"NA","city":"n.a.(2420)","VARNAME_3":"NA","NL_NAME_3":"NA","TYPE_3":"Unknown","ENGTYPE_3":"Unknown","CC_3":"NA","HASC_3":"NA","name":"n.a.(2420).city"},
"geometry":{"type": "MultiPolygon","coordinates": [[[[35.23,-15.6656,876.7472],[35.24,-15.6773,859.6434],[35.2508,-15.685,855.5273],[35.2561,-15.6813,849.9387],[35.2624,-15.6826,848.4452],[35.2671,-15.6781,870.5908],[35.2751,-15.6783,822.1495],[35.2763,-15.6768,817.1594],[35.2763,-15.674,821.7014],[35.2726,-15.6741,820.8948],[35.2718,-15.671,827.6462],[35.2635,-15.6741,831.0191],[35.2586,-15.6717,834.3987],[35.2565,-15.6648,843.1037],[35.2535,-15.6649,843.9765],[35.2511,-15.6619,849.3252],[35.2493,-15.6624,848.3765],[35.2452,-15.6556,861.1223],[35.2253,-15.6522,880.611],[35.2224,-15.6573,891.3723],[35.23,-15.6656,876.7472]]]]}}