{"type":"Feature","properties":{"GID_3":"MWI.24.2.22_1","GID_0":"MWI","country":"Malawi","GID_1":"MWI.24_1","province":"Phalombe","NL_NAME_1":"NA","GID_2":"MWI.24.2_1","county":"TAMkhumba","NL_NAME_2":"NA","city":"n.a.(2405)","VARNAME_3":"NA","NL_NAME_3":"NA","TYPE_3":"Unknown","ENGTYPE_3":"Unknown","CC_3":"NA","HASC_3":"NA","name":"n.a.(2405).city"},
"geometry":{"type": "MultiPolygon","coordinates": [[[[35.694,-15.6402,660.5988],[35.6829,-15.6465,676.3917],[35.6701,-15.6499,691.4912],[35.6725,-15.6513,685.8726],[35.671,-15.6547,688.4243],[35.6725,-15.6577,681.2247],[35.6684,-15.663,687.7439],[35.67,-15.6681,725.528],[35.6654,-15.673,713.8251],[35.6663,-15.6809,726.8201],[35.6717,-15.6834,708.5968],[35.6758,-15.6826,701.5129],[35.6797,-15.6799,697.5635],[35.6832,-15.6735,690.2864],[35.683,-15.6806,704.6187],[35.6848,-15.6804,723.2538],[35.6867,-15.6774,697.8698],[35.692,-15.6785,689.0317],[35.6971,-15.6696,706.3373],[35.7006,-15.6685,699.4236],[35.7141,-15.6745,666.0426],[35.717,-15.672,663.0052],[35.7196,-15.6725,661.6928],[35.7234,-15.6646,659.176],[35.715,-15.6585,665.5274],[35.7076,-15.6554,669.2262],[35.7111,-15.652,660.3726],[35.7078,-15.6424,653.131],[35.6966,-15.6432,661.389],[35.694,-15.6402,660.5988]]]]}}