{"type": "Feature","bbox": [33.2372,-9.7454,33.3349,-9.6417],"geometry": {"type": "MultiPolygon","coordinates": [[[[33.2849,-9.6972,1263.9786],[33.2853,-9.704,1255.4209],[33.2781,-9.7065,1278.8329],[33.2722,-9.7066,1279.5369],[33.284,-9.7205,1255.4094],[33.2901,-9.7233,1238.1593],[33.3055,-9.7425,1232.9375],[33.3194,-9.7454,1257.0142],[33.3202,-9.7346,1254.7827],[33.3183,-9.7264,1250.1226],[33.303,-9.7214,1228.5367],[33.3153,-9.716,1217.3422],[33.3191,-9.7054,1217.5646],[33.3184,-9.7031,1222.8079],[33.329,-9.6993,1226.5662],[33.3349,-9.6934,1210.5293],[33.3338,-9.6919,1210.5659],[33.3252,-9.6861,1224.6367],[33.3182,-9.6759,1236.8634],[33.3114,-9.6703,1254.7894],[33.3038,-9.6605,1273.9163],[33.2916,-9.6554,1288.7356],[33.2825,-9.6484,1311.3026],[33.2692,-9.6417,1293.5624],[33.2493,-9.6526,1354.2762],[33.239,-9.6539,1377.1858],[33.2401,-9.6556,1370.6711],[33.2372,-9.6649,1386.9602],[33.2403,-9.6696,1371.0205],[33.2438,-9.6814,1341.177],[33.2405,-9.689,1316.4],[33.2415,-9.6925,1318.8762],[33.2457,-9.6935,1320.761],[33.2459,-9.6886,1328.499],[33.2848,-9.6881,1261.3291],[33.2849,-9.6972,1263.9786]]]]}
,"properties": {"GID_3": "MWI.5.4.4_1","GID_0": "MWI","country": "Malawi","GID_1": "MWI.5_1","province": "Chitipa","NL_NAME_1": "NA","GID_2": "MWI.5.4_1","county": "TAMwabulambya","NL_NAME_2": "NA","city": "n.a.(21)","VARNAME_3": "NA","NL_NAME_3": "NA","TYPE_3": "Unknown","ENGTYPE_3": "Unknown","CC_3": "NA","HASC_3": "NA","name": "n.a.(21).city","area_km2": 55.09229,"hist_schema_id": "Elevation0-9000","hist_area_km2": {"1200": 0.0627,"1225": 8.5056,"1250": 13.98134,"1275": 10.36652,"1300": 10.0953,"1325": 7.08547,"1350": 3.40688,"1375": 1.54669,"1400": 0.0418}}}