{"type": "Feature","bbox": [34.7938,-15.0569,34.8568,-14.9823],"geometry": {"type": "MultiPolygon","coordinates": [[[[34.8406,-14.983,708.201],[34.8385,-14.986,716.0751],[34.8354,-14.9863,718.1108],[34.8328,-14.984,716.4247],[34.8285,-14.9876,723.4993],[34.823,-14.988,723.7307],[34.822,-14.9915,726.1667],[34.8138,-14.9972,734.7076],[34.8142,-15.005,736.1106],[34.8106,-15.0031,757.1858],[34.8002,-15.0042,778.9889],[34.7969,-15.0114,804.09],[34.7966,-15.0172,804.8636],[34.7938,-15.0215,821.6962],[34.8047,-15.0271,767.2667],[34.8115,-15.0432,720.26],[34.8158,-15.0479,714.3363],[34.822,-15.0514,707.6206],[34.8298,-15.052,695.2446],[34.8437,-15.0569,677.8917],[34.853,-15.0546,672.8296],[34.8475,-15.0421,691.1418],[34.8446,-15.03,686.7407],[34.8559,-15.0082,703.9951],[34.8544,-15.0066,708.5607],[34.8474,-15.0052,719.3917],[34.8448,-15.0027,728.0569],[34.8457,-14.9989,726.1992],[34.8568,-14.9883,689.8878],[34.8526,-14.9877,698.5477],[34.8503,-14.9895,693.8229],[34.8459,-14.987,708.1348],[34.8459,-14.9842,700.9049],[34.8438,-14.9823,701.9614],[34.8406,-14.983,708.201]]]]}
,"properties": {"GID_3": "MWI.22.10.6_1","GID_0": "MWI","country": "Malawi","GID_1": "MWI.22_1","province": "Ntcheu","NL_NAME_1": "NA","GID_2": "MWI.22.10_1","county": "TAPhambala","NL_NAME_2": "NA","city": "n.a.(1959)","VARNAME_3": "NA","NL_NAME_3": "NA","TYPE_3": "Unknown","ENGTYPE_3": "Unknown","CC_3": "NA","HASC_3": "NA","name": "n.a.(1959).city","area_km2": 33.2151,"hist_schema_id": "Elevation0-9000","hist_area_km2": {"675": 1.65848,"700": 11.4672,"725": 16.01426,"750": 1.72015,"775": 1.55636,"800": 0.73721,"825": 0.06143}}}