{"type":"Feature","properties":{"GID_3":"MWI.13.11.13_1","GID_0":"MWI","country":"Malawi","GID_1":"MWI.13_1","province":"Mangochi","NL_NAME_1":"NA","GID_2":"MWI.13.11_1","county":"TAMakanjila","NL_NAME_2":"NA","city":"n.a.(829)","VARNAME_3":"NA","NL_NAME_3":"NA","TYPE_3":"Unknown","ENGTYPE_3":"Unknown","CC_3":"NA","HASC_3":"NA","name":"n.a.(829).city"},
"geometry":{"type": "MultiPolygon","coordinates": [[[[34.9692,-13.7251,485.6245],[34.9716,-13.7142,512.2847],[34.9679,-13.7054,516.6902],[34.9499,-13.6909,515.4745],[34.9518,-13.6886,514.9249],[34.9639,-13.6886,503.925],[34.9739,-13.6865,497.5574],[34.9711,-13.683,502.0337],[34.9705,-13.6773,504.4187],[34.9538,-13.6775,521.7211],[34.9449,-13.6907,517.6318],[34.9336,-13.6931,525.5988],[34.944,-13.7021,532.6179],[34.9457,-13.7105,537.4086],[34.9364,-13.7151,531.1343],[34.9313,-13.7154,535.6496],[34.9351,-13.7208,533.7684],[34.9376,-13.7289,480.6714],[34.9692,-13.7251,485.6245]]]]}}