{"type": "Feature","bbox": [32.6898,-13.6602,33.1587,-13.3423],"geometry": {"type": "MultiPolygon","coordinates": [[[[32.8582,-13.6602,1435.417],[33.0175,-13.6456,1088.4099],[33.013,-13.6252,1081.3381],[33.0185,-13.6171,1075.3699],[33.0221,-13.6043,1069.4352],[33.0204,-13.5742,1062.9902],[33.0253,-13.558,1060.8225],[33.0327,-13.5476,1059.2224],[33.0347,-13.5326,1057.6921],[33.0424,-13.52,1055.4327],[33.0563,-13.5126,1053.4908],[33.0587,-13.5058,1054.7617],[33.0566,-13.5037,1053.3201],[33.0583,-13.4983,1055.0261],[33.0676,-13.4955,1053.3484],[33.0707,-13.4931,1053.2562],[33.0856,-13.491,1050.0062],[33.0936,-13.4839,1050.4293],[33.0961,-13.4765,1050.7081],[33.0966,-13.4664,1048.3635],[33.0991,-13.4627,1049.6927],[33.1022,-13.4606,1048.9404],[33.1091,-13.4598,1048.5345],[33.1292,-13.4433,1047.7736],[33.1343,-13.4195,1046.3434],[33.1423,-13.4133,1045.4705],[33.1485,-13.4013,1045.517],[33.1533,-13.3995,1045.1206],[33.1556,-13.3958,1047.1775],[33.1564,-13.3827,1045.7124],[33.1526,-13.3661,1044.5438],[33.1579,-13.3596,1043.9545],[33.1587,-13.3562,1043.7039],[33.1512,-13.3464,1045.6769],[33.1377,-13.3423,1044.8802],[32.9443,-13.3548,1082.0215],[32.9422,-13.3811,1082.8412],[32.9437,-13.3963,1080.1482],[32.9399,-13.4117,1089.3042],[32.9252,-13.4349,1093.5032],[32.9074,-13.4459,1099.4288],[32.9035,-13.4501,1100.1301],[32.9005,-13.4646,1098.604],[32.8885,-13.4684,1105.8608],[32.8852,-13.4667,1111.4939],[32.8772,-13.4667,1116.2224],[32.8697,-13.4705,1120.9897],[32.864,-13.4802,1113.9717],[32.8608,-13.5157,1132.5022],[32.8535,-13.5308,1132.8513],[32.8405,-13.5406,1144.6705],[32.8331,-13.5429,1151.1958],[32.8234,-13.5434,1167.8016],[32.8062,-13.5551,1175.9705],[32.7925,-13.5603,1253.713],[32.7879,-13.5605,1331.5662],[32.7795,-13.5674,1321.3678],[32.7725,-13.576599999999999,1255.1313],[32.7588,-13.5828,1249.0946],[32.7366,-13.5798,1431.1946],[32.7198,-13.5722,1446.5135],[32.7112,-13.571,1574.6001],[32.7044,-13.5762,1421.3314],[32.7036,-13.587,1340.684],[32.7055,-13.5888,1333.6965],[32.7045,-13.5925,1325.8606],[32.6898,-13.6105,1478.9036],[32.7003,-13.6266,1372.744],[32.7136,-13.6378,1384.822],[32.7427,-13.6488,1377.2258],[32.7825,-13.6484,1337.6174],[32.7983,-13.6533,1384.444],[32.8277,-13.6556,1458.6506],[32.8377,-13.6582,1449.1608],[32.8582,-13.6602,1435.417]]]]}
,"properties": {"GID_2": "MWI.14.5_1","GID_0": "MWI","country": "Malawi","GID_1": "MWI.14_1","province": "Mchinji","NL_NAME_1": "NA","county": "TAMkanda","VARNAME_2": "NA","NL_NAME_2": "NA","TYPE_2": "TraditionalAuthority","ENGTYPE_2": "TraditionalAuthority","CC_2": "NA","HASC_2": "NA","name": "T_A_Mkanda.county","area_km2": 862.6654,"hist_schema_id": "Elevation0-9000","hist_area_km2": {"1050": 102.0057,"1075": 252.2557,"1100": 195.6564,"1125": 90.9537,"1150": 47.2355,"1175": 27.8826,"1200": 21.1017,"1225": 16.4239,"1250": 13.2916,"1275": 12.2404,"1300": 14.2802,"1325": 17.3912,"1350": 10.7562,"1375": 7.2119,"1400": 5.6459,"1425": 5.9138,"1450": 4.2241,"1475": 3.7501,"1500": 3.6677,"1525": 2.8848,"1550": 2.3902,"1575": 2.0194,"1600": 1.6073,"1625": 1.2982,"1650": 0.5152,"1675": 0.0618}}}