{"type":"Feature","properties":{"GID_3":"MWI.12.5.1_1","GID_0":"MWI","country":"Malawi","GID_1":"MWI.12_1","province":"Machinga","NL_NAME_1":"NA","GID_2":"MWI.12.5_1","county":"SCChamba","NL_NAME_2":"NA","city":"n.a.(2008)","VARNAME_3":"NA","NL_NAME_3":"NA","TYPE_3":"Unknown","ENGTYPE_3":"Unknown","CC_3":"NA","HASC_3":"NA","name":"n.a.(2008).city"},
"geometry":{"type": "MultiPolygon","coordinates": [[[[35.457,-15.1538,732.387],[35.4597,-15.1379,963.5582],[35.4683,-15.1308,744.2191],[35.4683,-15.1218,715.5951],[35.4523,-15.1066,749.1375],[35.4436,-15.0944,722.485],[35.4356,-15.0938,763.4765],[35.4357,-15.0848,703.8809],[35.4167,-15.0795,649.1551],[35.4091,-15.0819,682.5676],[35.4006,-15.089,726.6467],[35.3861,-15.0934,649.9186],[35.3752,-15.1023,623.9314],[35.3732,-15.1141,662.1267],[35.3714,-15.1161,654.5488],[35.367,-15.1054,589.8611],[35.3586,-15.1003,536.5311],[35.357,-15.0973,535.1603],[35.355,-15.0991,541.8911],[35.355,-15.1019,549.3975],[35.3606,-15.1138,567.9561],[35.3628,-15.1245,606.4088],[35.3675,-15.1276,662.5242],[35.3682,-15.1352,655.4039],[35.371,-15.1389,669.165],[35.3715,-15.1445,716.7041],[35.3697,-15.1499,706.0374],[35.3706,-15.1617,703.5513],[35.3812,-15.1621,752.4172],[35.3983,-15.1676,777.0286],[35.4121,-15.1642,793.4887],[35.4212,-15.1679,800.2929],[35.4336,-15.1688,796.5957],[35.4404,-15.1641,750.55],[35.4453,-15.1531,780.8513],[35.4499,-15.1514,776.053],[35.457,-15.1538,732.387]]]]}}