{"type": "Feature","bbox": [34.5234,-13.9362,34.5649,-13.9047],"geometry": {"type": "MultiPolygon","coordinates": [[[[34.5649,-13.9176,476.3607],[34.5542,-13.915,478.5862],[34.5443,-13.9152,479.1453],[34.5427,-13.9076,480.4061],[34.538,-13.9047,481.3302],[34.5394,-13.9113,479.5298],[34.5304,-13.9134,481.9496],[34.5234,-13.9271,483.5921],[34.5248,-13.9294,481.7552],[34.5305,-13.9308,479.8522],[34.539,-13.9303,477.3631],[34.5374,-13.9347,477.6245],[34.5389,-13.9362,477.7569],[34.5465,-13.9313,477.7392],[34.5563,-13.9282,476.7824],[34.558,-13.9216,476.8759],[34.5627,-13.9207,476.2458],[34.5649,-13.9176,476.3607]]]]}
,"properties": {"GID_3": "MWI.26.10.4_1","GID_0": "MWI","country": "Malawi","GID_1": "MWI.26_1","province": "Salima","NL_NAME_1": "NA","GID_2": "MWI.26.10_1","county": "TANdindi","NL_NAME_2": "NA","city": "n.a.(1056)","VARNAME_3": "NA","NL_NAME_3": "NA","TYPE_3": "Unknown","ENGTYPE_3": "Unknown","CC_3": "NA","HASC_3": "NA","name": "n.a.(1056).city","area_km2": 7.079305,"hist_schema_id": "Elevation0-9000","hist_area_km2": {"475": 7.079305}}}