{"type": "Feature","bbox": [34.2539,-14.3267,34.2822,-14.2924],"geometry": {"type": "MultiPolygon","coordinates": [[[[34.2685,-14.3211,1611.3655],[34.2704,-14.3215,1585.9961],[34.2736,-14.3267,1555.1555],[34.2758,-14.3247,1556.3817],[34.2766,-14.3186,1585.1631],[34.2822,-14.3164,1584.583],[34.2801,-14.3124,1573.1677],[34.2819,-14.3054,1559.9443],[34.2785,-14.2998,1579.8053],[34.2779,-14.2939,1571.2083],[34.2736,-14.2924,1591.1982],[34.2682,-14.2935,1594.3253],[34.2625,-14.3022,1662.3716],[34.2539,-14.3098,1594.5205],[34.2601,-14.3191,1611.3165],[34.2685,-14.3211,1611.3655]]]]}
,"properties": {"GID_3": "MWI.6.7.32_1","GID_0": "MWI","country": "Malawi","GID_1": "MWI.6_1","province": "Dedza","NL_NAME_1": "NA","GID_2": "MWI.6.7_1","county": "TAKaphuka","NL_NAME_2": "NA","city": "n.a.(1453)","VARNAME_3": "NA","NL_NAME_3": "NA","TYPE_3": "Unknown","ENGTYPE_3": "Unknown","CC_3": "NA","HASC_3": "NA","name": "n.a.(1453).city","area_km2": 6.738586,"hist_schema_id": "Elevation0-9000","hist_area_km2": {"1550": 0.246535,"1575": 1.89011,"1600": 1.643565,"1625": 1.397014,"1650": 0.554704,"1675": 0.308161,"1700": 0.24653,"1725": 0.10272,"1750": 0.061632,"1775": 0.123264,"1800": 0.061631,"1825": 0.041088,"1850": 0.061632}}}