{"type":"Feature","properties":{"GID_3":"MWI.15.7.7_1","GID_0":"MWI","country":"Malawi","GID_1":"MWI.15_1","province":"Mulanje","NL_NAME_1":"NA","GID_2":"MWI.15.7_1","county":"TANkanda","NL_NAME_2":"NA","city":"n.a.(2565)","VARNAME_3":"NA","NL_NAME_3":"NA","TYPE_3":"Unknown","ENGTYPE_3":"Unknown","CC_3":"NA","HASC_3":"NA","name":"n.a.(2565).city"},
"geometry":{"type": "MultiPolygon","coordinates": [[[[35.4876,-15.7975,704.1216],[35.485,-15.804,699.8915],[35.4771,-15.8042,699.4941],[35.4703,-15.8095,697.9435],[35.4644,-15.8105,698.9819],[35.4607,-15.8195,698.0148],[35.456,-15.821,697.9015],[35.4522,-15.8202,698.6337],[35.4481,-15.8226,699.0243],[35.4457,-15.8318,696.4348],[35.4522,-15.8387,695.2112],[35.4591,-15.8396,695.9822],[35.4618,-15.8441,696.6234],[35.4708,-15.8478,699.0861],[35.4805,-15.8476,701.1661],[35.4997,-15.8422,705.6733],[35.5045,-15.8394,707.3641],[35.5147,-15.8388,709.6444],[35.5143,-15.8289,709.3402],[35.51,-15.8238,707.616],[35.5121,-15.8217,708.5332],[35.5078,-15.8165,707.0657],[35.5037,-15.8066,704.141],[35.4978,-15.8002,701.9552],[35.4876,-15.7975,704.1216]]]]}}