{"type": "Feature","bbox": [33.4056,-11.5499,33.5243,-11.4552],"geometry": {"type": "MultiPolygon","coordinates": [[[[33.4692,-11.4626,1206.5088],[33.4561,-11.4554,1210.1902],[33.4515,-11.4552,1205.4054],[33.4401,-11.46,1186.9146],[33.4394,-11.4674,1178.0452],[33.4349,-11.4731,1159.6892],[33.4199,-11.4723,1145.9399],[33.4083,-11.4687,1131.0792],[33.4056,-11.4755,1138.5291],[33.4095,-11.4817,1135.2563],[33.412,-11.4816,1129.6506],[33.4204,-11.495,1141.7927],[33.4222,-11.4969,1138.3354],[33.4258,-11.4969,1139.1639],[33.4267,-11.5023,1146.0942],[33.4254,-11.5122,1148.5259],[33.4294,-11.514099999999999,1154.8645],[33.4355,-11.534,1156.063],[33.4438,-11.543,1162.5068],[33.4446,-11.5475,1169.4963],[33.4645,-11.5478,1191.0413],[33.4661,-11.5499,1176.2701],[33.4725,-11.5462,1198.9521],[33.4799,-11.5458,1188.7748],[33.4659,-11.5193,1210.1262],[33.4744,-11.5129,1198.5607],[33.4823,-11.5189,1210.9934],[33.4871,-11.5187,1226.6033],[33.5008,-11.5118,1241.9275],[33.506,-11.514099999999999,1233.3414],[33.5243,-11.5035,1264.6976],[33.518,-11.4886,1291.5525],[33.5114,-11.4876,1274.8212],[33.5063,-11.485,1272.7327],[33.5092,-11.4762,1260.3347],[33.5005,-11.477,1252.8174],[33.4943,-11.4798,1235.1637],[33.4815,-11.4734,1214.4719],[33.478,-11.4778,1219.5979],[33.4703,-11.4779,1207.2975],[33.4652,-11.473,1195.6508],[33.4692,-11.4626,1206.5088]]]]}
,"properties": {"GID_3": "MWI.17.6.11_1","GID_0": "MWI","country": "Malawi","GID_1": "MWI.17_1","province": "Mzimba","NL_NAME_1": "NA","GID_2": "MWI.17.6_1","county": "TAChindi","NL_NAME_2": "NA","city": "n.a.(215)","VARNAME_3": "NA","NL_NAME_3": "NA","TYPE_3": "Unknown","ENGTYPE_3": "Unknown","CC_3": "NA","HASC_3": "NA","name": "n.a.(215).city","area_km2": 67.10836,"hist_schema_id": "Elevation0-9000","hist_area_km2": {"1125": 1.5168,"1150": 6.48237,"1175": 16.91224,"1200": 20.81785,"1225": 10.65823,"1250": 6.23305,"1275": 4.00995,"1300": 0.47787}}}