{"type": "Feature","bbox": [33.972,-14.4042,34.029,-14.3664],"geometry": {"type": "MultiPolygon","coordinates": [[[[33.978,-14.3748,1245.1443],[33.9759,-14.3843,1246.4379],[33.9815,-14.3877,1259.3875],[33.9784,-14.3933,1252.6021],[33.972,-14.3952,1240.4801],[33.9772,-14.4032,1246.6052],[33.9818,-14.4041,1255.7682],[33.9947,-14.4016,1262.9594],[34.007,-14.4042,1293.9524],[34.0082,-14.3928,1295.1624],[34.0146,-14.3927,1290.6155],[34.0187,-14.3867,1280.8931],[34.029,-14.3796,1262.7657],[34.0216,-14.3759,1303.8677],[34.0197,-14.3727,1304.8022],[34.0188,-14.3753,1318.9932],[34.0114,-14.3822,1299.5026],[34.0077,-14.3828,1292.7866],[34.0063,-14.3853,1284.6646],[34.002,-14.3844,1269.8876],[33.9986,-14.3664,1278.8453],[33.9894,-14.3762,1249.1353],[33.9829,-14.3774,1254.9939],[33.978,-14.3748,1245.1443]]]]}
,"properties": {"GID_3": "MWI.6.9.14_1","GID_0": "MWI","country": "Malawi","GID_1": "MWI.6_1","province": "Dedza","NL_NAME_1": "NA","GID_2": "MWI.6.9_1","county": "TAPemba","NL_NAME_2": "NA","city": "n.a.(1536)","VARNAME_3": "NA","NL_NAME_3": "NA","TYPE_3": "Unknown","ENGTYPE_3": "Unknown","CC_3": "NA","HASC_3": "NA","name": "n.a.(1536).city","area_km2": 12.096395,"hist_schema_id": "Elevation0-9000","hist_area_km2": {"1225": 0.020536,"1250": 4.230688,"1275": 5.483378,"1300": 2.135875,"1325": 0.205381,"1350": 0.020538}}}