{"type":"Feature","properties":{"GID_3":"MWI.20.7.23_1","GID_0":"MWI","country":"Malawi","GID_1":"MWI.20_1","province":"Nkhotakota","NL_NAME_1":"NA","GID_2":"MWI.20.7_1","county":"TAKanyenda","NL_NAME_2":"NA","city":"n.a.(393)","VARNAME_3":"NA","NL_NAME_3":"NA","TYPE_3":"Unknown","ENGTYPE_3":"Unknown","CC_3":"NA","HASC_3":"NA","name":"n.a.(393).city"},
"geometry":{"type": "MultiPolygon","coordinates": [[[[34.2189,-12.7156,475.0782],[34.2153,-12.7194,476.0795],[34.2109,-12.7193,479.3174],[34.2024,-12.7221,496.6701],[34.2042,-12.7265,498.014],[34.2094,-12.7311,491.3046],[34.2151,-12.7447,494.5536],[34.2218,-12.752,476.7385],[34.2097,-12.7608,481.9836],[34.2187,-12.7715,481.1905],[34.2237,-12.7729,484.2771],[34.2259,-12.7767,479.047],[34.2334,-12.7823,479.2352],[34.2392,-12.7839,477.904],[34.2409,-12.7824,480.1637],[34.242,-12.7761,480.1797],[34.2467,-12.778,479.3098],[34.2504,-12.773,478.3899],[34.2506,-12.7702,478.1692],[34.2575,-12.7703,478.2069],[34.2586,-12.7685,477.7993],[34.2576,-12.7652,478.0338],[34.2678,-12.764099999999999,476.4114],[34.2735,-12.7569,476.1848],[34.2656,-12.7463,474.5],[34.2637,-12.7482,474.5],[34.2623,-12.7465,474.5],[34.2597,-12.7481,474.5],[34.2427,-12.7386,474.9045],[34.2189,-12.7156,475.0782]]]]}}