{"type":"Feature","properties":{"GID_3":"MWI.7.3.14_1","GID_0":"MWI","country":"Malawi","GID_1":"MWI.7_1","province":"Dowa","NL_NAME_1":"NA","GID_2":"MWI.7.3_1","county":"SCChakhaza","NL_NAME_2":"NA","city":"n.a.(591)","VARNAME_3":"NA","NL_NAME_3":"NA","TYPE_3":"Unknown","ENGTYPE_3":"Unknown","CC_3":"NA","HASC_3":"NA","name":"n.a.(591).city"},
"geometry":{"type": "MultiPolygon","coordinates": [[[[33.5593,-13.3486,1089.7152],[33.5515,-13.3481,1084.2251],[33.5475,-13.3512,1078.1621],[33.514,-13.3505,1056.1447],[33.5082,-13.3489,1046.5712],[33.5074,-13.3551,1047.0698],[33.5275,-13.3622,1079.6866],[33.5351,-13.3703,1084.7686],[33.556,-13.3717,1112.4022],[33.5824,-13.371,1131.366],[33.5778,-13.3586,1121.942],[33.5713,-13.3573,1119.4764],[33.5593,-13.3486,1089.7152]]]]}}