{"type":"Feature","properties":{"GID_3":"MWI.13.10.4_1","GID_0":"MWI","country":"Malawi","GID_1":"MWI.13_1","province":"Mangochi","NL_NAME_1":"NA","GID_2":"MWI.13.10_1","county":"TAKatuli","NL_NAME_2":"NA","city":"n.a.(1158)","VARNAME_3":"NA","NL_NAME_3":"NA","TYPE_3":"Unknown","ENGTYPE_3":"Unknown","CC_3":"NA","HASC_3":"NA","name":"n.a.(1158).city"},
"geometry":{"type": "MultiPolygon","coordinates": [[[[35.347,-14.0641,1119.1045],[35.3578,-14.0657,1151.3357],[35.3622,-14.0581,1161.4181],[35.3619,-14.0526,1162.188],[35.3683,-14.0524,1181.5596],[35.3788,-14.0495,1334.2241],[35.3538,-14.022,1218.5348],[35.3476,-14.0267,1231.1211],[35.3511,-14.0326,1178.4351],[35.3479,-14.0363,1154.8846],[35.3497,-14.04,1170.649],[35.3541,-14.0438,1158.2612],[35.3518,-14.0475,1152.1875],[35.3515,-14.0555,1137.3674],[35.347,-14.0641,1119.1045]]]]}}