{"type": "Feature","bbox": [35.1383,-15.859,35.166,-15.8301],"geometry": {"type": "MultiPolygon","coordinates": [[[[35.1446,-15.8301,942.3051],[35.1383,-15.8343,1026.2389],[35.142,-15.8374,987.9916],[35.1394,-15.8413,1114.6525],[35.1478,-15.8437,924.0076],[35.1442,-15.8466,952.2413],[35.1431,-15.852,983.9813],[35.1464,-15.8537,948.0117],[35.15,-15.859,896.4581],[35.1552,-15.8579,895.0222],[35.158,-15.8554,883.8649],[35.1615,-15.8565,875.6514],[35.166,-15.8548,869.9212],[35.1646,-15.8517,877.6664],[35.1604,-15.8512,887.4777],[35.1551,-15.8455,902.7012],[35.159,-15.8376,910.4647],[35.1501,-15.8371,934.7758],[35.1446,-15.8301,942.3051]]]]}
,"properties": {"GID_3": "MWI.4.4.16_1","GID_0": "MWI","country": "Malawi","GID_1": "MWI.4_1","province": "Chiradzulu","NL_NAME_1": "NA","GID_2": "MWI.4.4_1","county": "TALikoswe","NL_NAME_2": "NA","city": "n.a.(2593)","VARNAME_3": "NA","NL_NAME_3": "NA","TYPE_3": "Unknown","ENGTYPE_3": "Unknown","CC_3": "NA","HASC_3": "NA","name": "n.a.(2593).city","area_km2": 4.262871,"hist_schema_id": "Elevation0-9000","hist_area_km2": {"875": 0.448706,"900": 1.06059,"925": 1.305382,"950": 0.856677,"975": 0.387544,"1000": 0.163178,"1025": 0.020397,"1100": 0.020397}}}