{"type":"Feature","properties":{"GID_3":"MWI.3.5.6_1","GID_0":"MWI","country":"Malawi","GID_1":"MWI.3_1","province":"Chikwawa","NL_NAME_1":"NA","GID_2":"MWI.3.5_1","county":"TAChapananga","NL_NAME_2":"NA","city":"n.a.(2555)","VARNAME_3":"NA","NL_NAME_3":"NA","TYPE_3":"Unknown","ENGTYPE_3":"Unknown","CC_3":"NA","HASC_3":"NA","name":"n.a.(2555).city"},
"geometry":{"type": "MultiPolygon","coordinates": [[[[34.3422,-15.7926,576.6233],[34.3432,-15.7988,564.5302],[34.3366,-15.8054,540.2678],[34.3373,-15.8082,544.1479],[34.3355,-15.8099,527.639],[34.3353,-15.8162,492.7733],[34.3274,-15.8185,476.6634],[34.3282,-15.8202,519.5816],[34.3263,-15.8224,537.8618],[34.3163,-15.8285,344.0067],[34.3173,-15.8318,321.1049],[34.3219,-15.8329,338.2732],[34.3214,-15.8359,306.1442],[34.3244,-15.8373,324.9885],[34.3254,-15.8416,312.2],[34.3397,-15.8415,336.1486],[34.3599,-15.8387,487.2949],[34.3644,-15.8339,501.4842],[34.3669,-15.8338,505.9799],[34.367,-15.8209,491.7272],[34.3696,-15.8234,481.6755],[34.3716,-15.8234,485.337],[34.3749,-15.822,490.0359],[34.3777,-15.8183,506.8808],[34.3836,-15.8198,504.3083],[34.3855,-15.8165,513.926],[34.3891,-15.8181,506.3412],[34.3897,-15.8213,511.6575],[34.3964,-15.821,543.0919],[34.3959,-15.8183,544.5014],[34.3993,-15.8067,585.3201],[34.395,-15.8011,548.1934],[34.3926,-15.7927,548.3695],[34.3886,-15.7884,523.675],[34.3764,-15.7952,499.3387],[34.3738,-15.7949,499.3737],[34.372,-15.7973,497.4102],[34.3616,-15.7921,499.9718],[34.3603,-15.7886,506.3413],[34.356,-15.7907,518.2333],[34.3422,-15.7926,576.6233]]]]}}