{"type":"Feature","properties":{"GID_3":"MWI.22.3.17_1","GID_0":"MWI","country":"Malawi","GID_1":"MWI.22_1","province":"Ntcheu","NL_NAME_1":"NA","GID_2":"MWI.22.3_1","county":"SCGoodsonGanya","NL_NAME_2":"NA","city":"n.a.(1700)","VARNAME_3":"NA","NL_NAME_3":"NA","TYPE_3":"Unknown","ENGTYPE_3":"Unknown","CC_3":"NA","HASC_3":"NA","name":"n.a.(1700).city"},
"geometry":{"type": "MultiPolygon","coordinates": [[[[34.7162,-14.6275,736.4735],[34.7167,-14.6368,736.7437],[34.7229,-14.6502,762.3389],[34.7273,-14.6519,757.0181],[34.7315,-14.6502,735.2309],[34.7321,-14.6586,747.0462],[34.7357,-14.6581,744.8637],[34.7411,-14.6613,769.8557],[34.7451,-14.6617,697.7975],[34.7497,-14.6666,732.6205],[34.7527,-14.6675,711.1266],[34.7572,-14.6661,677.8705],[34.7734,-14.6536,641.4365],[34.7734,-14.6514,640.0559],[34.7697,-14.6491,642.1857],[34.7657,-14.6418,634.1329],[34.7627,-14.6397,634.9199],[34.7666,-14.6351,626.5236],[34.7628,-14.6327,625.8662],[34.7605,-14.6287,622.7563],[34.7588,-14.632,628.7883],[34.7586,-14.6354,632.3242],[34.7484,-14.6228,633.4182],[34.7271,-14.6089,631.8842],[34.7109,-14.6211,778.0624],[34.7162,-14.6275,736.4735]]]]}}