{"type": "Feature","bbox": [35.1812,-14.4051,35.2228,-14.3765],"geometry": {"type": "MultiPolygon","coordinates": [[[[35.1996,-14.3765,474.5],[35.1906,-14.3885,487.501],[35.1812,-14.3968,496.2078],[35.1907,-14.4022,491.539],[35.2009,-14.4051,486.0329],[35.2044,-14.4036,485.4664],[35.2164,-14.3925,481.8035],[35.2228,-14.3915,475.2671],[35.2139,-14.3843,474.5],[35.1996,-14.3765,474.5]]]]}
,"properties": {"GID_3": "MWI.13.12.12_1","GID_0": "MWI","country": "Malawi","GID_1": "MWI.13_1","province": "Mangochi","NL_NAME_1": "NA","GID_2": "MWI.13.12_1","county": "TAMponda","NL_NAME_2": "NA","city": "n.a.(1549)","VARNAME_3": "NA","NL_NAME_3": "NA","TYPE_3": "Unknown","ENGTYPE_3": "Unknown","CC_3": "NA","HASC_3": "NA","name": "n.a.(1549).city","area_km2": 7.04414,"hist_schema_id": "Elevation0-9000","hist_area_km2": {"475": 5.278012,"500": 1.766128}}}