{"type": "Feature","bbox": [33.6338,-13.0314,33.6834,-12.9551],"geometry": {"type": "MultiPolygon","coordinates": [[[[33.65,-12.9619,1094.4261],[33.6379,-12.9753,1114.1128],[33.6392,-12.9776,1122.0842],[33.6496,-12.9776,1094.679],[33.6338,-13.0004,1118.4569],[33.6412,-13.0088,1126.5137],[33.651,-13.026,1165.8298],[33.6564,-13.0314,1145.0623],[33.6577,-13.0184,1161.5569],[33.6618,-13.0184,1163.1388],[33.6688,-13.0134,1181.213],[33.6717,-13.0074,1162.2535],[33.6834,-12.9953,1182.7865],[33.6775,-12.9923,1138.7192],[33.6695,-12.9835,1121.4609],[33.6825,-12.9742,1145.6072],[33.6697,-12.9718,1098.726],[33.6636,-12.961,1082.2137],[33.6542,-12.9551,1086.7349],[33.652,-12.9562,1080.3212],[33.65,-12.9619,1094.4261]]]]}
,"properties": {"GID_3": "MWI.9.16.17_1","GID_0": "MWI","country": "Malawi","GID_1": "MWI.9_1","province": "Kasungu","NL_NAME_1": "NA","GID_2": "MWI.9.16_1","county": "TAWimbe","NL_NAME_2": "NA","city": "n.a.(453)","VARNAME_3": "NA","NL_NAME_3": "NA","TYPE_3": "Unknown","ENGTYPE_3": "Unknown","CC_3": "NA","HASC_3": "NA","name": "n.a.(453).city","area_km2": 22.99402,"hist_schema_id": "Elevation0-9000","hist_area_km2": {"1075": 1.05375,"1100": 7.52042,"1125": 7.62335,"1150": 5.10257,"1175": 1.69393}}}