{"type": "Feature","bbox": [35.0033,-16.2988,35.0519,-16.2774],"geometry": {"type": "MultiPolygon","coordinates": [[[[35.0084,-16.2988,58.6948],[35.0179,-16.297,58.5257],[35.0203,-16.294,58.4183],[35.0268,-16.2917,60.4535],[35.034,-16.2984,59.8173],[35.0492,-16.2882,77.0887],[35.0519,-16.2802,81.987799999999993],[35.0408,-16.2774,74.1064],[35.0294,-16.278,64.2056],[35.015,-16.282,59.3393],[35.0087,-16.2816,59.2636],[35.0069,-16.2838,57.9016],[35.0076,-16.2864,58.0372],[35.0033,-16.2874,57.4749],[35.0051,-16.289,57.5932],[35.0039,-16.2972,58.4814],[35.0084,-16.2988,58.6948]]]]}
,"properties": {"GID_3": "MWI.3.9.18_1","GID_0": "MWI","country": "Malawi","GID_1": "MWI.3_1","province": "Chikwawa","NL_NAME_1": "NA","GID_2": "MWI.3.9_1","county": "TAMakhwira","NL_NAME_2": "NA","city": "n.a.(3004)","VARNAME_3": "NA","NL_NAME_3": "NA","TYPE_3": "Unknown","ENGTYPE_3": "Unknown","CC_3": "NA","HASC_3": "NA","name": "n.a.(3004).city","area_km2": 8.120164,"hist_schema_id": "Elevation0-9000","hist_area_km2": {"50": 3.683538,"75": 4.436626}}}