{"type":"Feature","properties":{"GID_3":"MWI.22.6.12_1","GID_0":"MWI","country":"Malawi","GID_1":"MWI.22_1","province":"Ntcheu","NL_NAME_1":"NA","GID_2":"MWI.22.6_1","county":"TAKwataine","NL_NAME_2":"NA","city":"n.a.(1853)","VARNAME_3":"NA","NL_NAME_3":"NA","TYPE_3":"Unknown","ENGTYPE_3":"Unknown","CC_3":"NA","HASC_3":"NA","name":"n.a.(1853).city"},
"geometry":{"type": "MultiPolygon","coordinates": [[[[34.6918,-14.833,983.5812],[34.6906,-14.8348,977.6202],[34.682,-14.8323,1019.9121],[34.6711,-14.8365,1083.7153],[34.6696,-14.8402,1098.3148],[34.6757,-14.8443,1063.2284],[34.689,-14.8467,1009.1424],[34.6966,-14.8511,990.9242],[34.6989,-14.8551,989.904],[34.7111,-14.8549,939.8228],[34.7128,-14.8526,945.3174],[34.7166,-14.8534,936.2528],[34.7145,-14.8466,940.3652],[34.7041,-14.8413,963.9224],[34.6951,-14.8403,989.8521],[34.6992,-14.8312,972.4942],[34.6918,-14.833,983.5812]]]]}}