{"type": "Feature","bbox": [35.2541,-16.1076,35.2863,-16.0922],"geometry": {"type": "MultiPolygon","coordinates": [[[[35.2666,-16.0966,733.0823],[35.2576,-16.0973,734.1598],[35.2541,-16.1062,726.8291],[35.2648,-16.1076,705.9442],[35.267,-16.1059,705.3208],[35.2724,-16.1073,696.2604],[35.2794,-16.1067,674.3522],[35.2828,-16.1026,678.8697],[35.2863,-16.1016,668.012],[35.2846,-16.0985,679.4235],[35.2851,-16.0942,703.7877],[35.2803,-16.0944,700.1359],[35.275,-16.0922,717.7947],[35.2666,-16.0966,733.0823]]]]}
,"properties": {"GID_3": "MWI.27.9.8_1","GID_0": "MWI","country": "Malawi","GID_1": "MWI.27_1","province": "Thyolo","NL_NAME_1": "NA","GID_2": "MWI.27.9_1","county": "TAKapichi","NL_NAME_2": "NA","city": "n.a.(2898)","VARNAME_3": "NA","NL_NAME_3": "NA","TYPE_3": "Unknown","ENGTYPE_3": "Unknown","CC_3": "NA","HASC_3": "NA","name": "n.a.(2898).city","area_km2": 3.829664,"hist_schema_id": "Elevation0-9000","hist_area_km2": {"675": 0.692598,"700": 1.527785,"725": 1.527798,"750": 0.081483}}}