{"type":"Feature","properties":{"GID_3":"MWI.28.4.2_1","GID_0":"MWI","country":"Malawi","GID_1":"MWI.28_1","province":"Zomba","NL_NAME_1":"NA","GID_2":"MWI.28.4_1","county":"TAChikowi","NL_NAME_2":"NA","city":"n.a.(2188)","VARNAME_3":"NA","NL_NAME_3":"NA","TYPE_3":"Unknown","ENGTYPE_3":"Unknown","CC_3":"NA","HASC_3":"NA","name":"n.a.(2188).city"},
"geometry":{"type": "MultiPolygon","coordinates": [[[[35.3058,-15.4169,938.7394],[35.3022,-15.4162,982.7272],[35.2956,-15.4227,963.5686],[35.286,-15.4429,1002.158],[35.2878,-15.4437,977.5597],[35.2942,-15.4385,965.2898],[35.295,-15.4444,969.4254],[35.3013,-15.4469,996.5294],[35.3122,-15.4383,1048.8507],[35.3064,-15.4334,1029.7349],[35.3045,-15.4303,995.4374],[35.306,-15.4262,975.7153],[35.3021,-15.4239,937.209],[35.3025,-15.4195,950.7872],[35.3058,-15.4169,938.7394]]]]}}