{"type":"Feature","properties":{"GID_3":"MWI.7.8.5_1","GID_0":"MWI","country":"Malawi","GID_1":"MWI.7_1","province":"Dowa","NL_NAME_1":"NA","GID_2":"MWI.7.8_1","county":"TADzoole","NL_NAME_2":"NA","city":"n.a.(656)","VARNAME_3":"NA","NL_NAME_3":"NA","TYPE_3":"Unknown","ENGTYPE_3":"Unknown","CC_3":"NA","HASC_3":"NA","name":"n.a.(656).city"},
"geometry":{"type": "MultiPolygon","coordinates": [[[[33.7708,-13.4566,1312.9487],[33.7673,-13.4619,1306.7467],[33.7663,-13.4671,1292.5366],[33.7707,-13.4694,1303.5012],[33.7798,-13.4681,1288.3065],[33.7756,-13.4806,1261.009],[33.7793,-13.4913,1233.9371],[33.7957,-13.4818,1250.9033],[33.7988,-13.4768,1266.9841],[33.8064,-13.4748,1271.1157],[33.8115,-13.4709,1274.7937],[33.8014,-13.4609,1302.8105],[33.791,-13.4582,1277.4983],[33.7892,-13.4562,1284.6301],[33.7708,-13.4566,1312.9487]]]]}}