{"type": "Feature","bbox": [34.8997,-15.6202,34.9666,-15.5545],"geometry": {"type": "MultiPolygon","coordinates": [[[[34.904,-15.5872,600.4091],[34.8997,-15.591,581.1453],[34.9037,-15.593,592.053],[34.9046,-15.5976,598.4701],[34.9092,-15.6006,622.3666],[34.9139,-15.6101,640.7782],[34.9176,-15.6131,664.4146],[34.9229,-15.6115,661.4638],[34.9283,-15.6202,652.5675],[34.936,-15.6167,647.9282],[34.9352,-15.6122,634.9753],[34.9379,-15.607,623.615],[34.9416,-15.6112,637.0223],[34.9462,-15.612,645.9172],[34.9461,-15.6156,655.4179],[34.9485,-15.6172,656.2354],[34.953,-15.6194,671.3003],[34.9599,-15.6195,659.8218],[34.9571,-15.6114,648.1575],[34.9615,-15.6069,662.1647],[34.9552,-15.6027,644.7809],[34.9544,-15.5992,640.9686],[34.9666,-15.595,644.9133],[34.9636,-15.5914,631.066],[34.9419,-15.5828,613.9008],[34.9355,-15.586,635.6096],[34.9293,-15.594,641.8531],[34.9283,-15.5768,580.5138],[34.9258,-15.5704,548.2782],[34.9343,-15.5658,575.8324],[34.9312,-15.5663,564.9878],[34.9259,-15.564,542.4014],[34.9217,-15.5608,527.7973],[34.9188,-15.5562,520.0453],[34.9195,-15.5545,507.5471],[34.9126,-15.5586,540.504],[34.9088,-15.5733,573.8228],[34.9024,-15.5787,588.9158],[34.904,-15.5872,600.4091]]]]}
,"properties": {"GID_3": "MWI.2.4.5_1","GID_0": "MWI","country": "Malawi","GID_1": "MWI.2_1","province": "Blantyre","NL_NAME_1": "NA","GID_2": "MWI.2.4_1","county": "TAKuntaja","NL_NAME_2": "NA","city": "n.a.(2316)","VARNAME_3": "NA","NL_NAME_3": "NA","TYPE_3": "Unknown","ENGTYPE_3": "Unknown","CC_3": "NA","HASC_3": "NA","name": "n.a.(2316).city","area_km2": 24.03656,"hist_schema_id": "Elevation0-9000","hist_area_km2": {"525": 0.71488,"550": 2.12412,"575": 2.92053,"600": 3.96192,"625": 7.57636,"650": 5.75859,"675": 0.98016}}}