{"type": "Feature","bbox": [33.4492,-13.6751,33.5149,-13.6099],"geometry": {"type": "MultiPolygon","coordinates": [[[[33.4492,-13.6112,1065.9215],[33.4501,-13.6173,1074.3923],[33.4549,-13.6233,1082.7307],[33.4594,-13.6328,1083.1052],[33.459,-13.6453,1078.9237],[33.4625,-13.6545,1093.9342],[33.4718,-13.6536,1101.589],[33.4722,-13.6566,1089.4082],[33.4762,-13.6619,1112.7261],[33.489,-13.6707,1125.7991],[33.5002,-13.6746,1134.8685],[33.5149,-13.6751,1143.4027],[33.5135,-13.6673,1140.4758],[33.5082,-13.663,1124.986],[33.5058,-13.6575,1130.3174],[33.5006,-13.6605,1124.439],[33.4958,-13.6606,1118.7061],[33.4917,-13.6591,1115.4087],[33.4861,-13.6532,1111.6848],[33.4789,-13.6519,1111.3032],[33.4816,-13.6472,1135.9036],[33.4877,-13.642,1132.3552],[33.4866,-13.6356,1121.1948],[33.477,-13.6313,1123.3308],[33.4772,-13.6244,1119.8156],[33.466,-13.6111,1105.7029],[33.454,-13.6099,1091.4481],[33.4492,-13.6112,1065.9215]]]]}
,"properties": {"GID_3": "MWI.7.4.10_1","GID_0": "MWI","country": "Malawi","GID_1": "MWI.7_1","province": "Dowa","NL_NAME_1": "NA","GID_2": "MWI.7.4_1","county": "SCKayembe","NL_NAME_2": "NA","city": "n.a.(767)","VARNAME_3": "NA","NL_NAME_3": "NA","TYPE_3": "Unknown","ENGTYPE_3": "Unknown","CC_3": "NA","HASC_3": "NA","name": "n.a.(767).city","area_km2": 17.41029,"hist_schema_id": "Elevation0-9000","hist_area_km2": {"1075": 0.86543,"1100": 6.49028,"1125": 9.20981,"1150": 0.80356,"1175": 0.04121}}}