{"type":"Feature","properties":{"GID_3":"MWI.6.5.3_1","GID_0":"MWI","country":"Malawi","GID_1":"MWI.6_1","province":"Dedza","NL_NAME_1":"NA","GID_2":"MWI.6.5_1","county":"SCKamenyaGwaza","NL_NAME_2":"NA","city":"n.a.(1469)","VARNAME_3":"NA","NL_NAME_3":"NA","TYPE_3":"Unknown","ENGTYPE_3":"Unknown","CC_3":"NA","HASC_3":"NA","name":"n.a.(1469).city"},
"geometry":{"type": "MultiPolygon","coordinates": [[[[34.4009,-14.3092,1367.2225],[34.3897,-14.3265,1434.7419],[34.3841,-14.3407,1438.2002],[34.3721,-14.3521,1499.2646],[34.38,-14.3526,1441.8536],[34.3798,-14.36,1450.3236],[34.3824,-14.3623,1461.7275],[34.3913,-14.3648,1481.292],[34.3986,-14.3638,1574.0646],[34.3998,-14.3658,1560.9624],[34.4147,-14.3623,1574.5308],[34.4136,-14.3534,1575.5968],[34.4201,-14.3497,1554.8752],[34.4243,-14.3498,1546.9723],[34.4259,-14.3461,1546.5511],[34.4242,-14.3391,1536.4932],[34.4145,-14.3384,1516.9799],[34.4197,-14.3305,1480.8157],[34.4159,-14.3198,1443.9778],[34.4009,-14.3092,1367.2225]]]]}}