{"type": "Feature","bbox": [32.6898,-14.2144,33.355,-13.3423],"geometry": {"type": "MultiPolygon","coordinates": [[[[33.3494,-14.0948,1163.7625],[33.349,-14.0935,1154.894],[33.3464,-14.0935,1166.8682],[33.3519,-14.0847,1154.8086],[33.35,-14.0744,1148.2383],[33.3515,-14.0703,1136.4814],[33.3303,-14.0347,1128.9651],[33.3339,-14.0261,1116.2209],[33.3489,-14.0245,1113.7173],[33.3535,-14.0205,1111.1838],[33.3545,-14.0166,1111.5199],[33.3514,-14.0158,1121.6865],[33.3529,-14.007,1121.4817],[33.3519,-14.0006,1103.5107],[33.3436,-13.9888,1101.2789],[33.3373,-13.9723,1091.5867],[33.3338,-13.9697,1092.1174],[33.3139,-13.945,1078.6387],[33.3141,-13.9389,1085.931],[33.303,-13.9268,1083.6886],[33.3016,-13.9086,1070.0077],[33.2987,-13.9056,1074.4878],[33.2948,-13.8928,1069.0658],[33.2823,-13.8917,1064.9919],[33.2742,-13.885,1061.1926],[33.2697,-13.8791,1063.2814],[33.2639,-13.8759,1059.4261],[33.262,-13.8693,1059.5399],[33.2613,-13.852,1062.079],[33.2494,-13.8406,1057.8395],[33.2464,-13.8345,1059.6815],[33.245,-13.8255,1059.3867],[33.2464,-13.82,1058.666],[33.2561,-13.8117,1058.7386],[33.2628,-13.8023,1056.8776],[33.2622,-13.7929,1056.0533],[33.2573,-13.7893,1057.2982],[33.2589,-13.7707,1056.8191],[33.2636,-13.7648,1059.9965],[33.2717,-13.762,1057.6654],[33.2765,-13.7582,1055.6272],[33.2818,-13.7494,1054.4889],[33.2821,-13.745,1053.5737],[33.2795,-13.7367,1050.0468],[33.2751,-13.7293,1049.0096],[33.2666,-13.7198,1047.0065],[33.2675,-13.7139,1047.2124],[33.27,-13.7096,1045.7834],[33.2814,-13.7025,1046.0532],[33.2818,-13.6954,1045.7781],[33.286,-13.6923,1046.6493],[33.2883,-13.6874,1045.5736],[33.2918,-13.6846,1045.3398],[33.2935,-13.6763,1045.4873],[33.2992,-13.6692,1048.873],[33.2994,-13.6552,1048.5674],[33.3064,-13.6498,1048.5994],[33.3136,-13.6492,1046.1771],[33.3143,-13.643,1046.0294],[33.3129,-13.6384,1048.0842],[33.3194,-13.6336,1044.412],[33.3167,-13.6281,1046.9274],[33.3225,-13.6247,1044.2866],[33.3245,-13.6187,1045.312],[33.3237,-13.6167,1044.327],[33.3207,-13.6158,1050.0819],[33.3141,-13.6193,1050.5752],[33.3019,-13.6089,1067.7336],[33.2959,-13.5997,1075.5741],[33.2928,-13.5847,1064.2538],[33.2869,-13.5791,1056.0278],[33.2816,-13.5781,1057.5977],[33.2667,-13.5796,1064.5996],[33.2539,-13.5756,1066.2006],[33.2506,-13.5715,1063.9933],[33.2535,-13.561,1071.2014],[33.2507,-13.5551,1074.0854],[33.2453,-13.5524,1075.868],[33.2394,-13.5441,1081.5101],[33.2185,-13.5248,1100.9374],[33.2029,-13.5144,1122.1565],[33.1888,-13.5086,1096.7711],[33.177,-13.4978,1083.368],[33.179,-13.48,1071.6364],[33.1773,-13.4662,1065.7709],[33.1695,-13.4547,1060.1985],[33.1683,-13.4484,1057.244],[33.1625,-13.4399,1053.7732],[33.1475,-13.4044,1045.2889],[33.149,-13.4007,1045.4822],[33.1533,-13.3995,1045.1206],[33.1556,-13.3958,1047.1775],[33.1564,-13.3827,1045.7124],[33.1526,-13.3661,1044.5438],[33.1579,-13.3596,1043.9545],[33.1587,-13.3562,1043.7039],[33.1507,-13.3459,1050.3228],[33.1377,-13.3423,1044.8802],[32.9443,-13.3548,1082.0215],[32.9422,-13.3811,1082.8412],[32.9437,-13.3963,1080.1482],[32.9399,-13.4117,1089.3042],[32.9252,-13.4349,1093.5032],[32.9074,-13.4459,1099.4288],[32.9035,-13.4501,1100.1301],[32.9005,-13.4646,1098.604],[32.8885,-13.4684,1105.8608],[32.8852,-13.4667,1111.4939],[32.8772,-13.4667,1116.2224],[32.8697,-13.4705,1120.9897],[32.864,-13.4802,1113.9717],[32.8608,-13.5157,1132.5022],[32.8535,-13.5308,1132.8513],[32.8405,-13.5406,1144.6705],[32.8331,-13.5429,1151.1958],[32.8234,-13.5434,1167.8016],[32.8062,-13.5551,1175.9705],[32.7925,-13.5603,1253.713],[32.7879,-13.5605,1331.5662],[32.7795,-13.5674,1321.3678],[32.7725,-13.576599999999999,1255.1313],[32.7588,-13.5828,1249.0946],[32.7366,-13.5798,1431.1946],[32.7198,-13.5722,1446.5135],[32.7112,-13.571,1574.6001],[32.7044,-13.5762,1421.3314],[32.7036,-13.587,1340.684],[32.7055,-13.5888,1333.6965],[32.7045,-13.5925,1325.8606],[32.6898,-13.6105,1478.9036],[32.6909,-13.6138,1432.6301],[32.7003,-13.6266,1372.744],[32.7101,-13.6352,1377.976],[32.7268,-13.6436,1346.5177],[32.7494,-13.6497,1349.6122],[32.7667,-13.648,1289.949],[32.7825,-13.6484,1337.6174],[32.8027,-13.6555,1392.7635],[32.8017,-13.6715,1380.0363],[32.7828,-13.6714,1403.84],[32.7754,-13.6737,1379.8451],[32.7733,-13.6822,1223.7887],[32.7762,-13.6856,1208.4631],[32.7889,-13.6892,1224.4987],[32.8079,-13.6909,1289.2794],[32.8126,-13.6927,1268.3335],[32.8316,-13.7057,1314.3309],[32.8368,-13.7131,1282.4048],[32.8518,-13.7257,1264.8062],[32.8494,-13.7321,1300.2537],[32.846,-13.7325,1279.7437],[32.8293,-13.7267,1264.6072],[32.826,-13.7289,1256.3544],[32.8214,-13.7381,1247.6005],[32.8127,-13.7475,1264.2471],[32.8066,-13.7509,1275.1206],[32.7949,-13.7539,1322.2445],[32.7894,-13.7592,1368.7991],[32.786,-13.7701,1384.3385],[32.7863,-13.7757,1346.825],[32.7902,-13.7815,1342.7413],[32.8049,-13.7882,1317.8042],[32.8127,-13.8018,1426.5493],[32.8155,-13.803,1392.5681],[32.8333,-13.7942,1225.8748],[32.8457,-13.7929,1228.4958],[32.8509,-13.7939,1213.7435],[32.8607,-13.7996,1232.9805],[32.874,-13.8027,1215.6125],[32.8794,-13.8056,1201.0477],[32.8934,-13.8139,1170.9106],[32.9092,-13.8263,1173.3635],[32.9147,-13.8336,1170.4736],[32.9191,-13.8536,1181.8644],[32.926,-13.8623,1219.2711],[32.9412,-13.8741,1210.2786],[32.9607,-13.8952,1146.2592],[32.9623,-13.9056,1133.1978],[32.9572,-13.9471,1138.9193],[32.9594,-13.9513,1131.6366],[32.9737,-13.9534,1094.8208],[32.9866,-13.9514,1052.9829],[32.9937,-13.9522,1120.7308],[32.9992,-13.9655,1153.7407],[32.9995,-13.9744,1151.9248],[32.9919,-13.9944,1141.1619],[32.9923,-14.0022,1164.4698],[33.0006,-14.0185,1159.7625],[33.0067,-14.0191,1153.6447],[33.0098,-14.0214,1154.5807],[33.0228,-14.0363,1130.1055],[33.0327,-14.0422,1131.9209],[33.0376,-14.0429,1129.4819],[33.0429,-14.039,1141.2667],[33.0571,-14.0153,1113.8816],[33.0598,-13.9968,1110.0903],[33.062,-13.991,1096.1725],[33.0761,-13.9742,1082.6533],[33.1,-13.9574,1096.4497],[33.1199,-13.9547,1097.6458],[33.1293,-13.9493,1087.7228],[33.137,-13.9412,1076.8844],[33.1443,-13.9389,1084.8688],[33.1516,-13.9412,1095.6462],[33.1687,-13.9526,1082.3156],[33.1858,-13.9593,1097.6317],[33.1951,-13.9786,1096.7178],[33.2066,-13.9878,1102.5161],[33.2216,-13.9934,1122.6356],[33.2401,-13.9937,1135.6666],[33.2414,-13.9969,1148.1415],[33.2402,-13.9982,1151.5803],[33.2478,-14.0047,1141.8252],[33.2548,-14.0081,1134.678],[33.2566,-14.0187,1133.5249],[33.2594,-14.0223,1136.9194],[33.2678,-14.0246,1145.8677],[33.2814,-14.0226,1147.9934],[33.2888,-14.0299,1150.5364],[33.2959,-14.0318,1166.0569],[33.2981,-14.0342,1168.7335],[33.3036,-14.048,1162.0605],[33.3032,-14.0546,1163.3932],[33.305,-14.0609,1162.5806],[33.3174,-14.0775,1174.2206],[33.3196,-14.0842,1169.0363],[33.3173,-14.0896,1170.1996],[33.3052,-14.1046,1195.698],[33.305,-14.1087,1201.64],[33.3103,-14.1178,1225.1781],[33.3103,-14.1205,1255.6855],[33.3092,-14.1226,1267.4152],[33.3008,-14.1264,1294.2173],[33.3014,-14.1314,1302.5074],[33.2969,-14.1397,1343.0337],[33.2975,-14.1453,1332.9611],[33.299,-14.1476,1338.7594],[33.3078,-14.1521,1305.3851],[33.3097,-14.1619,1350.609],[33.315,-14.163,1337.4371],[33.3288,-14.1819,1317.5847],[33.3367,-14.1993,1433.1257],[33.3379,-14.2059,1437.09],[33.342,-14.2124,1394.8656],[33.3459,-14.2144,1358.8693],[33.3479,-14.2124,1351.7271],[33.3454,-14.2052,1296.1738],[33.355,-14.1952,1263.6652],[33.3541,-14.1711,1223.3879],[33.3404,-14.1491,1197.1199],[33.3354,-14.144,1195.5916],[33.3326,-14.128,1192.9265],[33.3391,-14.1172,1169.6642],[33.3445,-14.1043,1154.8315],[33.3488,-14.0998,1152.675],[33.3494,-14.0948,1163.7625]]]]}
,"properties": {"GID_1": "MWI.14_1","GID_0": "MWI","country": "Malawi","province": "Mchinji","VARNAME_1": "FortManning","NL_NAME_1": "NA","TYPE_1": "District","ENGTYPE_1": "District","CC_1": "NA","HASC_1": "MW.MC","ISO_1": "NA","name": "Mchinji.province","area_km2": 3060.667,"hist_schema_id": "Elevation0-9000","hist_area_km2": {"1050": 258.578,"1075": 830.528,"1100": 807.554,"1125": 467.833,"1150": 210.845,"1175": 102.813,"1200": 60.688,"1225": 54.592,"1250": 48.682,"1275": 36.123,"1300": 34.397,"1325": 38.149,"1350": 25.872,"1375": 17.84,"1400": 13.576,"1425": 10.816,"1450": 8.344,"1475": 6.263,"1500": 5.851,"1525": 4.491,"1550": 3.894,"1575": 3.729,"1600": 2.699,"1625": 2.349,"1650": 1.916,"1675": 1.174,"1700": 0.247,"1725": 0.659,"1750": 0.165}}}