{"type": "Feature","bbox": [35.2402,-14.3228,35.3029,-14.2572],"geometry": {"type": "MultiPolygon","coordinates": [[[[35.2756,-14.3228,476.1255],[35.2932,-14.3154,510.502],[35.3013,-14.3151,537.1321],[35.3029,-14.3057,525.7364],[35.3017,-14.2928,543.6163],[35.2886,-14.2941,505.5861],[35.2817,-14.2975,493.9171],[35.2732,-14.2934,484.7439],[35.265,-14.2954,480.3727],[35.2585,-14.2847,479.4238],[35.2544,-14.2573,485.5299],[35.2453,-14.2572,482.5521],[35.2402,-14.2659,477.624],[35.2495,-14.2722,474.5],[35.2534,-14.2704,478.7696],[35.2505,-14.2783,475.2915],[35.2547,-14.2845,475.7753],[35.2543,-14.2958,474.5],[35.2613,-14.3001,474.7788],[35.2663,-14.3169,474.5],[35.2756,-14.3228,476.1255]]]]}
,"properties": {"GID_3": "MWI.13.5.3_1","GID_0": "MWI","country": "Malawi","GID_1": "MWI.13_1","province": "Mangochi","NL_NAME_1": "NA","GID_2": "MWI.13.5_1","county": "SCChowe","NL_NAME_2": "NA","city": "n.a.(1415)","VARNAME_3": "NA","NL_NAME_3": "NA","TYPE_3": "Unknown","ENGTYPE_3": "Unknown","CC_3": "NA","HASC_3": "NA","name": "n.a.(1415).city","area_km2": 15.12146,"hist_schema_id": "Elevation0-9000","hist_area_km2": {"475": 8.28005,"500": 4.68419,"525": 2.13667,"550": 0.02054}}}