{"type": "Feature","bbox": [34.5651,-13.7937,34.6192,-13.7463],"geometry": {"type": "MultiPolygon","coordinates": [[[[34.6106,-13.7667,474.5],[34.6014,-13.7638,495.6115],[34.5981,-13.7597,499.6304],[34.5932,-13.7592,505.9179],[34.5927,-13.751,515.3452],[34.5944,-13.7487,510.7452],[34.5908,-13.7463,514.0767],[34.5845,-13.7478,502.637],[34.5726,-13.7569,497.8085],[34.5651,-13.7581,483.1592],[34.5666,-13.7649,483.0099],[34.5792,-13.7779,482.9125],[34.5769,-13.7848,482.7667],[34.5795,-13.7846,482.9715],[34.5857,-13.7937,500.2134],[34.5868,-13.7937,500.2134],[34.5903,-13.7765,501.7387],[34.5889,-13.77,511.7465],[34.6192,-13.7756,479.9366],[34.6188,-13.7729,474.5],[34.6138,-13.7719,474.5],[34.6106,-13.7667,474.5]]]]}
,"properties": {"GID_3": "MWI.26.9.5_1","GID_0": "MWI","country": "Malawi","GID_1": "MWI.26_1","province": "Salima","NL_NAME_1": "NA","GID_2": "MWI.26.9_1","county": "TAMaganga","NL_NAME_2": "NA","city": "n.a.(903)","VARNAME_3": "NA","NL_NAME_3": "NA","TYPE_3": "Unknown","ENGTYPE_3": "Unknown","CC_3": "NA","HASC_3": "NA","name": "n.a.(903).city","area_km2": 10.976136,"hist_schema_id": "Elevation0-9000","hist_area_km2": {"475": 3.171243,"500": 5.992632,"525": 1.812261}}}