{"type":"Feature","properties":{"GID_3":"MWI.11.14.25_1","GID_0":"MWI","country":"Malawi","GID_1":"MWI.11_1","province":"Lilongwe","NL_NAME_1":"NA","GID_2":"MWI.11.14_1","county":"TAKhongoni","NL_NAME_2":"NA","city":"n.a.(978)","VARNAME_3":"NA","NL_NAME_3":"NA","TYPE_3":"Unknown","ENGTYPE_3":"Unknown","CC_3":"NA","HASC_3":"NA","name":"n.a.(978).city"},
"geometry":{"type": "MultiPolygon","coordinates": [[[[33.395,-13.8193,1110.4434],[33.3872,-13.821,1123.0415],[33.378,-13.8206,1139.6946],[33.3748,-13.8247,1146.8444],[33.3701,-13.8272,1155.6975],[33.3735,-13.8407,1152.5668],[33.3726,-13.8533,1166.1342],[33.3766,-13.8701,1169.6868],[33.3931,-13.8658,1146.6134],[33.3975,-13.8681,1141.7312],[33.3988,-13.8707,1143.7147],[33.4037,-13.8662,1153.0752],[33.4072,-13.8663,1160.3688],[33.4092,-13.8437,1142.0067],[33.4135,-13.843,1143.1057],[33.419,-13.8458,1145.5481],[33.4203,-13.8426,1145.1611],[33.4212,-13.836,1138.9076],[33.4162,-13.832,1133.4275],[33.4117,-13.8251,1135.2933],[33.4053,-13.8231,1133.8655],[33.3989,-13.8278,1123.7343],[33.3969,-13.8259,1118.2272],[33.395,-13.8193,1110.4434]]]]}}