{"type":"Feature","properties":{"GID_3":"MWI.5.5.6_1","GID_0":"MWI","country":"Malawi","GID_1":"MWI.5_1","province":"Chitipa","NL_NAME_1":"NA","GID_2":"MWI.5.5_1","county":"TAMwenemisuku","NL_NAME_2":"NA","city":"n.a.(26)","VARNAME_3":"NA","NL_NAME_3":"NA","TYPE_3":"Unknown","ENGTYPE_3":"Unknown","CC_3":"NA","HASC_3":"NA","name":"n.a.(26).city"},
"geometry":{"type": "MultiPolygon","coordinates": [[[[33.5124,-9.8553,1092.853],[33.5145,-9.8831,1201.946],[33.5244,-9.8876,1182.3285],[33.5331,-9.8943,1173.8013],[33.5402,-9.8947,1111.3433],[33.5413,-9.8976,1135.9419],[33.5444,-9.8989,1074.0524],[33.5548,-9.8951,1064.3464],[33.5594,-9.8901,1061.2162],[33.5628,-9.8898,1054.6177],[33.5692,-9.8838,1081.5756],[33.5744,-9.8876,1043.8552],[33.58,-9.8865,1044.4291],[33.5818,-9.8819,1067.1742],[33.5901,-9.8768,1113.5408],[33.5917,-9.8702,1033.116],[33.5982,-9.8669,1027.1984],[33.6005,-9.8615,1039.9497],[33.6066,-9.8613,1006.5842],[33.6062,-9.8559,1048.3749],[33.6087,-9.8506,1103.1599],[33.612,-9.8472,1131.0056],[33.6133,-9.8429,1001.7779],[33.6185,-9.8384,930.9528],[33.6167,-9.8351,929.3293],[33.6244,-9.8277,928.3533],[33.6215,-9.8195,886.874],[33.6288,-9.8238,890.7644],[33.6358,-9.824,909.1934],[33.6342,-9.8186,918.2769],[33.6363,-9.8155,952.067],[33.639,-9.816,934.2206],[33.6477,-9.8102,895.4719],[33.6522,-9.8018,875.9178],[33.6588,-9.7979,886.6893],[33.6585,-9.7952,925.385],[33.6648,-9.7965,853.711],[33.6652,-9.7949,853.608],[33.661,-9.7901,881.4486],[33.6801,-9.7923,835.4672],[33.6858,-9.7895,911.9562],[33.6996,-9.7925,817.5602],[33.6977,-9.7905,868.3608],[33.7004,-9.7869,841.0678],[33.6981,-9.7838,926.4337],[33.6997,-9.7816,874.0128],[33.6995,-9.778,857.0389],[33.6953,-9.7735,882.8589],[33.6876,-9.7698,898.3814],[33.6888,-9.7576,975.4697],[33.6738,-9.7458,1140.0938],[33.6833,-9.7295,1029.1956],[33.6515,-9.7053,1130.5902],[33.6662,-9.6861,677.6217],[33.6695,-9.6762,588.9481],[33.668,-9.6703,574.1124],[33.6716,-9.6678,569.404],[33.6721,-9.6629,593.0539],[33.6617,-9.6698,607.413],[33.6622,-9.6725,589.514],[33.6595,-9.6751,595.9147],[33.6558,-9.6727,619.7487],[33.6371,-9.6733,662.2811],[33.6383,-9.6758,681.7565],[33.6365,-9.6789,718.9523],[33.6332,-9.6785,782.5759],[33.6343,-9.6817,722.3387],[33.6322,-9.6879,861.7758],[33.6321,-9.6907,862.5513],[33.6355,-9.6921,835.8463],[33.6354,-9.6948,905.1237],[33.6318,-9.6997,937.1255],[33.6282,-9.7006,1130.1255],[33.6176,-9.7131,971.2546],[33.6148,-9.7127,991.707],[33.615,-9.7099,1028.514],[33.6105,-9.7099,1020.2867],[33.6031,-9.7023,1125.4198],[33.5984,-9.7075,1075.4183],[33.5876,-9.7139,1130.5725],[33.582,-9.7135,1214.6879],[33.579,-9.7097,1249.2742],[33.5796,-9.7053,1226.4272],[33.5756,-9.7004,1256.0619],[33.5678,-9.6952,1449.474],[33.5659,-9.6964,1478.7985],[33.5677,-9.6974,1474.4562],[33.567,-9.7001,1423.8717],[33.5643,-9.6998,1435.0376],[33.5623,-9.7029,1365.7349],[33.5573,-9.7011,1348.4443],[33.555,-9.7022,1291.8419],[33.5522,-9.7004,1326.2809],[33.5479,-9.7018,1388.3998],[33.536,-9.6915,1593.2351],[33.536,-9.6834,1464.4524],[33.5288,-9.6734,1416.4446],[33.5239,-9.6765,1473.8168],[33.5279,-9.6836,1510.5957],[33.5281,-9.6873,1537.3193],[33.5231,-9.688,1436.8197],[33.5232,-9.6926,1388.5482],[33.5208,-9.6941,1370.9919],[33.5141,-9.6905,1415.6985],[33.5133,-9.6994,1539.303],[33.5184,-9.7012,1527.8909],[33.5146,-9.7039,1655.413],[33.5176,-9.7051,1660.5039],[33.5182,-9.7077,1667.3036],[33.5219,-9.7106,1636.3687],[33.5318,-9.7138,1360.0601],[33.5355,-9.7193,1382.0725],[33.5496,-9.7231,1299.1843],[33.5598,-9.7217,1125.8704],[33.5675,-9.7295,1064.5378],[33.5738,-9.7301,1027.0454],[33.5733,-9.7327,1017.414],[33.5761,-9.7363,1007.8375],[33.5759,-9.7401,1044.1263],[33.5794,-9.7483,986.2574],[33.576,-9.754,993.8863],[33.5779,-9.7572,967.6126],[33.5766,-9.7617,1110.1133],[33.5633,-9.7611,1180.0286],[33.5569,-9.7647,1150.0439],[33.5565,-9.7723,1110.415],[33.5603,-9.7726,1031.1704],[33.5588,-9.7821,1044.8508],[33.5576,-9.7846,1192.6731],[33.5541,-9.7858,1171.8695],[33.5523,-9.79,1152.4871],[33.5544,-9.7931,1116.9302],[33.5518,-9.7934,1114.3403],[33.5464,-9.7972,1055.0548],[33.5456,-9.8022,1058.9121],[33.5484,-9.8061,1058.3187],[33.5481,-9.8096,1029.8584],[33.5583,-9.8142,987.4754],[33.5622,-9.8102,999.2099],[33.5656,-9.8134,974.544],[33.5651,-9.8171,1005.8936],[33.5615,-9.8228,979.0933],[33.5517,-9.8328,988.9935],[33.5448,-9.8359,1043.0288],[33.5441,-9.8451,1045.6937],[33.5408,-9.8478,1024.7386],[33.538,-9.8487,1010.6217],[33.5356,-9.8475,1024.1918],[33.5345,-9.8488,1026.3733],[33.5355,-9.8507,1023.3068],[33.5338,-9.8515,1019.4226],[33.5311,-9.8493,1040.595],[33.527,-9.8515,1034.1412],[33.5234,-9.8504,1055.0248],[33.5202,-9.8521,1063.3405],[33.5145,-9.8515,1111.5455],[33.5124,-9.8553,1092.853]]]]}}