{"type": "Feature","bbox": [35.4841,-15.2155,35.6639,-15.0973],"geometry": {"type": "MultiPolygon","coordinates": [[[[35.6639,-15.1806,623.1666],[35.5517,-15.1021,623.6573],[35.5249,-15.0973,638.9469],[35.5248,-15.1001,656.0525],[35.5319,-15.1068,693.9219],[35.5364,-15.1191,684.1091],[35.5355,-15.1324,712.0742],[35.5443,-15.1326,626.2794],[35.5497,-15.1299,623.4415],[35.5504,-15.1392,623.7338],[35.5407,-15.1512,623.9132],[35.5377,-15.1668,623.8957],[35.5346,-15.173,624.0472],[35.5051,-15.1881,632.1268],[35.506,-15.1958,630.1774],[35.5111,-15.1981,629.1609],[35.5113,-15.2007,628.829],[35.5063,-15.2033,629.4639],[35.4967,-15.1985,635.6868],[35.4866,-15.1995,637.5665],[35.4841,-15.2065,637.7013],[35.4917,-15.2051,635.3011],[35.5094,-15.2155,632.5282],[35.5159,-15.2129,630.4659],[35.5215,-15.2145,630.2084],[35.569,-15.2008,623.662],[35.6552,-15.2,622.5],[35.6587,-15.1937,623.1342],[35.6596,-15.1876,623.9033],[35.6639,-15.1806,623.1666]]]]}
,"properties": {"GID_3": "MWI.12.9.2_1","GID_0": "MWI","country": "Malawi","GID_1": "MWI.12_1","province": "Machinga","NL_NAME_1": "NA","GID_2": "MWI.12.9_1","county": "SCMposa","NL_NAME_2": "NA","city": "n.a.(2018)","VARNAME_3": "NA","NL_NAME_3": "NA","TYPE_3": "Unknown","ENGTYPE_3": "Unknown","CC_3": "NA","HASC_3": "NA","name": "n.a.(2018).city","area_km2": 110.21675,"hist_schema_id": "Elevation0-9000","hist_area_km2": {"625": 108.76349,"650": 0.77782,"675": 0.38889,"700": 0.28655}}}