{"type": "Feature","bbox": [35.0143,-16.233,35.0407,-16.1935],"geometry": {"type": "MultiPolygon","coordinates": [[[[35.0143,-16.1952,101.2049],[35.0203,-16.2102,95.0317],[35.0195,-16.2151,89.0592],[35.021,-16.2185,87.3121],[35.0177,-16.2204,84.8984],[35.0227,-16.2233,84.409],[35.0266,-16.2294,79.6696],[35.0333,-16.2299,87.7425],[35.0353,-16.233,86.688],[35.0407,-16.2306,214.2263],[35.0323,-16.2181,184.5505],[35.0314,-16.2082,152.1565],[35.0197,-16.1976,148.5307],[35.0175,-16.1935,120.8635],[35.0143,-16.1952,101.2049]]]]}
,"properties": {"GID_3": "MWI.3.9.8_1","GID_0": "MWI","country": "Malawi","GID_1": "MWI.3_1","province": "Chikwawa","NL_NAME_1": "NA","GID_2": "MWI.3.9_1","county": "TAMakhwira","NL_NAME_2": "NA","city": "n.a.(2964)","VARNAME_3": "NA","NL_NAME_3": "NA","TYPE_3": "Unknown","ENGTYPE_3": "Unknown","CC_3": "NA","HASC_3": "NA","name": "n.a.(2964).city","area_km2": 4.682515,"hist_schema_id": "Elevation0-9000","hist_area_km2": {"75": 0.753237,"100": 2.829871,"125": 0.773657,"150": 0.244313,"175": 0.081437}}}