{"type":"Feature","properties":{"GID_2":"MWI.19.6_1","GID_0":"MWI","country":"Malawi","GID_1":"MWI.19_1","province":"NkhataBay","NL_NAME_1":"NA","county":"TAFukamapiri","VARNAME_2":"NA","NL_NAME_2":"NA","TYPE_2":"TraditionalAuthority","ENGTYPE_2":"TraditionalAuthority","CC_2":"NA","HASC_2":"NA","name":"T_A_Fukamapiri.county"},
"geometry":{"type": "MultiPolygon","coordinates": [[[[34.0617,-12.0034,477.631],[34.0753,-11.9906,488.8294],[34.0775,-11.9835,485.3603],[34.0765,-11.9791,490.6274],[34.0799,-11.9754,479.6129],[34.0958,-11.963,478.7469],[34.1229,-11.948,480.441],[34.1197,-11.9455,482.9842],[34.1184,-11.9385,496.0475],[34.1122,-11.9361,516.3925],[34.1107,-11.9233,514.373],[34.1042,-11.9197,535.1168],[34.1018,-11.9063,593.3339],[34.1037,-11.9,769.6535],[34.1093,-11.8956,747.9653],[34.1115,-11.8879,658.1392],[34.1079,-11.8731,716.6517],[34.1133,-11.8705,726.7482],[34.0964,-11.8604,571.5162],[34.0819,-11.8602,718.1316],[34.0737,-11.8649,788.3615],[34.0695,-11.8654,870.1338],[34.0667,-11.8629,953.4322],[34.0673,-11.857,959.9666],[34.0227,-11.8813,734.4036],[34.0194,-11.8806,757.8979],[34.0128,-11.8749,887.5465],[34.0028,-11.8718,944.8823],[34.0055,-11.8824,957.7478],[34.0034,-11.8942,941.1645],[34.0112,-11.9091,814.48],[34.0104,-11.9199,690.3223],[34.012,-11.9314,861.1044],[34.0001,-11.9333,901.8553],[33.9956,-11.937,940.9554],[33.969,-12.041,1132.3251],[33.9889,-12.0464,1050.9014],[33.9952,-12.0439,926.4312],[34.0041,-12.0432,754.2953],[34.0071,-12.0485,724.4324],[34.0136,-12.0549,593.0294],[34.0291,-12.0581,565.9745],[34.0346,-12.0614,542.7935],[34.0385,-12.0607,540.1008],[34.0471,-12.054,499.7421],[34.0513,-12.0526,476.7968],[34.0498,-12.0481,483.1035],[34.052,-12.0368,480.8376],[34.0488,-12.0239,496.7209],[34.0548,-12.0106,481.6619],[34.0617,-12.0034,477.631]]]]}}