{"type": "Feature","bbox": [33.4622,-13.9179,33.5163,-13.8836],"geometry": {"type": "MultiPolygon","coordinates": [[[[33.4657,-13.9179,1170.0581],[33.4814,-13.9123,1160.5496],[33.4875,-13.9081,1153.8169],[33.4926,-13.9011,1163.0371],[33.5136,-13.8935,1157.4154],[33.5163,-13.8879,1154.24],[33.5153,-13.8871,1153.3359],[33.5137,-13.889099999999999,1158.272],[33.4989,-13.8836,1144.4944],[33.4973,-13.8877,1155.1469],[33.4904,-13.8921,1163.5737],[33.4829,-13.8946,1168.4733],[33.4724,-13.8954,1178.5081],[33.4693,-13.8976,1180.1746],[33.4658,-13.9042,1184.4519],[33.4622,-13.9066,1186.2019],[33.4657,-13.9179,1170.0581]]]]}
,"properties": {"GID_3": "MWI.11.10.7_1","GID_0": "MWI","country": "Malawi","GID_1": "MWI.11_1","province": "Lilongwe","NL_NAME_1": "NA","GID_2": "MWI.11.10_1","county": "TAKabudula","NL_NAME_2": "NA","city": "n.a.(1041)","VARNAME_3": "NA","NL_NAME_3": "NA","TYPE_3": "Unknown","ENGTYPE_3": "Unknown","CC_3": "NA","HASC_3": "NA","name": "n.a.(1041).city","area_km2": 8.397171,"hist_schema_id": "Elevation0-9000","hist_area_km2": {"1150": 2.243413,"1175": 6.153759}}}