{"type":"Feature","properties":{"GID_3":"MWI.15.4.10_1","GID_0":"MWI","country":"Malawi","GID_1":"MWI.15_1","province":"Mulanje","NL_NAME_1":"NA","GID_2":"MWI.15.4_1","county":"SCLastonNjema","NL_NAME_2":"NA","city":"n.a.(2807)","VARNAME_3":"NA","NL_NAME_3":"NA","TYPE_3":"Unknown","ENGTYPE_3":"Unknown","CC_3":"NA","HASC_3":"NA","name":"n.a.(2807).city"},
"geometry":{"type": "MultiPolygon","coordinates": [[[[35.7604,-16.038,1096.5972],[35.7654,-16.0509,750.536],[35.7705,-16.0535,669.8195],[35.7728,-16.0522,677.2294],[35.7747,-16.0532,653.4557],[35.7844,-16.0464,660.4383],[35.7933,-16.0426,669.5085],[35.7949,-16.0381,670.0387],[35.789,-16.0299,724.0258],[35.7826,-16.0297,760.7855],[35.7844,-16.035,721.3901],[35.7841,-16.0417,707.7211],[35.7723,-16.047,762.9366],[35.7704,-16.0399,900.9731],[35.7604,-16.038,1096.5972]]]]}}