{"type":"Feature","properties":{"GID_2":"MWI.23.4_1","GID_0":"MWI","country":"Malawi","GID_1":"MWI.23_1","province":"Ntchisi","NL_NAME_1":"NA","county":"TAChikho","VARNAME_2":"NA","NL_NAME_2":"NA","TYPE_2":"TraditionalAuthority","ENGTYPE_2":"TraditionalAuthority","CC_2":"NA","HASC_2":"NA","name":"T_A_Chikho.county"},
"geometry":{"type": "MultiPolygon","coordinates": [[[[34.0512,-13.5335,871.7955],[34.056,-13.5322,871.2329],[34.0588,-13.5343,833.3741],[34.0642,-13.5349,824.3893],[34.0735,-13.5317,795.9382],[34.0766,-13.5336,799.1239],[34.0803,-13.5334,772.3812],[34.0968,-13.5232,746.6339],[34.1025,-13.5213,735.8301],[34.1052,-13.5146,726.9167],[34.1095,-13.5153,725.2229],[34.1119,-13.5128,732.9693],[34.1156,-13.5123,717.1978],[34.1165,-13.5081,717.2922],[34.1203,-13.5063,715.7762],[34.1204,-13.5035,727.6579],[34.1272,-13.5029,700.9851],[34.114,-13.4508,689.9668],[34.1132,-13.4331,718.1429],[34.1111,-13.424,704.6599],[34.0952,-13.4115,757.9165],[34.0943,-13.4083,765.8886],[34.0894,-13.4068,801.7212],[34.0697,-13.3951,933.7675],[34.0675,-13.3954,931.2748],[34.0641,-13.4029,992.8926],[34.0589,-13.4055,984.7931],[34.0572,-13.4103,1023.0873],[34.0502,-13.4168,1065.3981],[34.0455,-13.4135,1147.9541],[34.0379,-13.4135,1139.4894],[34.0244,-13.4046,1230.882],[34.0194,-13.4056,1193.2709],[34.0171,-13.4126,1166.2703],[34.0147,-13.4145,1157.3263],[34.0095,-13.4124,1180.5151],[34.0039,-13.4137,1194.682],[33.9913,-13.4059,1292.9658],[33.9871,-13.3979,1380.6268],[33.9881,-13.3904,1366.0479],[33.9855,-13.3814,1339.5372],[33.9867,-13.3758,1282.3733],[33.9851,-13.3707,1235.3448],[33.9736,-13.3701,1283.2852],[33.9607,-13.3931,1353.1659],[33.9519,-13.4011,1413.8848],[33.9498,-13.4102,1423.0823],[33.9425,-13.4234,1501.0349],[33.9356,-13.4297,1555.288],[33.9363,-13.4336,1580.3164],[33.9337,-13.4457,1578.4961],[33.9314,-13.4498,1523.2627],[33.9295,-13.4631,1441.6189],[33.9216,-13.4791,1392.37],[33.9285,-13.4814,1404.3712],[33.9319,-13.4863,1367.8568],[33.9319,-13.4904,1354.0372],[33.9348,-13.4949,1348.3226],[33.9367,-13.4944,1344.1279],[33.9423,-13.4999,1309.9575],[33.9435,-13.5072,1299.3396],[33.9484,-13.5086,1271.9595],[33.95,-13.5113,1249.1689],[33.9565,-13.5144,1240.052],[33.9606,-13.5136,1234.4567],[33.9716,-13.506,1298.9523],[33.9789,-13.5087,1166.9224],[33.9899,-13.5018,1231.38],[34.0016,-13.4988,1099.7208],[34.0045,-13.4967,1111.5439],[34.0088,-13.5004,1096.1986],[34.0134,-13.5004,1080.9813],[34.0225,-13.4945,1037.4779],[34.0254,-13.4997,1078.152],[34.0219,-13.5023,1088.3605],[34.0221,-13.5037,1087.509],[34.0337,-13.5059,972.4518],[34.031,-13.5233,1027.3895],[34.0349,-13.5257,944.2535],[34.0392,-13.5252,954.8612],[34.0421,-13.5289,984.6411],[34.0463,-13.5279,907.5007],[34.0492,-13.5329,882.3801],[34.0512,-13.5335,871.7955]]]]}}