{"type":"Feature","properties":{"GID_3":"MWI.27.11.6_1","GID_0":"MWI","country":"Malawi","GID_1":"MWI.27_1","province":"Thyolo","NL_NAME_1":"NA","GID_2":"MWI.27.11_1","county":"TANsabwe","NL_NAME_2":"NA","city":"n.a.(3009)","VARNAME_3":"NA","NL_NAME_3":"NA","TYPE_3":"Unknown","ENGTYPE_3":"Unknown","CC_3":"NA","HASC_3":"NA","name":"n.a.(3009).city"},
"geometry":{"type": "MultiPolygon","coordinates": [[[[35.2434,-16.3199,400.735],[35.2463,-16.3177,400.163],[35.2488,-16.3186,387.5443],[35.2494,-16.3212,393.4778],[35.2541,-16.3217,371.3153],[35.2585,-16.3197,354.4628],[35.2625,-16.3222,347.847],[35.2621,-16.3245,340.898],[35.2661,-16.3268,317.0472],[35.2682,-16.3251,309.1197],[35.2674,-16.3226,328.5855],[35.2699,-16.3211,311.6096],[35.278,-16.3221,227.7437],[35.2813,-16.3144,244.3498],[35.2716,-16.3121,359.1704],[35.2696,-16.3082,392.3764],[35.2602,-16.3082,432.0658],[35.2714,-16.294,332.5434],[35.2654,-16.2933,389.1178],[35.2634,-16.295,356.2897],[35.2599,-16.2928,434.507],[35.2559,-16.2952,381.6245],[35.2522,-16.2948,414.4451],[35.2501,-16.2978,387.0614],[35.2449,-16.2972,415.5091],[35.2394,-16.3045,471.1438],[35.2373,-16.3133,496.7371],[35.2341,-16.315,472.676],[35.2365,-16.3175,436.8391],[35.2434,-16.3199,400.735]]]]}}