{"type": "Feature","bbox": [34.4125,-14.0527,34.5055,-13.9974],"geometry": {"type": "MultiPolygon","coordinates": [[[[34.501,-14.003,495.1664],[34.4902,-14.0022,506.6916],[34.4858,-14.0037,512.1451],[34.4868,-14.0094,507.7587],[34.4835,-14.0135,518.022],[34.4793,-14.0148,525.1364],[34.4522,-14.0053,565.0831],[34.4398,-13.998,572.0314],[34.4268,-13.9974,602.3109],[34.4217,-14.0019,599.231],[34.4174,-14.0122,627.0405],[34.4125,-14.0183,656.4557],[34.4264,-14.0305,661.0392],[34.4416,-14.0527,596.5854],[34.4528,-14.0493,575.0505],[34.4605,-14.0437,550.8618],[34.4641,-14.044,543.9314],[34.4696,-14.0357,536.2132],[34.4824,-14.0299,514.8524],[34.4936,-14.0334,503.3782],[34.5055,-14.0303,493.7043],[34.501,-14.003,495.1664]]]]}
,"properties": {"GID_3": "MWI.26.10.10_1","GID_0": "MWI","country": "Malawi","GID_1": "MWI.26_1","province": "Salima","NL_NAME_1": "NA","GID_2": "MWI.26.10_1","county": "TANdindi","NL_NAME_2": "NA","city": "n.a.(1136)","VARNAME_3": "NA","NL_NAME_3": "NA","TYPE_3": "Unknown","ENGTYPE_3": "Unknown","CC_3": "NA","HASC_3": "NA","name": "n.a.(1136).city","area_km2": 34.24976,"hist_schema_id": "Elevation0-9000","hist_area_km2": {"500": 5.01929,"525": 6.3151,"550": 6.66476,"575": 7.7962,"600": 4.77231,"625": 1.64562,"650": 1.33708,"675": 0.41141,"700": 0.24685,"725": 0.04114}}}