{"type":"Feature","properties":{"GID_3":"MWI.28.4.7_1","GID_0":"MWI","country":"Malawi","GID_1":"MWI.28_1","province":"Zomba","NL_NAME_1":"NA","GID_2":"MWI.28.4_1","county":"TAChikowi","NL_NAME_2":"NA","city":"n.a.(2221)","VARNAME_3":"NA","NL_NAME_3":"NA","TYPE_3":"Unknown","ENGTYPE_3":"Unknown","CC_3":"NA","HASC_3":"NA","name":"n.a.(2221).city"},
"geometry":{"type": "MultiPolygon","coordinates": [[[[35.2637,-15.5066,914.1454],[35.2671,-15.4924,983.3201],[35.2661,-15.4878,986.8318],[35.2707,-15.4867,938.2808],[35.2697,-15.4837,950.7343],[35.2719,-15.4789,963.0583],[35.2788,-15.4765,948.5449],[35.2781,-15.4731,959.8771],[35.2803,-15.468,967.2176],[35.2775,-15.4643,978.5826],[35.2731,-15.4627,1038.4193],[35.2725,-15.4582,1037.5853],[35.2708,-15.4574,1022.877],[35.2647,-15.4573,1053.5413],[35.2596,-15.4648,1037.7916],[35.2435,-15.4762,1017.4744],[35.2438,-15.4827,1004.2753],[35.2477,-15.4875,984.3826],[35.2463,-15.4928,978.0533],[35.2505,-15.4951,969.1154],[35.252,-15.5004,973.7206],[35.2637,-15.5066,914.1454]]]]}}