{"type": "Feature","bbox": [34.8902,-15.5173,34.9484,-15.469],"geometry": {"type": "MultiPolygon","coordinates": [[[[34.9434,-15.4692,510.9366],[34.9398,-15.4733,502.7269],[34.9391,-15.4765,506.5836],[34.9306,-15.4799,503.5845],[34.9265,-15.4857,490.2935],[34.9274,-15.4943,483.9549],[34.9211,-15.5027,474.5922],[34.9159,-15.5046,466.9541],[34.9148,-15.507,458.5471],[34.9106,-15.501,482.3206],[34.9126,-15.4899,497.8398],[34.9115,-15.4845,506.5737],[34.9163,-15.4803,524.1254],[34.9124,-15.469,543.4232],[34.9045,-15.4801,519.7375],[34.9018,-15.4931,474.2332],[34.8957,-15.4996,458.4845],[34.894,-15.505,446.0701],[34.8902,-15.5075,439.3151],[34.8993,-15.5107,456.4987],[34.9086,-15.5088,455.3486],[34.9121,-15.5134,453.4532],[34.9104,-15.5164,460.2856],[34.9137,-15.5173,461.7136],[34.9147,-15.5156,461.0665],[34.9237,-15.5124,492.7863],[34.9286,-15.5067,491.3677],[34.9335,-15.5062,499.6611],[34.9374,-15.5031,503.1545],[34.9409,-15.4956,513.8554],[34.9474,-15.4919,520.6856],[34.9449,-15.4877,519.2454],[34.9484,-15.4834,522.0228],[34.9434,-15.4692,510.9366]]]]}
,"properties": {"GID_3": "MWI.2.2.11_1","GID_0": "MWI","country": "Malawi","GID_1": "MWI.2_1","province": "Blantyre","NL_NAME_1": "NA","GID_2": "MWI.2.2_1","county": "TAChigaru","NL_NAME_2": "NA","city": "n.a.(2232)","VARNAME_3": "NA","NL_NAME_3": "NA","TYPE_3": "Unknown","ENGTYPE_3": "Unknown","CC_3": "NA","HASC_3": "NA","name": "n.a.(2232).city","area_km2": 13.30099,"hist_schema_id": "Elevation0-9000","hist_area_km2": {"450": 1.614,"475": 4.14747,"500": 5.53712,"525": 1.96155,"550": 0.04087}}}