{"type":"Feature","properties":{"GID_3":"MWI.11.8.48_1","GID_0":"MWI","country":"Malawi","GID_1":"MWI.11_1","province":"Lilongwe","NL_NAME_1":"NA","GID_2":"MWI.11.8_1","county":"TAChiseka","NL_NAME_2":"NA","city":"n.a.(1427)","VARNAME_3":"NA","NL_NAME_3":"NA","TYPE_3":"Unknown","ENGTYPE_3":"Unknown","CC_3":"NA","HASC_3":"NA","name":"n.a.(1427).city"},
"geometry":{"type": "MultiPolygon","coordinates": [[[[33.719,-14.284,1160.1696],[33.7139,-14.2895,1163.4454],[33.7143,-14.2964,1158.8873],[33.7111,-14.301,1162.5557],[33.7114,-14.3187,1177.4851],[33.7149,-14.3227,1185.165],[33.7182,-14.332,1200.5917],[33.7245,-14.3433,1223.1882],[33.7381,-14.3398,1234.0317],[33.7425,-14.3322,1237.9832],[33.7463,-14.3296,1235.5472],[33.7543,-14.3295,1233.4902],[33.7606,-14.325,1226.7328],[33.7527,-14.3183,1224.0957],[33.7504,-14.3111,1199.5437],[33.7332,-14.3033,1190.1659],[33.7318,-14.2932,1169.8719],[33.7376,-14.2845,1177.1135],[33.7358,-14.28,1167.0876],[33.7416,-14.2763,1160.5859],[33.7456,-14.2766,1156.0621],[33.7423,-14.2716,1158.0126],[33.7363,-14.2713,1149.8271],[33.7346,-14.2691,1156.9552],[33.7297,-14.2679,1143.6283],[33.7233,-14.2815,1156.4497],[33.719,-14.284,1160.1696]]]]}}