{"type":"Feature","properties":{"GID_3":"MWI.24.3.27_1","GID_0":"MWI","country":"Malawi","GID_1":"MWI.24_1","province":"Phalombe","NL_NAME_1":"NA","GID_2":"MWI.24.3_1","county":"TANazombe","NL_NAME_2":"NA","city":"n.a.(2622)","VARNAME_3":"NA","NL_NAME_3":"NA","TYPE_3":"Unknown","ENGTYPE_3":"Unknown","CC_3":"NA","HASC_3":"NA","name":"n.a.(2622).city"},
"geometry":{"type": "MultiPolygon","coordinates": [[[[35.7791,-15.8538,695.0729],[35.7702,-15.8552,699.7232],[35.7702,-15.8656,706.0087],[35.7786,-15.8735,716.0847],[35.7855,-15.8727,704.1726],[35.7886,-15.8704,699.897],[35.789,-15.8811,709.2146],[35.7868,-15.884,713.4862],[35.7878,-15.8884,710.8422],[35.8158,-15.8879,733.154],[35.8167,-15.874,716.5649],[35.8118,-15.8734,726.1316],[35.8117,-15.8696,725.4984],[35.8077,-15.8618,697.7369],[35.8062,-15.8659,701.958],[35.7882,-15.8639,692.9274],[35.7888,-15.8587,690.3787],[35.7791,-15.8538,695.0729]]]]}}