{"type":"Feature","properties":{"GID_3":"MWI.7.7.15_1","GID_0":"MWI","country":"Malawi","GID_1":"MWI.7_1","province":"Dowa","NL_NAME_1":"NA","GID_2":"MWI.7.7_1","county":"TAChiwere","NL_NAME_2":"NA","city":"n.a.(837)","VARNAME_3":"NA","NL_NAME_3":"NA","TYPE_3":"Unknown","ENGTYPE_3":"Unknown","CC_3":"NA","HASC_3":"NA","name":"n.a.(837).city"},
"geometry":{"type": "MultiPolygon","coordinates": [[[[34.0336,-13.7222,1246.6602],[34.0377,-13.7241,1236.3947],[34.0469,-13.7208,1233.666],[34.0518,-13.7137,1183.7017],[34.0509,-13.707,1171.2263],[34.0419,-13.6985,1141.2852],[34.043,-13.6905,1097.2671],[34.0335,-13.686,1150.6936],[34.026,-13.6879,1163.1846],[34.0213,-13.6855,1212.0707],[34.018,-13.6876,1247.1072],[34.0107,-13.6858,1258.1448],[34.0034,-13.6865,1283.8112],[33.9981,-13.6827,1282.5934],[33.9957,-13.6843,1306.8965],[33.999,-13.6876,1297.9053],[34.0061,-13.6904,1273.5342],[34.0076,-13.693,1281.4414],[34.0042,-13.7008,1273.4099],[33.9958,-13.7078,1275.201],[34.0087,-13.7114,1272.288],[34.0144,-13.721,1280.0792],[34.0243,-13.7185,1281.9019],[34.0336,-13.7222,1246.6602]]]]}}