{"type": "Feature","bbox": [33.9019,-14.2528,34.0592,-14.061],"geometry": {"type": "MultiPolygon","coordinates": [[[[33.954,-14.2235,1172.1742],[33.9556,-14.2202,1178.7848],[33.9494,-14.2113,1174.7542],[33.9541,-14.2048,1171.5837],[33.9628,-14.207,1175.8273],[33.9699,-14.2065,1172.0814],[33.9729,-14.2046,1170.95],[33.978,-14.205,1170.6495],[33.9801,-14.2015,1173.9261],[33.9838,-14.1994,1168.28],[33.9851,-14.1942,1177.1243],[33.9918,-14.1931,1167.7448],[33.9984,-14.1961,1176.3413],[34.003,-14.2054,1166.3149],[34.0063,-14.2023,1177.7993],[34.0081,-14.2041,1171.9137],[34.0117,-14.2023,1164.1376],[34.0146,-14.1936,1176.296],[34.019,-14.1963,1164.1132],[34.0242,-14.1969,1165.2782],[34.0289,-14.1944,1166.2605],[34.0301,-14.1911,1173.2717],[34.0374,-14.1869,1171.2441],[34.046,-14.1847,1168.9395],[34.0447,-14.1792,1162.6003],[34.0476,-14.1748,1161.3528],[34.0487,-14.1691,1165.6194],[34.0535,-14.1616,1160.981],[34.0592,-14.1561,1166.2913],[34.0564,-14.1531,1172.2268],[34.0484,-14.1539,1176.377],[34.0443,-14.1482,1184.8711],[34.0407,-14.1481,1179.9152],[34.0352,-14.1448,1181.5209],[34.0331,-14.1396,1182.3121],[34.0351,-14.1365,1185.213],[34.0372,-14.1115,1203.566],[34.0356,-14.1011,1211.7227],[34.0439,-14.0918,1226.3098],[34.0451,-14.0825,1239.7029],[34.0301,-14.0815,1226.8607],[34.0294,-14.0778,1204.9146],[34.0235,-14.0701,1180.1693],[34.0111,-14.0614,1150.8197],[34.005,-14.061,1161.3027],[33.9935,-14.0822,1181.6598],[33.9948,-14.0885,1182.2708],[33.9877,-14.098,1206.0414],[33.9798,-14.0932,1186.2424],[33.9667,-14.1014,1157.9669],[33.9624,-14.0965,1168.609],[33.9534,-14.0968,1127.4197],[33.9466,-14.0913,1128.3955],[33.9357,-14.0862,1112.6814],[33.9258,-14.0918,1085.6875],[33.918,-14.0874,1070.5414],[33.9155,-14.089,1068.5601],[33.9162,-14.0924,1091.8123],[33.9126,-14.1094,1085.7786],[33.9144,-14.1139,1078.8452],[33.9106,-14.1175,1095.92],[33.9093,-14.1228,1106.1768],[33.9164,-14.1287,1092.4637],[33.9126,-14.1347,1108.2264],[33.9157,-14.1482,1108.5476],[33.913,-14.1542,1121.4579],[33.9132,-14.1608,1124.6062],[33.909,-14.1691,1137.9285],[33.9062,-14.1811,1144.1138],[33.9067,-14.1922,1153.4044],[33.9019,-14.2128,1190.3844],[33.9185,-14.2423,1185.8169],[33.9456,-14.2528,1177.5533],[33.9461,-14.2327,1173.7861],[33.954,-14.2235,1172.1742]]]]}
,"properties": {"GID_2": "MWI.11.13_1","GID_0": "MWI","country": "Malawi","GID_1": "MWI.11_1","province": "Lilongwe","NL_NAME_1": "NA","county": "TAKalumbu","VARNAME_2": "NA","NL_NAME_2": "NA","TYPE_2": "TraditionalAuthority","ENGTYPE_2": "TraditionalAuthority","CC_2": "NA","HASC_2": "NA","name": "T_A_Kalumbu.county","area_km2": 201.311,"hist_schema_id": "Elevation0-9000","hist_area_km2": {"1075": 2.3236,"1100": 6.3743,"1125": 8.6356,"1150": 14.1453,"1175": 41.3617,"1200": 78.3235,"1225": 41.7581,"1250": 7.8953,"1275": 0.329,"1300": 0.1645}}}