{"type": "Feature","bbox": [33.7659,-14.1662,33.8059,-14.1239],"geometry": {"type": "MultiPolygon","coordinates": [[[[33.7753,-14.1239,1150.6859],[33.7752,-14.1312,1143.5388],[33.7659,-14.1383,1144.2677],[33.77,-14.1454,1133.4532],[33.7865,-14.145,1123.3545],[33.7869,-14.1474,1119.6956],[33.7832,-14.1527,1133.6078],[33.7843,-14.1662,1151.5856],[33.7961,-14.1653,1131.8826],[33.8059,-14.1618,1120.3274],[33.803,-14.149,1108.9875],[33.8047,-14.1426,1104.5785],[33.7925,-14.1447,1117.5345],[33.7918,-14.1365,1133.5073],[33.7934,-14.128,1114.4154],[33.7753,-14.1239,1150.6859]]]]}
,"properties": {"GID_3": "MWI.11.6.14_1","GID_0": "MWI","country": "Malawi","GID_1": "MWI.11_1","province": "Lilongwe","NL_NAME_1": "NA","GID_2": "MWI.11.6_1","county": "TAChadza","NL_NAME_2": "NA","city": "n.a.(1278)","VARNAME_3": "NA","NL_NAME_3": "NA","TYPE_3": "Unknown","ENGTYPE_3": "Unknown","CC_3": "NA","HASC_3": "NA","name": "n.a.(1278).city","area_km2": 10.012387,"hist_schema_id": "Elevation0-9000","hist_area_km2": {"1100": 0.699008,"1125": 5.468742,"1150": 3.844637}}}