{"type":"Feature","properties":{"GID_2":"MWI.4.3_1","GID_0":"MWI","country":"Malawi","GID_1":"MWI.4_1","province":"Chiradzulu","NL_NAME_1":"NA","county":"TAKadewere","VARNAME_2":"NA","NL_NAME_2":"NA","TYPE_2":"TraditionalAuthority","ENGTYPE_2":"TraditionalAuthority","CC_2":"NA","HASC_2":"NA","name":"T_A_Kadewere.county"},
"geometry":{"type": "MultiPolygon","coordinates": [[[[35.3182,-15.8671,732.2874],[35.3025,-15.7371,786.5183],[35.3115,-15.7147,779.4525],[35.2941,-15.7158,799.4319],[35.24,-15.6773,859.6434],[35.1829,-15.6129,1051.2552],[35.1826,-15.6274,1110.4589],[35.1791,-15.6344,1030.3271],[35.1768,-15.6466,1031.3925],[35.1853,-15.6561,1013.0264],[35.1865,-15.6595,950.3687],[35.1789,-15.6801,1537.5872],[35.1727,-15.6876,1687.1569],[35.1828,-15.6903,1235.0349],[35.1895,-15.6839,1189.6721],[35.1975,-15.6861,1001.0692],[35.198,-15.6889,984.804],[35.1958,-15.694,1000.9343],[35.2068,-15.6967,1001.4432],[35.2216,-15.7298,876.2448],[35.229,-15.7353,862.312],[35.2231,-15.7469,879.4384],[35.2179,-15.7499,883.5473],[35.2138,-15.7574,898.8838],[35.2037,-15.7678,949.6139],[35.1966,-15.7636,917.9833],[35.1928,-15.7674,923.3275],[35.1928,-15.7718,935.716],[35.1952,-15.7777,951.5456],[35.1994,-15.7816,940.8068],[35.2027,-15.7901,958.4255],[35.2086,-15.7975,928.6157],[35.2115,-15.8134,1070.1384],[35.2164,-15.821,939.2407],[35.2115,-15.8238,917.1044],[35.2097,-15.8268,909.4607],[35.22,-15.8288,997.1053],[35.2236,-15.8332,905.6599],[35.2224,-15.8377,892.0453],[35.2262,-15.8444,866.6304],[35.2354,-15.8458,841.6887],[35.2429,-15.8507,828.9546],[35.2519,-15.8468,826.49],[35.2593,-15.8484,807.3483],[35.273,-15.8463,791.6914],[35.2769,-15.8437,796.9349],[35.2816,-15.843,786.4419],[35.2965,-15.8531,766.1146],[35.2994,-15.8568,758.3928],[35.3004,-15.864,750.1598],[35.3117,-15.8673,741.8096],[35.3182,-15.8671,732.2874]]]]}}