{"type": "Feature","bbox": [35.1493,-16.0378,35.2007,-15.9913],"geometry": {"type": "MultiPolygon","coordinates": [[[[35.1717,-16.0004,884.7601],[35.167,-16.0034,899.6227],[35.1611,-16.0127,950.8594],[35.1548,-16.0132,959.4099],[35.1555,-16.0168,946.0259],[35.1493,-16.0276,892.7439],[35.1568,-16.0299,865.6797],[35.1626,-16.0343,844.0674],[35.1685,-16.0318,838.9594],[35.173,-16.0341,833.5681],[35.1756,-16.0376,819.8177],[35.1784,-16.0378,833.9625],[35.1803,-16.0368,825.3699],[35.1805,-16.0134,935.9039],[35.1884,-16.0108,875.7041],[35.1888,-16.0081,867.3369],[35.1946,-16.0051,846.2502],[35.1966,-15.9999,830.0502],[35.2007,-15.9958,815.5276],[35.197,-15.9969,822.704],[35.1921,-15.9933,847.9557],[35.1853,-15.9913,862.4479],[35.1831,-15.9943,855.3936],[35.1757,-15.9958,883.0614],[35.177,-15.9974,876.9184],[35.1743,-16.0011,872.5751],[35.1717,-16.0004,884.7601]]]]}
,"properties": {"GID_3": "MWI.27.8.25_1","GID_0": "MWI","country": "Malawi","GID_1": "MWI.27_1","province": "Thyolo","NL_NAME_1": "NA","GID_2": "MWI.27.8_1","county": "TAChimaliro","NL_NAME_2": "NA","city": "n.a.(2751)","VARNAME_3": "NA","NL_NAME_3": "NA","TYPE_3": "Unknown","ENGTYPE_3": "Unknown","CC_3": "NA","HASC_3": "NA","name": "n.a.(2751).city","area_km2": 12.125733,"hist_schema_id": "Elevation0-9000","hist_area_km2": {"825": 0.71329,"850": 2.425147,"875": 2.853134,"900": 2.588178,"925": 2.22133,"950": 1.263515,"975": 0.061138}}}