{"type":"Feature","properties":{"GID_3":"MWI.11.8.44_1","GID_0":"MWI","country":"Malawi","GID_1":"MWI.11_1","province":"Lilongwe","NL_NAME_1":"NA","GID_2":"MWI.11.8_1","county":"TAChiseka","NL_NAME_2":"NA","city":"n.a.(1402)","VARNAME_3":"NA","NL_NAME_3":"NA","TYPE_3":"Unknown","ENGTYPE_3":"Unknown","CC_3":"NA","HASC_3":"NA","name":"n.a.(1402).city"},
"geometry":{"type": "MultiPolygon","coordinates": [[[[33.6299,-14.3079,1173.0397],[33.6328,-14.307,1174.0286],[33.6322,-14.2941,1162.2491],[33.6408,-14.2846,1136.6368],[33.6327,-14.2758,1122.8947],[33.6278,-14.2666,1119.3738],[33.6251,-14.2538,1122.2321],[33.6152,-14.2455,1108.1738],[33.6081,-14.2573,1114.3413],[33.6067,-14.2643,1108.123],[33.6102,-14.2662,1119.9713],[33.6096,-14.2691,1110.3414],[33.6114,-14.2722,1112.2078],[33.6068,-14.2846,1118.5483],[33.6146,-14.2882,1144.3173],[33.6242,-14.3042,1169.1543],[33.6293,-14.3046,1170.3596],[33.6299,-14.3079,1173.0397]]]]}}