{"type":"Feature","properties":{"GID_3":"MWI.28.2.13_1","GID_0":"MWI","country":"Malawi","GID_1":"MWI.28_1","province":"Zomba","NL_NAME_1":"NA","GID_2":"MWI.28.2_1","county":"SCMbiza","NL_NAME_2":"NA","city":"n.a.(2300)","VARNAME_3":"NA","NL_NAME_3":"NA","TYPE_3":"Unknown","ENGTYPE_3":"Unknown","CC_3":"NA","HASC_3":"NA","name":"n.a.(2300).city"},
"geometry":{"type": "MultiPolygon","coordinates": [[[[35.2857,-15.5439,868.5013],[35.2856,-15.5492,864.7059],[35.2817,-15.5563,854.238],[35.2844,-15.5705,843.2103],[35.293,-15.57,860.5961],[35.2935,-15.5745,855.7466],[35.301,-15.5769,842.8381],[35.3056,-15.5804,825.6094],[35.3083,-15.5626,841.9825],[35.3023,-15.5566,849.6945],[35.2993,-15.5495,861.4112],[35.2994,-15.5444,872.4762],[35.2932,-15.5389,890.3334],[35.2857,-15.5439,868.5013]]]]}}