{"type": "Feature","bbox": [35.1288,-16.1379,35.1756,-16.1171],"geometry": {"type": "MultiPolygon","coordinates": [[[[35.1475,-16.1379,698.5266],[35.1483,-16.1338,720.1609],[35.1523,-16.1297,732.1425],[35.1538,-16.1244,778.6799],[35.1621,-16.1252,773.5355],[35.1701,-16.1228,741.8674],[35.1756,-16.124,697.0299],[35.1754,-16.1195,743.5051],[35.1673,-16.1171,811.5082],[35.1635,-16.1196,809.783],[35.1536,-16.1203,810.7518],[35.1459,-16.1257,775.4661],[35.1424,-16.1209,831.3911],[35.1297,-16.1216,792.5223],[35.1288,-16.1259,789.8655],[35.1301,-16.133,738.1941],[35.1373,-16.1363,724.5519],[35.1475,-16.1379,698.5266]]]]}
,"properties": {"GID_3": "MWI.27.10.19_1","GID_0": "MWI","country": "Malawi","GID_1": "MWI.27_1","province": "Thyolo","NL_NAME_1": "NA","GID_2": "MWI.27.10_1","county": "TANchilamwela","NL_NAME_2": "NA","city": "n.a.(2920)","VARNAME_3": "NA","NL_NAME_3": "NA","TYPE_3": "Unknown","ENGTYPE_3": "Unknown","CC_3": "NA","HASC_3": "NA","name": "n.a.(2920).city","area_km2": 5.051239,"hist_schema_id": "Elevation0-9000","hist_area_km2": {"700": 0.061102,"725": 0.346249,"750": 0.855436,"775": 1.772005,"800": 1.547977,"825": 0.46847}}}