{"type": "Feature","bbox": [33.715,-13.4182,33.7768,-13.362],"geometry": {"type": "MultiPolygon","coordinates": [[[[33.715,-13.3717,1240.7712],[33.7274,-13.3911,1214.4075],[33.7311,-13.4033,1232.0751],[33.7363,-13.4072,1242.5679],[33.7485,-13.4125,1264.2637],[33.7549,-13.4182,1268.0845],[33.7582,-13.4168,1263.7742],[33.7628,-13.4112,1240.9185],[33.7738,-13.4118,1269.8103],[33.7762,-13.4102,1255.6133],[33.7749,-13.4035,1235.09],[33.7768,-13.4004,1229.7764],[33.7748,-13.3946,1225.988],[33.7653,-13.386,1211.5272],[33.7616,-13.3789,1206.3289],[33.7552,-13.3747,1195.3308],[33.7449,-13.362,1173.9912],[33.7205,-13.3658,1205.9698],[33.717,-13.3679,1217.6942],[33.715,-13.3717,1240.7712]]]]}
,"properties": {"GID_3": "MWI.7.3.16_1","GID_0": "MWI","country": "Malawi","GID_1": "MWI.7_1","province": "Dowa","NL_NAME_1": "NA","GID_2": "MWI.7.3_1","county": "SCChakhaza","NL_NAME_2": "NA","city": "n.a.(603)","VARNAME_3": "NA","NL_NAME_3": "NA","TYPE_3": "Unknown","ENGTYPE_3": "Unknown","CC_3": "NA","HASC_3": "NA","name": "n.a.(603).city","area_km2": 23.69918,"hist_schema_id": "Elevation0-9000","hist_area_km2": {"1175": 1.79462,"1200": 7.73505,"1225": 8.22961,"1250": 4.68182,"1275": 1.17558,"1300": 0.0825}}}