{"type": "Feature","bbox": [33.7787,-9.6588,33.862,-9.6172],"geometry": {"type": "MultiPolygon","coordinates": [[[[33.805,-9.6429,537.8517],[33.806,-9.638,593.3921],[33.8162,-9.638,496.8581],[33.8175,-9.6518,497.8218],[33.8278,-9.6588,500.3235],[33.8374,-9.6547,492.6181],[33.8458,-9.6576,491.1354],[33.8474,-9.6562,491.4169],[33.8508,-9.658,491.1029],[33.8556,-9.6565,497.1432],[33.8595,-9.6584,493.3744],[33.862,-9.6575,488.3884],[33.8576,-9.6556,489.0085],[33.8475,-9.6446,492.1588],[33.8357,-9.6383,494.5264],[33.8277,-9.6368,495.7471],[33.816,-9.629,504.8987],[33.8147,-9.6215,500.5471],[33.8113,-9.6172,498.9294],[33.8094,-9.6257,499.7039],[33.7991,-9.6191,532.5063],[33.7944,-9.6223,628.9467],[33.7854,-9.6239,695.2963],[33.7787,-9.6283,697.4972],[33.794,-9.6334,627.9434],[33.7959,-9.6366,593.6967],[33.805,-9.6429,537.8517]]]]}
,"properties": {"GID_3": "MWI.8.4.3_1","GID_0": "MWI","country": "Malawi","GID_1": "MWI.8_1","province": "Karonga","NL_NAME_1": "NA","GID_2": "MWI.8.4_1","county": "SCMwakaboko","NL_NAME_2": "NA","city": "n.a.(17)","VARNAME_3": "NA","NL_NAME_3": "NA","TYPE_3": "Unknown","ENGTYPE_3": "Unknown","CC_3": "NA","HASC_3": "NA","name": "n.a.(17).city","area_km2": 13.75407,"hist_schema_id": "Elevation0-9000","hist_area_km2": {"500": 9.65699,"525": 0.45988,"550": 0.41807,"575": 0.41807,"600": 0.43897,"625": 0.56439,"650": 0.66891,"675": 0.6062,"700": 0.45988,"725": 0.06271}}}