{"type":"Feature","properties":{"GID_3":"MWI.22.3.13_1","GID_0":"MWI","country":"Malawi","GID_1":"MWI.22_1","province":"Ntcheu","NL_NAME_1":"NA","GID_2":"MWI.22.3_1","county":"SCGoodsonGanya","NL_NAME_2":"NA","city":"n.a.(1686)","VARNAME_3":"NA","NL_NAME_3":"NA","TYPE_3":"Unknown","ENGTYPE_3":"Unknown","CC_3":"NA","HASC_3":"NA","name":"n.a.(1686).city"},
"geometry":{"type": "MultiPolygon","coordinates": [[[[34.6468,-14.5824,788.554],[34.6452,-14.5842,787.3478],[34.6455,-14.587,797.3587],[34.6435,-14.5883,796.7623],[34.6377,-14.5861,813.3782],[34.6345,-14.5882,920.1487],[34.6288,-14.5872,922.0784],[34.6258,-14.5924,921.3515],[34.6218,-14.594,939.347],[34.6159,-14.5912,975.171],[34.6172,-14.5949,944.4296],[34.6225,-14.5978,945.0237],[34.6336,-14.5935,939.8632],[34.6347,-14.5996,870.7495],[34.6261,-14.6019,923.6302],[34.6176,-14.6113,916.9721],[34.6084,-14.612,893.9232],[34.6042,-14.618,886.956],[34.6041,-14.6237,888.8795],[34.6078,-14.6276,892.2177],[34.6095,-14.6346,902.2675],[34.6181,-14.6395,903.3537],[34.6211,-14.6438,907.8307],[34.63,-14.6446,931.98],[34.6371,-14.6428,960.5089],[34.6433,-14.6443,978.0649],[34.6452,-14.643,986.0472],[34.6444,-14.6285,936.1429],[34.6569,-14.621,816.6646],[34.6545,-14.609,851.0219],[34.6491,-14.6029,819.0441],[34.6484,-14.596,779.7403],[34.6457,-14.5934,780.6746],[34.6468,-14.5824,788.554]]]]}}