{"type": "Feature","bbox": [35.1474,-16.1433,35.197,-16.1228],"geometry": {"type": "MultiPolygon","coordinates": [[[[35.1615,-16.1433,684.3126],[35.1664,-16.1354,757.7002],[35.1765,-16.134,726.7418],[35.1822,-16.1372,762.0051],[35.1958,-16.1345,600.3984],[35.197,-16.132,623.058],[35.1907,-16.1307,612.1024],[35.1925,-16.127,642.0621],[35.1892,-16.1259,636.9175],[35.1873,-16.1231,688.2279],[35.1756,-16.124,697.0299],[35.1701,-16.1228,741.8674],[35.1602,-16.1254,772.2643],[35.1538,-16.1244,778.6799],[35.1528,-16.1288,752.5758],[35.1499,-16.1309,736.4802],[35.1474,-16.1377,698.5266],[35.1615,-16.1433,684.3126]]]]}
,"properties": {"GID_3": "MWI.27.10.20_1","GID_0": "MWI","country": "Malawi","GID_1": "MWI.27_1","province": "Thyolo","NL_NAME_1": "NA","GID_2": "MWI.27.10_1","county": "TANchilamwela","NL_NAME_2": "NA","city": "n.a.(2925)","VARNAME_3": "NA","NL_NAME_3": "NA","TYPE_3": "Unknown","ENGTYPE_3": "Unknown","CC_3": "NA","HASC_3": "NA","name": "n.a.(2925).city","area_km2": 6.639779,"hist_schema_id": "Elevation0-9000","hist_area_km2": {"600": 0.183305,"625": 0.244409,"650": 0.488826,"675": 0.611032,"700": 0.835065,"725": 1.486818,"750": 1.58865,"775": 1.160939,"800": 0.040735}}}