{"type": "Feature","bbox": [33.9902,-14.2053,34.0464,-14.163],"geometry": {"type": "MultiPolygon","coordinates": [[[[34.0464,-14.1775,1160.8811],[34.0387,-14.1754,1183.963],[34.0328,-14.1716,1194.6179],[34.0318,-14.1655,1210.8955],[34.0291,-14.163,1211.4111],[34.0142,-14.1663,1218.4646],[34.0097,-14.1655,1218.3442],[34.0086,-14.1672,1217.9875],[34.0101,-14.1711,1211.9475],[34.0056,-14.1728,1210.5044],[34.0051,-14.1782,1204.8804],[33.9997,-14.1806,1202.9893],[33.9944,-14.18,1189.8374],[33.9902,-14.1818,1182.9294],[33.9917,-14.1872,1176.8506],[33.9902,-14.1905,1176.3339],[33.9916,-14.1911,1172.0809],[33.9911,-14.1931,1167.7448],[33.9984,-14.1961,1176.3413],[34.0023,-14.2053,1166.3149],[34.0063,-14.2023,1177.7993],[34.0091,-14.204,1171.9137],[34.0127,-14.2005,1165.0935],[34.0146,-14.1936,1176.296],[34.019,-14.1963,1164.1132],[34.0242,-14.1969,1165.2782],[34.0289,-14.1944,1166.2605],[34.0301,-14.1911,1173.2717],[34.0374,-14.1869,1171.2441],[34.046,-14.1847,1168.9395],[34.0447,-14.1792,1162.6003],[34.0464,-14.1775,1160.8811]]]]}
,"properties": {"GID_3": "MWI.11.13.16_1","GID_0": "MWI","country": "Malawi","GID_1": "MWI.11_1","province": "Lilongwe","NL_NAME_1": "NA","GID_2": "MWI.11.13_1","county": "TAKalumbu","NL_NAME_2": "NA","city": "n.a.(1319)","VARNAME_3": "NA","NL_NAME_3": "NA","TYPE_3": "Unknown","ENGTYPE_3": "Unknown","CC_3": "NA","HASC_3": "NA","name": "n.a.(1319).city","area_km2": 15.10859,"hist_schema_id": "Elevation0-9000","hist_area_km2": {"1175": 6.78326,"1200": 7.00966,"1225": 1.31566}}}