{"type": "Feature","bbox": [34.9182,-16.307,34.9716,-16.2376],"geometry": {"type": "MultiPolygon","coordinates": [[[[34.9375,-16.2559,61.8926],[34.9318,-16.2633,61.488],[34.9294,-16.2626,60.6231],[34.9245,-16.2646,60.4515],[34.9233,-16.2671,60.3147],[34.9207,-16.2679,59.5],[34.9182,-16.2787,61.1482],[34.9208,-16.2821,60.6813],[34.9225,-16.2889,58.9056],[34.9278,-16.2915,59.1214],[34.9262,-16.295,60.2147],[34.9302,-16.2992,59.9408],[34.9312,-16.3069,58.9622],[34.948,-16.307,58.4184],[34.9494,-16.3044,58.6873],[34.9512,-16.3041,58.5177],[34.9504,-16.2962,58.6958],[34.9471,-16.289,58.6127],[34.9502,-16.2822,58.9306],[34.9459,-16.2814,59.3429],[34.9448,-16.2788,59.5314],[34.9552,-16.2671,59.9294],[34.9594,-16.2652,60.7369],[34.9632,-16.2594,60.844],[34.9716,-16.2563,61.3361],[34.9716,-16.2509,61.59],[34.9674,-16.2437,62.9379],[34.9697,-16.2376,62.3565],[34.959,-16.24,61.8437],[34.9569,-16.2425,63.0225],[34.9579,-16.2448,62.8498],[34.9563,-16.2483,62.8946],[34.9487,-16.2526,62.8977],[34.9403,-16.2517,60.9292],[34.9375,-16.2559,61.8926]]]]}
,"properties": {"GID_3": "MWI.3.9.12_1","GID_0": "MWI","country": "Malawi","GID_1": "MWI.3_1","province": "Chikwawa","NL_NAME_1": "NA","GID_2": "MWI.3.9_1","county": "TAMakhwira","NL_NAME_2": "NA","city": "n.a.(2981)","VARNAME_3": "NA","NL_NAME_3": "NA","TYPE_3": "Unknown","ENGTYPE_3": "Unknown","CC_3": "NA","HASC_3": "NA","name": "n.a.(2981).city","area_km2": 19.72179,"hist_schema_id": "Elevation0-9000","hist_area_km2": {"50": 18.19515,"75": 1.52663}}}