{"type": "Feature","bbox": [35.1173,-17.0412,35.2151,-16.9784],"geometry": {"type": "MultiPolygon","coordinates": [[[[35.1325,-17.0295,246.1329],[35.1398,-17.0407,221.7411],[35.1416,-17.0412,217.3204],[35.1454,-17.035,201.0414],[35.1482,-17.0344,194.6821],[35.1497,-17.0322,188.7642],[35.1544,-17.0326,178.7292],[35.1552,-17.0282,172.1344],[35.16,-17.0303,185.9741],[35.1616,-17.0262,158.6498],[35.1652,-17.0244,129.5292],[35.1667,-17.025,123.5506],[35.1663,-17.0311,114.8516],[35.1694,-17.0283,113.4775],[35.179,-17.03,98.4537],[35.1856,-17.0244,91.3871],[35.1963,-17.0196,73.7588],[35.2041,-17.0099,64.3234],[35.2055,-17.0056,61.6319],[35.2132,-17.0038,54.0269],[35.2151,-17.0006,54.9058],[35.2083,-16.9941,62.36],[35.2047,-16.9935,68.749],[35.1824,-17.0037,113.4224],[35.1768,-17.002,134.1136],[35.1697,-17.0026,212.7551],[35.1636,-16.9996,265.7718],[35.1592,-17.0017,271.8243],[35.1577,-16.9948,312.1402],[35.1519,-16.9951,362.5871],[35.1409,-16.9784,575.5652],[35.1299,-16.9919,698.9298],[35.1295,-16.9996,510.0544],[35.1318,-17.0046,443.2183],[35.1262,-17.0085,382.6758],[35.1178,-17.0109,356.8468],[35.1173,-17.0128,324.5925],[35.1185,-17.0191,310.425],[35.1319,-17.0254,279.258],[35.1325,-17.0295,246.1329]]]]}
,"properties": {"GID_3": "MWI.21.3.2_1","GID_0": "MWI","country": "Malawi","GID_1": "MWI.21_1","province": "Nsanje","NL_NAME_1": "NA","GID_2": "MWI.21.3_1","county": "SCMakoka","NL_NAME_2": "NA","city": "n.a.(3111)","VARNAME_3": "NA","NL_NAME_3": "NA","TYPE_3": "Unknown","ENGTYPE_3": "Unknown","CC_3": "NA","HASC_3": "NA","name": "n.a.(3111).city","area_km2": 31.26333,"hist_schema_id": "Elevation0-9000","hist_area_km2": {"50": 0.68937,"75": 3.14263,"100": 2.63564,"125": 2.25044,"150": 1.45974,"175": 1.19616,"200": 0.99342,"225": 1.39885,"250": 0.95286,"275": 1.35833,"300": 1.4597,"325": 1.56109,"350": 1.56111,"375": 1.39894,"400": 1.25704,"425": 1.21651,"450": 1.05432,"475": 1.13542,"500": 1.15569,"525": 1.13543,"550": 0.68938,"575": 0.58799,"600": 0.36496,"625": 0.18249,"650": 0.08111,"675": 0.14194,"700": 0.06083,"725": 0.08111,"750": 0.04055,"775": 0.02028}}}