{"type":"Feature","properties":{"GID_3":"MWI.25.5.1_1","GID_0":"MWI","country":"Malawi","GID_1":"MWI.25_1","province":"Rumphi","NL_NAME_1":"NA","GID_2":"MWI.25.5_1","county":"SCKachulu","NL_NAME_2":"NA","city":"n.a.(108)","VARNAME_3":"NA","NL_NAME_3":"NA","TYPE_3":"Unknown","ENGTYPE_3":"Unknown","CC_3":"NA","HASC_3":"NA","name":"n.a.(108).city"},
"geometry":{"type": "MultiPolygon","coordinates": [[[[34.0852,-10.5838,1654.6165],[34.0693,-10.6191,1157.8195],[34.0576,-10.6226,1300.9436],[34.057,-10.6328,1188.2314],[34.0508,-10.6332,1241.9468],[34.0459,-10.639099999999999,1337.6659],[34.0409,-10.6395,1294.6486],[34.0403,-10.6437,1256.933],[34.0446,-10.6551,1641.6758],[34.0406,-10.6631,1844.1377],[34.0511,-10.6696,1416.2614],[34.0631,-10.6737,1256.4343],[34.0654,-10.6758,1221.348],[34.0695,-10.6741,1163.6975],[34.0689,-10.6877,1380.8649],[34.0717,-10.6904,1393.1509],[34.0765,-10.6901,1366.2799],[34.0886,-10.6845,1208.8916],[34.1041,-10.6874,1116.9469],[34.1042,-10.6964,1155.3113],[34.1065,-10.7045,1193.2059],[34.1108,-10.708,1223.7001],[34.1109,-10.7153,1273.6897],[34.1182,-10.7132,1295.3915],[34.1204,-10.7092,1254.1477],[34.1263,-10.7088,1241.1353],[34.1288,-10.6993,949.8333],[34.1358,-10.6925,859.9728],[34.1351,-10.6883,871.0731],[34.1307,-10.6827,902.79],[34.135,-10.6802,962.4277],[34.1363,-10.6757,889.4777],[34.1353,-10.6736,934.2289],[34.1324,-10.6745,927.9052],[34.1257,-10.6687,941.9205],[34.1238,-10.6692,901.5973],[34.1217,-10.6668,912.9554],[34.1189,-10.6668,923.2944],[34.1221,-10.6545,949.9686],[34.119,-10.6504,1035.1436],[34.0995,-10.6386,1118.353],[34.09,-10.6371,1109.5348],[34.0922,-10.6258,1215.6995],[34.0964,-10.6253,1163.4301],[34.0898,-10.6138,1271.3085],[34.09,-10.6064,1281.4888],[34.0935,-10.6035,1282.3944],[34.0986,-10.5917,1312.7966],[34.109,-10.5872,1215.8865],[34.1162,-10.587,1171.0513],[34.1176,-10.5821,1187.5762],[34.1156,-10.5825,1182.8865],[34.108,-10.5783,1326.7148],[34.0995,-10.5781,1336.74],[34.0951,-10.5742,1416.321],[34.0897,-10.5778,1512.437],[34.0852,-10.5838,1654.6165]]]]}}