{"type":"Feature","properties":{"GID_3":"MWI.9.7.5_1","GID_0":"MWI","country":"Malawi","GID_1":"MWI.9_1","province":"Kasungu","NL_NAME_1":"NA","GID_2":"MWI.9.7_1","county":"SCM'nyanja","NL_NAME_2":"NA","city":"n.a.(399)","VARNAME_3":"NA","NL_NAME_3":"NA","TYPE_3":"Unknown","ENGTYPE_3":"Unknown","CC_3":"NA","HASC_3":"NA","name":"n.a.(399).city"},
"geometry":{"type": "MultiPolygon","coordinates": [[[[33.486,-12.8052,991.7704],[33.4901,-12.8073,989.6304],[33.4969,-12.8156,983.1307],[33.501,-12.8298,970.4725],[33.5091,-12.8369,975.459],[33.5142,-12.8453,957.5563],[33.5138,-12.8474,954.8393],[33.5218,-12.8489,954.326],[33.529,-12.8586,949.736],[33.5447,-12.8637,952.5405],[33.5582,-12.8608,949.6687],[33.5622,-12.8644,943.1749],[33.5701,-12.8619,952.0382],[33.5677,-12.8579,960.5273],[33.5664,-12.8406,984.6182],[33.5629,-12.8262,1010.6176],[33.5643,-12.8175,1029.0709],[33.5549,-12.7892,1067.4039],[33.5556,-12.7858,1069.212],[33.5645,-12.7758,1051.3511],[33.5626,-12.7696,1060.8285],[33.5584,-12.769,1075.0427],[33.5519,-12.7726,1079.113],[33.5245,-12.7696,1072.7128],[33.5224,-12.7675,1052.5592],[33.523,-12.7621,1063.333],[33.5215,-12.751,1047.1479],[33.5203,-12.7505,1047.1479],[33.5151,-12.758,1036.6554],[33.5071,-12.7646,1046.0465],[33.5058,-12.771,1032.5627],[33.5027,-12.7661,1058.9113],[33.4842,-12.7638,1063.765],[33.4703,-12.7639,1064.1936],[33.4688,-12.7756,1047.0781],[33.4798,-12.7835,1033.8231],[33.4767,-12.7918,1022.813],[33.4793,-12.7957,1012.683],[33.4798,-12.8016,1011.4509],[33.4847,-12.8028,1007.3964],[33.486,-12.8052,991.7704]]]]}}