{"type": "Feature","bbox": [35.7558,-15.9006,35.793,-15.8627],"geometry": {"type": "MultiPolygon","coordinates": [[[[35.7609,-15.8966,795.6702],[35.7723,-15.8965,743.2971],[35.7786,-15.9006,728.7344],[35.793,-15.8998,707.5861],[35.7886,-15.8922,710.9242],[35.7868,-15.885,714.6678],[35.789,-15.8811,709.2146],[35.7886,-15.8704,699.897],[35.7846,-15.8729,706.9501],[35.7777,-15.8732,716.0847],[35.7702,-15.8656,706.0087],[35.7701,-15.8627,701.7252],[35.763,-15.8678,712.7493],[35.7558,-15.8767,748.4787],[35.7599,-15.883,764.0841],[35.761,-15.8905,766.7462],[35.7588,-15.8934,813.163],[35.7609,-15.8966,795.6702]]]]}
,"properties": {"GID_3": "MWI.24.3.28_1","GID_0": "MWI","country": "Malawi","GID_1": "MWI.24_1","province": "Phalombe","NL_NAME_1": "NA","GID_2": "MWI.24.3_1","county": "TANazombe","NL_NAME_2": "NA","city": "n.a.(2633)","VARNAME_3": "NA","NL_NAME_3": "NA","TYPE_3": "Unknown","ENGTYPE_3": "Unknown","CC_3": "NA","HASC_3": "NA","name": "n.a.(2633).city","area_km2": 10.175952,"hist_schema_id": "Elevation0-9000","hist_area_km2": {"700": 1.509092,"725": 6.444117,"750": 1.814908,"775": 0.305877,"800": 0.101958}}}