{"type":"Feature","properties":{"GID_3":"MWI.7.8.8_1","GID_0":"MWI","country":"Malawi","GID_1":"MWI.7_1","province":"Dowa","NL_NAME_1":"NA","GID_2":"MWI.7.8_1","county":"TADzoole","NL_NAME_2":"NA","city":"n.a.(667)","VARNAME_3":"NA","NL_NAME_3":"NA","TYPE_3":"Unknown","ENGTYPE_3":"Unknown","CC_3":"NA","HASC_3":"NA","name":"n.a.(667).city"},
"geometry":{"type": "MultiPolygon","coordinates": [[[[33.7335,-13.5079,1181.6071],[33.7378,-13.5057,1194.8696],[33.7457,-13.5094,1197.2255],[33.7588,-13.5115,1204.646],[33.7608,-13.5076,1220.8706],[33.7649,-13.5072,1219.2899],[33.7702,-13.4992,1224.3556],[33.7793,-13.4913,1233.9371],[33.776,-13.4812,1261.009],[33.7703,-13.4795,1277.1981],[33.7642,-13.4799,1288.5028],[33.7575,-13.4868,1267.9636],[33.7454,-13.483,1224.1779],[33.7402,-13.4782,1228.1343],[33.7296,-13.4817,1206.915],[33.7251,-13.4805,1205.9509],[33.7189,-13.49,1183.7335],[33.7073,-13.4967,1164.5609],[33.7157,-13.5025,1181.6068],[33.7254,-13.5036,1186.5471],[33.7335,-13.5079,1181.6071]]]]}}