{"type":"Feature","properties":{"GID_3":"MWI.13.8.9_1","GID_0":"MWI","country":"Malawi","GID_1":"MWI.13_1","province":"Mangochi","NL_NAME_1":"NA","GID_2":"MWI.13.8_1","county":"TAChimwala","NL_NAME_2":"NA","city":"n.a.(1680)","VARNAME_3":"NA","NL_NAME_3":"NA","TYPE_3":"Unknown","ENGTYPE_3":"Unknown","CC_3":"NA","HASC_3":"NA","name":"n.a.(1680).city"},
"geometry":{"type": "MultiPolygon","coordinates": [[[[34.8809,-14.5825,652.085],[34.8831,-14.5867,659.6023],[34.8899,-14.591,662.2838],[34.893,-14.5888,671.8542],[34.8955,-14.5916,674.1953],[34.8985,-14.5902,677.9675],[34.9,-14.5934,672.7773],[34.9039,-14.593,690.373],[34.908,-14.6017,690.1135],[34.9,-14.6039,697.5361],[34.8907,-14.6027,677.9837],[34.8895,-14.6104,692.5333],[34.8851,-14.6173,704.4274],[34.8823,-14.6201,705.5554],[34.8739,-14.622,738.4874],[34.8724,-14.6234,745.4819],[34.8722,-14.6286,725.0576],[34.8745,-14.6269,740.2977],[34.8771,-14.628,740.2678],[34.8798,-14.631,730.0926],[34.8816,-14.6373,712.2203],[34.8889,-14.6378,718.2946],[34.8936,-14.6357,729.2128],[34.9027,-14.6388,732.7621],[34.9075,-14.6348,747.0969],[34.912,-14.6338,762.4124],[34.918,-14.637,758.4603],[34.9313,-14.6487,797.9214],[34.9341,-14.6498,803.1438],[34.9396,-14.6486,793.5909],[34.9309,-14.6354,742.8625],[34.9338,-14.6227,763.3352],[34.9385,-14.6148,736.5475],[34.9359,-14.6117,739.8098],[34.9369,-14.5977,777.6125],[34.9319,-14.5945,793.4937],[34.9264,-14.5988,743.7532],[34.9208,-14.5983,713.5847],[34.9158,-14.5951,703.2729],[34.9174,-14.5919,704.6695],[34.9168,-14.5886,699.1122],[34.9084,-14.5817,679.7806],[34.9073,-14.5784,683.6083],[34.8978,-14.5763,668.8813],[34.8931,-14.57,661.2509],[34.888,-14.5667,649.9044],[34.8805,-14.568,641.0826],[34.8768,-14.5714,635.2834],[34.8764,-14.5753,637.835],[34.8809,-14.5825,652.085]]]]}}