{"type":"Feature","properties":{"GID_3":"MWI.12.9.1_1","GID_0":"MWI","country":"Malawi","GID_1":"MWI.12_1","province":"Machinga","NL_NAME_1":"NA","GID_2":"MWI.12.9_1","county":"SCMposa","NL_NAME_2":"NA","city":"n.a.(2016)","VARNAME_3":"NA","NL_NAME_3":"NA","TYPE_3":"Unknown","ENGTYPE_3":"Unknown","CC_3":"NA","HASC_3":"NA","name":"n.a.(2016).city"},
"geometry":{"type": "MultiPolygon","coordinates": [[[[35.457,-15.1538,732.387],[35.4628,-15.1594,729.097],[35.4646,-15.1687,709.1236],[35.4725,-15.1727,726.2516],[35.4867,-15.1653,736.7198],[35.5008,-15.1607,763.3604],[35.5064,-15.156,700.2386],[35.5086,-15.1647,640.0087],[35.5173,-15.1579,642.8389],[35.5202,-15.1579,638.9231],[35.5211,-15.1555,637.7152],[35.5294,-15.1506,633.5735],[35.5245,-15.145,713.5712],[35.5336,-15.1376,713.6608],[35.5364,-15.1297,691.3304],[35.5366,-15.12,693.6041],[35.5315,-15.106,672.4238],[35.5248,-15.1001,656.0525],[35.5249,-15.0973,638.9469],[35.5216,-15.095,659.7149],[35.5022,-15.091,646.8749],[35.4891,-15.1004,664.2255],[35.4718,-15.1051,672.9829],[35.4691,-15.1088,680.3462],[35.4661,-15.1205,717.2731],[35.4683,-15.1218,715.5951],[35.4683,-15.1308,744.2191],[35.4597,-15.1379,963.5582],[35.457,-15.1538,732.387]]]]}}