{"type": "Feature","bbox": [35.4344,-15.7136,35.515,-15.6835],"geometry": {"type": "MultiPolygon","coordinates": [[[[35.4612,-15.6866,702.0161],[35.4581,-15.6867,702.5447],[35.4538,-15.6835,706.389],[35.4443,-15.6867,707.652],[35.4344,-15.6873,713.2573],[35.4422,-15.695,710.658],[35.4467,-15.7094,707.4576],[35.449,-15.7123,705.1506],[35.4534,-15.7136,704.6581],[35.4582,-15.7104,703.8264],[35.4641,-15.7126,701.4111],[35.4799,-15.7029,693.2101],[35.4847,-15.7054,692.1968],[35.515,-15.7049,691.2972],[35.5133,-15.6973,687.854],[35.5035,-15.6909,690.0903],[35.4981,-15.6911,684.6776],[35.4965,-15.687,685.83],[35.4903,-15.6897,688.7322],[35.484,-15.6899,691.8468],[35.4689,-15.6848,698.4376],[35.4612,-15.6866,702.0161]]]]}
,"properties": {"GID_3": "MWI.15.3.8_1","GID_0": "MWI","country": "Malawi","GID_1": "MWI.15_1","province": "Mulanje","NL_NAME_1": "NA","GID_2": "MWI.15.3_1","county": "SCJuma","NL_NAME_2": "NA","city": "n.a.(2451)","VARNAME_3": "NA","NL_NAME_3": "NA","TYPE_3": "Unknown","ENGTYPE_3": "Unknown","CC_3": "NA","HASC_3": "NA","name": "n.a.(2451).city","area_km2": 16.49243,"hist_schema_id": "Elevation0-9000","hist_area_km2": {"675": 0.79606,"700": 15.69637}}}