{"type": "Feature","bbox": [33.8428,-14.2499,33.8871,-14.206],"geometry": {"type": "MultiPolygon","coordinates": [[[[33.8428,-14.2111,1129.5201],[33.8497,-14.2252,1143.2324],[33.8475,-14.2299,1148.1993],[33.8536,-14.2312,1154.1072],[33.8603,-14.2302,1157.0747],[33.8633,-14.2361,1168.1703],[33.8753,-14.2499,1205.5835],[33.8871,-14.2368,1197.8131],[33.8871,-14.2349,1197.5947],[33.8817,-14.2322,1200.5226],[33.8837,-14.2267,1202.3955],[33.8785,-14.224,1198.2814],[33.8807,-14.2125,1182.8585],[33.8772,-14.206,1166.408],[33.8716,-14.2075,1182.6433],[33.8645,-14.2061,1177.7091],[33.8652,-14.2087,1178.4487],[33.8637,-14.2113,1180.3346],[33.8563,-14.2115,1158.019],[33.8523,-14.2134,1149.3604],[33.8428,-14.2111,1129.5201]]]]}
,"properties": {"GID_3": "MWI.11.6.24_1","GID_0": "MWI","country": "Malawi","GID_1": "MWI.11_1","province": "Lilongwe","NL_NAME_1": "NA","GID_2": "MWI.11.6_1","county": "TAChadza","NL_NAME_2": "NA","city": "n.a.(1364)","VARNAME_3": "NA","NL_NAME_3": "NA","TYPE_3": "Unknown","ENGTYPE_3": "Unknown","CC_3": "NA","HASC_3": "NA","name": "n.a.(1364).city","area_km2": 11.899661,"hist_schema_id": "Elevation0-9000","hist_area_km2": {"1125": 0.164424,"1150": 2.795132,"1175": 3.71998,"1200": 5.220124}}}