{"type": "Feature","bbox": [35.3608,-15.3867,35.4004,-15.3641],"geometry": {"type": "MultiPolygon","coordinates": [[[[35.393,-15.3641,786.5058],[35.391,-15.3731,778.4934],[35.3692,-15.3753,811.1561],[35.3659,-15.3739,821.7349],[35.3608,-15.3796,836.1108],[35.3611,-15.3837,831.7311],[35.3773,-15.3867,811.8864],[35.3791,-15.3786,789.4568],[35.3883,-15.3758,769.7286],[35.4004,-15.3662,762.3574],[35.3983,-15.3645,768.9199],[35.393,-15.3641,786.5058]]]]}
,"properties": {"GID_3": "MWI.28.5.21_1","GID_0": "MWI","country": "Malawi","GID_1": "MWI.28_1","province": "Zomba","NL_NAME_1": "NA","GID_2": "MWI.28.5_1","county": "TAKuntumanji","NL_NAME_2": "NA","city": "n.a.(2145)","VARNAME_3": "NA","NL_NAME_3": "NA","TYPE_3": "Unknown","ENGTYPE_3": "Unknown","CC_3": "NA","HASC_3": "NA","name": "n.a.(2145).city","area_km2": 3.025591,"hist_schema_id": "Elevation0-9000","hist_area_km2": {"750": 0.061332,"775": 0.695091,"800": 1.51278,"825": 0.756388}}}