{"type":"Feature","properties":{"GID_3":"MWI.15.6.4_1","GID_0":"MWI","country":"Malawi","GID_1":"MWI.15_1","province":"Mulanje","NL_NAME_1":"NA","GID_2":"MWI.15.6_1","county":"TAMabuka","NL_NAME_2":"NA","city":"n.a.(2764)","VARNAME_3":"NA","NL_NAME_3":"NA","TYPE_3":"Unknown","ENGTYPE_3":"Unknown","CC_3":"NA","HASC_3":"NA","name":"n.a.(2764).city"},
"geometry":{"type": "MultiPolygon","coordinates": [[[[35.6621,-16.0044,706.5149],[35.6549,-16.0065,706.4147],[35.6532,-16.0022,732.6987],[35.6501,-16.0,742.4612],[35.6437,-15.9978,805.2797],[35.6409,-15.9986,794.8141],[35.6361,-16.0052,767.3035],[35.6371,-16.0078,781.3948],[35.6427,-16.009,742.5343],[35.6431,-16.0126,712.3045],[35.6351,-16.013,738.5297],[35.6371,-16.0145,727.312],[35.6372,-16.0201,807.4849],[35.6335,-16.0225,911.1232],[35.6306,-16.0215,926.9546],[35.6296,-16.0267,1001.2697],[35.6322,-16.0258,943.3416],[35.64,-16.0328,808.8414],[35.6411,-16.0361,852.3527],[35.6454,-16.0364,770.29],[35.6485,-16.041,710.1588],[35.6539,-16.0396,683.3212],[35.6605,-16.0406,638.6971],[35.6626,-16.036,641.7233],[35.6719,-16.0281,644.9829],[35.669,-16.0246,648.4189],[35.6645,-16.0252,659.1625],[35.6666,-16.0153,673.7015],[35.6608,-16.0142,686.9831],[35.6621,-16.0044,706.5149]]]]}}