{"type":"Feature","properties":{"GID_3":"MWI.11.10.9_1","GID_0":"MWI","country":"Malawi","GID_1":"MWI.11_1","province":"Lilongwe","NL_NAME_1":"NA","GID_2":"MWI.11.10_1","county":"TAKabudula","NL_NAME_2":"NA","city":"n.a.(833)","VARNAME_3":"NA","NL_NAME_3":"NA","TYPE_3":"Unknown","ENGTYPE_3":"Unknown","CC_3":"NA","HASC_3":"NA","name":"n.a.(833).city"},
"geometry":{"type": "MultiPolygon","coordinates": [[[[33.4556,-13.68,1089.2935],[33.4422,-13.6881,1110.9697],[33.4389,-13.6933,1105.3185],[33.4395,-13.7087,1111.5286],[33.4495,-13.717,1135.4824],[33.4506,-13.7224,1133.7648],[33.4542,-13.7257,1147.4839],[33.4679,-13.7222,1129.7031],[33.4783,-13.7243,1125.1482],[33.4859,-13.7228,1113.5732],[33.4892,-13.7135,1127.9609],[33.5026,-13.6988,1115.0531],[33.4978,-13.6897,1116.8513],[33.4925,-13.6842,1125.0444],[33.4875,-13.6825,1126.8589],[33.479,-13.6843,1119.2755],[33.4709,-13.6893,1110.2677],[33.4664,-13.6896,1104.1812],[33.4556,-13.68,1089.2935]]]]}}