{"type":"Feature","properties":{"GID_2":"MWI.2.8_1","GID_0":"MWI","country":"Malawi","GID_1":"MWI.2_1","province":"Blantyre","NL_NAME_1":"NA","county":"TAMakata","VARNAME_2":"NA","NL_NAME_2":"NA","TYPE_2":"TraditionalAuthority","ENGTYPE_2":"TraditionalAuthority","CC_2":"NA","HASC_2":"NA","name":"T_A_Makata.county"},
"geometry":{"type": "MultiPolygon","coordinates": [[[[35.0751,-15.6312,777.2491],[35.075,-15.6329,781.5759],[35.0826,-15.6378,811.5242],[35.0821,-15.6423,818.2008],[35.0847,-15.647,836.5511],[35.0828,-15.6541,885.9066],[35.0836,-15.66,897.0079],[35.0982,-15.6692,1036.9442],[35.0996,-15.6685,1036.9442],[35.1061,-15.657,1008.3602],[35.1087,-15.6559,1011.1856],[35.1157,-15.6427,940.2891],[35.1034,-15.6307,874.9148],[35.0962,-15.6207,813.8768],[35.1058,-15.5823,773.4586],[35.1218,-15.5554,789.8604],[35.1158,-15.5547,758.5775],[35.1155,-15.5534,760.0771],[35.1214,-15.5459,773.22],[35.12,-15.5375,778.0739],[35.1287,-15.533,783.2814],[35.1265,-15.5313,785.3636],[35.1259,-15.5276,787.5676],[35.0995,-15.5156,1133.4392],[35.0771,-15.5641,795.3817],[35.0686,-15.5631,704.5309],[35.0427,-15.5492,648.1671],[35.0351,-15.5491,610.9241],[35.0381,-15.5544,619.3986],[35.0419,-15.5537,633.4711],[35.0498,-15.5621,644.0735],[35.053,-15.5605,647.2928],[35.055,-15.5618,644.5444],[35.0554,-15.5645,650.1622],[35.0583,-15.5633,649.269],[35.0661,-15.5734,662.5048],[35.0658,-15.5767,669.245],[35.0683,-15.5771,665.0905],[35.0664,-15.5832,677.8657],[35.0685,-15.5889,675.0819],[35.0655,-15.5941,682.7946],[35.0654,-15.6019,698.8364],[35.0681,-15.6064,708.7376],[35.0667,-15.614,734.8457],[35.0712,-15.6208,760.5501],[35.071,-15.6281,781.2862],[35.0751,-15.6312,777.2491]]]]}}