{"type":"Feature","properties":{"GID_3":"MWI.11.11.4_1","GID_0":"MWI","country":"Malawi","GID_1":"MWI.11_1","province":"Lilongwe","NL_NAME_1":"NA","GID_2":"MWI.11.11_1","county":"TAKalolo","NL_NAME_2":"NA","city":"n.a.(1034)","VARNAME_3":"NA","NL_NAME_3":"NA","TYPE_3":"Unknown","ENGTYPE_3":"Unknown","CC_3":"NA","HASC_3":"NA","name":"n.a.(1034).city"},
"geometry":{"type": "MultiPolygon","coordinates": [[[[33.2992,-13.9064,1076.9523],[33.3016,-13.9086,1070.0077],[33.3022,-13.9192,1078.1562],[33.3212,-13.9146,1102.2112],[33.3355,-13.9147,1122.4402],[33.345,-13.9127,1128.3108],[33.348,-13.9097,1129.6548],[33.3507,-13.902,1129.501],[33.358,-13.8983,1138.7183],[33.3609,-13.8942,1132.6532],[33.3622,-13.8867,1136.625],[33.3608,-13.8765,1146.9319],[33.3458,-13.8778,1132.3855],[33.3383,-13.8763,1134.5891],[33.3376,-13.8794,1134.7581],[33.3245,-13.89,1121.7504],[33.3177,-13.8988,1117.2726],[33.2992,-13.9064,1076.9523]]]]}}