{"type": "Feature","bbox": [34.751,-15.49,34.8578,-15.4208],"geometry": {"type": "MultiPolygon","coordinates": [[[[34.8262,-15.4208,423.9109],[34.8285,-15.4292,439.4743],[34.8258,-15.4338,452.0794],[34.8115,-15.4305,421.1663],[34.8044,-15.4305,412.0627],[34.7918,-15.4344,387.3691],[34.7873,-15.4413,378.0697],[34.7792,-15.4369,371.5464],[34.7745,-15.436,355.1888],[34.7688,-15.4372,348.5314],[34.7687,-15.4454,347.0412],[34.7663,-15.4469,346.1872],[34.7628,-15.4453,354.6435],[34.7594,-15.4528,366.1946],[34.7649,-15.4561,352.3817],[34.7606,-15.4575,349.1628],[34.7545,-15.4687,329.7212],[34.751,-15.4718,339.2179],[34.7515,-15.4813,331.2456],[34.7571,-15.484,306.5218],[34.7577,-15.4898,316.151],[34.7613,-15.49,323.3326],[34.7646,-15.4803,335.8249],[34.7665,-15.4782,344.0033],[34.7692,-15.4783,338.5223],[34.7702,-15.4758,338.8218],[34.7686,-15.4728,350.1684],[34.7719,-15.4674,355.6728],[34.7793,-15.4653,360.5176],[34.7869,-15.4666,363.5893],[34.7973,-15.4631,380.015],[34.805,-15.4634,404.1696],[34.8172,-15.4603,429.3916],[34.8268,-15.4643,460.8938],[34.8302,-15.4629,458.6888],[34.8332,-15.4653,461.9677],[34.8399,-15.466,434.561],[34.842,-15.4606,444.798],[34.849,-15.4558,418.3352],[34.8578,-15.4556,402.7079],[34.8549,-15.4508,413.3204],[34.8558,-15.4493,413.104],[34.8486,-15.4454,432.431],[34.8524,-15.4325,432.8404],[34.8474,-15.4306,446.1735],[34.8427,-15.4308,460.9169],[34.8402,-15.4271,450.3953],[34.8335,-15.4224,433.9868],[34.8262,-15.4208,423.9109]]]]}
,"properties": {"GID_3": "MWI.18.5.9_1","GID_0": "MWI","country": "Malawi","GID_1": "MWI.18_1","province": "Neno","NL_NAME_1": "NA","GID_2": "MWI.18.5_1","county": "TASymon","NL_NAME_2": "NA","city": "n.a.(2193)","VARNAME_3": "NA","NL_NAME_3": "NA","TYPE_3": "Unknown","ENGTYPE_3": "Unknown","CC_3": "NA","HASC_3": "NA","name": "n.a.(2193).city","area_km2": 36.86645,"hist_schema_id": "Elevation0-9000","hist_area_km2": {"300": 0.20433,"325": 1.32816,"350": 6.55963,"375": 6.72338,"400": 4.92516,"425": 7.09147,"450": 7.86809,"475": 2.16623}}}