{"type": "Feature","bbox": [33.3813,-14.174,33.4713,-14.1328],"geometry": {"type": "MultiPolygon","coordinates": [[[[33.4713,-14.1372,1128.2362],[33.4664,-14.1389,1130.9346],[33.46,-14.1381,1132.9738],[33.4451,-14.1328,1155.2509],[33.4311,-14.1418,1154.6879],[33.4192,-14.1337,1166.9376],[33.3943,-14.1399,1191.1931],[33.386,-14.1478,1201.4333],[33.3868,-14.1533,1214.6643],[33.3836,-14.1695,1239.9685],[33.3813,-14.174,1250.4459],[33.3888,-14.1671,1248.7228],[33.4077,-14.1642,1214.5229],[33.4168,-14.1606,1189.106],[33.4288,-14.1615,1177.973],[33.4366,-14.1674,1167.9259],[33.44,-14.1538,1164.7039],[33.4423,-14.1532,1164.0187],[33.4475,-14.156,1161.2301],[33.4509,-14.1559,1158.5579],[33.4598,-14.1652,1162.0508],[33.4619,-14.1637,1158.1444],[33.4713,-14.1372,1128.2362]]]]}
,"properties": {"GID_3": "MWI.11.8.15_1","GID_0": "MWI","country": "Malawi","GID_1": "MWI.11_1","province": "Lilongwe","NL_NAME_1": "NA","GID_2": "MWI.11.8_1","county": "TAChiseka","NL_NAME_2": "NA","city": "n.a.(1288)","VARNAME_3": "NA","NL_NAME_3": "NA","TYPE_3": "Unknown","ENGTYPE_3": "Unknown","CC_3": "NA","HASC_3": "NA","name": "n.a.(1288).city","area_km2": 23.95114,"hist_schema_id": "Elevation0-9000","hist_area_km2": {"1125": 0.98687,"1150": 8.12088,"1175": 7.48347,"1200": 4.48181,"1225": 2.19971,"1250": 0.65784,"1275": 0.02056}}}