{"type": "Feature","bbox": [34.4283,-13.749,34.4893,-13.6974],"geometry": {"type": "MultiPolygon","coordinates": [[[[34.4412,-13.7487,510.7669],[34.4458,-13.7415,513.3384],[34.4632,-13.7289,507.4746],[34.4642,-13.7285,506.9453],[34.4636,-13.7394,507.3528],[34.4749,-13.7293,502.1879],[34.4881,-13.7256,499.6249],[34.4893,-13.7179,497.5016],[34.4844,-13.7087,498.1703],[34.4883,-13.7068,496.7466],[34.4862,-13.6974,496.1931],[34.4676,-13.704,499.2232],[34.4642,-13.7158,502.8149],[34.4576,-13.7159,504.1485],[34.4536,-13.7182,509.5779],[34.4455,-13.7284,511.5697],[34.4341,-13.7337,516.4548],[34.4333,-13.7432,513.9435],[34.4283,-13.749,513.5275],[34.4412,-13.7487,510.7669]]]]}
,"properties": {"GID_3": "MWI.26.6.7_1","GID_0": "MWI","country": "Malawi","GID_1": "MWI.26_1","province": "Salima","NL_NAME_1": "NA","GID_2": "MWI.26.6_1","county": "TAKaronga","NL_NAME_2": "NA","city": "n.a.(851)","VARNAME_3": "NA","NL_NAME_3": "NA","TYPE_3": "Unknown","ENGTYPE_3": "Unknown","CC_3": "NA","HASC_3": "NA","name": "n.a.(851).city","area_km2": 14.02651,"hist_schema_id": "Elevation0-9000","hist_area_km2": {"500": 11.71982,"525": 2.3067}}}