{"type":"Feature","properties":{"GID_3":"MWI.25.7.2_1","GID_0":"MWI","country":"Malawi","GID_1":"MWI.25_1","province":"Rumphi","NL_NAME_1":"NA","GID_2":"MWI.25.7_1","county":"SCMwalweni","NL_NAME_2":"NA","city":"n.a.(109)","VARNAME_3":"NA","NL_NAME_3":"NA","TYPE_3":"Unknown","ENGTYPE_3":"Unknown","CC_3":"NA","HASC_3":"NA","name":"n.a.(109).city"},
"geometry":{"type": "MultiPolygon","coordinates": [[[[34.092,-10.6054,1283.7227],[34.0973,-10.6134,1218.323],[34.1016,-10.6142,1287.7286],[34.1027,-10.616,1356.8469],[34.1076,-10.6159,1350.7351],[34.1113,-10.6144,1372.2371],[34.1143,-10.6004,1178.6954],[34.102,-10.5908,1223.6871],[34.0993,-10.5914,1312.7966],[34.092,-10.6054,1283.7227]]]]}}