{"type": "Feature","bbox": [33.5128,-13.2848,33.5914,-13.2233],"geometry": {"type": "MultiPolygon","coordinates": [[[[33.5864,-13.2457,1042.2012],[33.5688,-13.2549,1068.2013],[33.5673,-13.2569,1067.1069],[33.5677,-13.2616,1078.2909],[33.5664,-13.2621,1088.8066],[33.5443,-13.2549,1080.5225],[33.5354,-13.25,1074.9321],[33.5429,-13.2292,1060.2661],[33.5391,-13.2251,1059.911],[33.5219,-13.2233,1048.8776],[33.5211,-13.2261,1054.6508],[33.5155,-13.2282,1061.2943],[33.5128,-13.2326,1066.4148],[33.5163,-13.2434,1073.9771],[33.5172,-13.2568,1081.8844],[33.5289,-13.2787,1082.0532],[33.5425,-13.2774,1062.2687],[33.5454,-13.2814,1044.7292],[33.5514,-13.2801,1047.5776],[33.5543,-13.2848,1037.3269],[33.5787,-13.2813,1048.0179],[33.5829,-13.271,1055.752],[33.5905,-13.269,1035.6969],[33.5914,-13.2528,1043.8021],[33.5864,-13.2457,1042.2012]]]]}
,"properties": {"GID_3": "MWI.9.8.4_1","GID_0": "MWI","country": "Malawi","GID_1": "MWI.9_1","province": "Kasungu","NL_NAME_1": "NA","GID_2": "MWI.9.8_1","county": "SCNjombwa","NL_NAME_2": "NA","city": "n.a.(536)","VARNAME_3": "NA","NL_NAME_3": "NA","TYPE_3": "Unknown","ENGTYPE_3": "Unknown","CC_3": "NA","HASC_3": "NA","name": "n.a.(536).city","area_km2": 29.13955,"hist_schema_id": "Elevation0-9000","hist_area_km2": {"1025": 0.47466,"1050": 9.82329,"1075": 18.13995,"1100": 0.70165}}}