{"type": "Feature","bbox": [35.3893,-14.363,35.4182,-14.3442],"geometry": {"type": "MultiPolygon","coordinates": [[[[35.4137,-14.362,1017.7036],[35.4143,-14.3591,1035.2572],[35.4179,-14.357,1109.3459],[35.4182,-14.3512,1034.1174],[35.4058,-14.3442,997.3635],[35.4014,-14.3527,1009.8988],[35.3893,-14.3543,1130.4052],[35.3942,-14.363,1027.8325],[35.3975,-14.3611,1025.2983],[35.4137,-14.362,1017.7036]]]]}
,"properties": {"GID_3": "MWI.13.9.14_1","GID_0": "MWI","country": "Malawi","GID_1": "MWI.13_1","province": "Mangochi","NL_NAME_1": "NA","GID_2": "MWI.13.9_1","county": "TAJalasi","NL_NAME_2": "NA","city": "n.a.(1507)","VARNAME_3": "NA","NL_NAME_3": "NA","TYPE_3": "Unknown","ENGTYPE_3": "Unknown","CC_3": "NA","HASC_3": "NA","name": "n.a.(1507).city","area_km2": 3.63562,"hist_schema_id": "Elevation0-9000","hist_area_km2": {"975": 0.164318,"1000": 1.232425,"1025": 1.39673,"1050": 0.472423,"1075": 0.123241,"1100": 0.123241,"1125": 0.02054,"1150": 0.04108,"1175": 0.061621}}}