{"type": "Feature","bbox": [35.4813,-16.0246,35.5166,-15.9938],"geometry": {"type": "MultiPolygon","coordinates": [[[[35.4838,-16.0067,620.2936],[35.4891,-16.0086,636.1732],[35.4929,-16.0133,624.5955],[35.4915,-16.0201,613.8324],[35.4963,-16.0246,606.2267],[35.4994,-16.0214,621.1973],[35.5063,-16.0203,652.14],[35.508,-16.0183,674.3555],[35.5107,-16.0208,677.2473],[35.5166,-16.018,762.6572],[35.4941,-16.0018,649.8082],[35.4922,-15.9972,661.6305],[35.4886,-15.9972,644.5295],[35.4858,-15.9938,638.4939],[35.4832,-15.9947,634.1166],[35.4813,-15.9997,619.2],[35.4844,-16.0042,616.7444],[35.4838,-16.0067,620.2936]]]]}
,"properties": {"GID_3": "MWI.15.1.2_1","GID_0": "MWI","country": "Malawi","GID_1": "MWI.15_1","province": "Mulanje","NL_NAME_1": "NA","GID_2": "MWI.15.1_1","county": "MulanjeBoma","NL_NAME_2": "NA","city": "n.a.(2759)","VARNAME_3": "NA","NL_NAME_3": "NA","TYPE_3": "Unknown","ENGTYPE_3": "Unknown","CC_3": "NA","HASC_3": "NA","name": "n.a.(2759).city","area_km2": 4.789256,"hist_schema_id": "Elevation0-9000","hist_area_km2": {"600": 0.061137,"625": 2.180632,"650": 1.528516,"675": 0.427969,"700": 0.264933,"725": 0.203793,"750": 0.081517,"775": 0.040759}}}