{"type": "Feature","bbox": [35.1916,-16.0508,35.2547,-16.0286],"geometry": {"type": "MultiPolygon","coordinates": [[[[35.2401,-16.0349,741.8574],[35.2357,-16.0351,745.1988],[35.2328,-16.0316,755.2487],[35.2267,-16.0318,754.3046],[35.226,-16.0292,769.6815],[35.2218,-16.0325,770.6142],[35.215,-16.0302,770.9001],[35.2146,-16.0286,783.2132],[35.2101,-16.0295,781.1307],[35.2092,-16.0316,771.3837],[35.2064,-16.0314,779.7733],[35.1972,-16.0377,804.2565],[35.1916,-16.0485,836.2556],[35.1998,-16.0477,839.8091],[35.2081,-16.0495,822.6965],[35.2134,-16.048,797.3632],[35.2169,-16.0508,796.2125],[35.2223,-16.0473,791.3621],[35.2335,-16.0498,762.4113],[35.2356,-16.0434,773.5985],[35.2402,-16.0426,756.7345],[35.2435,-16.0366,752.5121],[35.2491,-16.0328,729.3903],[35.2535,-16.033,724.6086],[35.2547,-16.0309,735.7659],[35.2493,-16.0301,738.8781],[35.2465,-16.0324,737.1105],[35.2443,-16.0309,742.8207],[35.2401,-16.0349,741.8574]]]]}
,"properties": {"GID_3": "MWI.27.10.4_1","GID_0": "MWI","country": "Malawi","GID_1": "MWI.27_1","province": "Thyolo","NL_NAME_1": "NA","GID_2": "MWI.27.10_1","county": "TANchilamwela","NL_NAME_2": "NA","city": "n.a.(2804)","VARNAME_3": "NA","NL_NAME_3": "NA","TYPE_3": "Unknown","ENGTYPE_3": "Unknown","CC_3": "NA","HASC_3": "NA","name": "n.a.(2804).city","area_km2": 9.006548,"hist_schema_id": "Elevation0-9000","hist_area_km2": {"725": 0.366796,"750": 1.732057,"775": 3.321432,"800": 2.322935,"825": 1.181823,"850": 0.081504}}}