{"type":"Feature","properties":{"GID_3":"MWI.15.7.10_1","GID_0":"MWI","country":"Malawi","GID_1":"MWI.15_1","province":"Mulanje","NL_NAME_1":"NA","GID_2":"MWI.15.7_1","county":"TANkanda","NL_NAME_2":"NA","city":"n.a.(2600)","VARNAME_3":"NA","NL_NAME_3":"NA","TYPE_3":"Unknown","ENGTYPE_3":"Unknown","CC_3":"NA","HASC_3":"NA","name":"n.a.(2600).city"},
"geometry":{"type": "MultiPolygon","coordinates": [[[[35.4259,-15.8451,696.2759],[35.4254,-15.8536,707.0531],[35.4233,-15.8567,709.1917],[35.4235,-15.8641,712.2227],[35.4252,-15.8666,712.9929],[35.4299,-15.8688,713.5287],[35.4287,-15.881,712.2484],[35.4379,-15.8803,715.9446],[35.4374,-15.8753,714.0917],[35.4508,-15.8749,711.3502],[35.4536,-15.8627,704.2322],[35.4606,-15.8634,702.0306],[35.4655,-15.867,702.813],[35.4735,-15.8598,700.8442],[35.4639,-15.8495,697.2466],[35.4633,-15.8449,696.3833],[35.4602,-15.8429,696.1855],[35.4599,-15.8401,695.9822],[35.4558,-15.8384,696.1107],[35.453,-15.8391,695.2112],[35.4491,-15.8355,695.4401],[35.4352,-15.838,697.2718],[35.431,-15.8435,696.2189],[35.4259,-15.8451,696.2759]]]]}}