{"type": "Feature","bbox": [35.1644,-14.9606,35.2319,-14.9234],"geometry": {"type": "MultiPolygon","coordinates": [[[[35.1644,-14.9234,552.4413],[35.1747,-14.9506,544.3494],[35.1897,-14.9456,515.5225],[35.187,-14.9587,516.9368],[35.2005,-14.9583,503.9836],[35.2079,-14.9605,501.1122],[35.2179,-14.9606,497.3206],[35.2258,-14.9575,491.9298],[35.2319,-14.9517,490.8789],[35.2261,-14.9419,496.6865],[35.2186,-14.9404,499.9587],[35.2088,-14.9411,505.7888],[35.1995,-14.9354,510.999],[35.1876,-14.9311,520.8009],[35.1828,-14.9329,523.3022],[35.1793,-14.9245,523.9819],[35.1644,-14.9234,552.4413]]]]}
,"properties": {"GID_3": "MWI.1.2.29_1","GID_0": "MWI","country": "Malawi","GID_1": "MWI.1_1","province": "Balaka","NL_NAME_1": "NA","GID_2": "MWI.1.2_1","county": "TAKalembo","NL_NAME_2": "NA","city": "n.a.(1919)","VARNAME_3": "NA","NL_NAME_3": "NA","TYPE_3": "Unknown","ENGTYPE_3": "Unknown","CC_3": "NA","HASC_3": "NA","name": "n.a.(1919).city","area_km2": 14.95409,"hist_schema_id": "Elevation0-9000","hist_area_km2": {"500": 8.21431,"525": 6.18667,"550": 0.55312}}}