{"type": "Feature","bbox": [35.0901,-15.9125,35.1215,-15.8769],"geometry": {"type": "MultiPolygon","coordinates": [[[[35.0927,-15.8868,1047.704],[35.0901,-15.8894,1058.6821],[35.0917,-15.8986,1060.9968],[35.0996,-15.8978,1083.9729],[35.0985,-15.9125,1143.9519],[35.1068,-15.9085,1074.9978],[35.1118,-15.9101,1037.7456],[35.1139,-15.906,1054.1621],[35.107,-15.9041,1080.8833],[35.1107,-15.8986,1076.0239],[35.1161,-15.8982,1046.8082],[35.1198,-15.8942,1065.0557],[35.119,-15.889,1067.333],[35.1215,-15.8861,1048.5463],[35.1191,-15.8876,1070.4542],[35.1125,-15.8867,1063.235],[35.1079,-15.8879,1015.9785],[35.106,-15.8866,1028.144],[35.1073,-15.8769,1012.0856],[35.0953,-15.8817,1030.1115],[35.0927,-15.8868,1047.704]]]]}
,"properties": {"GID_3": "MWI.27.6.6_1","GID_0": "MWI","country": "Malawi","GID_1": "MWI.27_1","province": "Thyolo","NL_NAME_1": "NA","GID_2": "MWI.27.6_1","county": "TABvumbwe","NL_NAME_2": "NA","city": "n.a.(2641)","VARNAME_3": "NA","NL_NAME_3": "NA","TYPE_3": "Unknown","ENGTYPE_3": "Unknown","CC_3": "NA","HASC_3": "NA","name": "n.a.(2641).city","area_km2": 6.321407,"hist_schema_id": "Elevation0-9000","hist_area_km2": {"1000": 0.20393,"1025": 1.182759,"1050": 1.937221,"1075": 2.079922,"1100": 0.53016,"1125": 0.265073,"1150": 0.12234}}}