{"type":"Feature","properties":{"GID_3":"MWI.7.4.12_1","GID_0":"MWI","country":"Malawi","GID_1":"MWI.7_1","province":"Dowa","NL_NAME_1":"NA","GID_2":"MWI.7.4_1","county":"SCKayembe","NL_NAME_2":"NA","city":"n.a.(781)","VARNAME_3":"NA","NL_NAME_3":"NA","TYPE_3":"Unknown","ENGTYPE_3":"Unknown","CC_3":"NA","HASC_3":"NA","name":"n.a.(781).city"},
"geometry":{"type": "MultiPolygon","coordinates": [[[[33.4866,-13.6356,1121.1948],[33.4877,-13.642,1132.3552],[33.4816,-13.6472,1135.9036],[33.4789,-13.6519,1111.3032],[33.4861,-13.6532,1111.6848],[33.4917,-13.6591,1115.4087],[33.4958,-13.6606,1118.7061],[33.5006,-13.6605,1124.439],[33.5058,-13.6575,1130.3174],[33.5082,-13.663,1124.986],[33.5135,-13.6673,1140.4758],[33.5149,-13.6751,1143.4027],[33.5208,-13.6795,1156.0316],[33.529,-13.6824,1162.4016],[33.5356,-13.6694,1146.5525],[33.526,-13.6608,1143.2928],[33.5201,-13.6586,1130.6573],[33.5144,-13.6512,1133.1169],[33.5078,-13.6469,1141.4918],[33.5055,-13.6435,1134.9481],[33.4993,-13.6422,1132.7671],[33.4982,-13.637,1122.7312],[33.5018,-13.6334,1118.252],[33.4967,-13.6289,1110.4597],[33.4896,-13.6316,1115.4265],[33.4866,-13.6356,1121.1948]]]]}}