{"type": "Feature","bbox": [35.6068,-14.8898,35.683,-14.8389],"geometry": {"type": "MultiPolygon","coordinates": [[[[35.675,-14.872,670.632],[35.6696,-14.872,671.0144],[35.6662,-14.8703,672.7042],[35.6637,-14.8632,674.366],[35.6579,-14.8572,678.0485],[35.6452,-14.858,679.2432],[35.6389,-14.8563,677.4503],[35.6256,-14.8559,676.0815],[35.6191,-14.8576,678.9591],[35.6171,-14.8513,678.8438],[35.6201,-14.8389,683.5333],[35.6091,-14.8406,682.3619],[35.6105,-14.8472,676.1602],[35.6069,-14.8527,677.355],[35.6068,-14.8604,679.1135],[35.6145,-14.876,676.5443],[35.6143,-14.8848,675.2076],[35.6163,-14.8898,670.7869],[35.6348,-14.8825,662.9268],[35.6439,-14.8737,670.1594],[35.6523,-14.8754,664.1281],[35.6562,-14.8806,660.9664],[35.6598,-14.8819,661.2056],[35.6721,-14.8827,660.8815],[35.6812,-14.8791,665.4241],[35.683,-14.8796,662.6984],[35.675,-14.872,670.632]]]]}
,"properties": {"GID_3": "MWI.12.12.13_1","GID_0": "MWI","country": "Malawi","GID_1": "MWI.12_1","province": "Machinga","NL_NAME_1": "NA","GID_2": "MWI.12.12_1","county": "TAKawinga","NL_NAME_2": "NA","city": "n.a.(1858)","VARNAME_3": "NA","NL_NAME_3": "NA","TYPE_3": "Unknown","ENGTYPE_3": "Unknown","CC_3": "NA","HASC_3": "NA","name": "n.a.(1858).city","area_km2": 19.2833,"hist_schema_id": "Elevation0-9000","hist_area_km2": {"650": 0.45081,"675": 18.812,"700": 0.0205}}}