{"type": "Feature","bbox": [35.1077,-16.0889,35.137,-16.0646],"geometry": {"type": "MultiPolygon","coordinates": [[[[35.1131,-16.0843,883.8644],[35.1167,-16.0889,894.215],[35.1261,-16.0876,883.8389],[35.1292,-16.0768,914.5823],[35.137,-16.0764,889.5873],[35.1367,-16.0674,964.4509],[35.1296,-16.0646,961.6854],[35.1196,-16.0717,918.0156],[35.1077,-16.0746,922.6196],[35.1131,-16.0843,883.8644]]]]}
,"properties": {"GID_3": "MWI.27.10.10_1","GID_0": "MWI","country": "Malawi","GID_1": "MWI.27_1","province": "Thyolo","NL_NAME_1": "NA","GID_2": "MWI.27.10_1","county": "TANchilamwela","NL_NAME_2": "NA","city": "n.a.(2859)","VARNAME_3": "NA","NL_NAME_3": "NA","TYPE_3": "Unknown","ENGTYPE_3": "Unknown","CC_3": "NA","HASC_3": "NA","name": "n.a.(2859).city","area_km2": 4.522811,"hist_schema_id": "Elevation0-9000","hist_area_km2": {"875": 0.142605,"900": 1.181606,"925": 1.93544,"950": 1.039045,"975": 0.224114}}}