{"type": "Feature","bbox": [33.8768,-14.425,33.9271,-14.3814],"geometry": {"type": "MultiPolygon","coordinates": [[[[33.9148,-14.3846,1203.7915],[33.9067,-14.3814,1209.267],[33.9013,-14.3818,1209.7848],[33.8971,-14.3841,1212.2604],[33.8916,-14.3914,1214.0753],[33.8768,-14.3958,1218.3126],[33.8793,-14.4003,1204.8528],[33.8779,-14.4048,1219.6174],[33.8822,-14.409,1228.302],[33.8906,-14.425,1227.5367],[33.8994,-14.4237,1203.3895],[33.9005,-14.4141,1200.0239],[33.9079,-14.4129,1221.2816],[33.9157,-14.4089,1228.2649],[33.9198,-14.3998,1219.046],[33.9271,-14.3956,1206.5428],[33.9233,-14.3845,1213.0881],[33.9182,-14.3862,1206.7502],[33.9148,-14.3846,1203.7915]]]]}
,"properties": {"GID_3": "MWI.6.9.21_1","GID_0": "MWI","country": "Malawi","GID_1": "MWI.6_1","province": "Dedza","NL_NAME_1": "NA","GID_2": "MWI.6.9_1","county": "TAPemba","NL_NAME_2": "NA","city": "n.a.(1555)","VARNAME_3": "NA","NL_NAME_3": "NA","TYPE_3": "Unknown","ENGTYPE_3": "Unknown","CC_3": "NA","HASC_3": "NA","name": "n.a.(1555).city","area_km2": 14.62165,"hist_schema_id": "Elevation0-9000","hist_area_km2": {"1200": 8.44047,"1225": 6.14011,"1250": 0.04107}}}