{"type": "Feature","bbox": [34.8442,-14.172,34.935,-14.0898],"geometry": {"type": "MultiPolygon","coordinates": [[[[34.9288,-14.1008,474.5],[34.9145,-14.1079,500.9286],[34.91,-14.1027,487.6373],[34.9016,-14.0994,509.4471],[34.9016,-14.093,497.233],[34.8909,-14.0898,588.4216],[34.8911,-14.0916,532.3892],[34.8955,-14.0938,509.9372],[34.8938,-14.0972,603.8062],[34.892,-14.0978,519.5184],[34.8891,-14.0954,568.0825],[34.8835,-14.0942,627.8624],[34.8775,-14.097,547.2242],[34.8796,-14.1013,587.1176],[34.8874,-14.1078,525.103],[34.8808,-14.1187,532.517],[34.8791,-14.1168,543.0058],[34.8702,-14.1182,495.0612],[34.8703,-14.1088,553.4967],[34.8659,-14.1066,529.5568],[34.8632,-14.1027,521.7097],[34.8626,-14.0984,624.8596],[34.8554,-14.0988,474.5],[34.8637,-14.1069,476.1259],[34.8617,-14.1124,474.5],[34.8685,-14.1272,480.3366],[34.8583,-14.1309,479.6397],[34.8552,-14.1249,477.6126],[34.8534,-14.1254,477.9553],[34.8477,-14.1297,479.3866],[34.8442,-14.1346,486.5785],[34.8503,-14.1367,482.3538],[34.8518,-14.139099999999999,483.2922],[34.8493,-14.1474,486.1223],[34.8535,-14.1512,489.1552],[34.8508,-14.1562,490.4648],[34.8519,-14.1575,491.4608],[34.8539,-14.1568,491.9415],[34.8535,-14.1606,492.8185],[34.858,-14.1655,497.3066],[34.865,-14.1643,509.6017],[34.8678,-14.1669,501.3722],[34.8734,-14.1683,500.6992],[34.8765,-14.172,502.7312],[34.8844,-14.1689,521.7782],[34.8889,-14.1635,515.7078],[34.8946,-14.1632,509.1179],[34.8989,-14.1579,503.4683],[34.9153,-14.1479,489.4744],[34.9209,-14.1468,487.6567],[34.9241,-14.1426,499.5849],[34.935,-14.1409,477.4979],[34.9327,-14.1379,484.9862],[34.9309,-14.1272,484.4773],[34.9335,-14.1177,474.5],[34.9286,-14.1182,474.5],[34.9234,-14.1156,484.0031],[34.9235,-14.1114,483.9821],[34.9288,-14.1008,474.5]]]]}
,"properties": {"GID_3": "MWI.13.13.2_1","GID_0": "MWI","country": "Malawi","GID_1": "MWI.13_1","province": "Mangochi","NL_NAME_1": "NA","GID_2": "MWI.13.13_1","county": "TANankumba","NL_NAME_2": "NA","city": "n.a.(1242)","VARNAME_3": "NA","NL_NAME_3": "NA","TYPE_3": "Unknown","ENGTYPE_3": "Unknown","CC_3": "NA","HASC_3": "NA","name": "n.a.(1242).city","area_km2": 48.85165,"hist_schema_id": "Elevation0-9000","hist_area_km2": {"475": 15.48228,"500": 26.9748,"525": 3.4542,"550": 0.98698,"575": 0.74022,"600": 0.39068,"625": 0.4318,"650": 0.26731,"675": 0.10281,"700": 0.02056}}}