{"type": "Feature","bbox": [34.2512,-13.5019,34.3422,-13.4428],"geometry": {"type": "MultiPolygon","coordinates": [[[[34.3282,-13.4428,480.0021],[34.3156,-13.4502,485.4814],[34.308,-13.4526,489.4783],[34.2999,-13.4534,493.9359],[34.2892,-13.4517,500.1659],[34.2855,-13.4528,503.6778],[34.2795,-13.4599,514.2262],[34.275,-13.4596,521.7627],[34.2726,-13.4615,527.7689],[34.2716,-13.4651,532.4755],[34.2757,-13.4703,510.94],[34.2741,-13.4722,511.6563],[34.2645,-13.4744,525.6373],[34.2617,-13.4794,523.1613],[34.2519,-13.4828,538.9095],[34.2512,-13.4867,535.3952],[34.2641,-13.4948,539.0032],[34.2681,-13.5007,531.1259],[34.2762,-13.5019,520.5229],[34.2799,-13.501,518.3055],[34.2817,-13.497,513.9697],[34.2845,-13.4974,514.4408],[34.2883,-13.4942,510.5556],[34.2922,-13.4885,506.6108],[34.2953,-13.4939,512.2354],[34.2965,-13.5001,515.3947],[34.3001,-13.5001,515.6304],[34.3123,-13.4848,498.6707],[34.3251,-13.4774,491.0914],[34.3312,-13.4755,487.3825],[34.3371,-13.4766,486.8865],[34.3422,-13.4727,482.8348],[34.3282,-13.4428,480.0021]]]]}
,"properties": {"GID_3": "MWI.26.7.2_1","GID_0": "MWI","country": "Malawi","GID_1": "MWI.26_1","province": "Salima","NL_NAME_1": "NA","GID_2": "MWI.26.7_1","county": "TAKhombedza","NL_NAME_2": "NA","city": "n.a.(647)","VARNAME_3": "NA","NL_NAME_3": "NA","TYPE_3": "Unknown","ENGTYPE_3": "Unknown","CC_3": "NA","HASC_3": "NA","name": "n.a.(647).city","area_km2": 33.11358,"hist_schema_id": "Elevation0-9000","hist_area_km2": {"475": 5.97975,"500": 18.08267,"525": 8.18523,"550": 0.86593}}}