{"type":"Feature","properties":{"GID_3":"MWI.3.8.6_1","GID_0":"MWI","country":"Malawi","GID_1":"MWI.3_1","province":"Chikwawa","NL_NAME_1":"NA","GID_2":"MWI.3.8_1","county":"TALundu","NL_NAME_2":"NA","city":"n.a.(2966)","VARNAME_3":"NA","NL_NAME_3":"NA","TYPE_3":"Unknown","ENGTYPE_3":"Unknown","CC_3":"NA","HASC_3":"NA","name":"n.a.(2966).city"},
"geometry":{"type": "MultiPolygon","coordinates": [[[[34.8277,-16.2451,81.4767],[34.8348,-16.2444,79.3799],[34.8423,-16.2467,76.7915],[34.851,-16.2456,75.3394],[34.8531,-16.247,75.4417],[34.8548,-16.2518,73.6796],[34.8596,-16.2465,73.9382],[34.852,-16.2349,76.3139],[34.8505,-16.229,77.32],[34.8491,-16.1949,79.0665],[34.8329,-16.195,83.4814],[34.836,-16.1978,83.1471],[34.8338,-16.2022,81.4187],[34.8097,-16.2203,87.1477],[34.81,-16.2256,90.0591],[34.8186,-16.2424,82.5653],[34.8277,-16.2451,81.4767]]]]}}