{"type": "Feature","bbox": [33.9861,-10.8715,34.0001,-10.8547],"geometry": {"type": "MultiPolygon","coordinates": [[[[33.9871,-10.8662,1075.0425],[33.9938,-10.8714,1045.5222],[33.9996,-10.8715,1043.252],[34.0001,-10.8616,1066.3662],[33.9977,-10.8547,1082.9301],[33.9924,-10.8613,1062.0676],[33.9898,-10.8607,1069.01],[33.9861,-10.8631,1082.5791],[33.9871,-10.8662,1075.0425]]]]}
,"properties": {"GID_3": "MWI.25.6.4_1","GID_0": "MWI","country": "Malawi","GID_1": "MWI.25_1","province": "Rumphi","NL_NAME_1": "NA","GID_2": "MWI.25.6_1","county": "SCMwahenga","NL_NAME_2": "NA","city": "n.a.(127)","VARNAME_3": "NA","NL_NAME_3": "NA","TYPE_3": "Unknown","ENGTYPE_3": "Unknown","CC_3": "NA","HASC_3": "NA","name": "n.a.(127).city","area_km2": 1.582486,"hist_schema_id": "Elevation0-9000","hist_area_km2": {"1050": 0.853705,"1075": 0.728781}}}