{"type": "Feature","bbox": [34.005,-14.4437,34.0512,-14.4114],"geometry": {"type": "MultiPolygon","coordinates": [[[[34.0062,-14.4141,1296.5673],[34.005,-14.4267,1287.9332],[34.0144,-14.4356,1289.3938],[34.0173,-14.4403,1289.6381],[34.0327,-14.4342,1301.0521],[34.0387,-14.4437,1316.6963],[34.0487,-14.4402,1305.64],[34.0512,-14.4284,1281.7878],[34.0475,-14.4124,1263.4604],[34.0352,-14.4114,1265.5356],[34.0299,-14.4182,1273.1604],[34.0152,-14.415,1295.658],[34.0088,-14.4156,1300.0892],[34.0062,-14.4141,1296.5673]]]]}
,"properties": {"GID_3": "MWI.6.9.31_1","GID_0": "MWI","country": "Malawi","GID_1": "MWI.6_1","province": "Dedza","NL_NAME_1": "NA","GID_2": "MWI.6.9_1","county": "TAPemba","NL_NAME_2": "NA","city": "n.a.(1579)","VARNAME_3": "NA","NL_NAME_3": "NA","TYPE_3": "Unknown","ENGTYPE_3": "Unknown","CC_3": "NA","HASC_3": "NA","name": "n.a.(1579).city","area_km2": 12.073806,"hist_schema_id": "Elevation0-9000","hist_area_km2": {"1275": 6.036994,"1300": 5.482436,"1325": 0.554375}}}