{"type":"Feature","properties":{"GID_3":"MWI.27.1.2_1","GID_0":"MWI","country":"Malawi","GID_1":"MWI.27_1","province":"Thyolo","NL_NAME_1":"NA","GID_2":"MWI.27.1_1","county":"LuchenzaTown","NL_NAME_2":"NA","city":"n.a.(2752)","VARNAME_3":"NA","NL_NAME_3":"NA","TYPE_3":"Unknown","ENGTYPE_3":"Unknown","CC_3":"NA","HASC_3":"NA","name":"n.a.(2752).city"},
"geometry":{"type": "MultiPolygon","coordinates": [[[[35.2901,-15.9925,684.0377],[35.2881,-15.9914,688.9668],[35.2853,-15.9962,689.5338],[35.2909,-16.0172,683.3278],[35.2934,-16.0166,684.1765],[35.2959,-16.0191,679.8369],[35.2994,-16.0198,670.3528],[35.301,-16.0189,672.7649],[35.3078,-16.0234,652.8621],[35.3134,-16.0221,658.7876],[35.3194,-16.0243,650.3923],[35.3201,-16.0207,650.9929],[35.3182,-16.0134,663.8093],[35.308,-16.0135,679.4189],[35.3056,-16.0151,683.4548],[35.304,-16.0142,686.9691],[35.3015,-16.0085,699.0327],[35.2998,-16.0079,694.9971],[35.3002,-16.0052,681.9438],[35.3033,-16.0033,673.4171],[35.3034,-16.0015,668.728],[35.2992,-16.0035,672.6094],[35.2964,-16.003,673.5255],[35.2947,-15.9998,682.7042],[35.2968,-15.9969,687.1061],[35.2904,-15.9953,683.5411],[35.2901,-15.9925,684.0377]]]]}}