{"type": "Feature","bbox": [33.3668,-13.4846,33.4281,-13.4263],"geometry": {"type": "MultiPolygon","coordinates": [[[[33.4278,-13.4534,1041.1351],[33.4229,-13.4526,1047.0823],[33.3986,-13.4423,1074.8008],[33.3873,-13.4396,1086.8949],[33.3835,-13.4263,1092.3593],[33.3769,-13.4284,1083.1832],[33.3668,-13.4358,1101.7069],[33.3684,-13.4465,1125.0056],[33.3767,-13.4622,1080.2347],[33.3843,-13.4682,1063.2742],[33.3845,-13.4553,1073.3513],[33.3943,-13.4556,1065.1616],[33.3945,-13.4686,1064.9048],[33.3897,-13.4692,1059.3588],[33.3994,-13.4748,1062.0063],[33.4029,-13.4811,1046.363],[33.4082,-13.4846,1041.1919],[33.4077,-13.4786,1041.1414],[33.4095,-13.4699,1041.766],[33.4149,-13.4699,1041.2935],[33.4231,-13.4651,1042.3623],[33.4281,-13.4567,1042.2721],[33.4278,-13.4534,1041.1351]]]]}
,"properties": {"GID_3": "MWI.9.15.13_1","GID_0": "MWI","country": "Malawi","GID_1": "MWI.9_1","province": "Kasungu","NL_NAME_1": "NA","GID_2": "MWI.9.15_1","county": "TASanthe","NL_NAME_2": "NA","city": "n.a.(638)","VARNAME_3": "NA","NL_NAME_3": "NA","TYPE_3": "Unknown","ENGTYPE_3": "Unknown","CC_3": "NA","HASC_3": "NA","name": "n.a.(638).city","area_km2": 17.54795,"hist_schema_id": "Elevation0-9000","hist_area_km2": {"1050": 7.01066,"1075": 6.9904,"1100": 3.42316,"1125": 0.12373}}}