{"type":"Feature","properties":{"GID_3":"MWI.9.16.16_1","GID_0":"MWI","country":"Malawi","GID_1":"MWI.9_1","province":"Kasungu","NL_NAME_1":"NA","GID_2":"MWI.9.16_1","county":"TAWimbe","NL_NAME_2":"NA","city":"n.a.(451)","VARNAME_3":"NA","NL_NAME_3":"NA","TYPE_3":"Unknown","ENGTYPE_3":"Unknown","CC_3":"NA","HASC_3":"NA","name":"n.a.(451).city"},
"geometry":{"type": "MultiPolygon","coordinates": [[[[33.5282,-12.9776,1004.2065],[33.5373,-12.9834,1017.1697],[33.5385,-12.9865,1015.4853],[33.541,-12.987,1016.0548],[33.5509,-12.9971,1032.6718],[33.5595,-12.9997,1042.5642],[33.5632,-13.0056,1046.5316],[33.5722,-13.0059,1061.4781],[33.5778,-13.0104,1077.3243],[33.5846,-13.0064,1092.6758],[33.5867,-13.0134,1112.2429],[33.599,-13.0168,1136.1055],[33.6,-13.0187,1151.0607],[33.609,-13.0043,1154.0734],[33.6112,-12.9962,1133.4023],[33.6104,-12.9928,1125.0437],[33.6139,-12.9827,1107.318],[33.618,-12.9765,1092.817],[33.6171,-12.9738,1099.0682],[33.6148,-12.9748,1102.6914],[33.609,-12.97,1116.7489],[33.605,-12.9757,1119.5437],[33.6027,-12.9828,1105.6742],[33.5951,-12.9843,1090.0144],[33.5872,-12.9897,1081.0002],[33.5771,-12.9908,1066.1378],[33.5768,-12.9861,1079.854],[33.5821,-12.9764,1099.4939],[33.5844,-12.9654,1073.5],[33.5838,-12.9622,1086.0905],[33.5811,-12.9631,1068.6609],[33.5753,-12.9605,1056.165],[33.5737,-12.9634,1062.2443],[33.5645,-12.9687,1104.7717],[33.5695,-12.9624,1076.3563],[33.5719,-12.9562,1067.5369],[33.5727,-12.9454,1048.1348],[33.5709,-12.9439,1050.6667],[33.5592,-12.949,1057.7972],[33.5483,-12.9619,1042.6498],[33.5283,-12.9568,1002.6711],[33.521,-12.9508,1012.6306],[33.5211,-12.9524,1007.1679],[33.5164,-12.9548,1011.3586],[33.5158,-12.9574,1005.797],[33.5282,-12.9776,1004.2065]]]]}}