{"type": "Feature","bbox": [35.2619,-14.5732,35.362,-14.5003],"geometry": {"type": "MultiPolygon","coordinates": [[[[35.3018,-14.5731,473.5],[35.3078,-14.5706,478.4641],[35.3143,-14.5732,481.8542],[35.3222,-14.5731,486.7638],[35.3195,-14.5657,486.5925],[35.3219,-14.5625,488.4866],[35.3258,-14.5618,490.1483],[35.3254,-14.5548,493.2627],[35.3427,-14.5463,505.6242],[35.3512,-14.5345,516.0445],[35.362,-14.5281,524.3542],[35.3567,-14.5249,520.1368],[35.3512,-14.5255,518.9458],[35.3413,-14.5324,508.9368],[35.3394,-14.5204,509.1699],[35.307,-14.5117,491.3589],[35.2914,-14.5003,482.7104],[35.2674,-14.5097,477.0767],[35.2626,-14.5101,476.4282],[35.2619,-14.5122,476.3727],[35.2733,-14.5198,476.1146],[35.2724,-14.5405,473.5],[35.2754,-14.5468,473.5],[35.2815,-14.5532,473.5],[35.2893,-14.5553,474.5597],[35.2947,-14.5599,473.5],[35.3012,-14.5675,473.5],[35.3018,-14.5731,473.5]]]]}
,"properties": {"GID_3": "MWI.13.5.18_1","GID_0": "MWI","country": "Malawi","GID_1": "MWI.13_1","province": "Mangochi","NL_NAME_1": "NA","GID_2": "MWI.13.5_1","county": "SCChowe","NL_NAME_2": "NA","city": "n.a.(1646)","VARNAME_3": "NA","NL_NAME_3": "NA","TYPE_3": "Unknown","ENGTYPE_3": "Unknown","CC_3": "NA","HASC_3": "NA","name": "n.a.(1646).city","area_km2": 43.16115,"hist_schema_id": "Elevation0-9000","hist_area_km2": {"475": 23.72519,"500": 18.16347,"525": 1.27249}}}