{"type": "Feature","bbox": [35.3824,-14.9528,35.4458,-14.9127],"geometry": {"type": "MultiPolygon","coordinates": [[[[35.3824,-14.9479,511.4881],[35.3961,-14.9458,514.9523],[35.4023,-14.9464,517.5486],[35.4209,-14.9528,529.9601],[35.4246,-14.9514,530.7258],[35.4144,-14.9434,524.3494],[35.4244,-14.9429,532.9576],[35.4292,-14.9394,537.3284],[35.4323,-14.942,540.6761],[35.4389,-14.9397,545.7542],[35.4458,-14.9427,552.3831],[35.4417,-14.935,549.063],[35.4165,-14.9357,525.3318],[35.4086,-14.9298,518.3953],[35.3995,-14.9286,514.0064],[35.3923,-14.9217,511.0505],[35.3893,-14.9144,508.2192],[35.3846,-14.9127,506.6409],[35.3824,-14.9479,511.4881]]]]}
,"properties": {"GID_3": "MWI.12.13.14_1","GID_0": "MWI","country": "Malawi","GID_1": "MWI.12_1","province": "Machinga","NL_NAME_1": "NA","GID_2": "MWI.12.13_1","county": "TALiwonde","NL_NAME_2": "NA","city": "n.a.(1914)","VARNAME_3": "NA","NL_NAME_3": "NA","TYPE_3": "Unknown","ENGTYPE_3": "Unknown","CC_3": "NA","HASC_3": "NA","name": "n.a.(1914).city","area_km2": 11.062338,"hist_schema_id": "Elevation0-9000","hist_area_km2": {"500": 3.933372,"525": 6.289055,"550": 0.839911}}}