{"type":"Feature","properties":{"GID_3":"MWI.14.5.11_1","GID_0":"MWI","country":"Malawi","GID_1":"MWI.14_1","province":"Mchinji","NL_NAME_1":"NA","GID_2":"MWI.14.5_1","county":"TAMkanda","NL_NAME_2":"NA","city":"n.a.(666)","VARNAME_3":"NA","NL_NAME_3":"NA","TYPE_3":"Unknown","ENGTYPE_3":"Unknown","CC_3":"NA","HASC_3":"NA","name":"n.a.(666).city"},
"geometry":{"type": "MultiPolygon","coordinates": [[[[32.8944,-13.5283,1106.5259],[32.9252,-13.5217,1095.4116],[32.9427,-13.5227,1087.7876],[32.9445,-13.5207,1087.6334],[32.9435,-13.5177,1095.0894],[32.9488,-13.5129,1090.4336],[32.9278,-13.5042,1107.8722],[32.9202,-13.5082,1112.3766],[32.9083,-13.5094,1114.0234],[32.9065,-13.5046,1113.7665],[32.9079,-13.4982,1110.0983],[32.9067,-13.495,1109.7111],[32.9108,-13.4919,1111.2723],[32.9227,-13.4901,1103.7236],[32.9207,-13.4825,1095.4415],[32.9187,-13.4803,1094.9651],[32.9032,-13.478,1093.9829],[32.8862,-13.4835,1099.2155],[32.8831,-13.4828,1103.8934],[32.8765,-13.4849,1103.7793],[32.865,-13.4972,1113.4146],[32.8844,-13.5157,1133.9348],[32.8882,-13.526,1119.4724],[32.8944,-13.5283,1106.5259]]]]}}