{"type": "Feature","bbox": [35.4368,-16.1196,35.4747,-16.0804],"geometry": {"type": "MultiPolygon","coordinates": [[[[35.4692,-16.0814,599.4211],[35.4677,-16.0804,604.6071],[35.4647,-16.0826,602.5202],[35.4616,-16.0903,578.6821],[35.4548,-16.0909,564.7091],[35.4521,-16.0934,571.4139],[35.4433,-16.0959,575.2823],[35.4421,-16.0994,567.3156],[35.4368,-16.1052,555.5992],[35.4417,-16.1092,552.2748],[35.4392,-16.1126,547.6042],[35.4485,-16.1133,546.9819],[35.4514,-16.1158,541.0126],[35.4623,-16.1196,558.4888],[35.4656,-16.114,553.7316],[35.4621,-16.1076,577.3851],[35.4626,-16.1057,584.3686],[35.4651,-16.1046,579.8348],[35.471,-16.1069,570.1553],[35.4747,-16.1047,562.1259],[35.4699,-16.0994,568.1495],[35.4737,-16.097,568.2031],[35.4743,-16.0936,576.4671],[35.4667,-16.0909,625.546],[35.4696,-16.0878,622.5609],[35.4692,-16.0814,599.4211]]]]}
,"properties": {"GID_3": "MWI.15.6.28_1","GID_0": "MWI","country": "Malawi","GID_1": "MWI.15_1","province": "Mulanje","NL_NAME_1": "NA","GID_2": "MWI.15.6_1","county": "TAMabuka","NL_NAME_2": "NA","city": "n.a.(2879)","VARNAME_3": "NA","NL_NAME_3": "NA","TYPE_3": "Unknown","ENGTYPE_3": "Unknown","CC_3": "NA","HASC_3": "NA","name": "n.a.(2879).city","area_km2": 8.555577,"hist_schema_id": "Elevation0-9000","hist_area_km2": {"550": 2.322143,"575": 4.257432,"600": 1.446356,"625": 0.448162,"650": 0.081484}}}