{"type": "Feature","bbox": [35.1409,-16.2018,35.188,-16.1557],"geometry": {"type": "MultiPolygon","coordinates": [[[[35.1459,-16.1795,687.8162],[35.1472,-16.1816,734.6664],[35.1442,-16.1913,817.324],[35.1409,-16.1946,806.3463],[35.1438,-16.2018,809.7571],[35.1537,-16.1907,764.1338],[35.165,-16.1842,732.0439],[35.1666,-16.185,734.934],[35.1698,-16.1818,723.2489],[35.1742,-16.1712,696.0361],[35.1808,-16.1691,658.8099],[35.1824,-16.1648,610.9669],[35.188,-16.161,598.8132],[35.1855,-16.159,643.7396],[35.1819,-16.1592,577.3875],[35.1797,-16.1557,618.7659],[35.1755,-16.1602,603.655],[35.1704,-16.1591,682.1757],[35.1668,-16.1599,630.2944],[35.1663,-16.1625,598.3851],[35.1619,-16.1615,627.3105],[35.1586,-16.1656,669.0002],[35.1539,-16.1658,726.7552],[35.1489,-16.1689,750.1021],[35.1459,-16.1795,687.8162]]]]}
,"properties": {"GID_3": "MWI.27.7.2_1","GID_0": "MWI","country": "Malawi","GID_1": "MWI.27_1","province": "Thyolo","NL_NAME_1": "NA","GID_2": "MWI.27.7_1","county": "TAChangata","NL_NAME_2": "NA","city": "n.a.(2949)","VARNAME_3": "NA","NL_NAME_3": "NA","TYPE_3": "Unknown","ENGTYPE_3": "Unknown","CC_3": "NA","HASC_3": "NA","name": "n.a.(2949).city","area_km2": 9.468745,"hist_schema_id": "Elevation0-9000","hist_area_km2": {"550": 0.061093,"575": 0.285102,"600": 0.386922,"625": 0.712745,"650": 0.773823,"675": 1.018179,"700": 0.977436,"725": 1.282862,"750": 1.384653,"775": 1.343893,"800": 0.814457,"825": 0.305415,"850": 0.081444,"875": 0.040721}}}