{"type":"Feature","properties":{"GID_3":"MWI.27.12.7_1","GID_0":"MWI","country":"Malawi","GID_1":"MWI.27_1","province":"Thyolo","NL_NAME_1":"NA","GID_2":"MWI.27.12_1","county":"TAThomas","NL_NAME_2":"NA","city":"n.a.(2770)","VARNAME_3":"NA","NL_NAME_3":"NA","TYPE_3":"Unknown","ENGTYPE_3":"Unknown","CC_3":"NA","HASC_3":"NA","name":"n.a.(2770).city"},
"geometry":{"type": "MultiPolygon","coordinates": [[[[34.9018,-16.0109,297.8824],[34.9057,-16.0137,266.8825],[34.9037,-16.0227,287.8615],[34.9117,-16.032,277.1249],[34.9161,-16.0499,249.7457],[34.9158,-16.0561,251.2849],[34.921,-16.0613,264.9724],[34.9262,-16.0571,308.7874],[34.9287,-16.0578,314.0762],[34.9324,-16.0548,350.8853],[34.9363,-16.0487,534.8216],[34.939,-16.0478,623.28],[34.9437,-16.0419,764.5155],[34.9429,-16.0394,799.1479],[34.9465,-16.0348,772.416],[34.9541,-16.0401,742.0155],[34.9609,-16.0403,667.0162],[34.9653,-16.0421,625.6013],[34.9682,-16.0395,631.4824],[34.9639,-16.0356,682.1366],[34.9653,-16.0268,668.8348],[34.9568,-16.0179,783.0186],[34.951,-16.0189,724.6048],[34.9443,-16.0122,575.0504],[34.9376,-16.0166,636.1029],[34.9283,-16.0158,352.2289],[34.9259,-16.0132,339.2227],[34.9267,-16.0077,296.3457],[34.9224,-16.0062,262.3621],[34.9223,-16.0037,305.7691],[34.9093,-16.0051,245.1987],[34.9018,-16.0109,297.8824]]]]}}