{"type":"Feature","properties":{"GID_3":"MWI.17.4.4_1","GID_0":"MWI","country":"Malawi","GID_1":"MWI.17_1","province":"Mzimba","NL_NAME_1":"NA","GID_2":"MWI.17.4_1","county":"SCKampingoSibande","NL_NAME_2":"NA","city":"n.a.(217)","VARNAME_3":"NA","NL_NAME_3":"NA","TYPE_3":"Unknown","ENGTYPE_3":"Unknown","CC_3":"NA","HASC_3":"NA","name":"n.a.(217).city"},
"geometry":{"type": "MultiPolygon","coordinates": [[[[33.9551,-11.4596,1264.6522],[33.9496,-11.4612,1300.5851],[33.9471,-11.4653,1282.2861],[33.9462,-11.4766,1276.7288],[33.9482,-11.4835,1285.5527],[33.9425,-11.4832,1329.1216],[33.9314,-11.4884,1317.7373],[33.9245,-11.4849,1345.6218],[33.9128,-11.4857,1333.4529],[33.9087,-11.4808,1342.9584],[33.8969,-11.4773,1305.8242],[33.8941,-11.4779,1331.1735],[33.8868,-11.485,1361.8303],[33.8734,-11.4937,1421.5851],[33.8719,-11.4961,1410.5718],[33.8741,-11.5034,1447.129],[33.8839,-11.5168,1502.5388],[33.876,-11.522,1487.2079],[33.8691,-11.5351,1530.2043],[33.8766,-11.5393,1537.1053],[33.8814,-11.54,1544.85],[33.8832,-11.5433,1497.6082],[33.8864,-11.5451,1544.2517],[33.8954,-11.5424,1476.1438],[33.8981,-11.5397,1479.2891],[33.9019,-11.5406,1409.6288],[33.9055,-11.5447,1398.1526],[33.9131,-11.5465,1413.1945],[33.92,-11.5459,1384.5553],[33.9326,-11.5596,1371.2767],[33.9363,-11.5574,1364.6667],[33.939,-11.5519,1355.4149],[33.9449,-11.5461,1358.6493],[33.9588,-11.5404,1349.7303],[33.9567,-11.535,1345.6635],[33.9627,-11.529,1339.1254],[33.9618,-11.5174,1324.7054],[33.9661,-11.5153,1326.7325],[33.9655,-11.5088,1330.5304],[33.969,-11.5033,1338.774],[33.9669,-11.4915,1344.3519],[33.9603,-11.4838,1321.1731],[33.9565,-11.4761,1313.2024],[33.9579,-11.4647,1282.8152],[33.9551,-11.4596,1264.6522]]]]}}