{"type":"Feature","properties":{"GID_3":"MWI.11.4.1_1","GID_0":"MWI","country":"Malawi","GID_1":"MWI.11_1","province":"Lilongwe","NL_NAME_1":"NA","GID_2":"MWI.11.4_1","county":"SCNjewa","NL_NAME_2":"NA","city":"n.a.(1047)","VARNAME_3":"NA","NL_NAME_3":"NA","TYPE_3":"Unknown","ENGTYPE_3":"Unknown","CC_3":"NA","HASC_3":"NA","name":"n.a.(1047).city"},
"geometry":{"type": "MultiPolygon","coordinates": [[[[33.6414,-13.9066,1085.5938],[33.6323,-13.8972,1090.3801],[33.6277,-13.8953,1099.8329],[33.6113,-13.9051,1101.5415],[33.6061,-13.9099,1100.433],[33.6069,-13.9165,1120.8505],[33.604,-13.926,1133.7556],[33.6082,-13.9273,1124.6427],[33.6067,-13.93,1130.1021],[33.6138,-13.9297,1139.0891],[33.6077,-13.941,1145.2275],[33.6064,-13.9466,1152.3323],[33.6195,-13.942,1138.9961],[33.6386,-13.9419,1139.0719],[33.6356,-13.9287,1116.5226],[33.6414,-13.9066,1085.5938]]]]}}