{"type": "Feature","bbox": [35.6203,-14.5413,35.6971,-14.4828],"geometry": {"type": "MultiPolygon","coordinates": [[[[35.6634,-14.4828,724.1633],[35.6444,-14.4877,741.6694],[35.6295,-14.489,771.6684],[35.6264,-14.4906,778.7432],[35.6257,-14.4935,770.2744],[35.6212,-14.4955,772.2752],[35.6239,-14.5017,801.4467],[35.6203,-14.5092,957.16],[35.6251,-14.5152,921.6268],[35.6287,-14.5158,924.4607],[35.6307,-14.5223,933.7355],[35.6366,-14.5277,900.7904],[35.6337,-14.5335,865.5986],[35.6363,-14.5387,867.2968],[35.6403,-14.5413,834.3015],[35.6552,-14.5399,774.0763],[35.6535,-14.5262,750.9314],[35.6511,-14.5212,755.5044],[35.6668,-14.5199,721.9473],[35.667,-14.5148,719.8385],[35.6699,-14.5122,722.7955],[35.6713,-14.5119,725.3942],[35.6731,-14.5195,731.9014],[35.6796,-14.5159,742.922],[35.6929,-14.5173,771.9511],[35.6971,-14.516,785.4053],[35.6967,-14.5127,782.7452],[35.6848,-14.5049,825.3992],[35.6865,-14.4899,736.123],[35.6822,-14.4847,712.6248],[35.6719,-14.4856,717.2062],[35.6634,-14.4828,724.1633]]]]}
,"properties": {"GID_3": "MWI.13.6.9_1","GID_0": "MWI","country": "Malawi","GID_1": "MWI.13_1","province": "Mangochi","NL_NAME_1": "NA","GID_2": "MWI.13.6_1","county": "SCMbwanaNyambi","NL_NAME_2": "NA","city": "n.a.(1630)","VARNAME_3": "NA","NL_NAME_3": "NA","TYPE_3": "Unknown","ENGTYPE_3": "Unknown","CC_3": "NA","HASC_3": "NA","name": "n.a.(1630).city","area_km2": 29.88613,"hist_schema_id": "Elevation0-9000","hist_area_km2": {"700": 0.88269,"725": 10.16077,"750": 5.95271,"775": 3.69469,"800": 1.27259,"825": 0.69787,"850": 0.71839,"875": 0.51312,"900": 0.43103,"925": 0.821,"950": 1.06728,"975": 0.9031,"1000": 0.86206,"1025": 0.63627,"1050": 0.45155,"1075": 0.28734,"1100": 0.16421,"1125": 0.18473,"1150": 0.04105,"1175": 0.10263,"1200": 0.04105}}}