{"type":"Feature","properties":{"GID_3":"MWI.6.10.16_1","GID_0":"MWI","country":"Malawi","GID_1":"MWI.6_1","province":"Dedza","NL_NAME_1":"NA","GID_2":"MWI.6.10_1","county":"TATambala","NL_NAME_2":"NA","city":"n.a.(1257)","VARNAME_3":"NA","NL_NAME_3":"NA","TYPE_3":"Unknown","ENGTYPE_3":"Unknown","CC_3":"NA","HASC_3":"NA","name":"n.a.(1257).city"},
"geometry":{"type": "MultiPolygon","coordinates": [[[[34.2461,-14.1099,1442.0591],[34.2435,-14.1114,1392.5027],[34.2396,-14.1193,1415.66],[34.2324,-14.124,1347.3612],[34.2289,-14.1192,1340.9865],[34.2198,-14.119,1343.0521],[34.2159,-14.121,1307.9152],[34.2184,-14.1252,1344.4161],[34.2184,-14.1296,1371.2667],[34.2154,-14.136,1323.9727],[34.2108,-14.14,1337.8784],[34.2118,-14.1432,1388.2047],[34.2276,-14.1459,1438.0519],[34.2342,-14.1449,1544.7388],[34.2491,-14.1489,1443.4137],[34.2562,-14.155,1503.8591],[34.2597,-14.1537,1475.0161],[34.26,-14.1518,1463.9348],[34.2544,-14.1456,1446.688],[34.2541,-14.1386,1424.2106],[34.2612,-14.1361,1502.1572],[34.2605,-14.1224,1442.4532],[34.2542,-14.1188,1419.4452],[34.252,-14.1118,1451.9102],[34.2461,-14.1099,1442.0591]]]]}}