{"type":"Feature","properties":{"GID_3":"MWI.18.5.5_1","GID_0":"MWI","country":"Malawi","GID_1":"MWI.18_1","province":"Neno","NL_NAME_1":"NA","GID_2":"MWI.18.5_1","county":"TASymon","NL_NAME_2":"NA","city":"n.a.(2124)","VARNAME_3":"NA","NL_NAME_3":"NA","TYPE_3":"Unknown","ENGTYPE_3":"Unknown","CC_3":"NA","HASC_3":"NA","name":"n.a.(2124).city"},
"geometry":{"type": "MultiPolygon","coordinates": [[[[34.8427,-15.3264,509.3123],[34.8429,-15.332,494.2179],[34.8395,-15.3363,484.4944],[34.8451,-15.3457,462.9134],[34.8366,-15.3539,447.3273],[34.8356,-15.363,435.8432],[34.8306,-15.3677,433.3358],[34.8304,-15.3714,426.5887],[34.8265,-15.3726,425.7708],[34.8293,-15.375,418.284],[34.8273,-15.377,419.2194],[34.8266,-15.3866,405.2197],[34.819,-15.3916,400.7816],[34.8129,-15.3998,386.7735],[34.8107,-15.4129,398.0417],[34.8168,-15.4168,406.2271],[34.8197,-15.4155,413.8326],[34.8262,-15.4208,423.9109],[34.8335,-15.4224,433.9868],[34.8402,-15.4271,450.3953],[34.8427,-15.4308,460.9169],[34.8474,-15.4306,446.1735],[34.8524,-15.4325,432.8404],[34.8682,-15.3881,483.4314],[34.8741,-15.379,486.2971],[34.8761,-15.3805,483.4911],[34.8799,-15.3803,477.2031],[34.8873,-15.3761,484.9395],[34.8893,-15.369,510.5329],[34.8927,-15.3711,501.6439],[34.9019,-15.3658,493.305],[34.8981,-15.3605,498.5708],[34.8882,-15.3572,517.2524],[34.8956,-15.3399,546.8898],[34.8949,-15.3261,547.2252],[34.8427,-15.3264,509.3123]]]]}}