{"type": "Feature","bbox": [33.9057,-13.776,33.9513,-13.714],"geometry": {"type": "MultiPolygon","coordinates": [[[[33.9082,-13.7476,1223.8678],[33.9057,-13.7462,1249.0038],[33.9087,-13.7578,1154.0396],[33.913,-13.7632,1132.77],[33.9233,-13.7687,1119.0801],[33.9259,-13.7729,1105.8439],[33.93,-13.7743,1104.1182],[33.9315,-13.7703,1109.1384],[33.9348,-13.7691,1102.116],[33.9377,-13.772,1102.5276],[33.9444,-13.7708,1112.5422],[33.9473,-13.776,1084.7754],[33.9513,-13.7741,1088.1827],[33.9509,-13.7665,1096.9423],[33.9412,-13.7547,1137.2032],[33.9446,-13.7513,1145.682],[33.9467,-13.7446,1175.9691],[33.9451,-13.736,1188.2432],[33.9504,-13.733,1184.9854],[33.9485,-13.7268,1205.3804],[33.9431,-13.7214,1225.6154],[33.9384,-13.7208,1248.9231],[33.9332,-13.7161,1368.7338],[33.9215,-13.7169,1431.5272],[33.917,-13.714,1511.4949],[33.9163,-13.7181,1476.5674],[33.9184,-13.7229,1436.7346],[33.918,-13.7349,1351.7266],[33.9198,-13.7452,1276.1663],[33.916,-13.748,1365.4971],[33.9082,-13.7476,1223.8678]]]]}
,"properties": {"GID_3": "MWI.7.5.14_1","GID_0": "MWI","country": "Malawi","GID_1": "MWI.7_1","province": "Dowa","NL_NAME_1": "NA","GID_2": "MWI.7.5_1","county": "SCMkukula","NL_NAME_2": "NA","city": "n.a.(872)","VARNAME_3": "NA","NL_NAME_3": "NA","TYPE_3": "Unknown","ENGTYPE_3": "Unknown","CC_3": "NA","HASC_3": "NA","name": "n.a.(872).city","area_km2": 20.12127,"hist_schema_id": "Elevation0-9000","hist_area_km2": {"1075": 0.10296,"1100": 1.07083,"1125": 2.71832,"1150": 2.73899,"1175": 2.38895,"1200": 3.00693,"1225": 2.88342,"1250": 1.77125,"1275": 0.92682,"1300": 0.61788,"1325": 0.41193,"1350": 0.51492,"1375": 0.20597,"1400": 0.32955,"1425": 0.18537,"1450": 0.16478,"1475": 0.08239}}}