{"type": "Feature","bbox": [32.9443,-13.619,34.0039,-12.3324],"geometry": {"type": "MultiPolygon","coordinates": [[[[33.3617,-13.5886,1043.923],[33.3664,-13.5835,1050.8873],[33.3748,-13.5828,1046.462],[33.3809,-13.5793,1046.196],[33.3814,-13.568,1044.0642],[33.3787,-13.5442,1043.1993],[33.3796,-13.5369,1043.6321],[33.3726,-13.5293,1042.7959],[33.3739,-13.5216,1042.6492],[33.3779,-13.5127,1042.687],[33.375,-13.5078,1042.0939],[33.3747,-13.5038,1042.4183],[33.3776,-13.5011,1041.8269],[33.3788,-13.4948,1041.9119],[33.3824,-13.4893,1041.8839],[33.3863,-13.487,1041.3771],[33.3928,-13.4878,1041.3604],[33.3972,-13.4862,1049.0941],[33.4049,-13.491,1041.4792],[33.4066,-13.4896,1041.7002],[33.4084,-13.4864,1041.21],[33.4076,-13.4794,1041.1414],[33.4095,-13.4699,1041.766],[33.4149,-13.4699,1041.2935],[33.4231,-13.4651,1042.3623],[33.4281,-13.4567,1042.2721],[33.4278,-13.4508,1040.4969],[33.4337,-13.4419,1043.3943],[33.4331,-13.4317,1041.3252],[33.4391,-13.4266,1039.9534],[33.4394,-13.4148,1039.8513],[33.4472,-13.4119,1040.0522],[33.4549,-13.4029,1040.5376],[33.455,-13.3996,1039.6851],[33.4573,-13.3976,1040.4825],[33.4576,-13.3937,1041.5295],[33.4523,-13.387,1040.5015],[33.4536,-13.3846,1043.7533],[33.4589,-13.3824,1049.6038],[33.46,-13.3796,1046.6372],[33.453,-13.3709,1040.7723],[33.4645,-13.3637,1039.5784],[33.466,-13.3606,1041.3215],[33.4647,-13.3576,1041.3727],[33.4608,-13.3559,1039.8584],[33.4627,-13.3499,1041.5802],[33.4616,-13.3455,1042.2422],[33.4518,-13.3377,1039.7705],[33.4507,-13.3349,1038.1935],[33.4532,-13.3256,1040.1018],[33.4588,-13.3203,1037.0659],[33.4587,-13.3089,1038.1313],[33.4616,-13.3076,1039.1927],[33.4653,-13.3083,1038.3389],[33.4655,-13.3124,1045.1705],[33.4707,-13.3184,1038.9764],[33.4738,-13.318,1042.1846],[33.481,-13.3216,1050.4402],[33.4864,-13.3277,1041.7351],[33.4922,-13.328,1045.4285],[33.4981,-13.3336,1042.0035],[33.5036,-13.3361,1040.6097],[33.5112,-13.3369,1037.3053],[33.5134,-13.3312,1043.2759],[33.5182,-13.326599999999999,1045.7446],[33.5218,-13.3293,1043.9835],[33.5231,-13.3374,1039.6464],[33.5257,-13.3401,1037.1843],[33.5322,-13.3353,1040.8501],[33.5371,-13.3344,1037.4424],[33.5383,-13.3323,1044.37],[33.5357,-13.3102,1044.3809],[33.5464,-13.3157,1038.7119],[33.5496,-13.3154,1039.6031],[33.5514,-13.3131,1042.55],[33.5453,-13.2964,1037.3798],[33.5473,-13.283,1041.8549],[33.5502,-13.2825,1051.6511],[33.5545,-13.2864,1037.1599],[33.5556,-13.2842,1046.1738],[33.5787,-13.2813,1048.0179],[33.5829,-13.271,1055.752],[33.5905,-13.269,1035.6969],[33.5914,-13.2528,1043.8021],[33.5856,-13.2436,1045.5355],[33.584,-13.2379,1042.3168],[33.5855,-13.2349,1049.9515],[33.6045,-13.2269,1056.6206],[33.6078,-13.2272,1058.4774],[33.6109,-13.2296,1049.7432],[33.6181,-13.2282,1050.7014],[33.6216,-13.2308,1046.9091],[33.6267,-13.2296,1049.5901],[33.6328,-13.2307,1050.801],[33.6355,-13.2218,1037.5161],[33.646,-13.2179,1060.2976],[33.651,-13.2139,1044.9492],[33.6561,-13.2064,1052.801],[33.6628,-13.2024,1048.5393],[33.6691,-13.2027,1045.7732],[33.6826,-13.1991,1049.0933],[33.6865,-13.2024,1036.4899],[33.6906,-13.2034,1039.671],[33.6979,-13.2013,1047.3424],[33.7004,-13.1964,1030.9951],[33.6975,-13.189,1049.4229],[33.7017,-13.178,1037.8795],[33.7128,-13.1753,1035.0444],[33.7185,-13.1696,1034.2037],[33.7252,-13.1697,1031.8826],[33.7415,-13.153,1043.7202],[33.7443,-13.1519,1042.4351],[33.7498,-13.1534,1035.1179],[33.76,-13.1471,1022.8817],[33.7567,-13.1333,1017.0307],[33.758,-13.1274,1025.0465],[33.7609,-13.1242,1026.2681],[33.7587,-13.118,1031.4626],[33.7628,-13.1131,1031.0704],[33.7668,-13.1114,1031.6775],[33.7747,-13.1113,1027.5238],[33.7882,-13.0935,1039.0077],[33.7983,-13.0912,1034.6984],[33.8079,-13.0945,1022.9318],[33.8102,-13.0894,1036.9689],[33.8124,-13.0889,1029.0291],[33.8178,-13.0917,1018.8013],[33.8244,-13.0851,1014.4986],[33.8247,-13.0819,1006.7225],[33.8186,-13.0757,1017.9798],[33.8201,-13.0685,1008.6284],[33.8184,-13.0637,1015.1996],[33.8194,-13.0574,1009.489],[33.8331,-13.0521,1021.8287],[33.8423,-13.0466,1071.3901],[33.8508,-13.0473,1069.5247],[33.858,-13.0499,963.4758],[33.865,-13.043,988.7383],[33.8665,-13.0394,1042.7917],[33.8728,-13.0344,1064.6624],[33.8879,-13.0328,959.7435],[33.894,-13.0194,935.6787],[33.9059,-13.0137,1031.9352],[33.9108,-13.013,953.6272],[33.9167,-13.0156,870.1387],[33.9208,-13.0097,942.2299],[33.9267,-13.007,906.1399],[33.9304,-12.9817,877.6415],[33.936,-12.9699,830.3345],[33.9442,-12.9658,898.3636],[33.9501,-12.9676,890.9093],[33.9573,-12.9643,827.1343],[33.9636,-12.9553,837.3177],[33.9692,-12.9514,815.5399],[33.9826,-12.9476,816.3808],[33.9878,-12.9434,816.4843],[33.9987,-12.9392,793.977],[34.0039,-12.9225,808.4375],[33.9929,-12.9153,887.6649],[33.9815,-12.9115,927.1729],[33.9796,-12.9038,959.462],[33.9749,-12.9005,998.6275],[33.9684,-12.8993,966.1715],[33.9645,-12.8916,969.9807],[33.9562,-12.8909,974.5641],[33.9516,-12.861,984.0139],[33.9457,-12.8524,1068.0171],[33.9133,-12.8439,1069.9946],[33.8786,-12.8409,1087.8293],[33.8658,-12.8382,1089.8464],[33.8626,-12.8398,1107.0713],[33.851,-12.8376,1140.4673],[33.844,-12.824,1144.5613],[33.8377,-12.8224,1106.1686],[33.8299,-12.8244,1124.0016],[33.825,-12.8233,1055.7158],[33.8243,-12.8188,1044.5809],[33.8211,-12.813,1028.3558],[33.8184,-12.8124,1023.2401],[33.8135,-12.8051,1024.5929],[33.8159,-12.804,997.0935],[33.816,-12.7966,989.2075],[33.8196,-12.7878,983.1641],[33.819,-12.7774,990.3736],[33.8211,-12.7756,972.9971],[33.821,-12.7711,991.0607],[33.8251,-12.7693,960.9553],[33.8255,-12.7668,966.6558],[33.822,-12.7626,1007.9287],[33.8229,-12.7592,974.5874],[33.8204,-12.7555,947.784],[33.8156,-12.7545,965.018],[33.8136,-12.7514,994.3613],[33.8194,-12.7476,926.0297],[33.8249,-12.7342,993.7809],[33.8307,-12.7256,985.1464],[33.8353,-12.7231,918.0483],[33.8304,-12.7153,882.7294],[33.8324,-12.7092,908.0684],[33.8284,-12.7069,905.333],[33.8153,-12.7073,878.7784],[33.814,-12.7046,886.754],[33.8051,-12.7043,926.5408],[33.7965,-12.7072,904.6228],[33.7933,-12.7143,905.5193],[33.7881,-12.7144,901.0999],[33.7808,-12.7052,925.8738],[33.7786,-12.6995,943.2999],[33.77,-12.6965,908.4102],[33.7727,-12.6891,932.2806],[33.7664,-12.6871,917.8242],[33.7677,-12.682,937.1914],[33.7646,-12.6806,927.6207],[33.7531,-12.6864,941.9972],[33.7476,-12.6864,945.984],[33.7423,-12.6918,936.1854],[33.7271,-12.6948,950.0467],[33.7219,-12.6987,1024.3004],[33.7066,-12.7165,996.3594],[33.6913,-12.7239,1006.3947],[33.6874,-12.7277,1033.9226],[33.6772,-12.7292,1027.3008],[33.673,-12.7278,1032.2473],[33.669,-12.7294,1039.0873],[33.6607,-12.737,1074.8744],[33.655,-12.7364,1076.5951],[33.631,-12.709,1079.2532],[33.6254,-12.6899,1117.1642],[33.6,-12.6628,1169.2866],[33.5858,-12.6696,1169.5977],[33.5733,-12.678,1198.2078],[33.5674,-12.6765,1187.4915],[33.5547,-12.6458,1128.8469],[33.551,-12.5958,1268.0933],[33.5559,-12.5876,1211.6974],[33.581,-12.5637,1149.2061],[33.5814,-12.5556,1161.4714],[33.5783,-12.5514,1171.0535],[33.5735,-12.5498,1177.9678],[33.565,-12.543,1179.4426],[33.5624,-12.5385,1180.0159],[33.5618,-12.5297,1194.406],[33.5553,-12.5269,1193.0103],[33.555,-12.5142,1215.9326],[33.5518,-12.5015,1225.7681],[33.5477,-12.4944,1243.9038],[33.5442,-12.4748,1272.3812],[33.5339,-12.466,1294.2322],[33.532,-12.461,1314.3206],[33.5354,-12.4613,1301.45],[33.5449,-12.4564,1413.2925],[33.583,-12.4455,1289.3615],[33.5815,-12.4259,1407.8877],[33.6058,-12.3733,1484.2722],[33.5911,-12.374,1403.4087],[33.5878,-12.3757,1390.8927],[33.5815,-12.3833,1387.238],[33.5498,-12.3826,1445.8083],[33.5362,-12.3786,1419.9268],[33.5356,-12.3778,1414.2358],[33.546,-12.3694,1421.7316],[33.5482,-12.3577,1439.7112],[33.5365,-12.3325,1418.9624],[33.527,-12.3346,1397.1862],[33.5258,-12.3324,1403.5144],[33.5202,-12.3376,1387.3534],[33.5294,-12.3478,1410.157],[33.5305,-12.3538,1423.9661],[33.5307,-12.3651,1402.9971],[33.5246,-12.3747,1400.2896],[33.4983,-12.3909,1355.0123],[33.4938,-12.3967,1354.6698],[33.4881,-12.4118,1448.9176],[33.4848,-12.4166,1431.1892],[33.479,-12.42,1410.3748],[33.4664,-12.4205,1429.6086],[33.462,-12.4229,1423.66],[33.4599,-12.4299,1388.884],[33.4598,-12.4368,1357.7427],[33.4625,-12.4469,1461.8857],[33.4612,-12.4582,1464.8604],[33.4324,-12.4716,1344.4666],[33.4192,-12.4814,1300.8013],[33.4091,-12.5012,1299.9973],[33.3991,-12.5104,1268.8818],[33.3315,-12.5358,1254.2053],[33.2899,-12.5486,1238.8394],[33.2745,-12.5692,1251.2617],[33.2645,-12.587,1233.4365],[33.2561,-12.5925,1215.6118],[33.2371,-12.6,1219.8125],[33.2323,-12.6037,1202.99],[33.215,-12.6296,1178.6322],[33.2019,-12.6341,1204.0266],[33.1969,-12.6149,1220.1201],[33.1746,-12.6039,1208.3612],[33.1589,-12.6022,1208.4064],[33.144,-12.6095,1207.9769],[33.128,-12.6123,1239.7692],[33.1093,-12.6017,1227.9653],[33.1028,-12.6022,1234.3081],[33.0939,-12.606,1245.6212],[33.0884,-12.614,1219.6809],[33.0747,-12.6185,1218.8634],[33.0674,-12.6232,1206.835],[33.0546,-12.6401,1174.0856],[33.0486,-12.6507,1186.269],[33.04,-12.6605,1187.6514],[33.0164,-12.7242,1172.3086],[32.9732,-12.7606,1193.8889],[32.9646,-12.7698,1192.2426],[32.9612,-12.7757,1180.7218],[32.9695,-12.807,1162.9667],[32.9669,-12.8439,1148.707],[32.9706,-12.8494,1157.1611],[32.9763,-12.8639,1136.4735],[32.9816,-12.8702,1130.9009],[33.0017,-12.8793,1113.2656],[33.0078,-12.8852,1120.004],[33.0289,-12.8911,1110.1364],[33.0389,-12.8965,1112.3076],[33.0433,-12.9053,1117.6273],[33.04,-12.9282,1089.121],[33.0407,-12.9453,1080.9805],[33.0351,-12.9673,1085.1777],[33.0312,-12.9953,1081.3107],[33.0235,-13.0206,1086.1498],[33.017,-13.0305,1085.7245],[33.0157,-13.0354,1080.7665],[33.0154,-13.0457,1081.8229],[33.0177,-13.0598,1066.7598],[33.0072,-13.0898,1074.665],[33.0023,-13.118,1073.4475],[33.0043,-13.1398,1063.1799],[33.0074,-13.1482,1067.0795],[33.0113,-13.1746,1081.7186],[33.0174,-13.1908,1086.0161],[33.0238,-13.2009,1099.4417],[33.0261,-13.2142,1115.3127],[33.0187,-13.2242,1099.3409],[33.001,-13.2393,1099.1147],[32.992,-13.2541,1096.7845],[32.9744,-13.2661,1099.4178],[32.9687,-13.2737,1090.7961],[32.9617,-13.2886,1096.5824],[32.9578,-13.2925,1100.3226],[32.9473,-13.2983,1106.2549],[32.9469,-13.3013,1110.6737],[32.9519,-13.3181,1108.4841],[32.9443,-13.3548,1082.0215],[33.1377,-13.3423,1044.8802],[33.1507,-13.3459,1050.3228],[33.1587,-13.3562,1043.7039],[33.1579,-13.3596,1043.9545],[33.1526,-13.3661,1044.5438],[33.1564,-13.3827,1045.7124],[33.1556,-13.3958,1047.1775],[33.1533,-13.3995,1045.1206],[33.149,-13.4007,1045.4822],[33.1475,-13.4044,1045.2889],[33.1625,-13.4399,1053.7732],[33.1683,-13.4484,1057.244],[33.1695,-13.4547,1060.1985],[33.1773,-13.4662,1065.7709],[33.179,-13.48,1071.6364],[33.177,-13.4978,1083.368],[33.1888,-13.5086,1096.7711],[33.2029,-13.5144,1122.1565],[33.2185,-13.5248,1100.9374],[33.2394,-13.5441,1081.5101],[33.2453,-13.5524,1075.868],[33.2507,-13.5551,1074.0854],[33.2535,-13.561,1071.2014],[33.2506,-13.5715,1063.9933],[33.2546,-13.5761,1068.4293],[33.2667,-13.5796,1064.5996],[33.2848,-13.5784,1056.4181],[33.2908,-13.582,1059.6875],[33.2931,-13.5856,1064.2538],[33.2974,-13.6026,1074.7673],[33.3019,-13.6089,1067.7336],[33.3134,-13.619,1052.4573],[33.3292,-13.6135,1048.8462],[33.3353,-13.6135,1044.7715],[33.3349,-13.6083,1047.7791],[33.3436,-13.6069,1043.8918],[33.3457,-13.5995,1050.9702],[33.357,-13.5977,1044.5154],[33.3591,-13.5959,1043.8719],[33.3617,-13.5886,1043.923]]]]}
,"properties": {"GID_1": "MWI.9_1","GID_0": "MWI","country": "Malawi","province": "Kasungu","VARNAME_1": "NA","NL_NAME_1": "NA","TYPE_1": "District","ENGTYPE_1": "District","CC_1": "NA","HASC_1": "MW.KS","ISO_1": "NA","name": "Kasungu.province","area_km2": 7895.416,"hist_schema_id": "Elevation0-9000","hist_area_km2": {"775": 0.103,"800": 0.909,"825": 2.418,"850": 4.711,"875": 9.653,"900": 22.224,"925": 43.376,"950": 85.628,"975": 170.452,"1000": 332.667,"1025": 685.089,"1050": 1587.676,"1075": 1729.047,"1100": 1092.841,"1125": 607.844,"1150": 472.86,"1175": 340.42,"1200": 241.927,"1225": 165.368,"1250": 86.767,"1275": 43.728,"1300": 19.081,"1325": 13.973,"1350": 20.269,"1375": 31.285,"1400": 32.819,"1425": 26.628,"1450": 13.271,"1475": 6.232,"1500": 3.623,"1525": 1.76,"1550": 0.538,"1575": 0.186}}}