{"type":"Feature","properties":{"ISO3166-1-Alpha-3":"MWI","country":"Malawi","fill":"#FF0","id":"1899","name":"Kasungu"},
"geometry":{"type": "Polygon","coordinates": [[[33.57653,-12.64837,1122.2483],[33.57173,-12.64347,1134.577],[33.56816,-12.63282,1152.0479],[33.56894,-12.60398,1192.2704],[33.57188,-12.59179,1223.0708],[33.57591,-12.58373,1191.828],[33.57979,-12.58063,1172.8153],[33.58305,-12.57706,1158.3217],[33.58522,-12.57246,1161.8563],[33.58475,-12.56533,1143.8857],[33.58243,-12.55701,1164.3466],[33.57529,-12.54445,1199.5593],[33.56258,-12.52926,1195.9821],[33.56026,-12.52187,1207.9589],[33.5585,-12.51143,1216.3474],[33.55788,-12.45733,1341.2557],[33.56041,-12.44529,1332.6958],[33.56243,-12.44002,1311.1056],[33.56506,-12.43531,1358.5939],[33.56801,-12.43118,1365.1222],[33.57793,-12.42017,1410.4331],[33.58088,-12.41614,1386.4403],[33.58336,-12.41123,1386.8074],[33.58491,-12.4055,1368.1803],[33.58553,-12.39929,1386.5203],[33.5801,-12.39237,1352.2335],[33.57359,-12.38679,1373.7434],[33.52873,-12.37764,1409.5583],[33.51389,-12.37428,1374.4658],[33.48775,-12.38984,1346.6401],[33.48052,-12.40637,1390.7599],[33.46533,-12.40906,1414.902],[33.46078,-12.4165,1448.9197],[33.45995,-12.4411,1412.9796],[33.45112,-12.45299,1431.3535],[33.42078,-12.46497,1392.8867],[33.40941,-12.47521,1303.4901],[33.39375,-12.49825,1278.21],[33.37324,-12.51851,1244.6466],[33.3504,-12.53267,1253.2335],[33.32828,-12.53763,1254.0985],[33.32032,-12.53505,1240.0425],[33.31195,-12.52988,1261.6149],[33.30224,-12.52513,1260.6389],[33.28973,-12.5242,1253.3622],[33.26317,-12.52854,1246.6797],[33.25511,-12.53195,1242.886],[33.24363,-12.54476,1262.7592],[33.22699,-12.57908,1238.795],[33.21299,-12.58858,1216.6122],[33.20291,-12.59179,1198.207],[33.19682,-12.59541,1198.9136],[33.19237,-12.59902,1209.8357],[33.18731,-12.60233,1220.1539],[33.18131,-12.60822,1219.4169],[33.17801,-12.61504,1220.5709],[33.17325,-12.62,1204.0248],[33.16302,-12.62042,1191.9219],[33.15878,-12.61535,1188.3745],[33.1469,-12.59324,1207.9351],[33.13992,-12.58631,1196.1069],[33.13036,-12.58373,1203.934],[33.12281,-12.58455,1205.1805],[33.107,-12.58869,1232.4124],[33.09904,-12.59324,1243.899],[33.08995,-12.60078,1246.3357],[33.08127,-12.60481,1248.1199],[33.07424,-12.5983,1258.4846],[33.07,-12.59044,1237.2852],[33.06463,-12.58497,1215.1687],[33.0577,-12.58342,1206.7522],[33.04954,-12.58683,1208.6254],[33.03538,-12.59913,1221.1111],[33.02484,-12.61267,1195.5669],[32.99414,-12.67251,1179.1404],[32.95807,-12.72522,1184.1207],[32.94463,-12.7524,1197.0464],[32.94112,-12.76987,1234.0477],[32.94701,-12.84325,1174.6501],[32.95352,-12.8541,1168.957],[32.9805,-12.87074,1130.9009],[33.00504,-12.89296,1114.8698],[33.01357,-12.91725,1101.0375],[33.00892,-12.94505,1089.3113],[32.98153,-13.00613,1079.9752],[32.96593,-13.11682,1078.9993],[32.96711,-13.13418,1071.5244],[32.9713,-13.15093,1065.8782],[32.97905,-13.16788,1077.5427],[32.99507,-13.19087,1082.0526],[32.99817,-13.20245,1086.7819],[32.9928,-13.2164,1095.8245],[32.96272,-13.22498,1084.6721],[32.93787,-13.25588,1095.1406],[32.91962,-13.29485,1102.4641],[32.90549,-13.35139,1053.5554],[32.91921,-13.34988,1078.8809],[33.13956,-13.3366,1050.1692],[33.14514,-13.3397,1055.2822],[33.15119,-13.34601,1050.3228],[33.15599,-13.36068,1043.9464],[33.1563,-13.37107,1044.6118],[33.15181,-13.39169,1044.894],[33.15289,-13.40394,1045.3083],[33.15754,-13.41655,1055.2554],[33.17403,-13.45019,1070.2997],[33.18472,-13.47851,1079.2861],[33.19372,-13.49499,1096.6738],[33.20565,-13.50961,1125.7476],[33.24136,-13.54222,1086.1317],[33.25531,-13.55866,1077.295],[33.26539,-13.56796,1081.5502],[33.29304,-13.58387,1062.8176],[33.3334,-13.62826,1051.7418],[33.35123,-13.60863,1050.4497],[33.38068,-13.58465,1048.4136],[33.3844,-13.57902,1053.7572],[33.38755,-13.57075,1058.3787],[33.38941,-13.55416,1053.0154],[33.3891,-13.54501,1057.4888],[33.38704,-13.53819,1053.062],[33.3844,-13.53406,1051.2864],[33.3827,-13.52873,1045.457],[33.38378,-13.52134,1047.2812],[33.39267,-13.50016,1050.5066],[33.39918,-13.49613,1042.3502],[33.40848,-13.49334,1042.979],[33.41406,-13.49101,1044.0132],[33.42228,-13.48047,1051.3083],[33.44088,-13.44569,1050.0776],[33.44807,-13.42321,1050.5505],[33.46047,-13.40357,1047.3196],[33.46388,-13.39711,1050.6796],[33.47163,-13.37469,1061.8706],[33.47256,-13.3689,1068.5006],[33.47241,-13.36332,1059.4304],[33.4707,-13.35851,1057.781],[33.46838,-13.35402,1048.9142],[33.46295,-13.34559,1043.0105],[33.46062,-13.3411,1041.2531],[33.45892,-13.33645,1040.6832],[33.45892,-13.33102,1042.7701],[33.46171,-13.32647,1042.3981],[33.46652,-13.32342,1045.9783],[33.47551,-13.32311,1038.5015],[33.48124,-13.32523,1039.5234],[33.48589,-13.32854,1038.3976],[33.48931,-13.33195,1038.9163],[33.49659,-13.33784,1040.475],[33.4999,-13.33986,1043.3118],[33.5031,-13.34125,1048.095],[33.50796,-13.34275,1041.3826],[33.5137,-13.34368,1052.7822],[33.52005,-13.34404,1051.4294],[33.5261,-13.34182,1039.4044],[33.53261,-13.33795,1039.9958],[33.5399,-13.3273,1044.6677],[33.54796,-13.32125,1043.4773],[33.55902,-13.30125,1128.2181],[33.56336,-13.29722,1063.2278],[33.57778,-13.28973,1052.8823],[33.58661,-13.28348,1047.0793],[33.59064,-13.27841,1052.0752],[33.59452,-13.27128,1056.0664],[33.60335,-13.24948,1063.572],[33.61891,-13.23397,1037.8275],[33.6341,-13.23263,1045.1642],[33.65007,-13.22576,1041.145],[33.6648,-13.21723,1057.6553],[33.68175,-13.2117,1057.4178],[33.69849,-13.2085,1035.8662],[33.7033,-13.20617,1037.7404],[33.70686,-13.20209,1038.944],[33.70934,-13.1947,1054.6091],[33.71275,-13.18958,1049.7736],[33.72004,-13.18679,1070.1769],[33.7297,-13.18147,1055.4106],[33.74087,-13.17222,1047.8256],[33.76086,-13.14948,1032.0238],[33.77358,-13.127,1035.7191],[33.77967,-13.11966,1026.2169],[33.79301,-13.10938,1040.5513],[33.80789,-13.10333,1033.2653],[33.81735,-13.09791,1026.5787],[33.8237,-13.09238,1014.7993],[33.82897,-13.08158,1026.3772],[33.83083,-13.07414,1054.8197],[33.84045,-13.06437,1188.0088],[33.84825,-13.05776,1189.6907],[33.92085,-13.02277,893.1938],[33.93357,-13.01078,901.2914],[33.9362,-13.0068,1030.6965],[33.94349,-12.98872,899.3505],[33.94783,-12.98148,901.785],[33.95093,-12.97776,828.8158],[33.99036,-12.94629,750.0538],[34.00044,-12.94148,745.2228],[34.00199,-12.93843,781.1633],[34.0009,-12.93301,803.9457],[33.99594,-12.92014,832.3278],[33.96261,-12.88211,989.1017],[33.95238,-12.86505,981.4386],[33.94349,-12.85405,1007.963],[33.93124,-12.84666,1059.5808],[33.92179,-12.84387,1094.7173],[33.91295,-12.84263,1083.811],[33.90489,-12.84242,1078.3811],[33.84825,-12.84914,1159.3994],[33.83972,-12.84878,1117.147],[33.83269,-12.84604,1119.8064],[33.82773,-12.84051,1094.9259],[33.82324,-12.82976,1060.1287],[33.8206,-12.81973,1026.6273],[33.82153,-12.78847,995.0656],[33.83507,-12.70956,928.3188],[33.82665,-12.71189,891.3361],[33.81859,-12.71664,920.959],[33.81487,-12.71964,944.1501],[33.81115,-12.72207,915.5825],[33.80649,-12.72207,901.3754],[33.80045,-12.71803,929.7532],[33.77854,-12.69933,943.2999],[33.77017,-12.69473,908.2136],[33.76288,-12.69271,943.2106],[33.75776,-12.69375,1009.8341],[33.74614,-12.69421,935.1947],[33.74149,-12.69592,924.8997],[33.73761,-12.69829,963.4079],[33.73404,-12.7015,986.6186],[33.72593,-12.70708,976.5656],[33.72149,-12.70935,946.1788],[33.7112,-12.71282,994.1696],[33.70578,-12.714,1058.2964],[33.69942,-12.71431,1074.8074],[33.68593,-12.71338,1051.6254],[33.67276,-12.71127,1077.0253],[33.66139,-12.70816,1085.2053],[33.65643,-12.70584,1072.8601],[33.65116,-12.70248,1066.5559],[33.64604,-12.69798,1078.6134],[33.63519,-12.68589,1078.085],[33.61767,-12.66047,1116.7242],[33.611,-12.65323,1115.7833],[33.60677,-12.65039,1124.4941],[33.60134,-12.64843,1137.6487],[33.59498,-12.6475,1140.324],[33.58847,-12.64708,1136.5245],[33.57653,-12.64837,1122.2483]]]}}