{"type": "Feature","bbox": [33.5768,-12.9908,33.692,-12.886],"geometry": {"type": "MultiPolygon","coordinates": [[[[33.618,-12.9165,1033.5604],[33.6149,-12.9164,1026.1309],[33.6092,-12.9282,1049.8168],[33.6054,-12.9384,1057.6222],[33.6052,-12.9445,1061.7126],[33.597,-12.9586,1095.1094],[33.5956,-12.9661,1094.7374],[33.5932,-12.9662,1109.1298],[33.5889,-12.9563,1111.9481],[33.5839,-12.9617,1086.0905],[33.5823,-12.9759,1093.7378],[33.5768,-12.9861,1079.854],[33.5771,-12.9908,1066.1378],[33.5872,-12.9897,1081.0002],[33.5951,-12.9843,1090.0144],[33.6027,-12.9828,1105.6742],[33.605,-12.9757,1119.5437],[33.609,-12.97,1116.7489],[33.6153,-12.975,1102.6914],[33.6203,-12.9718,1100.4657],[33.6261,-12.9706,1083.4705],[33.6255,-12.9677,1093.1481],[33.6174,-12.9649,1105.7598],[33.6146,-12.9596,1120.7159],[33.6347,-12.9494,1067.223],[33.645,-12.9355,1033.3843],[33.6501,-12.9424,1040.5256],[33.642,-12.9534,1065.615],[33.6419,-12.957,1055.7773],[33.6462,-12.9583,1075.3262],[33.65,-12.9619,1094.4261],[33.6523,-12.9557,1080.3212],[33.6547,-12.9553,1086.7349],[33.6636,-12.961,1082.2137],[33.6691,-12.9715,1098.726],[33.6762,-12.974,1117.2078],[33.6827,-12.9741,1145.6072],[33.6858,-12.9708,1150.0266],[33.692,-12.9678,1132.1145],[33.6831,-12.9539,1104.7015],[33.6687,-12.9426,1075.5436],[33.6736,-12.9381,1068.6327],[33.6746,-12.9343,1058.895],[33.6799,-12.9283,1058.8304],[33.6826,-12.9174,1051.3507],[33.6785,-12.9157,1063.6492],[33.6696,-12.9167,1065.1123],[33.6657,-12.912,1074.8998],[33.656,-12.906,1059.9545],[33.658,-12.9022,1041.0402],[33.6577,-12.8969,1030.4749],[33.6609,-12.8916,1013.0191],[33.6582,-12.886,1031.522],[33.6546,-12.888,998.8462],[33.6513,-12.8876,984.7936],[33.6444,-12.9043,1017.3184],[33.6296,-12.9198,1041.0889],[33.6253,-12.9208,1064.6558],[33.618,-12.9165,1033.5604]]]]}
,"properties": {"GID_3": "MWI.9.16.10_1","GID_0": "MWI","country": "Malawi","GID_1": "MWI.9_1","province": "Kasungu","NL_NAME_1": "NA","GID_2": "MWI.9.16_1","county": "TAWimbe","NL_NAME_2": "NA","city": "n.a.(427)","VARNAME_3": "NA","NL_NAME_3": "NA","TYPE_3": "Unknown","ENGTYPE_3": "Unknown","CC_3": "NA","HASC_3": "NA","name": "n.a.(427).city","area_km2": 52.21681,"hist_schema_id": "Elevation0-9000","hist_area_km2": {"1000": 1.79805,"1025": 5.82774,"1050": 10.37364,"1075": 15.80759,"1100": 13.07906,"1125": 4.48362,"1150": 0.84712}}}