{"type":"Feature","properties":{"GID_3":"MWI.17.9.8_1","GID_0":"MWI","country":"Malawi","GID_1":"MWI.17_1","province":"Mzimba","NL_NAME_1":"NA","GID_2":"MWI.17.9_1","county":"TAMpherembe","NL_NAME_2":"NA","city":"n.a.(182)","VARNAME_3":"NA","NL_NAME_3":"NA","TYPE_3":"Unknown","ENGTYPE_3":"Unknown","CC_3":"NA","HASC_3":"NA","name":"n.a.(182).city"},
"geometry":{"type": "MultiPolygon","coordinates": [[[[33.5973,-11.2891,1179.0623],[33.5992,-11.2889,1176.1989],[33.6071,-11.2976,1188.765],[33.6183,-11.2949,1211.5986],[33.6174,-11.2883,1201.4534],[33.6191,-11.2833,1189.6792],[33.6061,-11.2681,1176.0228],[33.5971,-11.2824,1170.3256],[33.5973,-11.2891,1179.0623]]]]}}