{"type":"Feature","properties":{"GID_3":"MWI.11.7.22_1","GID_0":"MWI","country":"Malawi","GID_1":"MWI.11_1","province":"Lilongwe","NL_NAME_1":"NA","GID_2":"MWI.11.7_1","county":"TAChimutu","NL_NAME_2":"NA","city":"n.a.(981)","VARNAME_3":"NA","NL_NAME_3":"NA","TYPE_3":"Unknown","ENGTYPE_3":"Unknown","CC_3":"NA","HASC_3":"NA","name":"n.a.(981).city"},
"geometry":{"type": "MultiPolygon","coordinates": [[[[34.0379,-13.8439,919.8809],[34.0365,-13.8455,912.2929],[34.0376,-13.8484,927.2454],[34.0292,-13.8506,971.019],[34.0253,-13.8492,984.9073],[34.0169,-13.8494,1024.723],[34.0142,-13.8474,1031.6069],[33.9936,-13.8509,1081.1603],[33.9934,-13.8429,1058.5815],[33.9759,-13.8529,1121.5045],[33.9716,-13.8571,1126.8704],[33.9639,-13.859,1135.5198],[33.9629,-13.8611,1135.6486],[33.9739,-13.8617,1134.5884],[33.9776,-13.8633,1136.9211],[33.9805,-13.8668,1153.858],[33.9919,-13.8621,1113.5834],[34.0036,-13.8634,1043.6332],[34.0128,-13.8658,1026.3043],[34.0199,-13.8721,1034.8958],[34.022,-13.8723,1023.8596],[34.0295,-13.8677,1035.8629],[34.0335,-13.8694,1065.9216],[34.0378,-13.8689,1077.3132],[34.0423,-13.8713,1125.3605],[34.0493,-13.8638,1077.0641],[34.0539,-13.8625,1060.031],[34.0562,-13.8557,1026.6102],[34.0662,-13.8484,1025.0627],[34.0742,-13.8373,910.6244],[34.0782,-13.8342,900.6775],[34.0734,-13.8285,914.9211],[34.067,-13.8285,885.0172],[34.0672,-13.8242,946.0573],[34.0603,-13.8241,934.1898],[34.0579,-13.8306,924.1631],[34.0535,-13.8303,919.4855],[34.0478,-13.8336,935.876],[34.0461,-13.838,918.8422],[34.0379,-13.8439,919.8809]]]]}}