{"type":"Feature","properties":{"GID_3":"MWI.27.6.24_1","GID_0":"MWI","country":"Malawi","GID_1":"MWI.27_1","province":"Thyolo","NL_NAME_1":"NA","GID_2":"MWI.27.6_1","county":"TABvumbwe","NL_NAME_2":"NA","city":"n.a.(2754)","VARNAME_3":"NA","NL_NAME_3":"NA","TYPE_3":"Unknown","ENGTYPE_3":"Unknown","CC_3":"NA","HASC_3":"NA","name":"n.a.(2754).city"},
"geometry":{"type": "MultiPolygon","coordinates": [[[[35.0695,-15.9918,1200.6646],[35.0682,-15.9963,1196.989],[35.0589,-15.9958,1151.7645],[35.0585,-16.0004,1154.0925],[35.0546,-16.0035,1158.01],[35.051,-16.0025,1157.7632],[35.0497,-16.0002,1148.9529],[35.044,-16.0006,1152.3099],[35.0413,-16.005,1170.2878],[35.0345,-16.0053,1135.824],[35.0336,-16.0086,1172.3077],[35.0309,-16.0085,1198.3969],[35.0315,-16.0115,1229.0992],[35.0368,-16.0121,1212.6145],[35.0358,-16.0155,1240.1947],[35.0374,-16.0161,1227.0994],[35.0383,-16.0197,1137.8313],[35.0487,-16.0158,1130.9111],[35.0492,-16.0185,1131.429],[35.0539,-16.0213,1081.541],[35.0572,-16.0192,1083.6373],[35.0582,-16.0236,1048.6267],[35.0607,-16.0251,1044.4541],[35.0657,-16.0193,1084.689],[35.0667,-16.0127,1117.0576],[35.0776,-16.0014,1148.4174],[35.0755,-15.9952,1168.791],[35.0695,-15.9918,1200.6646]]]]}}