{"type":"Feature","properties":{"GID_3":"MWI.18.1.1_1","GID_0":"MWI","country":"Malawi","GID_1":"MWI.18_1","province":"Neno","NL_NAME_1":"NA","GID_2":"MWI.18.1_1","county":"MajeteGameReserve-Neno","NL_NAME_2":"NA","city":"n.a.(2469)","VARNAME_3":"NA","NL_NAME_3":"NA","TYPE_3":"Unknown","ENGTYPE_3":"Unknown","CC_3":"NA","HASC_3":"NA","name":"n.a.(2469).city"},
"geometry":{"type": "MultiPolygon","coordinates": [[[[34.7358,-15.782,212.4784],[34.6857,-15.7842,243.6105],[34.6909,-15.7905,234.8177],[34.695,-15.7907,237.006],[34.6977,-15.7977,241.0025],[34.704,-15.8052,222.449],[34.7111,-15.8062,232.2785],[34.7129,-15.8116,207.3141],[34.7239,-15.8111,221.3514],[34.7332,-15.8164,186.7602],[34.7339,-15.7911,209.9128],[34.7358,-15.782,212.4784]]]]}}