{"type": "Feature","bbox": [33.312,-13.8701,33.3766,-13.8164],"geometry": {"type": "MultiPolygon","coordinates": [[[[33.3766,-13.8701,1169.6868],[33.3726,-13.8533,1166.1342],[33.3688,-13.8534,1159.9479],[33.3587,-13.8424,1145.054],[33.3447,-13.8357,1113.8669],[33.3436,-13.8327,1115.821],[33.3452,-13.8261,1129.0507],[33.3443,-13.8164,1129.4304],[33.3386,-13.8207,1118.9653],[33.3341,-13.8202,1114.6532],[33.3308,-13.8267,1102.5162],[33.3215,-13.8309,1097.6919],[33.3124,-13.8399,1110.8672],[33.312,-13.8512,1107.3093],[33.3294,-13.8533,1115.2544],[33.3474,-13.8675,1133.8162],[33.3766,-13.8701,1169.6868]]]]}
,"properties": {"GID_3": "MWI.11.14.24_1","GID_0": "MWI","country": "Malawi","GID_1": "MWI.11_1","province": "Lilongwe","NL_NAME_1": "NA","GID_2": "MWI.11.14_1","county": "TAKhongoni","NL_NAME_2": "NA","city": "n.a.(975)","VARNAME_3": "NA","NL_NAME_3": "NA","TYPE_3": "Unknown","ENGTYPE_3": "Unknown","CC_3": "NA","HASC_3": "NA","name": "n.a.(975).city","area_km2": 19.68022,"hist_schema_id": "Elevation0-9000","hist_area_km2": {"1100": 3.23219,"1125": 10.19016,"1150": 5.68149,"1175": 0.57637}}}