{"type":"Feature","properties":{"GID_3":"MWI.19.3.4_1","GID_0":"MWI","country":"Malawi","GID_1":"MWI.19_1","province":"NkhataBay","NL_NAME_1":"NA","GID_2":"MWI.19.3_1","county":"SCMalanda","NL_NAME_2":"NA","city":"n.a.(265)","VARNAME_3":"NA","NL_NAME_3":"NA","TYPE_3":"Unknown","ENGTYPE_3":"Unknown","CC_3":"NA","HASC_3":"NA","name":"n.a.(265).city"},
"geometry":{"type": "MultiPolygon","coordinates": [[[[34.1754,-11.819,493.7959],[34.1635,-11.8184,480.505],[34.1621,-11.8272,483.8053],[34.1544,-11.8287,496.7509],[34.153,-11.8304,492.7161],[34.1561,-11.8359,485.8625],[34.1535,-11.8443,492.6437],[34.1382,-11.86,523.7817],[34.1317,-11.8604,540.7318],[34.1305,-11.8773,522.8906],[34.1332,-11.8775,519.4775],[34.1366,-11.8751,522.0883],[34.1395,-11.8802,512.2208],[34.146,-11.8832,508.4522],[34.1501,-11.8947,503.1076],[34.1653,-11.9001,481.0366],[34.1644,-11.8867,484.9404],[34.1677,-11.8789,488.8796],[34.1665,-11.8727,489.6615],[34.1717,-11.8664,488.8534],[34.1709,-11.8589,491.7754],[34.1768,-11.8525,481.2632],[34.175,-11.8484,481.2634],[34.1756,-11.8446,481.7716],[34.1737,-11.8429,489.5391],[34.175,-11.8374,477.1953],[34.1726,-11.8323,490.6488],[34.1759,-11.8269,482.4808],[34.1742,-11.8207,487.0539],[34.1754,-11.819,493.7959]]]]}}