{"type":"Feature","properties":{"GID_3":"MWI.13.9.13_1","GID_0":"MWI","country":"Malawi","GID_1":"MWI.13_1","province":"Mangochi","NL_NAME_1":"NA","GID_2":"MWI.13.9_1","county":"TAJalasi","NL_NAME_2":"NA","city":"n.a.(1506)","VARNAME_3":"NA","NL_NAME_3":"NA","TYPE_3":"Unknown","ENGTYPE_3":"Unknown","CC_3":"NA","HASC_3":"NA","name":"n.a.(1506).city"},
"geometry":{"type": "MultiPolygon","coordinates": [[[[35.4847,-14.3452,929.4918],[35.4756,-14.3461,942.44],[35.4719,-14.3434,959.6025],[35.4641,-14.3431,983.1379],[35.4571,-14.349,983.2218],[35.457,-14.3536,988.2054],[35.4522,-14.3562,992.45],[35.4562,-14.36,967.8043],[35.4552,-14.3655,959.5349],[35.4571,-14.3717,951.0349],[35.465,-14.3857,926.2021],[35.4684,-14.3885,913.6129],[35.4679,-14.3921,912.7358],[35.471,-14.3977,924.5617],[35.4762,-14.3926,911.65],[35.4808,-14.3914,916.8318],[35.4904,-14.3843,899.392],[35.5078,-14.3845,883.8517],[35.5131,-14.3788,887.236],[35.5103,-14.3697,912.5452],[35.508,-14.3694,902.0624],[35.5034,-14.3786,883.3455],[35.4976,-14.3671,908.6566],[35.4903,-14.3627,935.0872],[35.4915,-14.3605,923.1008],[35.4953,-14.3607,907.7547],[35.491,-14.3464,915.1913],[35.4874,-14.3445,926.1378],[35.4847,-14.3452,929.4918]]]]}}