{"type":"Feature","properties":{"GID_2":"MWI.20.6_1","GID_0":"MWI","country":"Malawi","GID_1":"MWI.20_1","province":"Nkhotakota","NL_NAME_1":"NA","county":"SCMwansambo","VARNAME_2":"NA","NL_NAME_2":"NA","TYPE_2":"Sub-chief","ENGTYPE_2":"Sub-chief","CC_2":"NA","HASC_2":"NA","name":"S_C_Mwansambo.county"},
"geometry":{"type": "MultiPolygon","coordinates": [[[[34.1794,-13.3861,637.8795],[34.2063,-13.3153,583.8409],[34.1799,-13.2889,771.8822],[34.1739,-13.2587,585.6055],[34.1787,-13.254,573.4341],[34.179,-13.241,575.8903],[34.1844,-13.2388,566.2832],[34.1453,-13.1671,579.8107],[34.1376,-13.1731,580.0859],[34.131,-13.1685,582.5573],[34.1305,-13.1658,592.3706],[34.1255,-13.1618,611.9794],[34.1181,-13.1607,618.769],[34.113,-13.1578,632.4633],[34.1021,-13.159,673.7196],[34.0975,-13.162,723.6783],[34.0869,-13.1619,803.8512],[34.1076,-13.2587,620.6306],[34.1065,-13.2624,636.8868],[34.1025,-13.2624,648.5055],[34.1014,-13.2667,659.3906],[34.0872,-13.2705,691.1738],[34.0838,-13.2783,699.7718],[34.0847,-13.2861,696.7913],[34.0888,-13.298,700.838],[34.0953,-13.3012,704.6782],[34.0978,-13.3152,706.7423],[34.1017,-13.3169,699.693],[34.1034,-13.3436,707.8311],[34.1158,-13.3402,679.1453],[34.1193,-13.348,692.7557],[34.1161,-13.3525,717.6898],[34.111,-13.3541,721.5807],[34.1056,-13.364,773.5505],[34.1051,-13.3684,773.6375],[34.1132,-13.4331,718.1429],[34.1204,-13.4321,681.0118],[34.1229,-13.4342,687.7189],[34.1304,-13.4285,677.3694],[34.1343,-13.4294,662.3264],[34.1388,-13.4232,659.8616],[34.1442,-13.4214,648.3535],[34.1481,-13.4151,650.1497],[34.1523,-13.4157,655.3679],[34.1684,-13.4052,610.1717],[34.176,-13.3963,603.5794],[34.1794,-13.3861,637.8795]]]]}}