{"type": "Feature","bbox": [35.1257,-16.0817,35.1602,-16.0591],"geometry": {"type": "MultiPolygon","coordinates": [[[[35.1542,-16.0614,897.2925],[35.1496,-16.0628,902.7508],[35.1387,-16.062,933.7186],[35.1331,-16.0637,951.0923],[35.1286,-16.0591,995.549],[35.1257,-16.0598,974.0382],[35.128,-16.0636,969.1166],[35.1367,-16.0674,964.4509],[35.1372,-16.0772,889.5873],[35.1421,-16.0817,885.7695],[35.1444,-16.0805,899.6233],[35.1435,-16.0778,919.9042],[35.1462,-16.0786,912.1259],[35.1485,-16.0772,920.5049],[35.148,-16.075,925.0712],[35.1602,-16.0649,894.1542],[35.1568,-16.0609,895.6836],[35.1542,-16.0614,897.2925]]]]}
,"properties": {"GID_2": "MWI.27.13_1","GID_0": "MWI","country": "Malawi","GID_1": "MWI.27_1","province": "Thyolo","NL_NAME_1": "NA","county": "ThyoloBoma","VARNAME_2": "NA","NL_NAME_2": "NA","TYPE_2": "Boma","ENGTYPE_2": "Headquarter","CC_2": "NA","HASC_2": "NA","name": "Thyolo_Boma.county","area_km2": 3.748787,"hist_schema_id": "Elevation0-9000","hist_area_km2": {"875": 0.122239,"900": 1.222423,"925": 1.609529,"950": 0.509354,"975": 0.285242}}}