{"type": "Feature","bbox": [35.2042,-16.1893,35.3314,-16.0442],"geometry": {"type": "MultiPolygon","coordinates": [[[[35.2868,-16.1632,460.5826],[35.2931,-16.157,455.6457],[35.2919,-16.1523,457.8021],[35.2966,-16.1464,459.6874],[35.3087,-16.1401,485.0894],[35.3207,-16.1395,485.9251],[35.3203,-16.1314,498.5572],[35.3262,-16.1283,493.6543],[35.3289,-16.1246,495.9298],[35.3314,-16.1076,520.3638],[35.3284,-16.0974,580.5168],[35.321,-16.0958,579.8642],[35.32,-16.0943,583.3976],[35.3252,-16.0724,592.0398],[35.3234,-16.0675,626.15],[35.3196,-16.0646,629.7928],[35.3194,-16.0599,639.6882],[35.3132,-16.0572,640.4747],[35.3116,-16.0526,654.0538],[35.3099,-16.0533,648.7644],[35.3039,-16.0504,671.7518],[35.3016,-16.052,656.0441],[35.3001,-16.0485,666.5004],[35.2962,-16.0517,659.865],[35.2945,-16.051,667.2152],[35.2955,-16.0475,678.2224],[35.289,-16.0477,671.2893],[35.2867,-16.0445,677.5947],[35.2816,-16.0442,674.0503],[35.2784,-16.0462,681.5073],[35.2805,-16.0478,679.4268],[35.2795,-16.0503,678.4509],[35.2741,-16.0513,687.3483],[35.2704,-16.0554,691.3056],[35.2688,-16.0544,694.4433],[35.2689,-16.0517,697.4879],[35.2657,-16.053,697.0884],[35.2623,-16.0507,708.2428],[35.2594,-16.0512,698.6654],[35.2584,-16.054,704.0248],[35.2561,-16.0536,708.0536],[35.2529,-16.0572,705.5658],[35.2475,-16.0587,721.3553],[35.2264,-16.0825,766.26],[35.2277,-16.0885,786.9614],[35.2331,-16.0847,777.7866],[35.2353,-16.0859,774.5156],[35.2349,-16.0923,760.0834],[35.2276,-16.1041,727.6282],[35.2292,-16.1117,699.8191],[35.2269,-16.1172,685.037],[35.2229,-16.1186,666.3556],[35.2205,-16.1247,657.8548],[35.2155,-16.1251,643.868],[35.2176,-16.1282,644.2234],[35.2174,-16.131,646.1572],[35.2141,-16.1335,632.8402],[35.2139,-16.1361,622.6193],[35.212,-16.1363,601.713],[35.2121,-16.1416,574.5425],[35.2084,-16.1446,565.2806],[35.2042,-16.1523,510.1017],[35.2119,-16.1558,552.4697],[35.216,-16.1596,504.2768],[35.2171,-16.163,504.6353],[35.2255,-16.1635,501.2128],[35.228,-16.1684,495.5312],[35.2319,-16.1653,489.356],[35.232,-16.168,482.6768],[35.2353,-16.1697,495.9062],[35.2355,-16.1732,479.7547],[35.2423,-16.171,546.8263],[35.2442,-16.1753,510.7562],[35.2504,-16.177,550.9434],[35.2631,-16.1884,472.7208],[35.2667,-16.1893,466.1711],[35.2745,-16.1863,449.0678],[35.2792,-16.1892,410.7919],[35.2818,-16.188,415.6027],[35.278,-16.1844,422.7088],[35.2839,-16.1773,448.3233],[35.2868,-16.1632,460.5826]]]]}
,"properties": {"GID_2": "MWI.27.9_1","GID_0": "MWI","country": "Malawi","GID_1": "MWI.27_1","province": "Thyolo","NL_NAME_1": "NA","county": "TAKapichi","VARNAME_2": "NA","NL_NAME_2": "NA","TYPE_2": "TraditionalAuthority","ENGTYPE_2": "TraditionalAuthority","CC_2": "NA","HASC_2": "NA","name": "T_A_Kapichi.county","area_km2": 133.4385,"hist_schema_id": "Elevation0-9000","hist_area_km2": {"400": 0.0204,"425": 0.2036,"450": 0.9774,"475": 2.179,"500": 3.3806,"525": 4.2767,"550": 6.3337,"575": 7.9836,"600": 10.7333,"625": 14.0537,"650": 18.2921,"675": 21.7355,"700": 18.171,"725": 14.1989,"750": 7.8432,"775": 3.0557}}}