{"type":"Feature","properties":{"GID_3":"MWI.11.11.13_1","GID_0":"MWI","country":"Malawi","GID_1":"MWI.11_1","province":"Lilongwe","NL_NAME_1":"NA","GID_2":"MWI.11.11_1","county":"TAKalolo","NL_NAME_2":"NA","city":"n.a.(1093)","VARNAME_3":"NA","NL_NAME_3":"NA","TYPE_3":"Unknown","ENGTYPE_3":"Unknown","CC_3":"NA","HASC_3":"NA","name":"n.a.(1093).city"},
"geometry":{"type": "MultiPolygon","coordinates": [[[[33.3311,-13.9659,1092.8525],[33.3373,-13.9723,1091.5867],[33.3396,-13.9789,1102.9587],[33.3435,-13.9763,1100.6683],[33.3687,-13.9759,1150.3684],[33.3842,-13.9842,1146.9685],[33.3731,-13.9716,1144.1674],[33.3686,-13.9601,1128.9772],[33.3569,-13.948,1119.6112],[33.3558,-13.9478,1126.1138],[33.3555,-13.9567,1132.2042],[33.35,-13.9583,1126.676],[33.3407,-13.9573,1123.2805],[33.3311,-13.9659,1092.8525]]]]}}