{"type": "Feature","bbox": [35.1983,-15.417,35.2434,-15.386],"geometry": {"type": "MultiPolygon","coordinates": [[[[35.2213,-15.3893,933.1296],[35.2178,-15.3908,885.5986],[35.214,-15.3961,760.6155],[35.2091,-15.3966,705.9549],[35.1983,-15.4127,665.1046],[35.2063,-15.4155,1048.0916],[35.2088,-15.4135,1052.9562],[35.2146,-15.4136,1039.5726],[35.2215,-15.417,1192.1566],[35.2245,-15.4147,1208.9915],[35.2265,-15.4095,1214.2672],[35.2375,-15.4142,1137.4338],[35.2434,-15.4028,1105.6333],[35.2394,-15.4001,1098.6714],[35.2418,-15.3954,1072.9062],[35.238,-15.3889,1075.2327],[35.233,-15.386,1102.8304],[35.2254,-15.3865,958.8926],[35.2213,-15.3893,933.1296]]]]}
,"properties": {"GID_3": "MWI.28.7.30_1","GID_0": "MWI","country": "Malawi","GID_1": "MWI.28_1","province": "Zomba","NL_NAME_1": "NA","GID_2": "MWI.28.7_1","county": "TAMlumbe","NL_NAME_2": "NA","city": "n.a.(2159)","VARNAME_3": "NA","NL_NAME_3": "NA","TYPE_3": "Unknown","ENGTYPE_3": "Unknown","CC_3": "NA","HASC_3": "NA","name": "n.a.(2159).city","area_km2": 10.097722,"hist_schema_id": "Elevation0-9000","hist_area_km2": {"700": 0.286168,"725": 0.204405,"750": 0.143085,"775": 0.265728,"800": 0.24529,"825": 0.245288,"850": 0.224852,"875": 0.224846,"900": 0.265731,"925": 0.347497,"950": 0.347494,"975": 0.36793,"1000": 0.327051,"1025": 0.490569,"1050": 0.367935,"1075": 0.919857,"1100": 1.594399,"1125": 1.533041,"1150": 0.878944,"1175": 0.347489,"1200": 0.347482,"1225": 0.12264}}}