{"type": "Feature","bbox": [35.2094,-16.9428,35.2847,-16.8779],"geometry": {"type": "MultiPolygon","coordinates": [[[[35.2737,-16.9153,37.3971],[35.2837,-16.9021,38.4202],[35.2847,-16.898,38.3661],[35.2778,-16.8944,38.6491],[35.2734,-16.894,39.1147],[35.2734,-16.8906,37.9977],[35.2675,-16.8878,52.3461],[35.2611,-16.8806,70.7092],[35.2558,-16.8779,91.9741],[35.2376,-16.8791,183.2567],[35.2423,-16.8955,96.1966],[35.2288,-16.9125,152.2973],[35.2141,-16.9244,179.0328],[35.2094,-16.9303,180.1819],[35.2134,-16.9319,110.6819],[35.2175,-16.9372,78.3001],[35.2253,-16.9339,75.9021],[35.2305,-16.9428,48.4724],[35.2377,-16.9404,44.6986],[35.2371,-16.9284,55.6813],[35.2411,-16.9211,68.1349],[35.2404,-16.9159,69.3357],[35.2383,-16.914,71.443],[35.2382,-16.9075,82.1073],[35.2497,-16.9027,71.3195],[35.2727,-16.9032,38.2494],[35.271,-16.9121,37.7987],[35.2737,-16.9153,37.3971]]]]}
,"properties": {"GID_3": "MWI.21.6.4_1","GID_0": "MWI","country": "Malawi","GID_1": "MWI.21_1","province": "Nsanje","NL_NAME_1": "NA","GID_2": "MWI.21.6_1","county": "TAMalemia","NL_NAME_2": "NA","city": "n.a.(3100)","VARNAME_3": "NA","NL_NAME_3": "NA","TYPE_3": "Unknown","ENGTYPE_3": "Unknown","CC_3": "NA","HASC_3": "NA","name": "n.a.(3100).city","area_km2": 17.9124,"hist_schema_id": "Elevation0-9000","hist_area_km2": {"25": 0.12172,"50": 6.26831,"75": 5.57856,"100": 3.55004,"125": 1.07515,"150": 0.7303,"175": 0.40573,"200": 0.18258}}}