{"type":"Feature","properties":{"GID_3":"MWI.21.7.14_1","GID_0":"MWI","country":"Malawi","GID_1":"MWI.21_1","province":"Nsanje","NL_NAME_1":"NA","GID_2":"MWI.21.7_1","county":"TAMlolo","NL_NAME_2":"NA","city":"n.a.(3054)","VARNAME_3":"NA","NL_NAME_3":"NA","TYPE_3":"Unknown","ENGTYPE_3":"Unknown","CC_3":"NA","HASC_3":"NA","name":"n.a.(3054).city"},
"geometry":{"type": "MultiPolygon","coordinates": [[[[35.2334,-16.4534,143.646],[35.2312,-16.4562,140.7248],[35.2322,-16.4616,120.786],[35.2301,-16.4741,95.7928],[35.2016,-16.4801,58.1242],[35.2007,-16.495,56.9397],[35.2049,-16.5028,56.4986],[35.1951,-16.5022,55.079],[35.187,-16.5116,52.9561],[35.1909,-16.5116,53.9404],[35.1911,-16.5157,53.9362],[35.2084,-16.5154,54.9306],[35.2103,-16.5138,55.6565],[35.2046,-16.5079,56.0396],[35.2125,-16.5,55.594],[35.2145,-16.4954,58.1095],[35.2192,-16.4933,58.0964],[35.2438,-16.4899,61.287],[35.25,-16.4867,73.339],[35.257,-16.4792,77.751],[35.2622,-16.4703,65.5616],[35.2635,-16.4593,71.4889],[35.2625,-16.4436,79.2485],[35.2537,-16.4491,107.5326],[35.2334,-16.4534,143.646]]]]}}