{"type":"Feature","properties":{"GID_3":"MWI.15.5.5_1","GID_0":"MWI","country":"Malawi","GID_1":"MWI.15_1","province":"Mulanje","NL_NAME_1":"NA","GID_2":"MWI.15.5_1","county":"TAChikumbu","NL_NAME_2":"NA","city":"n.a.(2743)","VARNAME_3":"NA","NL_NAME_3":"NA","TYPE_3":"Unknown","ENGTYPE_3":"Unknown","CC_3":"NA","HASC_3":"NA","name":"n.a.(2743).city"},
"geometry":{"type": "MultiPolygon","coordinates": [[[[35.3792,-15.9856,726.2449],[35.3762,-15.9862,725.2608],[35.377,-15.9931,721.0193],[35.3737,-16.0011,716.26],[35.3738,-16.0108,709.6359],[35.3823,-16.0108,714.1774],[35.3826,-16.0133,712.6002],[35.4007,-16.0103,686.2998],[35.4095,-16.0043,696.0436],[35.4171,-16.008,672.3988],[35.4217,-16.0085,654.5456],[35.4131,-15.9971,680.6652],[35.4065,-15.9957,689.3736],[35.4045,-15.9927,706.7769],[35.398,-15.9935,709.9194],[35.3942,-15.9974,725.8394],[35.3905,-15.9987,728.0457],[35.3792,-15.9856,726.2449]]]]}}