{"type":"Feature","properties":{"GID_3":"MWI.9.5.3_1","GID_0":"MWI","country":"Malawi","GID_1":"MWI.9_1","province":"Kasungu","NL_NAME_1":"NA","GID_2":"MWI.9.5_1","county":"SCKawamba","NL_NAME_2":"NA","city":"n.a.(524)","VARNAME_3":"NA","NL_NAME_3":"NA","TYPE_3":"Unknown","ENGTYPE_3":"Unknown","CC_3":"NA","HASC_3":"NA","name":"n.a.(524).city"},
"geometry":{"type": "MultiPolygon","coordinates": [[[[33.3769,-13.2732,1048.6183],[33.3802,-13.2831,1045.7617],[33.3909,-13.2921,1051.2587],[33.3939,-13.298,1045.3647],[33.3948,-13.3041,1043.8285],[33.3976,-13.3073,1044.9921],[33.4018,-13.3083,1048.6914],[33.4066,-13.3138,1043.696],[33.414,-13.3155,1047.4045],[33.4228,-13.3217,1039.7855],[33.4311,-13.3171,1054.1097],[33.4328,-13.3132,1057.4908],[33.431399999999996,-13.3109,1061.152],[33.4214,-13.3103,1086.7743],[33.4246,-13.3046,1179.511],[33.4233,-13.2995,1069.8401],[33.424,-13.192,1083.5463],[33.4198,-13.1905,1082.9225],[33.4168,-13.1861,1089.2242],[33.3995,-13.1956,1094.0597],[33.3939,-13.2004,1096.4121],[33.3857,-13.2009,1099.7224],[33.3804,-13.1987,1102.224],[33.3789,-13.2002,1102.3293],[33.3778,-13.2124,1103.8489],[33.3833,-13.2226,1091.3848],[33.3875,-13.2473,1071.03],[33.3857,-13.2545,1065.2318],[33.3801,-13.2635,1058.7635],[33.3769,-13.2732,1048.6183]]]]}}