{"type": "Feature","bbox": [35.1414,-16.9663,35.2423,-16.8428],"geometry": {"type": "MultiPolygon","coordinates": [[[[35.2368,-16.8428,188.6891],[35.2258,-16.8448,230.9527],[35.223,-16.8486,328.2751],[35.2246,-16.8507,236.2176],[35.2237,-16.853,247.2786],[35.2178,-16.854,349.2848],[35.2127,-16.8584,330.2725],[35.1963,-16.8573,510.3285],[35.1876,-16.8607,518.374],[35.1773,-16.8556,530.4136],[35.1689,-16.8604,563.8514],[35.1616,-16.8583,583.0337],[35.1607,-16.8598,586.6345],[35.1568,-16.8601,592.1589],[35.1515,-16.8675,546.5402],[35.1502,-16.8748,547.6197],[35.1532,-16.8775,562.4675],[35.1553,-16.8848,554.9473],[35.1606,-16.886,530.4929],[35.1691,-16.8778,446.3255],[35.1788,-16.8779,388.6655],[35.1813,-16.88,383.0744],[35.1798,-16.8824,369.7009],[35.1725,-16.883,444.7333],[35.1709,-16.8869,467.2331],[35.1684,-16.8885,501.551],[35.1695,-16.8931,509.7433],[35.178,-16.8955,531.1732],[35.1804,-16.8996,565.6779],[35.1884,-16.8965,471.5419],[35.1903,-16.8989,478.1393],[35.1963,-16.9015,416.2516],[35.1909,-16.9045,460.5015],[35.1924,-16.9098,482.1072],[35.1907,-16.9204,676.652],[35.1803,-16.9215,670.332],[35.173,-16.9268,703.8081],[35.168,-16.928,750.4426],[35.1685,-16.9318,770.3236],[35.1723,-16.9353,891.86],[35.1697,-16.938,866.5151],[35.166,-16.9385,831.7248],[35.1632,-16.9418,761.4835],[35.1558,-16.9388,693.345],[35.1501,-16.9409,547.4746],[35.142,-16.9572,579.2339],[35.1434,-16.9591,626.3346],[35.1414,-16.9617,716.6702],[35.1463,-16.9613,598.905],[35.1494,-16.9593,591.8631],[35.15,-16.9529,521.566],[35.1535,-16.9496,513.2418],[35.1612,-16.9505,478.0153],[35.1736,-16.959,270.2253],[35.18,-16.9596,240.6809],[35.1904,-16.9663,141.121],[35.1944,-16.963,164.4988],[35.2094,-16.9303,180.1819],[35.2141,-16.9244,179.0328],[35.2288,-16.9125,152.2973],[35.2423,-16.8955,96.1966],[35.2371,-16.8782,183.2567],[35.2347,-16.8623,204.7528],[35.235,-16.8499,219.8647],[35.2368,-16.8428,188.6891]]]]}
,"properties": {"GID_3": "MWI.21.6.2_1","GID_0": "MWI","country": "Malawi","GID_1": "MWI.21_1","province": "Nsanje","NL_NAME_1": "NA","GID_2": "MWI.21.6_1","county": "TAMalemia","NL_NAME_2": "NA","city": "n.a.(3098)","VARNAME_3": "NA","NL_NAME_3": "NA","TYPE_3": "Unknown","ENGTYPE_3": "Unknown","CC_3": "NA","HASC_3": "NA","name": "n.a.(3098).city","area_km2": 68.83231,"hist_schema_id": "Elevation0-9000","hist_area_km2": {"100": 0.10143,"125": 0.36515,"150": 0.83173,"175": 1.39974,"200": 1.94751,"225": 2.73885,"250": 2.86044,"275": 2.98218,"300": 3.69223,"325": 4.11836,"350": 4.32123,"375": 4.7067,"400": 4.26029,"425": 3.12419,"450": 3.57055,"475": 3.91545,"500": 3.99657,"525": 4.05736,"550": 3.30661,"575": 1.98805,"600": 1.48088,"625": 1.27792,"650": 1.13592,"675": 1.1562,"700": 0.95332,"725": 0.81134,"750": 0.85189,"775": 0.62877,"800": 0.62878,"825": 0.50708,"850": 0.42594,"875": 0.34481,"900": 0.20283,"925": 0.14198}}}