{"type": "Feature","bbox": [34.0825,-11.5667,34.1971,-11.3952],"geometry": {"type": "MultiPolygon","coordinates": [[[[34.0882,-11.4671,1502.1838],[34.0899,-11.4747,1488.5769],[34.0836,-11.4764,1434.4882],[34.0873,-11.4834,1384.3745],[34.0949,-11.49,1315.282],[34.094,-11.5106,991.9346],[34.0959,-11.5176,940.4753],[34.1012,-11.527,948.5664],[34.1051,-11.5261,889.3027],[34.1102,-11.5178,858.9155],[34.1303,-11.5269,746.8912],[34.1372,-11.5269,682.7069],[34.1465,-11.5219,646.2419],[34.1494,-11.5242,636.2033],[34.151,-11.5288,651.7271],[34.1527,-11.549,598.2927],[34.1596,-11.5487,589.9167],[34.1655,-11.5511,590.5828],[34.1615,-11.5609,578.0084],[34.1676,-11.5579,573.032],[34.1716,-11.5606,610.0359],[34.1731,-11.566,635.6376],[34.1839,-11.5611,603.2928],[34.1881,-11.5624,575.6635],[34.1926,-11.5667,540.9619],[34.195,-11.5665,533.3378],[34.1971,-11.5595,540.975],[34.1892,-11.5554,585.2575],[34.1867,-11.5484,569.8856],[34.1878,-11.5436,577.4296],[34.1936,-11.5408,556.8376],[34.1895,-11.5384,557.2681],[34.1846,-11.5271,570.9754],[34.1841,-11.5063,595.3372],[34.1855,-11.4998,585.0046],[34.1812,-11.4941,595.734],[34.1762,-11.4924,616.2032],[34.1771,-11.4873,622.2769],[34.1721,-11.4817,638.8136],[34.176,-11.4781,637.0664],[34.1766,-11.4755,639.567],[34.1718,-11.4679,736.7774],[34.1737,-11.4644,684.9803],[34.1701,-11.4543,749.9798],[34.1716,-11.4446,787.8382],[34.1645,-11.4297,827.9529],[34.1639,-11.4146,881.1034],[34.1504,-11.4126,1011.1123],[34.1484,-11.4105,1031.9573],[34.1491,-11.4079,1031.4429],[34.0877,-11.3952,1388.3052],[34.0826,-11.3974,1380.3569],[34.0825,-11.401,1410.6133],[34.088,-11.405,1433.9558],[34.09,-11.4102,1419.2704],[34.0893,-11.415,1396.1038],[34.0829,-11.4231,1442.0017],[34.0829,-11.4256,1450.707],[34.0869,-11.4304,1480.1052],[34.0874,-11.4354,1471.3662],[34.0933,-11.441,1521.6254],[34.0982,-11.4508,1444.3536],[34.0978,-11.4533,1445.6516],[34.0936,-11.4564,1429.3278],[34.092,-11.4635,1477.7504],[34.0882,-11.4671,1502.1838]]]]}
,"properties": {"GID_3": "MWI.19.10.1_1","GID_0": "MWI","country": "Malawi","GID_1": "MWI.19_1","province": "NkhataBay","NL_NAME_1": "NA","GID_2": "MWI.19.10_1","county": "TATimbiri","NL_NAME_2": "NA","city": "n.a.(204)","VARNAME_3": "NA","NL_NAME_3": "NA","TYPE_3": "Unknown","ENGTYPE_3": "Unknown","CC_3": "NA","HASC_3": "NA","name": "n.a.(204).city","area_km2": 135.2053,"hist_schema_id": "Elevation0-9000","hist_area_km2": {"525": 0.0831,"550": 1.2049,"575": 6.5021,"600": 8.5174,"625": 6.2533,"650": 5.7342,"675": 3.3243,"700": 2.3893,"725": 3.6568,"750": 4.6749,"775": 5.5269,"800": 6.0463,"825": 3.657,"850": 4.7583,"875": 5.6934,"900": 6.3791,"925": 5.2986,"950": 4.5922,"975": 2.9092,"1000": 2.4937,"1025": 2.5352,"1050": 1.6417,"1075": 1.3715,"1100": 1.7455,"1125": 1.3299,"1150": 1.1637,"1175": 1.704,"1200": 2.0781,"1225": 1.9949,"1250": 2.2027,"1275": 2.847,"1300": 2.3067,"1325": 2.5146,"1350": 2.6808,"1375": 2.3691,"1400": 2.4731,"1425": 3.7615,"1450": 3.7407,"1475": 2.4313,"1500": 1.7455,"1525": 0.6857,"1550": 0.1455,"1575": 0.0416}}}