{"type":"Feature","properties":{"GID_3":"MWI.9.13.1_1","GID_0":"MWI","country":"Malawi","GID_1":"MWI.9_1","province":"Kasungu","NL_NAME_1":"NA","GID_2":"MWI.9.13_1","county":"TAKapelula","NL_NAME_2":"NA","city":"n.a.(411)","VARNAME_3":"NA","NL_NAME_3":"NA","TYPE_3":"Unknown","ENGTYPE_3":"Unknown","CC_3":"NA","HASC_3":"NA","name":"n.a.(411).city"},
"geometry":{"type": "MultiPolygon","coordinates": [[[[33.8693,-12.8391,1078.8308],[33.8653,-12.8382,1112.1266],[33.8626,-12.8398,1107.0713],[33.851,-12.8376,1140.4673],[33.8488,-12.8354,1163.2959],[33.8445,-12.8244,1144.5613],[33.8377,-12.8224,1106.1686],[33.8262,-12.8242,1055.7158],[33.8211,-12.813,1028.3558],[33.8179,-12.8117,1006.8066],[33.8157,-12.814,1013.8549],[33.8188,-12.8189,1023.9047],[33.8125,-12.825,1033.8298],[33.8117,-12.8278,1037.989],[33.8072,-12.8306,1061.6985],[33.8102,-12.8356,1045.3813],[33.8096,-12.8408,1044.5945],[33.8075,-12.8437,1055.7721],[33.8073,-12.8561,1056.2832],[33.8052,-12.8616,1062.7557],[33.8091,-12.8661,1091.7928],[33.8102,-12.8767,1094.9872],[33.8146,-12.8852,1122.0349],[33.824,-12.8833,1161.9595],[33.8458,-12.8831,1208.4869],[33.8595,-12.8778,1152.2111],[33.8612,-12.8705,1132.9419],[33.8584,-12.8597,1114.6412],[33.8693,-12.8391,1078.8308]]]]}}