{"type":"Feature","properties":{"GID_3":"MWI.28.7.32_1","GID_0":"MWI","country":"Malawi","GID_1":"MWI.28_1","province":"Zomba","NL_NAME_1":"NA","GID_2":"MWI.28.7_1","county":"TAMlumbe","NL_NAME_2":"NA","city":"n.a.(2161)","VARNAME_3":"NA","NL_NAME_3":"NA","TYPE_3":"Unknown","ENGTYPE_3":"Unknown","CC_3":"NA","HASC_3":"NA","name":"n.a.(2161).city"},
"geometry":{"type": "MultiPolygon","coordinates": [[[[35.1248,-15.4835,916.9857],[35.1373,-15.489,856.6471],[35.145,-15.4879,870.9329],[35.1518,-15.4842,927.7507],[35.1563,-15.4847,820.7816],[35.1642,-15.4774,908.395],[35.1666,-15.4703,905.2903],[35.1744,-15.4596,969.9675],[35.1729,-15.4468,717.285],[35.1692,-15.4339,705.4963],[35.1715,-15.4258,783.7002],[35.1776,-15.4174,675.9469],[35.1785,-15.4123,648.902],[35.1771,-15.4038,634.0809],[35.1707,-15.3941,620.578],[35.16,-15.3889,616.832],[35.1604,-15.3862,607.9057],[35.1584,-15.3898,660.8109],[35.1596,-15.3942,619.6086],[35.1568,-15.398,604.9402],[35.1569,-15.4036,613.2448],[35.1488,-15.411,605.8518],[35.1488,-15.4164,618.7629],[35.1524,-15.4298,621.1105],[35.1589,-15.4379,638.4526],[35.1567,-15.4419,650.7113],[35.1549,-15.4423,648.2803],[35.1491,-15.4369,615.7895],[35.1423,-15.4365,607.1747],[35.1305,-15.4427,607.3617],[35.128,-15.449,635.8801],[35.1265,-15.4422,605.1696],[35.1285,-15.4352,593.9695],[35.1275,-15.4337,591.8472],[35.1096,-15.4355,573.453],[35.1057,-15.4341,546.499],[35.1072,-15.4415,579.3014],[35.097,-15.4413,557.0343],[35.0814,-15.4535,608.2638],[35.0878,-15.4619,854.9199],[35.0995,-15.4718,1208.0829],[35.1324,-15.4732,1374.0068],[35.1248,-15.4835,916.9857]]]]}}