{"type": "Feature","bbox": [35.2719,-14.4788,35.2828,-14.4694],"geometry": {"type": "MultiPolygon","coordinates": [[[[35.2761,-14.4788,473.5],[35.2825,-14.4768,477.3629],[35.2828,-14.4707,477.0128],[35.281,-14.4694,477.356],[35.2721,-14.4708,475.3531],[35.2719,-14.4744,473.8911],[35.2761,-14.4788,473.5]]]]}
,"properties": {"GID_3": "MWI.13.3.4_1","GID_0": "MWI","country": "Malawi","GID_1": "MWI.13_1","province": "Mangochi","NL_NAME_1": "NA","GID_2": "MWI.13.3_1","county": "MangochiTown","NL_NAME_2": "NA","city": "n.a.(1622)","VARNAME_3": "NA","NL_NAME_3": "NA","TYPE_3": "Unknown","ENGTYPE_3": "Unknown","CC_3": "NA","HASC_3": "NA","name": "n.a.(1622).city","area_km2": 0.9238178,"hist_schema_id": "Elevation0-9000","hist_area_km2": {"475": 0.9238178}}}