{"type": "Feature","bbox": [33.5254,-13.549,33.6071,-13.4964],"geometry": {"type": "MultiPolygon","coordinates": [[[[33.526,-13.5171,1098.7606],[33.5254,-13.5248,1101.7229],[33.5292,-13.5339,1107.5461],[33.5464,-13.5363,1126.8879],[33.5765,-13.5456,1170.9481],[33.5956,-13.549,1193.1899],[33.5974,-13.5368,1189.1462],[33.6071,-13.5232,1175.0353],[33.5951,-13.5158,1178.256],[33.5874,-13.5178,1166.3767],[33.5838,-13.5233,1165.6738],[33.5809,-13.522,1159.5883],[33.575,-13.5027,1145.8821],[33.5703,-13.5016,1150.7709],[33.5661,-13.4964,1153.3772],[33.5606,-13.508,1151.8433],[33.5614,-13.5172,1165.2686],[33.56,-13.519,1160.7517],[33.5526,-13.5205,1140.2957],[33.5435,-13.5183,1127.041],[33.5354,-13.5244,1111.6162],[33.5312,-13.5225,1103.2294],[33.526,-13.5171,1098.7606]]]]}
,"properties": {"GID_3": "MWI.7.3.31_1","GID_0": "MWI","country": "Malawi","GID_1": "MWI.7_1","province": "Dowa","NL_NAME_1": "NA","GID_2": "MWI.7.3_1","county": "SCChakhaza","NL_NAME_2": "NA","city": "n.a.(680)","VARNAME_3": "NA","NL_NAME_3": "NA","TYPE_3": "Unknown","ENGTYPE_3": "Unknown","CC_3": "NA","HASC_3": "NA","name": "n.a.(680).city","area_km2": 22.79911,"hist_schema_id": "Elevation0-9000","hist_area_km2": {"1100": 1.05132,"1125": 4.28768,"1150": 7.38001,"1175": 8.47228,"1200": 1.60782}}}