{"type":"Feature","properties":{"GID_3":"MWI.11.16.23_1","GID_0":"MWI","country":"Malawi","GID_1":"MWI.11_1","province":"Lilongwe","NL_NAME_1":"NA","GID_2":"MWI.11.16_1","county":"TAMazengera","NL_NAME_2":"NA","city":"n.a.(1192)","VARNAME_3":"NA","NL_NAME_3":"NA","TYPE_3":"Unknown","ENGTYPE_3":"Unknown","CC_3":"NA","HASC_3":"NA","name":"n.a.(1192).city"},
"geometry":{"type": "MultiPolygon","coordinates": [[[[34.0032,-14.0657,1159.062],[33.9953,-14.0635,1190.5725],[33.9931,-14.0638,1191.1221],[33.9912,-14.067,1193.0083],[33.9854,-14.0663,1146.6337],[33.9841,-14.0631,1143.3695],[33.9797,-14.0612,1130.6899],[33.9735,-14.0531,1112.1742],[33.9714,-14.0617,1124.3429],[33.9678,-14.068,1124.6494],[33.9698,-14.0738,1140.6317],[33.9692,-14.0772,1139.8157],[33.972,-14.081,1155.0353],[33.9946,-14.0858,1177.3125],[33.9935,-14.0822,1181.6598],[34.0032,-14.0657,1159.062]]]]}}