{"type":"Feature","properties":{"GID_3":"MWI.13.11.16_1","GID_0":"MWI","country":"Malawi","GID_1":"MWI.13_1","province":"Mangochi","NL_NAME_1":"NA","GID_2":"MWI.13.11_1","county":"TAMakanjila","NL_NAME_2":"NA","city":"n.a.(841)","VARNAME_3":"NA","NL_NAME_3":"NA","TYPE_3":"Unknown","ENGTYPE_3":"Unknown","CC_3":"NA","HASC_3":"NA","name":"n.a.(841).city"},
"geometry":{"type": "MultiPolygon","coordinates": [[[[35.0158,-13.7258,476.9327],[35.0143,-13.7052,485.9046],[35.0163,-13.6997,486.5091],[35.0051,-13.6922,497.1124],[34.9868,-13.6901,492.7675],[34.9841,-13.691,495.5793],[34.983,-13.6931,491.6033],[34.9739,-13.6865,497.5574],[34.9639,-13.6886,503.925],[34.9518,-13.6886,514.9249],[34.9502,-13.69,515.4745],[34.9507,-13.6926,513.3336],[34.9595,-13.6975,523.5687],[34.9679,-13.7054,516.6902],[34.9716,-13.7142,512.2847],[34.9692,-13.7251,485.6245],[35.0043,-13.7237,478.9606],[35.0158,-13.7258,476.9327]]]]}}