{"type": "Feature","bbox": [33.2321,-11.162,34.6519,-10.4895],"geometry": {"type": "MultiPolygon","coordinates": [[[[33.7809,-11.0213,1066.5317],[33.7889,-11.0272,1064.093],[33.7932,-11.0249,1064.759],[33.7943,-11.0234,1062.0885],[33.7928,-11.0223,1069.2471],[33.7966,-11.0187,1071.6277],[33.7988,-11.0196,1063.1711],[33.7991,-11.0179,1076.9824],[33.8068,-11.0208,1077.6654],[33.8114,-11.0206,1072.0308],[33.8167,-11.0256,1059.1779],[33.8197,-11.0265,1059.3215],[33.8204,-11.0249,1061.4482],[33.8256,-11.0291,1058.5842],[33.8271,-11.0272,1059.0564],[33.8302,-11.0285,1058.4326],[33.8311,-11.0253,1064.6586],[33.8343,-11.0255,1065.1377],[33.837,-11.0278,1056.804],[33.8473,-11.0287,1056.233],[33.8585,-11.0264,1053.9143],[33.8616,-11.0314,1060.5625],[33.8676,-11.0355,1054.4088],[33.8768,-11.0331,1057.6122],[33.8966,-11.0315,1059.7086],[33.9013,-11.0322,1107.35],[33.9021,-11.0339,1042.5774],[33.9042,-11.0323,1052.1921],[33.9066,-11.0344,1031.0544],[33.909,-11.0339,1034.774],[33.9117,-11.0303,1048.6785],[33.9125,-11.032,1038.2479],[33.9153,-11.0314,1026.1077],[33.9155,-11.0284,1030.7324],[33.9185,-11.0306,1026.7523],[33.9213,-11.0305,1025.4189],[33.924,-11.0262,1024.1665],[33.9212,-11.0185,1022.4753],[33.9245,-11.0167,1022.4143],[33.923,-11.0097,1022.0433],[33.9261,-11.0037,1031.6644],[33.9256,-11.0001,1029.1768],[33.9274,-10.9972,1027.0244],[33.932,-10.9973,1020.0709],[33.9304,-10.9956,1021.9173],[33.9325,-10.9919,1019.328],[33.9302,-10.9903,1020.3004],[33.9334,-10.9888,1018.8102],[33.9323,-10.9824,1021.6707],[33.9297,-10.9807,1031.2272],[33.9301,-10.9785,1033.723],[33.9354,-10.9761,1017.4341],[33.9417,-10.9614,1017.2933],[33.9411,-10.9634,1017.2342],[33.9428,-10.9657,1016.5958],[33.9631,-10.977,1041.4821],[33.9632,-10.9807,1059.5315],[33.968,-10.9888,1069.2654],[33.9765,-10.9991,1152.098],[33.9808,-11.0023,1153.4186],[33.9832,-11.002,1148.3752],[33.985,-11.0066,1241.4364],[33.9896,-11.0067,1173.0583],[33.992,-11.0121,1218.1609],[33.9994,-11.0111,1229.9939],[34.0138,-11.0246,1270.2583],[34.0166,-11.0299,1287.6758],[34.0304,-11.0387,1353.8623],[34.0404,-11.0485,1411.8728],[34.044,-11.0544,1462.1082],[34.0472,-11.0559,1522.7611],[34.052,-11.063,1677.9778],[34.0485,-11.074,1788.6177],[34.0518,-11.0753,1783.0968],[34.0548,-11.0977,1936.2095],[34.0592,-11.0911,1826.3251],[34.0682,-11.0867,1838.3904],[34.0743,-11.0799,1739.3381],[34.0865,-11.0765,1794.8326],[34.0907,-11.0717,1832.8237],[34.0972,-11.0756,1865.9116],[34.1094,-11.0734,1741.25],[34.1126,-11.0754,1867.7781],[34.1229,-11.0753,1810.1056],[34.1321,-11.0711,1796.6292],[34.1369,-11.0626,1760.349],[34.1409,-11.0598,1807.1544],[34.1523,-11.0597,1848.7181],[34.1602,-11.0523,1684.5361],[34.1677,-11.0532,1717.025],[34.172,-11.0516,1761.5125],[34.1816,-11.0382,1711.0007],[34.1922,-11.0112,1189.4878],[34.1917,-11.0043,1042.9589],[34.1973,-10.9957,856.3124],[34.2007,-10.9941,886.3472],[34.209,-10.9978,719.9183],[34.2153,-10.9987,602.6287],[34.2298,-10.9816,474.5],[34.2673,-10.9646,474.5],[34.311,-10.9598,474.5],[34.4101,-10.9302,474.5],[34.4459,-10.9266,474.5],[34.5366,-10.9255,474.5],[34.5956,-10.9316,474.5],[34.6132,-10.9268,474.5],[34.6434,-10.9255,474.5],[34.6461,-10.92,474.5],[34.6461,-10.9163,474.5],[34.6496,-10.9119,474.5],[34.6492,-10.9085,474.5],[34.6408,-10.8963,474.5],[34.6455,-10.8786,474.5],[34.6419,-10.856,474.5],[34.6433,-10.8441,474.5],[34.6478,-10.8321,474.5],[34.6504,-10.8153,474.5],[34.6451,-10.7861,474.5],[34.6519,-10.7576,474.5],[34.6494,-10.7477,474.5],[34.6376,-10.7291,474.5],[34.6302,-10.7208,474.5],[34.6223,-10.7168,474.5],[34.6165,-10.7055,474.5],[34.6254,-10.6812,474.5],[34.6219,-10.6731,474.5],[34.6203,-10.6609,474.5],[34.6106,-10.6448,474.5],[34.6106,-10.6388,474.5],[34.6073,-10.6308,474.5],[34.5976,-10.6248,474.5],[34.5869,-10.6047,474.5],[34.592,-10.5898,474.5],[34.5977,-10.5887,474.5],[34.5943,-10.5816,474.5],[34.5658,-10.5638,474.5],[34.5588,-10.5564,474.5],[34.5551,-10.549,474.5],[34.5556,-10.5357,474.5],[34.5527,-10.5276,474.5],[34.5373,-10.5376,474.5],[34.5121,-10.5406,474.5],[34.4187,-10.5567,474.5],[34.3335,-10.5768,474.5],[34.2291,-10.5781,474.5],[34.1776,-10.5834,476.429],[34.1668,-10.5749,500.5058],[34.1583,-10.5732,521.2062],[34.1537,-10.569,549.7784],[34.1462,-10.5657,597.6412],[34.1383,-10.5673,632.6369],[34.135,-10.5714,668.3944],[34.117,-10.5823,1187.5762],[34.1088,-10.5785,1278.5024],[34.0995,-10.5781,1336.74],[34.0951,-10.5742,1416.321],[34.0897,-10.5778,1512.437],[34.0852,-10.5838,1654.6165],[34.0812,-10.5838,1588.7803],[34.0331,-10.5685,1745.3118],[33.9308,-10.4964,2257.5884],[33.9047,-10.4895,2325.2417],[33.7519,-10.5737,2268.4087],[33.7112,-10.5897,2230.374],[33.7062,-10.6024,2246.0225],[33.6976,-10.6106,2118.2666],[33.6884,-10.6138,2053.0798],[33.6725,-10.6263,2057.6787],[33.6641,-10.6265,2075.4097],[33.6578,-10.6287,2060.8311],[33.6487,-10.6348,2018.6694],[33.637,-10.656,1961.1904],[33.6141,-10.6744,1956.1084],[33.6051,-10.6628,1903.267],[33.5945,-10.6684,1911.9562],[33.5921,-10.6798,1854.2869],[33.5883,-10.6878,1817.2847],[33.5717,-10.7064,1880.1859],[33.5575,-10.7176,1662.4755],[33.5384,-10.7437,1320.8918],[33.5269,-10.7421,1336.001],[33.5221,-10.7482,1250.6328],[33.5212,-10.7532,1286.9182],[33.5237,-10.7656,1325.3706],[33.5228,-10.7692,1403.0874],[33.515,-10.7731,1259.7198],[33.5039,-10.7816,1259.0312],[33.4952,-10.7802,1235.3032],[33.4912,-10.7817,1243.7601],[33.4863,-10.7876,1264.6455],[33.4819,-10.7977,1272.7078],[33.4731,-10.7989,1261.9363],[33.4665,-10.8028,1267.7987],[33.4559,-10.8212,1291.6295],[33.4516,-10.8245,1214.5371],[33.4331,-10.8257,1175.2023],[33.3981,-10.8136,1141.7618],[33.381,-10.813,1150.4756],[33.3717,-10.8162,1129.8407],[33.3579,-10.8249,1158.3627],[33.3385,-10.8249,1185.3589],[33.3223,-10.8288,1142.011],[33.3153,-10.8401,1139.1893],[33.3082,-10.8602,1167.5125],[33.3023,-10.8678,1196.3197],[33.2894,-10.8748,1252.6069],[33.2835,-10.8759,1247.1714],[33.2612,-10.8702,1357.7988],[33.2485,-10.8738,1128.6313],[33.2416,-10.885,1129.6116],[33.2357,-10.8902,1217.5974],[33.2321,-10.8959,1303.147],[33.2329,-10.9,1321.1467],[33.2416,-10.9082,1262.5343],[33.2459,-10.9087,1323.0417],[33.2557,-10.9037,1292.8717],[33.2619,-10.9025,1412.0729],[33.2676,-10.9055,1355.276],[33.2852,-10.9413,1178.8625],[33.2964,-10.9737,1166.3191],[33.2911,-10.9838,1476.5059],[33.2866,-10.9859,1375.929],[33.2849,-10.9909,1183.564],[33.2861,-10.9987,1417.5344],[33.292,-11.0027,1251.7454],[33.3013,-11.0041,1205.4436],[33.3047,-11.0076,1186.7903],[33.3064,-11.0222,1170.5223],[33.3134,-11.0415,1157.1733],[33.3215,-11.057,1154.2689],[33.3225,-11.0641,1128.8374],[33.3285,-11.074,1129.8723],[33.3526,-11.0985,1096.2614],[33.3642,-11.1178,1094.646],[33.3684,-11.1425,1091.0557],[33.3807,-11.1504,1102.1377],[33.3999,-11.1568,1083.8965],[33.4015,-11.1588,1091.108],[33.4058,-11.1581,1109.3154],[33.4054,-11.1512,1097.8074],[33.4031,-11.148,1097.5946],[33.3921,-11.1431,1101.0343],[33.3867,-11.1439,1102.15],[33.4368,-11.1135,1095.0793],[33.4663,-11.1017,1151.6008],[33.4963,-11.0968,1183.9072],[33.5239,-11.1001,1170.9808],[33.5772,-11.1175,1164.2632],[33.6487,-11.1498,1082.6816],[33.647,-11.1415,1077.3932],[33.6512,-11.138,1077.0],[33.6552,-11.1404,1083.4779],[33.6537,-11.1492,1096.5492],[33.6458,-11.1564,1097.623],[33.6538,-11.162,1098.3025],[33.6726,-11.1599,1108.5515],[33.6765,-11.1484,1107.948],[33.6813,-11.1405,1094.8838],[33.6826,-11.1314,1087.959],[33.6916,-11.1338,1184.4844],[33.6999,-11.1242,1114.9268],[33.7096,-11.108,1090.0867],[33.7038,-11.0994,1077.6117],[33.7045,-11.0975,1079.1606],[33.7176,-11.0978,1094.0188],[33.7241,-11.0935,1118.2539],[33.7273,-11.0955,1077.4708],[33.731,-11.0952,1076.6418],[33.7362,-11.0829,1074.0066],[33.7379,-11.0823,1075.1829],[33.7365,-11.0775,1085.1261],[33.743,-11.0675,1071.6497],[33.7406,-11.0662,1071.73],[33.7399,-11.0607,1070.915],[33.7369,-11.0589,1071.9524],[33.7341,-11.0534,1071.5669],[33.7286,-11.0509,1069.5265],[33.7292,-11.0454,1068.1283],[33.7308,-11.0437,1068.6659],[33.7274,-11.0427,1070.8104],[33.7283,-11.0402,1070.0713],[33.7322,-11.04,1068.2874],[33.7348,-11.038,1067.9082],[33.7397,-11.0408,1067.9506],[33.7442,-11.04,1066.8303],[33.7465,-11.036,1065.9956],[33.7433,-11.0362,1066.2308],[33.7423,-11.0326,1069.3193],[33.7465,-11.031,1066.3322],[33.7452,-11.0298,1067.7],[33.7494,-11.0264,1073.729],[33.7635,-11.0274,1066.1752],[33.766,-11.0307,1064.3372],[33.7707,-11.0277,1069.2379],[33.7717,-11.0293,1066.3657],[33.774,-11.0244,1069.4619],[33.7809,-11.0213,1066.5317]]]]}
,"properties": {"GID_1": "MWI.25_1","GID_0": "MWI","country": "Malawi","province": "Rumphi","VARNAME_1": "Rumpi","NL_NAME_1": "NA","TYPE_1": "District","ENGTYPE_1": "District","CC_1": "NA","HASC_1": "MW.RU","ISO_1": "NA","name": "Rumphi.province","area_km2": 6754.572,"hist_schema_id": "Elevation0-9000","hist_area_km2": {"475": 1965.232,"500": 10.541,"525": 7.374,"550": 6.937,"575": 6.791,"600": 6.374,"625": 6.499,"650": 5.895,"675": 6.228,"700": 5.269,"725": 5.832,"750": 5.436,"775": 5.498,"800": 5.519,"825": 5.228,"850": 7.394,"875": 8.498,"900": 10.706,"925": 12.831,"950": 14.019,"975": 15.935,"1000": 29.406,"1025": 61.902,"1050": 59.614,"1075": 108.495,"1100": 238.525,"1125": 325.075,"1150": 330.383,"1175": 260.491,"1200": 181.645,"1225": 154.296,"1250": 142.684,"1275": 124.929,"1300": 101.819,"1325": 87.804,"1350": 81.411,"1375": 76.683,"1400": 78.555,"1425": 72.829,"1450": 75.995,"1475": 76.412,"1500": 77.14,"1525": 69.874,"1550": 67.211,"1575": 60.279,"1600": 55.408,"1625": 54.39,"1650": 55.828,"1675": 58.515,"1700": 57.288,"1725": 56.561,"1750": 56.209,"1775": 53.981,"1800": 56.275,"1825": 56.048,"1850": 55.76,"1875": 54.721,"1900": 52.641,"1925": 53.913,"1950": 50.706,"1975": 43.978,"2000": 42.854,"2025": 41.084,"2050": 39.459,"2075": 36.397,"2100": 35.314,"2125": 34.814,"2150": 34.752,"2175": 38.087,"2200": 41.943,"2225": 50.093,"2250": 62.659,"2275": 74.892,"2300": 74.518,"2325": 67.202,"2350": 55.719,"2375": 37.588,"2400": 24.064,"2425": 12.313,"2450": 6.437,"2475": 2.792,"2500": 1.437,"2525": 0.375,"2550": 0.063}}}