{"type":"Feature","properties":{"GID_3":"MWI.11.8.46_1","GID_0":"MWI","country":"Malawi","GID_1":"MWI.11_1","province":"Lilongwe","NL_NAME_1":"NA","GID_2":"MWI.11.8_1","county":"TAChiseka","NL_NAME_2":"NA","city":"n.a.(1423)","VARNAME_3":"NA","NL_NAME_3":"NA","TYPE_3":"Unknown","ENGTYPE_3":"Unknown","CC_3":"NA","HASC_3":"NA","name":"n.a.(1423).city"},
"geometry":{"type": "MultiPolygon","coordinates": [[[[33.7629,-14.2663,1183.3118],[33.7574,-14.2655,1183.8267],[33.7476,-14.2719,1167.1095],[33.7423,-14.2716,1158.0126],[33.7456,-14.2766,1156.0621],[33.7416,-14.2763,1160.5859],[33.7358,-14.28,1167.0876],[33.7376,-14.2845,1177.1135],[33.7318,-14.2932,1169.8719],[33.7337,-14.3039,1190.8549],[33.7426,-14.3075,1211.0577],[33.7443,-14.2973,1198.3486],[33.7432,-14.2903,1193.8623],[33.7498,-14.2825,1161.8628],[33.7542,-14.2859,1178.4594],[33.7644,-14.2853,1191.1377],[33.7708,-14.2887,1210.7676],[33.7737,-14.2884,1216.2722],[33.7773,-14.2756,1208.3317],[33.7701,-14.2691,1202.1897],[33.7629,-14.2663,1183.3118]]]]}}