{"type": "Feature","bbox": [33.5425,-10.4653,33.6347,-10.3131],"geometry": {"type": "MultiPolygon","coordinates": [[[[33.6155,-10.3902,1339.4579],[33.6137,-10.3867,1338.7649],[33.6151,-10.3796,1359.6052],[33.6241,-10.3711,1319.1436],[33.6325,-10.3568,1280.5842],[33.6282,-10.354,1310.684],[33.627,-10.3485,1320.6989],[33.6233,-10.3429,1291.0637],[33.6347,-10.3395,1289.2805],[33.6336,-10.3349,1299.2717],[33.6165,-10.3322,1316.8468],[33.6102,-10.3262,1308.4241],[33.6077,-10.3274,1308.9783],[33.6062,-10.3241,1315.2278],[33.6044,-10.3236,1313.8589],[33.5972,-10.325,1317.9226],[33.5959,-10.3227,1328.2548],[33.5884,-10.3213,1327.2505],[33.5824,-10.3156,1350.4629],[33.5766,-10.3131,1348.7324],[33.5647,-10.3173,1387.7192],[33.5513,-10.3272,1409.0796],[33.5425,-10.3293,1454.0415],[33.5439,-10.3365,1665.686],[33.5427,-10.346,1503.6821],[33.5561,-10.3545,1433.2488],[33.5533,-10.3717,1448.4999],[33.5587,-10.3897,1554.2424],[33.5637,-10.3971,1520.9447],[33.5637,-10.4121,1497.2616],[33.5685,-10.4195,1442.9012],[33.5721,-10.4303,1479.8204],[33.5725,-10.4466,1512.3269],[33.5751,-10.4496,1497.7767],[33.5895,-10.4472,1476.0208],[33.5933,-10.4483,1451.3159],[33.6019,-10.4585,1501.0282],[33.6055,-10.4607,1566.2739],[33.6133,-10.4623,1612.2137],[33.6169,-10.4609,1562.5883],[33.6271,-10.4653,1583.3887],[33.6187,-10.4487,1555.3972],[33.6022,-10.443,1452.325],[33.6005,-10.4377,1430.6791],[33.6013,-10.4294,1469.9083],[33.6119,-10.4117,1402.6072],[33.6152,-10.3995,1362.1191],[33.6155,-10.3902,1339.4579]]]]}
,"properties": {"GID_3": "MWI.5.7.4_1","GID_0": "MWI","country": "Malawi","GID_1": "MWI.5_1","province": "Chitipa","NL_NAME_1": "NA","GID_2": "MWI.5.7_1","county": "TANthalire","NL_NAME_2": "NA","city": "n.a.(93)","VARNAME_3": "NA","NL_NAME_3": "NA","TYPE_3": "Unknown","ENGTYPE_3": "Unknown","CC_3": "NA","HASC_3": "NA","name": "n.a.(93).city","area_km2": 93.30711,"hist_schema_id": "Elevation0-9000","hist_area_km2": {"1275": 0.3963,"1300": 3.33722,"1325": 7.07071,"1350": 7.88394,"1375": 10.0529,"1400": 10.40725,"1425": 10.13573,"1450": 10.26032,"1475": 9.23814,"1500": 7.38224,"1525": 3.8163,"1550": 2.94043,"1575": 2.6485,"1600": 1.96033,"1625": 1.54326,"1650": 1.58495,"1675": 1.001,"1700": 0.8759,"1725": 0.43797,"1750": 0.27115,"1775": 0.06257}}}