{"type":"Feature","properties":{"GID_3":"MWI.13.5.12_1","GID_0":"MWI","country":"Malawi","GID_1":"MWI.13_1","province":"Mangochi","NL_NAME_1":"NA","GID_2":"MWI.13.5_1","county":"SCChowe","NL_NAME_2":"NA","city":"n.a.(1592)","VARNAME_3":"NA","NL_NAME_3":"NA","TYPE_3":"Unknown","ENGTYPE_3":"Unknown","CC_3":"NA","HASC_3":"NA","name":"n.a.(1592).city"},
"geometry":{"type": "MultiPolygon","coordinates": [[[[35.3621,-14.4472,565.237],[35.3555,-14.4335,579.0128],[35.3241,-14.4471,502.0098],[35.3283,-14.4501,503.2662],[35.3298,-14.454,510.0559],[35.338,-14.4545,511.0052],[35.3507,-14.458,519.8113],[35.3566,-14.4522,534.0864],[35.3581,-14.447,547.579],[35.3621,-14.4472,565.237]]]]}}