{"type": "Feature","bbox": [34.6998,-15.5838,34.8665,-15.4473],"geometry": {"type": "MultiPolygon","coordinates": [[[[34.8665,-15.4522,392.0552],[34.8619,-15.451,396.9508],[34.8578,-15.4473,411.0788],[34.8549,-15.4508,413.3204],[34.8578,-15.4556,402.7079],[34.849,-15.4558,418.3352],[34.842,-15.4606,444.798],[34.8408,-15.4659,437.0075],[34.8341,-15.4656,461.9677],[34.8293,-15.4631,463.5737],[34.8156,-15.4722,439.4647],[34.806,-15.4819,419.2447],[34.7822,-15.4925,365.5195],[34.7829,-15.4957,364.6297],[34.7867,-15.4957,370.9108],[34.7881,-15.4991,377.116],[34.7943,-15.5016,385.9161],[34.7986,-15.5055,400.0003],[34.8017,-15.5134,413.6073],[34.788,-15.5198,383.0883],[34.7781,-15.5282,354.9414],[34.7696,-15.5267,445.9095],[34.7575,-15.5155,330.3994],[34.7518,-15.514099999999999,325.3391],[34.7402,-15.522,299.3815],[34.7365,-15.5318,292.2432],[34.7368,-15.5394,286.1171],[34.7257,-15.5393,319.3563],[34.7229,-15.5419,326.125],[34.7087,-15.5403,346.6052],[34.7046,-15.5426,341.8431],[34.7019,-15.5389,353.1771],[34.6998,-15.5432,359.1297],[34.7011,-15.5542,370.835],[34.7123,-15.5838,335.4672],[34.751,-15.5812,265.8374],[34.7793,-15.5565,304.0071],[34.7842,-15.5588,323.8885],[34.7878,-15.557,318.7528],[34.7929,-15.5487,332.3138],[34.8004,-15.5429,322.3826],[34.8082,-15.5335,323.6204],[34.8146,-15.531,321.7895],[34.8176,-15.5275,328.032],[34.8163,-15.5235,372.5175],[34.8223,-15.5233,375.2953],[34.8282,-15.5073,405.5502],[34.8381,-15.5,400.9614],[34.8513,-15.4837,392.9929],[34.858,-15.478,390.6534],[34.8596,-15.4745,381.3262],[34.8597,-15.467,385.9895],[34.8665,-15.4522,392.0552]]]]}
,"properties": {"GID_3": "MWI.18.5.10_1","GID_0": "MWI","country": "Malawi","GID_1": "MWI.18_1","province": "Neno","NL_NAME_1": "NA","GID_2": "MWI.18.5_1","county": "TASymon","NL_NAME_2": "NA","city": "n.a.(2211)","VARNAME_3": "NA","NL_NAME_3": "NA","TYPE_3": "Unknown","ENGTYPE_3": "Unknown","CC_3": "NA","HASC_3": "NA","name": "n.a.(2211).city","area_km2": 84.45129,"hist_schema_id": "Elevation0-9000","hist_area_km2": {"250": 0.02042,"275": 2.57351,"300": 9.02823,"325": 13.84886,"350": 14.07346,"375": 9.2742,"400": 11.93164,"425": 13.05575,"450": 8.86752,"475": 1.77771}}}