{"type": "Feature","bbox": [34.2589,-14.3746,34.4873,-13.9806],"geometry": {"type": "MultiPolygon","coordinates": [[[[34.3107,-14.3712,1609.6566],[34.3176,-14.3679,1712.248],[34.3357,-14.3669,1575.2383],[34.3439,-14.3604,1536.4149],[34.3442,-14.362,1537.9774],[34.3495,-14.3591,1488.4805],[34.3536,-14.3609,1471.6101],[34.3531,-14.363,1477.8745],[34.3595,-14.3616,1507.5123],[34.3776,-14.3481,1481.9647],[34.3841,-14.3407,1438.2002],[34.3897,-14.3265,1434.7419],[34.4014,-14.3084,1367.2225],[34.4001,-14.3037,1449.2996],[34.4031,-14.2956,1382.251],[34.4099,-14.2871,1393.0096],[34.4125,-14.2861,1359.6378],[34.4197,-14.2767,1320.6273],[34.4221,-14.2712,1319.3456],[34.4241,-14.2629,1339.05],[34.4247,-14.2493,1263.4569],[34.4345,-14.2279,1143.9938],[34.4351,-14.2069,988.9567],[34.4451,-14.1908,865.3638],[34.4508,-14.1772,921.9161],[34.4526,-14.1537,907.119],[34.45,-14.1435,980.2156],[34.4503,-14.1385,1002.6083],[34.4685,-14.1284,693.4811],[34.4704,-14.1238,663.7562],[34.4732,-14.1213,650.7772],[34.4815,-14.1198,629.8519],[34.4873,-14.1139,582.8007],[34.4785,-14.0958,591.7225],[34.4683,-14.0924,573.3127],[34.4627,-14.0843,580.6129],[34.4549,-14.0777,575.1851],[34.4533,-14.0732,632.356],[34.4542,-14.0712,574.5177],[34.4517,-14.0666,658.8684],[34.4344,-14.0577,646.2693],[34.423,-14.0397,743.7892],[34.4122,-14.0273,730.452],[34.4045,-14.0209,699.8588],[34.3923,-14.0139,692.6016],[34.3887,-14.0078,721.4607],[34.3843,-13.9918,668.2619],[34.379,-13.9888,673.0917],[34.3731,-13.9806,692.704],[34.369,-13.9922,687.0494],[34.3664,-13.995,693.6671],[34.3661,-13.9994,728.4399],[34.3595,-14.0018,744.3066],[34.361,-14.0049,755.3162],[34.3568,-14.0083,804.8924],[34.356,-14.0142,760.7424],[34.3517,-14.0151,780.8548],[34.3537,-14.0184,778.8131],[34.3519,-14.0203,779.8578],[34.3528,-14.0245,798.0026],[34.3561,-14.0279,899.572],[34.3536,-14.034,884.4734],[34.3543,-14.0444,861.1963],[34.3499,-14.0474,954.212],[34.3452,-14.0562,957.1642],[34.3432,-14.0643,972.7572],[34.3361,-14.0728,1082.4712],[34.334,-14.0818,1086.8108],[34.3262,-14.0945,1142.7841],[34.3232,-14.097,1133.3256],[34.32,-14.0973,1188.6208],[34.316,-14.105,1137.0712],[34.3139,-14.1146,1154.0431],[34.309,-14.1169,1190.829],[34.3049,-14.1233,1208.8635],[34.2881,-14.1327,1367.2615],[34.2657,-14.1583,1502.2627],[34.2626,-14.1668,1535.7203],[34.2619,-14.1753,1773.3497],[34.2589,-14.1811,1631.6543],[34.2602,-14.1917,1621.8014],[34.2697,-14.22,1553.5735],[34.2681,-14.225,1546.1368],[34.2684,-14.2327,1545.2607],[34.2708,-14.2419,1566.9276],[34.2688,-14.255,1557.1465],[34.2753,-14.2818,1583.1688],[34.2758,-14.2933,1574.3606],[34.2779,-14.2939,1571.2083],[34.2785,-14.2998,1579.8053],[34.2819,-14.3054,1559.9443],[34.2818,-14.3093,1561.1394],[34.2801,-14.3116,1573.1677],[34.2814,-14.3173,1584.583],[34.2901,-14.3248,1620.6989],[34.2955,-14.345,1561.8674],[34.2962,-14.3562,1545.1575],[34.2991,-14.3586,1534.8923],[34.3031,-14.3724,1534.2644],[34.3045,-14.3746,1538.7112],[34.3107,-14.3712,1609.6566]]]]}
,"properties": {"GID_2": "MWI.6.8_1","GID_0": "MWI","country": "Malawi","GID_1": "MWI.6_1","province": "Dedza","NL_NAME_1": "NA","county": "TAKasumbu","VARNAME_2": "NA","NL_NAME_2": "NA","TYPE_2": "TraditionalAuthority","ENGTYPE_2": "TraditionalAuthority","CC_2": "NA","HASC_2": "NA","name": "T_A_Kasumbu.county","area_km2": 578.778,"hist_schema_id": "Elevation0-9000","hist_area_km2": {"525": 0.0206,"550": 0.1645,"575": 0.3701,"600": 1.4189,"625": 2.4059,"650": 4.2978,"675": 4.4829,"700": 4.7298,"725": 3.8251,"750": 4.1749,"775": 4.1956,"800": 3.7224,"825": 3.7429,"850": 3.5373,"875": 3.9896,"900": 4.1541,"925": 4.627,"950": 6.6424,"975": 8.0616,"1000": 7.7942,"1025": 6.5188,"1050": 6.4981,"1075": 6.5598,"1100": 7.1765,"1125": 8.8213,"1150": 10.3838,"1175": 10.9597,"1200": 11.3091,"1225": 12.5222,"1250": 12.7685,"1275": 15.4617,"1300": 15.8517,"1325": 16.0357,"1350": 15.9115,"1375": 17.1651,"1400": 22.0363,"1425": 28.6324,"1450": 33.1307,"1475": 41.0217,"1500": 42.5204,"1525": 42.8063,"1550": 35.4055,"1575": 24.9034,"1600": 15.4099,"1625": 9.8828,"1650": 5.1779,"1675": 4.8282,"1700": 3.9035,"1725": 2.938,"1750": 2.2599,"1775": 1.5614,"1800": 1.4792,"1825": 1.3148,"1850": 1.1094,"1875": 1.0066,"1900": 0.8217,"1925": 0.9656,"1950": 0.76,"1975": 1.0888,"2000": 0.6779,"2025": 0.7806,"2050": 0.5341,"2075": 0.5341,"2100": 0.5135,"2125": 0.3081,"2150": 0.1438,"2175": 0.0205}}}