{"type": "Feature","bbox": [33.9411,-11.0977,34.1774,-10.7593],"geometry": {"type": "MultiPolygon","coordinates": [[[[34.0518,-11.0753,1783.0968],[34.0548,-11.0977,1936.2095],[34.0592,-11.0911,1826.3251],[34.0682,-11.0867,1838.3904],[34.0743,-11.0799,1739.3381],[34.0865,-11.0765,1794.8326],[34.0907,-11.0717,1832.8237],[34.0972,-11.0756,1865.9116],[34.1087,-11.0734,1741.25],[34.1126,-11.0754,1867.7781],[34.1237,-11.0751,1810.1056],[34.1321,-11.0711,1796.6292],[34.1369,-11.0626,1760.349],[34.1409,-11.0598,1807.1544],[34.1523,-11.0597,1848.7181],[34.1609,-11.052,1684.5361],[34.1702,-11.0526,1729.0277],[34.1753,-11.0485,1732.7048],[34.1771,-11.0448,1747.3743],[34.1774,-11.0426,1746.6019],[34.1514,-11.022,1242.8394],[34.1442,-10.9828,1517.0066],[34.1379,-10.9318,1366.6067],[34.1376,-10.8715,1678.0422],[34.1279,-10.7717,1067.4705],[34.1207,-10.7602,877.0875],[34.1186,-10.7593,930.6602],[34.1159,-10.7618,917.3116],[34.1136,-10.7745,1076.4065],[34.1103,-10.7776,1082.0516],[34.1076,-10.7864,1022.14],[34.1081,-10.7953,1024.1981],[34.1061,-10.8063,997.2091],[34.0985,-10.812,1077.4861],[34.0897,-10.8229,1028.0179],[34.0843,-10.822,1019.9838],[34.0739,-10.8303,1244.5558],[34.0725,-10.8401,1081.5331],[34.0739,-10.8415,1100.6869],[34.0727,-10.8443,1115.1025],[34.0693,-10.8475,1132.1428],[34.0629,-10.8478,1176.2533],[34.0612,-10.8493,1190.323],[34.0612,-10.8562,1122.5219],[34.0588,-10.8625,1091.8608],[34.0514,-10.865,1056.3562],[34.0464,-10.8752,1028.3394],[34.0371,-10.8851,1005.89],[34.0356,-10.8911,1003.7515],[34.0317,-10.8912,1011.6305],[34.0297,-10.8956,1010.174],[34.0251,-10.8931,1018.3671],[34.0166,-10.8938,1017.2422],[34.013,-10.8956,1010.1299],[34.0046,-10.8926,1020.8772],[33.9909,-10.8971,1022.0011],[33.9811,-10.9134,1013.57],[33.9664,-10.9292,1032.395],[33.9646,-10.934,1024.5742],[33.9586,-10.94,1020.5347],[33.9518,-10.9431,1029.2007],[33.9519,-10.9505,1017.8271],[33.9501,-10.9555,1019.1838],[33.9415,-10.9593,1021.6318],[33.9411,-10.9634,1017.2342],[33.9428,-10.9657,1016.5958],[33.9631,-10.977,1041.4821],[33.9632,-10.9807,1059.5315],[33.968,-10.9888,1069.2654],[33.9765,-10.9991,1152.098],[33.9808,-11.0023,1153.4186],[33.9832,-11.002,1148.3752],[33.985,-11.0066,1241.4364],[33.9896,-11.0067,1173.0583],[33.992,-11.0121,1218.1609],[33.9994,-11.0111,1229.9939],[34.0138,-11.0246,1270.2583],[34.0188,-11.0319,1278.4233],[34.0304,-11.0387,1353.8623],[34.0404,-11.0485,1411.8728],[34.0436,-11.0539,1462.1082],[34.0467,-11.0553,1522.7611],[34.0516,-11.0612,1644.3815],[34.0521,-11.064,1677.9778],[34.0485,-11.074,1788.6177],[34.0518,-11.0753,1783.0968]]]]}
,"properties": {"GID_2": "MWI.25.8_1","GID_0": "MWI","country": "Malawi","GID_1": "MWI.25_1","province": "Rumphi","NL_NAME_1": "NA","county": "SCMwankhunikira","VARNAME_2": "NA","NL_NAME_2": "NA","TYPE_2": "Sub-chief","ENGTYPE_2": "Sub-chief","CC_2": "NA","HASC_2": "NA","name": "S_C_Mwankhunikira.county","area_km2": 431.0974,"hist_schema_id": "Elevation0-9000","hist_area_km2": {"850": 0.0417,"875": 0.7707,"900": 1.5204,"925": 1.7911,"950": 2.3533,"975": 2.9572,"1000": 13.8249,"1025": 26.2939,"1050": 14.1357,"1075": 10.7632,"1100": 8.494,"1125": 7.4117,"1150": 6.4746,"1175": 6.4538,"1200": 7.1615,"1225": 8.6601,"1250": 9.2841,"1275": 10.1581,"1300": 10.5744,"1325": 9.6168,"1350": 10.8655,"1375": 10.4074,"1400": 12.01,"1425": 13.5296,"1450": 17.1934,"1475": 19.296,"1500": 22.0433,"1525": 22.2926,"1550": 21.4597,"1575": 18.7535,"1600": 17.0883,"1625": 14.1742,"1650": 13.175,"1675": 12.3009,"1700": 10.9477,"1725": 8.7207,"1750": 7.5969,"1775": 6.7226,"1800": 4.6414,"1825": 3.7255,"1850": 2.6851,"1875": 1.4779,"1900": 0.8326,"1925": 0.3747,"1950": 0.0416}}}