{"type":"Feature","properties":{"GID_3":"MWI.7.3.3_1","GID_0":"MWI","country":"Malawi","GID_1":"MWI.7_1","province":"Dowa","NL_NAME_1":"NA","GID_2":"MWI.7.3_1","county":"SCChakhaza","NL_NAME_2":"NA","city":"n.a.(538)","VARNAME_3":"NA","NL_NAME_3":"NA","TYPE_3":"Unknown","ENGTYPE_3":"Unknown","CC_3":"NA","HASC_3":"NA","name":"n.a.(538).city"},
"geometry":{"type": "MultiPolygon","coordinates": [[[[33.6152,-13.2287,1058.5624],[33.6109,-13.2296,1049.7432],[33.6078,-13.2272,1058.4774],[33.603,-13.2273,1054.1953],[33.5855,-13.2349,1049.9515],[33.584,-13.2372,1042.3168],[33.5869,-13.2468,1039.7129],[33.5913,-13.2523,1043.8021],[33.5909,-13.2675,1036.0479],[33.5905,-13.269,1035.6969],[33.5829,-13.271,1055.752],[33.5808,-13.2785,1043.33],[33.5904,-13.2849,1058.4685],[33.5907,-13.2907,1064.5566],[33.6019,-13.2943,1079.2858],[33.617,-13.2918,1063.262],[33.6184,-13.2879,1053.6143],[33.6162,-13.27,1064.5226],[33.6186,-13.262,1045.999],[33.6175,-13.2563,1044.0908],[33.6137,-13.2503,1043.5979],[33.6137,-13.2356,1038.2664],[33.6152,-13.2287,1058.5624]]]]}}