{"type":"Feature","properties":{"GID_3":"MWI.13.6.8_1","GID_0":"MWI","country":"Malawi","GID_1":"MWI.13_1","province":"Mangochi","NL_NAME_1":"NA","GID_2":"MWI.13.6_1","county":"SCMbwanaNyambi","NL_NAME_2":"NA","city":"n.a.(1609)","VARNAME_3":"NA","NL_NAME_3":"NA","TYPE_3":"Unknown","ENGTYPE_3":"Unknown","CC_3":"NA","HASC_3":"NA","name":"n.a.(1609).city"},
"geometry":{"type": "MultiPolygon","coordinates": [[[[35.6186,-14.4461,766.5418],[35.6145,-14.4493,770.8365],[35.6116,-14.4544,780.462],[35.6012,-14.4538,807.3525],[35.5957,-14.4614,821.1027],[35.5914,-14.464,841.9861],[35.5875,-14.464,854.076],[35.5881,-14.4684,856.6309],[35.5853,-14.4772,848.2361],[35.5866,-14.4913,843.3399],[35.5897,-14.5041,836.2308],[35.5921,-14.5045,829.3398],[35.5941,-14.5087,837.9191],[35.5951,-14.5021,818.5818],[35.6088,-14.4888,805.78],[35.6213,-14.4911,781.9132],[35.6281,-14.4901,777.1495],[35.6295,-14.489,771.6684],[35.6262,-14.4821,764.2676],[35.6355,-14.4761,750.5316],[35.6248,-14.4709,833.713],[35.619,-14.466,783.5409],[35.6207,-14.4588,776.4675],[35.6282,-14.4471,760.9869],[35.6271,-14.4445,762.4595],[35.6186,-14.4461,766.5418]]]]}}