{"type": "Feature","bbox": [35.5915,-14.6767,35.6666,-14.5931],"geometry": {"type": "MultiPolygon","coordinates": [[[[35.6643,-14.6425,876.8309],[35.655,-14.6484,796.0053],[35.6506,-14.6461,797.0265],[35.6428,-14.6363,801.7369],[35.6307,-14.6102,750.8291],[35.6228,-14.6127,760.0377],[35.6178,-14.6184,767.1786],[35.6153,-14.6168,774.5715],[35.6131,-14.6052,793.338],[35.6154,-14.5953,763.8358],[35.6123,-14.5931,772.3387],[35.6008,-14.5975,786.7523],[35.5952,-14.6055,782.9569],[35.5915,-14.6067,786.5099],[35.5955,-14.6187,822.6089],[35.6001,-14.6162,821.9337],[35.6049,-14.6226,904.2338],[35.605,-14.6335,874.7209],[35.5979,-14.6446,892.1464],[35.6029,-14.6479,812.8997],[35.6063,-14.654,807.5248],[35.609,-14.6538,813.7041],[35.6135,-14.6502,839.3018],[35.6133,-14.6627,836.014],[35.6162,-14.6652,847.8021],[35.623,-14.6663,900.0629],[35.6238,-14.6702,868.1545],[35.6198,-14.6767,834.5889],[35.6266,-14.6767,853.6958],[35.641,-14.6736,816.7369],[35.6401,-14.667,784.0933],[35.6373,-14.6639,775.5621],[35.6512,-14.6605,739.7823],[35.6613,-14.6496,784.7821],[35.6666,-14.6473,799.5061],[35.6643,-14.6425,876.8309]]]]}
,"properties": {"GID_3": "MWI.12.14.5_1","GID_0": "MWI","country": "Malawi","GID_1": "MWI.12_1","province": "Machinga","NL_NAME_1": "NA","GID_2": "MWI.12.14_1","county": "TANyambi","NL_NAME_2": "NA","city": "n.a.(1692)","VARNAME_3": "NA","NL_NAME_3": "NA","TYPE_3": "Unknown","ENGTYPE_3": "Unknown","CC_3": "NA","HASC_3": "NA","name": "n.a.(1692).city","area_km2": 31.48901,"hist_schema_id": "Elevation0-9000","hist_area_km2": {"750": 3.3027,"775": 7.42645,"800": 6.54428,"825": 2.40015,"850": 1.88717,"875": 1.62052,"900": 1.29231,"925": 0.98462,"950": 0.88206,"975": 0.77949,"1000": 1.08718,"1025": 0.75898,"1050": 0.55387,"1075": 0.59489,"1100": 0.47181,"1125": 0.34871,"1150": 0.30768,"1175": 0.18461,"1200": 0.04102,"1225": 0.02051}}}