{"type":"Feature","properties":{"GID_3":"MWI.23.4.1_1","GID_0":"MWI","country":"Malawi","GID_1":"MWI.23_1","province":"Ntchisi","NL_NAME_1":"NA","GID_2":"MWI.23.4_1","county":"TAChikho","NL_NAME_2":"NA","city":"n.a.(606)","VARNAME_3":"NA","NL_NAME_3":"NA","TYPE_3":"Unknown","ENGTYPE_3":"Unknown","CC_3":"NA","HASC_3":"NA","name":"n.a.(606).city"},
"geometry":{"type": "MultiPolygon","coordinates": [[[[33.9736,-13.3701,1283.2852],[33.9607,-13.3931,1353.1659],[33.9519,-13.4011,1413.8848],[33.9498,-13.4102,1423.0823],[33.9425,-13.4234,1501.0349],[33.9356,-13.4297,1555.288],[33.9363,-13.4336,1580.3164],[33.9307,-13.4528,1502.3368],[33.9379,-13.451599999999999,1474.5459],[33.9438,-13.4535,1473.7584],[33.9506,-13.4471,1432.4148],[33.9654,-13.4467,1404.1588],[33.9741,-13.4398,1499.2234],[33.9697,-13.435,1524.9531],[33.9698,-13.4322,1533.2991],[33.9785,-13.4292,1477.8541],[33.9812,-13.4267,1485.3026],[33.9805,-13.4183,1446.6034],[33.9854,-13.41,1506.489],[33.9825,-13.3969,1435.7054],[33.9841,-13.393,1420.9696],[33.9867,-13.3958,1423.0699],[33.9882,-13.3927,1379.8147],[33.9854,-13.3807,1325.4349],[33.9867,-13.3751,1282.3733],[33.9838,-13.3697,1271.3785],[33.9736,-13.3701,1283.2852]]]]}}