{"type": "Feature","bbox": [35.3618,-15.5709,35.4077,-15.5381],"geometry": {"type": "MultiPolygon","coordinates": [[[[35.3678,-15.5456,761.3497],[35.3618,-15.5612,776.7224],[35.3623,-15.5677,780.1665],[35.3666,-15.5692,789.9252],[35.3761,-15.5644,776.1392],[35.3762,-15.5708,786.87],[35.3781,-15.5709,783.7596],[35.3871,-15.5694,758.8511],[35.3951,-15.5624,745.0428],[35.3963,-15.5589,742.8433],[35.3957,-15.5563,745.7451],[35.3914,-15.5541,757.4432],[35.4023,-15.5521,741.6699],[35.4077,-15.5454,742.9495],[35.4043,-15.5421,748.9198],[35.3993,-15.5407,747.5688],[35.3918,-15.5461,753.0231],[35.3861,-15.5536,763.8643],[35.3816,-15.5525,769.7369],[35.379,-15.5498,772.1694],[35.3782,-15.5442,757.8584],[35.3819,-15.54,751.2452],[35.3813,-15.5381,752.5636],[35.3705,-15.5415,762.5975],[35.3678,-15.5456,761.3497]]]]}
,"properties": {"GID_3": "MWI.28.2.12_1","GID_0": "MWI","country": "Malawi","GID_1": "MWI.28_1","province": "Zomba","NL_NAME_1": "NA","GID_2": "MWI.28.2_1","county": "SCMbiza","NL_NAME_2": "NA","city": "n.a.(2297)","VARNAME_3": "NA","NL_NAME_3": "NA","TYPE_3": "Unknown","ENGTYPE_3": "Unknown","CC_3": "NA","HASC_3": "NA","name": "n.a.(2297).city","area_km2": 9.579599,"hist_schema_id": "Elevation0-9000","hist_area_km2": {"750": 3.676692,"775": 5.719084,"800": 0.183822}}}