{"type": "Feature","bbox": [33.6505,-13.5927,33.704,-13.5364],"geometry": {"type": "MultiPolygon","coordinates": [[[[33.6505,-13.5364,1172.4379],[33.6551,-13.5471,1172.0081],[33.6602,-13.5518,1183.0302],[33.6629,-13.5568,1181.2598],[33.6607,-13.5642,1190.6736],[33.6509,-13.5724,1208.0559],[33.6561,-13.5799,1202.1813],[33.659,-13.5927,1213.2856],[33.6714,-13.5894,1224.5798],[33.6656,-13.5844,1214.2247],[33.665,-13.5806,1210.1418],[33.6744,-13.5735,1213.9948],[33.6797,-13.5664,1210.8049],[33.6832,-13.565,1208.6849],[33.6906,-13.5667,1221.166],[33.6973,-13.5656,1220.9604],[33.7021,-13.5628,1217.9948],[33.704,-13.5596,1214.9819],[33.6968,-13.5579,1206.1824],[33.6764,-13.5397,1207.5259],[33.6628,-13.5392,1190.1841],[33.6505,-13.5364,1172.4379]]]]}
,"properties": {"GID_3": "MWI.7.8.11_1","GID_0": "MWI","country": "Malawi","GID_1": "MWI.7_1","province": "Dowa","NL_NAME_1": "NA","GID_2": "MWI.7.8_1","county": "TADzoole","NL_NAME_2": "NA","city": "n.a.(712)","VARNAME_3": "NA","NL_NAME_3": "NA","TYPE_3": "Unknown","ENGTYPE_3": "Unknown","CC_3": "NA","HASC_3": "NA","name": "n.a.(712).city","area_km2": 15.25224,"hist_schema_id": "Elevation0-9000","hist_area_km2": {"1175": 1.44286,"1200": 11.7896,"1225": 2.01978}}}