{"type": "Feature","bbox": [35.246,-15.7712,35.2955,-15.7254],"geometry": {"type": "MultiPolygon","coordinates": [[[[35.2516,-15.7318,831.5371],[35.2508,-15.7409,835.293],[35.2628,-15.7387,815.2726],[35.2682,-15.7394,813.8522],[35.2704,-15.7423,804.1798],[35.2655,-15.7529,816.2748],[35.2606,-15.7592,817.6132],[35.2524,-15.7581,826.4463],[35.246,-15.7628,836.8035],[35.249,-15.7642,831.2786],[35.2511,-15.77,842.8268],[35.2554,-15.7712,838.5854],[35.2598,-15.7684,834.4411],[35.2647,-15.7614,830.0401],[35.2813,-15.7567,810.5101],[35.293,-15.7504,792.0375],[35.2949,-15.7472,788.5559],[35.2955,-15.7431,785.6589],[35.2938,-15.7459,788.0218],[35.2846,-15.7381,795.4592],[35.2816,-15.7387,796.8118],[35.2758,-15.7294,807.364],[35.2684,-15.7261,817.093],[35.2609,-15.7254,821.2783],[35.256,-15.7306,826.4022],[35.2516,-15.7318,831.5371]]]]}
,"properties": {"GID_3": "MWI.4.3.10_1","GID_0": "MWI","country": "Malawi","GID_1": "MWI.4_1","province": "Chiradzulu","NL_NAME_1": "NA","GID_2": "MWI.4.3_1","county": "TAKadewere","NL_NAME_2": "NA","city": "n.a.(2495)","VARNAME_3": "NA","NL_NAME_3": "NA","TYPE_3": "Unknown","ENGTYPE_3": "Unknown","CC_3": "NA","HASC_3": "NA","name": "n.a.(2495).city","area_km2": 10.856282,"hist_schema_id": "Elevation0-9000","hist_area_km2": {"775": 0.020407,"800": 5.509811,"825": 5.019989,"850": 0.306075}}}