{"type":"Feature","properties":{"GID_3":"MWI.11.4.2_1","GID_0":"MWI","country":"Malawi","GID_1":"MWI.11_1","province":"Lilongwe","NL_NAME_1":"NA","GID_2":"MWI.11.4_1","county":"SCNjewa","NL_NAME_2":"NA","city":"n.a.(1057)","VARNAME_3":"NA","NL_NAME_3":"NA","TYPE_3":"Unknown","ENGTYPE_3":"Unknown","CC_3":"NA","HASC_3":"NA","name":"n.a.(1057).city"},
"geometry":{"type": "MultiPolygon","coordinates": [[[[33.6207,-13.9421,1141.7739],[33.6129,-13.951,1151.2892],[33.6251,-13.9558,1140.8738],[33.6384,-13.9572,1117.252],[33.6408,-13.9527,1122.3252],[33.6478,-13.9459,1117.4312],[33.6561,-13.9414,1113.8077],[33.6629,-13.9387,1114.567],[33.6728,-13.9399,1105.5614],[33.6798,-13.9331,1104.9303],[33.669,-13.9254,1124.3018],[33.6751,-13.9119,1078.7974],[33.6617,-13.9123,1087.3088],[33.6519,-13.9074,1083.4224],[33.6414,-13.9066,1085.5938],[33.6356,-13.9287,1116.5226],[33.6386,-13.9419,1139.0719],[33.6207,-13.9421,1141.7739]]]]}}