{"type":"Feature","properties":{"GID_3":"MWI.15.6.21_1","GID_0":"MWI","country":"Malawi","GID_1":"MWI.15_1","province":"Mulanje","NL_NAME_1":"NA","GID_2":"MWI.15.6_1","county":"TAMabuka","NL_NAME_2":"NA","city":"n.a.(2850)","VARNAME_3":"NA","NL_NAME_3":"NA","TYPE_3":"Unknown","ENGTYPE_3":"Unknown","CC_3":"NA","HASC_3":"NA","name":"n.a.(2850).city"},
"geometry":{"type": "MultiPolygon","coordinates": [[[[35.5057,-16.0592,603.4619],[35.4973,-16.0605,601.2914],[35.4932,-16.0627,585.4996],[35.4933,-16.0661,583.9354],[35.489,-16.068,581.1084],[35.4951,-16.0699,585.9058],[35.4955,-16.0717,578.8612],[35.4939,-16.0759,586.2657],[35.4856,-16.0771,571.4348],[35.4845,-16.0853,572.2034],[35.4861,-16.0924,570.9702],[35.4967,-16.096,573.5743],[35.5032,-16.0943,578.1519],[35.5046,-16.0876,579.3522],[35.4977,-16.0828,586.4037],[35.5011,-16.0781,584.0408],[35.5168,-16.0663,616.4937],[35.5046,-16.0673,591.2159],[35.5051,-16.0635,600.9445],[35.5088,-16.0624,599.1089],[35.5075,-16.0595,600.0131],[35.5057,-16.0592,603.4619]]]]}}