{"type":"Feature","properties":{"GID_3":"MWI.22.8.12_1","GID_0":"MWI","country":"Malawi","GID_1":"MWI.22_1","province":"Ntcheu","NL_NAME_1":"NA","GID_2":"MWI.22.8_1","county":"TAMpando","NL_NAME_2":"NA","city":"n.a.(2040)","VARNAME_3":"NA","NL_NAME_3":"NA","TYPE_3":"Unknown","ENGTYPE_3":"Unknown","CC_3":"NA","HASC_3":"NA","name":"n.a.(2040).city"},
"geometry":{"type": "MultiPolygon","coordinates": [[[[34.6191,-15.1682,1540.4911],[34.6139,-15.1661,1540.0778],[34.5961,-15.1681,1546.4192],[34.5982,-15.1751,1550.3104],[34.604,-15.1804,1566.937],[34.6136,-15.1836,1591.4021],[34.6188,-15.1833,1539.0612],[34.6256,-15.1787,1543.5164],[34.6236,-15.1713,1505.8312],[34.6182,-15.1692,1550.114],[34.6191,-15.1682,1540.4911]]]]}}