{"type":"Feature","properties":{"GID_3":"MWI.9.8.3_1","GID_0":"MWI","country":"Malawi","GID_1":"MWI.9_1","province":"Kasungu","NL_NAME_1":"NA","GID_2":"MWI.9.8_1","county":"SCNjombwa","NL_NAME_2":"NA","city":"n.a.(532)","VARNAME_3":"NA","NL_NAME_3":"NA","TYPE_3":"Unknown","ENGTYPE_3":"Unknown","CC_3":"NA","HASC_3":"NA","name":"n.a.(532).city"},
"geometry":{"type": "MultiPolygon","coordinates": [[[[33.4239,-13.2534,1092.1545],[33.4259,-13.2531,1092.7478],[33.4349,-13.2577,1098.5188],[33.4663,-13.2522,1095.5564],[33.516,-13.2489,1077.948],[33.5163,-13.2434,1073.9771],[33.5129,-13.2321,1066.4148],[33.5155,-13.2282,1061.2943],[33.5211,-13.2261,1054.6508],[33.5219,-13.2233,1048.8776],[33.5102,-13.2157,1051.1106],[33.4726,-13.2124,1067.1658],[33.4614,-13.2145,1076.5492],[33.4489,-13.2241,1076.906],[33.4421,-13.2187,1083.173],[33.4239,-13.2111,1090.2703],[33.4239,-13.2534,1092.1545]]]]}}