{"type":"Feature","properties":{"GID_3":"MWI.11.16.9_1","GID_0":"MWI","country":"Malawi","GID_1":"MWI.11_1","province":"Lilongwe","NL_NAME_1":"NA","GID_2":"MWI.11.16_1","county":"TAMazengera","NL_NAME_2":"NA","city":"n.a.(1134)","VARNAME_3":"NA","NL_NAME_3":"NA","TYPE_3":"Unknown","ENGTYPE_3":"Unknown","CC_3":"NA","HASC_3":"NA","name":"n.a.(1134).city"},
"geometry":{"type": "MultiPolygon","coordinates": [[[[34.0794,-13.9963,1237.7185],[34.0746,-14.008,1213.5792],[34.0698,-14.0044,1207.5608],[34.0653,-14.0042,1191.2607],[34.0599,-14.013,1185.6234],[34.0649,-14.0149,1186.9028],[34.069,-14.0192,1206.5492],[34.0662,-14.0242,1202.4281],[34.079,-14.0263,1274.9338],[34.0785,-14.0357,1315.3369],[34.085,-14.0384,1382.2803],[34.0847,-14.0414,1257.4972],[34.0893,-14.039,1355.7346],[34.096,-14.0412,1332.3018],[34.0958,-14.032,1404.8586],[34.0993,-14.0282,1479.2473],[34.105,-14.0288,1219.1038],[34.1029,-14.0267,1230.8467],[34.1063,-14.0236,1207.9446],[34.1084,-14.0167,1173.2617],[34.1129,-14.0152,1164.8445],[34.1083,-14.0146,1175.3715],[34.0972,-14.008,1201.9071],[34.0929,-14.0074,1219.9354],[34.0868,-14.0029,1239.2102],[34.0832,-13.998,1241.6334],[34.0794,-13.9963,1237.7185]]]]}}