{"type":"Feature","properties":{"GID_3":"MWI.6.10.7_1","GID_0":"MWI","country":"Malawi","GID_1":"MWI.6_1","province":"Dedza","NL_NAME_1":"NA","GID_2":"MWI.6.10_1","county":"TATambala","NL_NAME_2":"NA","city":"n.a.(1156)","VARNAME_3":"NA","NL_NAME_3":"NA","TYPE_3":"Unknown","ENGTYPE_3":"Unknown","CC_3":"NA","HASC_3":"NA","name":"n.a.(1156).city"},
"geometry":{"type": "MultiPolygon","coordinates": [[[[34.2543,-14.0229,1259.9431],[34.2388,-14.0234,1196.5525],[34.235,-14.0329,1242.3083],[34.2312,-14.0345,1271.6987],[34.2368,-14.0377,1232.6543],[34.2392,-14.0415,1257.5736],[34.2381,-14.0495,1285.7773],[34.2418,-14.0493,1322.5214],[34.2455,-14.0459,1332.1544],[34.2513,-14.0373,1276.2606],[34.2514,-14.0321,1232.0302],[34.254,-14.0325,1257.2368],[34.2587,-14.0384,1271.8066],[34.2643,-14.0421,1274.332],[34.2629,-14.0461,1297.5233],[34.2581,-14.0446,1270.9325],[34.2522,-14.049,1271.5884],[34.2542,-14.051,1269.9481],[34.2596,-14.0515,1298.2288],[34.2584,-14.0566,1286.4374],[34.2616,-14.0605,1291.3657],[34.2641,-14.0606,1303.3485],[34.2696,-14.065,1330.7798],[34.2794,-14.0596,1324.2375],[34.2949,-14.0683,1309.4597],[34.2948,-14.0594,1228.0391],[34.2978,-14.0521,1187.1263],[34.306,-14.0496,1283.9172],[34.3062,-14.0458,1230.7498],[34.2937,-14.0418,1183.7137],[34.2907,-14.0319,1141.8429],[34.282,-14.024,1153.3131],[34.2688,-14.0198,1211.3755],[34.2634,-14.0204,1251.9928],[34.2573,-14.0236,1249.8917],[34.2543,-14.0229,1259.9431]]]]}}