{"type":"Feature","properties":{"GID_3":"MWI.28.2.32_1","GID_0":"MWI","country":"Malawi","GID_1":"MWI.28_1","province":"Zomba","NL_NAME_1":"NA","GID_2":"MWI.28.2_1","county":"SCMbiza","NL_NAME_2":"NA","city":"n.a.(2357)","VARNAME_3":"NA","NL_NAME_3":"NA","TYPE_3":"Unknown","ENGTYPE_3":"Unknown","CC_3":"NA","HASC_3":"NA","name":"n.a.(2357).city"},
"geometry":{"type": "MultiPolygon","coordinates": [[[[35.3015,-15.5942,812.6182],[35.2971,-15.595,816.875],[35.2929,-15.6045,830.4039],[35.2785,-15.598,846.0742],[35.2764,-15.5997,849.572],[35.275,-15.6031,853.0228],[35.2762,-15.6055,857.5063],[35.2728,-15.6064,861.2542],[35.2683,-15.6141,880.7484],[35.2727,-15.6204,872.6695],[35.2797,-15.6192,846.9517],[35.2851,-15.6211,835.6955],[35.2895,-15.6191,829.6249],[35.3002,-15.6182,812.163],[35.2961,-15.6123,837.8754],[35.3014,-15.6082,834.1359],[35.3001,-15.6058,823.6935],[35.3057,-15.5994,809.6047],[35.3094,-15.5988,805.1368],[35.3095,-15.5972,803.4301],[35.3066,-15.5948,805.9091],[35.3015,-15.5942,812.6182]]]]}}