{"type": "Feature","bbox": [33.7824,-13.5963,33.8447,-13.5466],"geometry": {"type": "MultiPolygon","coordinates": [[[[33.7848,-13.5815,1265.1581],[33.795,-13.5818,1274.5505],[33.8004,-13.5839,1277.1077],[33.7986,-13.5921,1290.0193],[33.8078,-13.5939,1313.2828],[33.8129,-13.5924,1329.2544],[33.8204,-13.5932,1356.5839],[33.8291,-13.5963,1364.3584],[33.8283,-13.5894,1334.202],[33.8383,-13.5843,1361.4391],[33.8437,-13.5774,1352.3832],[33.8447,-13.572,1336.9917],[33.8429,-13.5682,1318.9489],[33.8395,-13.5665,1312.573],[33.8299,-13.5689,1293.0806],[33.8234,-13.567,1286.6183],[33.818,-13.5588,1279.7827],[33.8164,-13.5534,1277.717],[33.8133,-13.5505,1273.6401],[33.7996,-13.551,1258.085],[33.7824,-13.5466,1224.1489],[33.7827,-13.5502,1223.0691],[33.7936,-13.5644,1239.2009],[33.7896,-13.5716,1250.4012],[33.7888,-13.576599999999999,1249.5117],[33.7861,-13.5781,1254.5802],[33.7848,-13.5815,1265.1581]]]]}
,"properties": {"GID_3": "MWI.7.6.5_1","GID_0": "MWI","country": "Malawi","GID_1": "MWI.7_1","province": "Dowa","NL_NAME_1": "NA","GID_2": "MWI.7.6_1","county": "SCMponela","NL_NAME_2": "NA","city": "n.a.(720)","VARNAME_3": "NA","NL_NAME_3": "NA","TYPE_3": "Unknown","ENGTYPE_3": "Unknown","CC_3": "NA","HASC_3": "NA","name": "n.a.(720).city","area_km2": 20.404,"hist_schema_id": "Elevation0-9000","hist_area_km2": {"1225": 0.7008,"1250": 4.20463,"1275": 4.4725,"1300": 4.18379,"1325": 3.85396,"1350": 2.26699,"1375": 0.68011,"1400": 0.04122}}}