{"type": "Feature","bbox": [33.3281,-11.3094,33.4497,-11.2334],"geometry": {"type": "MultiPolygon","coordinates": [[[[33.4295,-11.3045,1099.3547],[33.4356,-11.2962,1088.7018],[33.434,-11.2889,1101.834],[33.4376,-11.2795,1087.8027],[33.4372,-11.2765,1100.5778],[33.4387,-11.2742,1104.7516],[33.448,-11.2698,1087.4598],[33.4471,-11.2573,1101.15],[33.4497,-11.2526,1086.2334],[33.4453,-11.2453,1098.4376],[33.447,-11.2412,1098.22],[33.4438,-11.2394,1112.3582],[33.4421,-11.2362,1117.7095],[33.4263,-11.2371,1164.4882],[33.4047,-11.2334,1167.8445],[33.3989,-11.2342,1170.2196],[33.3886,-11.2394,1180.9757],[33.3725,-11.2364,1150.8962],[33.3702,-11.241,1173.579],[33.3644,-11.2465,1153.9773],[33.3525,-11.2542,1175.2927],[33.3503,-11.2591,1175.1257],[33.35,-11.2654,1165.6736],[33.3432,-11.2742,1180.9034],[33.3315,-11.3041,1202.2065],[33.3281,-11.3094,1191.9414],[33.3351,-11.307,1206.9055],[33.3801,-11.3005,1174.8846],[33.3833,-11.297,1170.1594],[33.3862,-11.2963,1163.7802],[33.389,-11.2969,1163.4481],[33.396,-11.3036,1144.3844],[33.4045,-11.3054,1135.8914],[33.4285,-11.3028,1109.3584],[33.4295,-11.3045,1099.3547]]]]}
,"properties": {"GID_3": "MWI.17.9.6_1","GID_0": "MWI","country": "Malawi","GID_1": "MWI.17_1","province": "Mzimba","NL_NAME_1": "NA","GID_2": "MWI.17.9_1","county": "TAMpherembe","NL_NAME_2": "NA","city": "n.a.(176)","VARNAME_3": "NA","NL_NAME_3": "NA","TYPE_3": "Unknown","ENGTYPE_3": "Unknown","CC_3": "NA","HASC_3": "NA","name": "n.a.(176).city","area_km2": 75.89549,"hist_schema_id": "Elevation0-9000","hist_area_km2": {"1075": 0.04159,"1100": 6.84096,"1125": 15.30392,"1150": 24.55701,"1175": 24.78565,"1200": 4.34556,"1225": 0.02079}}}