{"type": "Feature","bbox": [33.3688,-11.8563,33.4546,-11.7804],"geometry": {"type": "MultiPolygon","coordinates": [[[[33.4344,-11.8035,1195.7524],[33.4329,-11.7993,1184.9001],[33.4218,-11.7903,1197.4845],[33.4142,-11.7942,1176.2039],[33.4103,-11.7895,1173.583],[33.4043,-11.792,1173.6155],[33.4015,-11.7887,1172.5148],[33.4021,-11.7913,1172.7009],[33.3987,-11.7924,1172.7644],[33.3925,-11.7804,1180.2419],[33.389,-11.7815,1176.0586],[33.3878,-11.7839,1176.5262],[33.3835,-11.7825,1167.0367],[33.3789,-11.7839,1163.6848],[33.3703,-11.7893,1166.7268],[33.3705,-11.7911,1166.855],[33.3688,-11.7919,1167.4897],[33.3721,-11.7938,1162.2852],[33.3766,-11.7995,1166.9482],[33.3862,-11.8021,1163.7876],[33.3862,-11.8111,1173.1086],[33.3878,-11.8133,1173.7438],[33.3924,-11.8146,1167.071],[33.3954,-11.8131,1180.1619],[33.3973,-11.8151,1172.9124],[33.3983,-11.8195,1165.9799],[33.4031,-11.8238,1167.7944],[33.4028,-11.8294,1167.9946],[33.4049,-11.8328,1169.4309],[33.4024,-11.8353,1169.5417],[33.4027,-11.8381,1171.3676],[33.4056,-11.8396,1170.6367],[33.4072,-11.8456,1170.0254],[33.4179,-11.8473,1180.5459],[33.4241,-11.8543,1182.1942],[33.4313,-11.8563,1197.9036],[33.4367,-11.8528,1207.5427],[33.4415,-11.8528,1211.7242],[33.4546,-11.8269,1198.0216],[33.4524,-11.8251,1200.3494],[33.4532,-11.8176,1193.7102],[33.4479,-11.8139,1210.6536],[33.4432,-11.814,1193.0015],[33.4412,-11.8075,1191.5702],[33.4344,-11.8035,1195.7524]]]]}
,"properties": {"GID_3": "MWI.17.7.2_1","GID_0": "MWI","country": "Malawi","GID_1": "MWI.17_1","province": "Mzimba","NL_NAME_1": "NA","GID_2": "MWI.17.7_1","county": "TAM'Mbelwa","NL_NAME_2": "NA","city": "n.a.(258)","VARNAME_3": "NA","NL_NAME_3": "NA","TYPE_3": "Unknown","ENGTYPE_3": "Unknown","CC_3": "NA","HASC_3": "NA","name": "n.a.(258).city","area_km2": 38.10216,"hist_schema_id": "Elevation0-9000","hist_area_km2": {"1150": 0.20754,"1175": 17.88943,"1200": 13.69665,"1225": 6.16328,"1250": 0.14526}}}