{"type":"Feature","properties":{"GID_3":"MWI.11.13.2_1","GID_0":"MWI","country":"Malawi","GID_1":"MWI.11_1","province":"Lilongwe","NL_NAME_1":"NA","GID_2":"MWI.11.13_1","county":"TAKalumbu","NL_NAME_2":"NA","city":"n.a.(1227)","VARNAME_3":"NA","NL_NAME_3":"NA","TYPE_3":"Unknown","ENGTYPE_3":"Unknown","CC_3":"NA","HASC_3":"NA","name":"n.a.(1227).city"},
"geometry":{"type": "MultiPolygon","coordinates": [[[[34.0089,-14.0988,1246.6688],[34.0105,-14.1035,1242.6373],[34.0075,-14.1068,1271.4197],[34.0093,-14.108,1255.4087],[34.0358,-14.1086,1204.9082],[34.0369,-14.1044,1210.5607],[34.0356,-14.1011,1211.7227],[34.0439,-14.0918,1226.3098],[34.0451,-14.0825,1239.7029],[34.0301,-14.0815,1226.8607],[34.0272,-14.084,1231.3342],[34.0184,-14.0824,1209.4829],[34.0153,-14.0864,1196.4308],[34.0098,-14.0825,1179.4377],[34.0089,-14.0988,1246.6688]]]]}}