{"type": "Feature","bbox": [34.6762,-15.081,34.7638,-15.023],"geometry": {"type": "MultiPolygon","coordinates": [[[[34.6762,-15.0697,1335.615],[34.6806,-15.0723,1301.881],[34.6854,-15.0715,1265.447],[34.6975,-15.0646,1161.9401],[34.7048,-15.0716,1102.0582],[34.7171,-15.0781,1002.864],[34.7195,-15.081,950.6605],[34.7292,-15.0809,917.0843],[34.7311,-15.0776,937.3184],[34.7353,-15.08,887.0605],[34.7443,-15.0796,856.8724],[34.7448,-15.0712,898.5223],[34.7557,-15.0673,867.457],[34.7596,-15.0616,832.4497],[34.7589,-15.0565,839.6082],[34.7543,-15.0494,855.6923],[34.7498,-15.0468,885.7964],[34.7638,-15.0329,842.4094],[34.7543,-15.0283,860.4767],[34.7472,-15.0278,892.5892],[34.7421,-15.023,891.9312],[34.739,-15.031,900.3676],[34.734,-15.0366,889.7267],[34.7288,-15.039,923.6388],[34.7217,-15.0376,989.9772],[34.714,-15.0383,1018.1472],[34.7139,-15.0445,1009.0537],[34.7103,-15.047,1048.0217],[34.7099,-15.0507,1025.1732],[34.7048,-15.0516,1138.3325],[34.7006,-15.0552,1166.6915],[34.6959,-15.0526,1211.2959],[34.6936,-15.0425,1306.835],[34.684,-15.0406,1391.9709],[34.6775,-15.041,1425.255],[34.6762,-15.0697,1335.615]]]]}
,"properties": {"GID_3": "MWI.22.10.10_1","GID_0": "MWI","country": "Malawi","GID_1": "MWI.22_1","province": "Ntcheu","NL_NAME_1": "NA","GID_2": "MWI.22.10_1","county": "TAPhambala","NL_NAME_2": "NA","city": "n.a.(1979)","VARNAME_3": "NA","NL_NAME_3": "NA","TYPE_3": "Unknown","ENGTYPE_3": "Unknown","CC_3": "NA","HASC_3": "NA","name": "n.a.(1979).city","area_km2": 33.10712,"hist_schema_id": "Elevation0-9000","hist_area_km2": {"825": 0.12285,"850": 1.61756,"875": 3.89027,"900": 5.18009,"925": 2.74352,"950": 2.47735,"975": 2.14977,"1000": 2.51835,"1025": 2.33406,"1050": 1.33082,"1075": 0.47089,"1100": 0.4709,"1125": 0.47089,"1150": 0.34806,"1175": 0.34806,"1200": 0.4709,"1225": 0.67564,"1250": 0.69612,"1275": 0.65517,"1300": 0.90086,"1325": 1.04418,"1350": 0.69614,"1375": 0.69614,"1400": 0.53236,"1425": 0.26618}}}