{"type": "Feature","bbox": [34.0613,-14.378,34.1072,-14.3096],"geometry": {"type": "MultiPolygon","coordinates": [[[[34.0875,-14.3096,1235.7836],[34.081,-14.3161,1244.4409],[34.0752,-14.312,1257.0422],[34.0691,-14.3109,1246.9299],[34.0654,-14.314,1244.5857],[34.0649,-14.3164,1244.2955],[34.0714,-14.3224,1258.6371],[34.0613,-14.331,1226.3695],[34.0676,-14.3331,1243.2931],[34.0729,-14.3383,1254.9098],[34.0795,-14.3366,1240.2156],[34.0838,-14.3513,1245.605],[34.0815,-14.354,1247.5164],[34.0807,-14.3654,1250.2341],[34.0876,-14.378,1265.5789],[34.1013,-14.3681,1282.9028],[34.1072,-14.3236,1260.3258],[34.093,-14.3148,1251.6345],[34.0875,-14.3096,1235.7836]]]]}
,"properties": {"GID_3": "MWI.6.9.5_1","GID_0": "MWI","country": "Malawi","GID_1": "MWI.6_1","province": "Dedza","NL_NAME_1": "NA","GID_2": "MWI.6.9_1","county": "TAPemba","NL_NAME_2": "NA","city": "n.a.(1470)","VARNAME_3": "NA","NL_NAME_3": "NA","TYPE_3": "Unknown","ENGTYPE_3": "Unknown","CC_3": "NA","HASC_3": "NA","name": "n.a.(1470).city","area_km2": 19.69949,"hist_schema_id": "Elevation0-9000","hist_area_km2": {"1225": 0.69848,"1250": 9.96291,"1275": 8.42187,"1300": 0.61623}}}