{"type": "Feature","bbox": [34.1085,-12.6519,34.175,-12.6121],"geometry": {"type": "MultiPolygon","coordinates": [[[[34.1737,-12.6274,478.1282],[34.1628,-12.6353,500.3976],[34.1496,-12.6121,491.4336],[34.1365,-12.6202,533.3888],[34.1158,-12.6209,586.9628],[34.1085,-12.6247,598.0888],[34.1351,-12.6519,510.5961],[34.1737,-12.637,482.1464],[34.175,-12.632,479.0772],[34.1737,-12.6274,478.1282]]]]}
,"properties": {"GID_3": "MWI.20.7.18_1","GID_0": "MWI","country": "Malawi","GID_1": "MWI.20_1","province": "Nkhotakota","NL_NAME_1": "NA","GID_2": "MWI.20.7_1","county": "TAKanyenda","NL_NAME_2": "NA","city": "n.a.(376)","VARNAME_3": "NA","NL_NAME_3": "NA","TYPE_3": "Unknown","ENGTYPE_3": "Unknown","CC_3": "NA","HASC_3": "NA","name": "n.a.(376).city","area_km2": 15.43397,"hist_schema_id": "Elevation0-9000","hist_area_km2": {"475": 0.22758,"500": 7.34456,"525": 2.89644,"550": 1.26201,"575": 1.24135,"600": 2.02756,"625": 0.43447}}}