{"type":"Feature","properties":{"GID_3":"MWI.28.6.2_1","GID_0":"MWI","country":"Malawi","GID_1":"MWI.28_1","province":"Zomba","NL_NAME_1":"NA","GID_2":"MWI.28.6_1","county":"TAMalemia","NL_NAME_2":"NA","city":"n.a.(2052)","VARNAME_3":"NA","NL_NAME_3":"NA","TYPE_3":"Unknown","ENGTYPE_3":"Unknown","CC_3":"NA","HASC_3":"NA","name":"n.a.(2052).city"},
"geometry":{"type": "MultiPolygon","coordinates": [[[[35.3464,-15.1954,771.9434],[35.3377,-15.2066,861.2549],[35.333,-15.2048,894.0732],[35.3396,-15.2155,866.8507],[35.3416,-15.2143,827.1688],[35.3468,-15.2197,838.2422],[35.3498,-15.2175,780.1613],[35.3554,-15.217,766.1069],[35.3746,-15.2194,737.0033],[35.3754,-15.2172,737.3633],[35.3683,-15.206,754.3647],[35.359,-15.2119,770.6721],[35.3464,-15.1954,771.9434]]]]}}