{"type":"Feature","properties":{"GID_3":"MWI.8.8.5_1","GID_0":"MWI","country":"Malawi","GID_1":"MWI.8_1","province":"Karonga","NL_NAME_1":"NA","GID_2":"MWI.8.8_1","county":"TAWasambo","NL_NAME_2":"NA","city":"n.a.(105)","VARNAME_3":"NA","NL_NAME_3":"NA","TYPE_3":"Unknown","ENGTYPE_3":"Unknown","CC_3":"NA","HASC_3":"NA","name":"n.a.(105).city"},
"geometry":{"type": "MultiPolygon","coordinates": [[[[34.2158,-10.5168,512.1588],[34.2088,-10.5198,494.3435],[34.2006,-10.5184,524.1835],[34.198,-10.5222,529.4624],[34.1942,-10.5208,543.9378],[34.1893,-10.5219,566.2634],[34.181399999999996,-10.5263,652.7004],[34.1823,-10.5293,601.9344],[34.1811,-10.5329,709.5042],[34.1692,-10.5298,708.5222],[34.1664,-10.5329,661.9951],[34.1661,-10.5401,731.8984],[34.1735,-10.5414,679.2843],[34.1793,-10.5457,658.8633],[34.1873,-10.5481,631.4686],[34.1924,-10.5532,492.8411],[34.2232,-10.5349,542.2069],[34.2279,-10.5292,491.3157],[34.2239,-10.5231,508.5967],[34.2172,-10.5193,477.6246],[34.2158,-10.5168,512.1588]]]]}}