{"type": "Feature","bbox": [35.5562,-14.5041,35.5941,-14.4413],"geometry": {"type": "MultiPolygon","coordinates": [[[[35.5759,-14.4413,809.7448],[35.573,-14.4734,823.4149],[35.5721,-14.475,823.8943],[35.5688,-14.4729,824.9767],[35.5606,-14.4744,829.4304],[35.556399999999996,-14.4795,839.5018],[35.5562,-14.4823,841.8813],[35.5629,-14.4844,833.8815],[35.5651,-14.4949,850.145],[35.5644,-14.5018,878.3732],[35.5734,-14.5022,853.6114],[35.5817,-14.4977,837.9495],[35.5897,-14.5041,836.2308],[35.5853,-14.4772,848.2361],[35.5881,-14.4684,856.6309],[35.5875,-14.464,854.076],[35.5896,-14.4627,849.345],[35.5886,-14.4561,840.387],[35.5941,-14.4447,811.6218],[35.5911,-14.4431,825.1661],[35.587,-14.4456,835.2088],[35.5841,-14.4431,833.9402],[35.5759,-14.4413,809.7448]]]]}
,"properties": {"GID_3": "MWI.13.6.5_1","GID_0": "MWI","country": "Malawi","GID_1": "MWI.13_1","province": "Mangochi","NL_NAME_1": "NA","GID_2": "MWI.13.6_1","county": "SCMbwanaNyambi","NL_NAME_2": "NA","city": "n.a.(1601)","VARNAME_3": "NA","NL_NAME_3": "NA","TYPE_3": "Unknown","ENGTYPE_3": "Unknown","CC_3": "NA","HASC_3": "NA","name": "n.a.(1601).city","area_km2": 13.77508,"hist_schema_id": "Elevation0-9000","hist_area_km2": {"800": 0.0616,"825": 7.14429,"850": 6.52814,"875": 0.04105}}}