{"type":"Feature","properties":{"GID_3":"MWI.27.9.1_1","GID_0":"MWI","country":"Malawi","GID_1":"MWI.27_1","province":"Thyolo","NL_NAME_1":"NA","GID_2":"MWI.27.9_1","county":"TAKapichi","NL_NAME_2":"NA","city":"n.a.(2830)","VARNAME_3":"NA","NL_NAME_3":"NA","TYPE_3":"Unknown","ENGTYPE_3":"Unknown","CC_3":"NA","HASC_3":"NA","name":"n.a.(2830).city"},
"geometry":{"type": "MultiPolygon","coordinates": [[[[35.2594,-16.0512,698.6654],[35.2584,-16.054,704.0248],[35.2561,-16.0536,708.0536],[35.2529,-16.0572,705.5658],[35.2491,-16.0578,711.2654],[35.2432,-16.0623,728.9678],[35.2357,-16.073,741.5663],[35.2264,-16.0825,766.26],[35.2268,-16.0879,768.7843],[35.237,-16.0826,774.6578],[35.2449,-16.0826,753.4648],[35.2521,-16.0745,742.0957],[35.263,-16.0718,709.0077],[35.269,-16.0674,696.282],[35.2723,-16.0699,709.9318],[35.276,-16.0668,703.286],[35.2881,-16.0717,661.6039],[35.2909,-16.0714,662.2513],[35.2923,-16.0693,670.6413],[35.3021,-16.0706,638.3765],[35.3013,-16.0645,666.1538],[35.3031,-16.0584,680.8648],[35.2938,-16.0572,678.335],[35.2813,-16.0529,697.9542],[35.2827,-16.0496,692.2551],[35.288,-16.0471,671.2893],[35.2867,-16.0445,677.5947],[35.2799,-16.045,674.0505],[35.2784,-16.0462,681.5073],[35.2805,-16.0478,679.4268],[35.2802,-16.0496,678.4509],[35.278,-16.0513,679.2937],[35.2741,-16.0513,687.3483],[35.2704,-16.0554,691.3056],[35.2688,-16.0544,694.4433],[35.2689,-16.0517,697.4879],[35.2657,-16.053,697.0884],[35.2633,-16.0507,709.9636],[35.2594,-16.0512,698.6654]]]]}}