{"type":"Feature","properties":{"GID_3":"MWI.24.3.4_1","GID_0":"MWI","country":"Malawi","GID_1":"MWI.24_1","province":"Phalombe","NL_NAME_1":"NA","GID_2":"MWI.24.3_1","county":"TANazombe","NL_NAME_2":"NA","city":"n.a.(2289)","VARNAME_3":"NA","NL_NAME_3":"NA","TYPE_3":"Unknown","ENGTYPE_3":"Unknown","CC_3":"NA","HASC_3":"NA","name":"n.a.(2289).city"},
"geometry":{"type": "MultiPolygon","coordinates": [[[[35.8049,-15.5327,679.8207],[35.799,-15.5435,769.4333],[35.7996,-15.552,680.8519],[35.8022,-15.5567,677.364],[35.8013,-15.5592,661.1823],[35.8079,-15.5586,700.3072],[35.8204,-15.561,708.7222],[35.8275,-15.5569,744.485],[35.8309,-15.5503,660.7006],[35.8406,-15.5545,671.6335],[35.8423,-15.5362,639.2368],[35.8222,-15.5358,658.3737],[35.8146,-15.5285,658.9861],[35.8049,-15.5327,679.8207]]]]}}