{"type": "Feature","bbox": [34.2046,-10.4684,34.2314,-10.4272],"geometry": {"type": "MultiPolygon","coordinates": [[[[34.2314,-10.451599999999999,477.3638],[34.2223,-10.4272,552.8171],[34.2072,-10.4276,572.6602],[34.2095,-10.4361,553.4333],[34.2091,-10.4419,526.5597],[34.2186,-10.4478,484.5351],[34.2069,-10.4571,486.235],[34.2046,-10.4661,483.4495],[34.211,-10.4684,478.9159],[34.2192,-10.46,477.8124],[34.2314,-10.451599999999999,477.3638]]]]}
,"properties": {"GID_3": "MWI.8.8.1_1","GID_0": "MWI","country": "Malawi","GID_1": "MWI.8_1","province": "Karonga","NL_NAME_1": "NA","GID_2": "MWI.8.8_1","county": "TAWasambo","NL_NAME_2": "NA","city": "n.a.(100)","VARNAME_3": "NA","NL_NAME_3": "NA","TYPE_3": "Unknown","ENGTYPE_3": "Unknown","CC_3": "NA","HASC_3": "NA","name": "n.a.(100).city","area_km2": 7.318633,"hist_schema_id": "Elevation0-9000","hist_area_km2": {"475": 3.648785,"500": 1.230208,"525": 0.62554,"550": 1.125987,"575": 0.688113}}}