{"type":"Feature","properties":{"GID_3":"MWI.16.4.11_1","GID_0":"MWI","country":"Malawi","GID_1":"MWI.16_1","province":"Mwanza","NL_NAME_1":"NA","GID_2":"MWI.16.4_1","county":"TANthache","NL_NAME_2":"NA","city":"n.a.(2501)","VARNAME_3":"NA","NL_NAME_3":"NA","TYPE_3":"Unknown","ENGTYPE_3":"Unknown","CC_3":"NA","HASC_3":"NA","name":"n.a.(2501).city"},
"geometry":{"type": "MultiPolygon","coordinates": [[[[34.4388,-15.7742,618.5671],[34.4913,-15.796,493.934],[34.4884,-15.7878,501.3701],[34.4888,-15.7821,509.3836],[34.4824,-15.7779,558.1199],[34.4804,-15.7748,593.6443],[34.4815,-15.7655,636.945],[34.4778,-15.7565,644.0178],[34.4773,-15.7508,656.5396],[34.462,-15.7408,815.425],[34.4548,-15.7329,980.1886],[34.4536,-15.735,1099.2467],[34.4542,-15.7405,862.9855],[34.4495,-15.7444,760.8165],[34.4457,-15.751,679.3488],[34.4387,-15.7542,665.3962],[34.4356,-15.754,659.0596],[34.4356,-15.757,648.9948],[34.4318,-15.7598,638.5928],[34.4322,-15.7652,628.3355],[34.4275,-15.7655,630.6916],[34.4274,-15.7691,620.8495],[34.4388,-15.7742,618.5671]]]]}}