{"type": "Feature","bbox": [33.9845,-10.2615,34.0865,-10.1688],"geometry": {"type": "MultiPolygon","coordinates": [[[[34.0727,-10.1901,474.5],[34.0702,-10.1969,487.2031],[34.0425,-10.1749,488.761],[34.0371,-10.1746,490.7092],[34.0331,-10.1769,500.1419],[34.0317,-10.1802,497.0723],[34.0284,-10.1774,501.2486],[34.0267,-10.1779,503.8971],[34.026,-10.1751,514.2221],[34.0172,-10.1688,528.2661],[33.9938,-10.1755,679.8511],[33.9845,-10.1814,735.2502],[34.0045,-10.2072,667.9456],[34.008,-10.222,704.4736],[34.018,-10.2346,701.2684],[34.0177,-10.2487,690.7905],[34.0138,-10.2544,730.3877],[34.0199,-10.2545,698.3235],[34.0273,-10.2615,681.7068],[34.0451,-10.2492,593.348],[34.0489,-10.2488,580.0199],[34.0546,-10.2446,569.477],[34.0605,-10.2429,557.6439],[34.0738,-10.2171,515.9838],[34.0778,-10.2129,502.1347],[34.0817,-10.2117,499.3166],[34.0814,-10.2075,491.797],[34.0865,-10.1956,474.5],[34.08,-10.1914,474.5],[34.0727,-10.1901,474.5]]]]}
,"properties": {"GID_3": "MWI.8.7.17_1","GID_0": "MWI","country": "Malawi","GID_1": "MWI.8_1","province": "Karonga","NL_NAME_1": "NA","GID_2": "MWI.8.7_1","county": "TAKyungu","NL_NAME_2": "NA","city": "n.a.(84)","VARNAME_3": "NA","NL_NAME_3": "NA","TYPE_3": "Unknown","ENGTYPE_3": "Unknown","CC_3": "NA","HASC_3": "NA","name": "n.a.(84).city","area_km2": 60.63795,"hist_schema_id": "Elevation0-9000","hist_area_km2": {"475": 2.21196,"500": 12.24928,"525": 9.724,"550": 8.74297,"575": 5.75896,"600": 3.90193,"625": 3.3803,"650": 4.13147,"675": 4.48612,"700": 3.88093,"725": 1.58577,"750": 0.313,"775": 0.1878,"800": 0.0626,"825": 0.02087}}}