{"type":"Feature","properties":{"GID_3":"MWI.20.8.10_1","GID_0":"MWI","country":"Malawi","GID_1":"MWI.20_1","province":"Nkhotakota","NL_NAME_1":"NA","GID_2":"MWI.20.8_1","county":"TAMalengaChanzi","NL_NAME_2":"NA","city":"n.a.(469)","VARNAME_3":"NA","NL_NAME_3":"NA","TYPE_3":"Unknown","ENGTYPE_3":"Unknown","CC_3":"NA","HASC_3":"NA","name":"n.a.(469).city"},
"geometry":{"type": "MultiPolygon","coordinates": [[[[34.3321,-13.0169,478.1944],[34.3256,-13.019,495.1762],[34.3139,-13.0155,525.8943],[34.3052,-13.017,538.3863],[34.3007,-13.0198,547.8286],[34.2968,-13.0196,555.5817],[34.2957,-13.0448,540.7045],[34.3033,-13.0428,524.3013],[34.312,-13.0459,518.1335],[34.3259,-13.0457,480.0722],[34.3253,-13.0382,483.9681],[34.3293,-13.0331,482.9347],[34.3284,-13.0296,484.5373],[34.3333,-13.0239,474.5],[34.3315,-13.0203,482.4286],[34.3321,-13.0169,478.1944]]]]}}