{"type":"Feature","properties":{"GID_3":"MWI.28.6.17_1","GID_0":"MWI","country":"Malawi","GID_1":"MWI.28_1","province":"Zomba","NL_NAME_1":"NA","GID_2":"MWI.28.6_1","county":"TAMalemia","NL_NAME_2":"NA","city":"n.a.(2132)","VARNAME_3":"NA","NL_NAME_3":"NA","TYPE_3":"Unknown","ENGTYPE_3":"Unknown","CC_3":"NA","HASC_3":"NA","name":"n.a.(2132).city"},
"geometry":{"type": "MultiPolygon","coordinates": [[[[35.3989,-15.3483,766.546],[35.395,-15.3507,775.6539],[35.385,-15.3517,802.6029],[35.379,-15.3542,825.1616],[35.3752,-15.3515,836.1382],[35.3658,-15.35,891.3948],[35.3573,-15.3444,1052.2053],[35.3556,-15.3507,1028.8708],[35.353,-15.3535,1066.4287],[35.3548,-15.3558,999.5756],[35.3723,-15.3593,838.6929],[35.3735,-15.3617,834.6681],[35.372,-15.3649,822.9557],[35.3744,-15.3624,831.7967],[35.3781,-15.3629,830.8923],[35.3825,-15.3647,816.7986],[35.3861,-15.3642,797.2278],[35.3921,-15.3677,779.1951],[35.3919,-15.3561,783.6946],[35.3989,-15.3483,766.546]]]]}}