{"type":"Feature","properties":{"GID_3":"MWI.19.7.6_1","GID_0":"MWI","country":"Malawi","GID_1":"MWI.19_1","province":"NkhataBay","NL_NAME_1":"NA","GID_2":"MWI.19.7_1","county":"TAKabunduli","NL_NAME_2":"NA","city":"n.a.(242)","VARNAME_3":"NA","NL_NAME_3":"NA","TYPE_3":"Unknown","ENGTYPE_3":"Unknown","CC_3":"NA","HASC_3":"NA","name":"n.a.(242).city"},
"geometry":{"type": "MultiPolygon","coordinates": [[[[34.1358,-11.68,734.1473],[34.12,-11.6775,668.4468],[34.1137,-11.6736,624.9068],[34.1078,-11.6734,572.7767],[34.0988,-11.6703,574.963],[34.0937,-11.666,609.3461],[34.091,-11.6692,591.2806],[34.0896,-11.6669,601.2366],[34.0909,-11.665,615.0659],[34.0856,-11.6629,629.3265],[34.082,-11.6643,603.2368],[34.0801,-11.6615,605.6842],[34.0633,-11.6614,642.0262],[34.0555,-11.6692,660.4452],[34.0537,-11.6753,655.0523],[34.055,-11.6793,664.1673],[34.0818,-11.6929,601.4988],[34.086,-11.6991,591.0172],[34.0874,-11.7052,596.2512],[34.0929,-11.7078,570.7512],[34.0971,-11.7131,552.9879],[34.1014,-11.7152,554.3875],[34.125,-11.7196,637.7208],[34.135,-11.7188,627.58],[34.1358,-11.68,734.1473]]]]}}