{"type":"Feature","properties":{"GID_3":"MWI.1.2.27_1","GID_0":"MWI","country":"Malawi","GID_1":"MWI.1_1","province":"Balaka","NL_NAME_1":"NA","GID_2":"MWI.1.2_1","county":"TAKalembo","NL_NAME_2":"NA","city":"n.a.(1909)","VARNAME_3":"NA","NL_NAME_3":"NA","TYPE_3":"Unknown","ENGTYPE_3":"Unknown","CC_3":"NA","HASC_3":"NA","name":"n.a.(1909).city"},
"geometry":{"type": "MultiPolygon","coordinates": [[[[35.1073,-14.9062,616.9669],[35.1068,-14.9155,639.1804],[35.1043,-14.9171,639.0432],[35.0962,-14.9158,646.4661],[35.0934,-14.9178,645.5632],[35.0894,-14.9171,649.7189],[35.0821,-14.9207,624.9136],[35.073,-14.9184,633.1644],[35.07,-14.9203,634.7952],[35.0692,-14.9245,635.683],[35.061,-14.9302,633.9322],[35.0671,-14.9356,630.3662],[35.0676,-14.9395,625.5258],[35.0737,-14.9502,613.345],[35.0809,-14.9519,609.1608],[35.0953,-14.964,632.4406],[35.0952,-14.9609,626.2914],[35.1016,-14.9525,607.2737],[35.1041,-14.9457,598.0042],[35.1161,-14.9456,595.4213],[35.1157,-14.9416,599.5024],[35.1182,-14.9383,595.167],[35.1204,-14.9385,596.502],[35.1276,-14.9449,578.038],[35.1341,-14.9422,577.2728],[35.1374,-14.9432,577.6563],[35.1425,-14.9414,572.1],[35.1443,-14.9438,563.3519],[35.1485,-14.9425,568.0836],[35.1591,-14.9437,563.4149],[35.1668,-14.9396,544.806],[35.1689,-14.9337,532.2473],[35.1598,-14.9131,567.2078],[35.1542,-14.9163,580.9852],[35.1522,-14.92,592.5045],[35.146,-14.9183,619.0811],[35.1421,-14.92,617.123],[35.1379,-14.9257,582.0077],[35.1344,-14.9267,581.3037],[35.1262,-14.9209,598.2759],[35.12,-14.9095,605.8549],[35.1073,-14.9062,616.9669]]]]}}