{"type": "Feature","bbox": [33.4037,-11.9433,33.4993,-11.8812],"geometry": {"type": "MultiPolygon","coordinates": [[[[33.4037,-11.9073,1194.3513],[33.407,-11.9087,1188.3054],[33.4121,-11.9066,1197.4951],[33.4185,-11.9087,1200.572],[33.4294,-11.9231,1214.1425],[33.4384,-11.9279,1231.058],[33.4486,-11.9388,1239.1249],[33.4601,-11.9433,1260.4257],[33.4621,-11.943,1264.7107],[33.4584,-11.9292,1245.7783],[33.4586,-11.9244,1235.8682],[33.4602,-11.9223,1226.4966],[33.4681,-11.926,1247.0997],[33.4768,-11.9369,1246.4852],[33.4831,-11.9384,1264.1143],[33.4907,-11.9358,1278.432],[33.4885,-11.9129,1270.2253],[33.4993,-11.9051,1288.1533],[33.497,-11.901,1277.8674],[33.4973,-11.894,1268.5979],[33.4851,-11.8836,1251.0197],[33.4794,-11.8812,1240.7975],[33.473,-11.8839,1247.521],[33.4569,-11.8842,1236.5165],[33.4471,-11.889,1250.2141],[33.4374,-11.8985,1219.5779],[33.4342,-11.8998,1209.8917],[33.431399999999996,-11.8998,1203.8815],[33.4296,-11.8969,1214.6694],[33.4258,-11.8961,1212.3467],[33.41,-11.8994,1199.6401],[33.4037,-11.9073,1194.3513]]]]}
,"properties": {"GID_3": "MWI.17.7.8_1","GID_0": "MWI","country": "Malawi","GID_1": "MWI.17_1","province": "Mzimba","NL_NAME_1": "NA","GID_2": "MWI.17.7_1","county": "TAM'Mbelwa","NL_NAME_2": "NA","city": "n.a.(276)","VARNAME_3": "NA","NL_NAME_3": "NA","TYPE_3": "Unknown","ENGTYPE_3": "Unknown","CC_3": "NA","HASC_3": "NA","name": "n.a.(276).city","area_km2": 38.50424,"hist_schema_id": "Elevation0-9000","hist_area_km2": {"1175": 0.02075,"1200": 3.8588,"1225": 9.06591,"1250": 15.55944,"1275": 9.27327,"1300": 0.72608}}}