{"type": "Feature","bbox": [34.5802,-15.0833,34.6776,-15.0251],"geometry": {"type": "MultiPolygon","coordinates": [[[[34.5969,-15.0436,1575.4521],[34.5932,-15.0441,1612.1411],[34.5844,-15.0498,1620.9905],[34.5802,-15.0573,1675.0094],[34.581,-15.0603,1670.0156],[34.585,-15.0618,1650.5358],[34.5916,-15.0573,1596.6265],[34.6024,-15.0536,1544.0291],[34.6066,-15.056,1537.6638],[34.6112,-15.0639,1562.4425],[34.6243,-15.0667,1471.7031],[34.6303,-15.064,1495.9508],[34.6343,-15.0598,1452.4974],[34.6343,-15.0673,1436.4583],[34.6381,-15.0704,1473.6594],[34.642,-15.0712,1462.8247],[34.6449,-15.0745,1437.0328],[34.6588,-15.0726,1426.3428],[34.6617,-15.074,1426.9861],[34.665,-15.0815,1345.2676],[34.6675,-15.0833,1345.6328],[34.6763,-15.0816,1275.4666],[34.6776,-15.0251,1331.1859],[34.6718,-15.0279,1400.703],[34.6658,-15.0252,1408.5228],[34.6622,-15.0266,1400.3201],[34.6624,-15.0304,1435.8993],[34.6601,-15.0356,1521.9899],[34.6613,-15.0446,1420.9434],[34.6598,-15.0454,1420.9434],[34.6527,-15.0412,1474.9299],[34.6308,-15.0393,1537.0271],[34.6275,-15.0473,1483.9935],[34.6214,-15.0428,1531.6047],[34.6052,-15.0467,1593.3745],[34.5996,-15.046,1598.7002],[34.5969,-15.0436,1575.4521]]]]}
,"properties": {"GID_3": "MWI.22.8.8_1","GID_0": "MWI","country": "Malawi","GID_1": "MWI.22_1","province": "Ntcheu","NL_NAME_1": "NA","GID_2": "MWI.22.8_1","county": "TAMpando","NL_NAME_2": "NA","city": "n.a.(1981)","VARNAME_3": "NA","NL_NAME_3": "NA","TYPE_3": "Unknown","ENGTYPE_3": "Unknown","CC_3": "NA","HASC_3": "NA","name": "n.a.(1981).city","area_km2": 29.9952,"hist_schema_id": "Elevation0-9000","hist_area_km2": {"1275": 0.12283,"1300": 0.18425,"1325": 0.38899,"1350": 1.04418,"1375": 1.74033,"1400": 2.78458,"1425": 3.21456,"1450": 3.89015,"1475": 4.48388,"1500": 4.3201,"1525": 2.96883,"1550": 1.49466,"1575": 1.10564,"1600": 0.83947,"1625": 0.81899,"1650": 0.49139,"1675": 0.10237}}}