{"type":"Feature","properties":{"GID_3":"MWI.13.6.23_1","GID_0":"MWI","country":"Malawi","GID_1":"MWI.13_1","province":"Mangochi","NL_NAME_1":"NA","GID_2":"MWI.13.6_1","county":"SCMbwanaNyambi","NL_NAME_2":"NA","city":"n.a.(1706)","VARNAME_3":"NA","NL_NAME_3":"NA","TYPE_3":"Unknown","ENGTYPE_3":"Unknown","CC_3":"NA","HASC_3":"NA","name":"n.a.(1706).city"},
"geometry":{"type": "MultiPolygon","coordinates": [[[[35.4656,-14.6983,730.2396],[35.484,-14.698,738.5737],[35.5121,-14.6935,857.1059],[35.5129,-14.6782,872.7556],[35.5157,-14.665,878.2843],[35.5128,-14.6637,919.5357],[35.4817,-14.681,788.4595],[35.4753,-14.6658,833.7285],[35.4784,-14.6639,832.6813],[35.4767,-14.6604,841.9708],[35.4863,-14.6568,780.4937],[35.4945,-14.6391,797.7469],[35.487,-14.6228,828.5405],[35.4704,-14.6257,870.1843],[35.4686,-14.628,874.7527],[35.4612,-14.6234,815.2125],[35.4543,-14.6253,788.3325],[35.4523,-14.6275,804.6534],[35.4676,-14.6611,809.7657],[35.4708,-14.6886,758.5391],[35.442,-14.6957,653.2504],[35.4374,-14.6994,586.9397],[35.4384,-14.701,590.9907],[35.4656,-14.6983,730.2396]]]]}}