{"type": "Feature","bbox": [33.0809,-13.6814,33.1744,-13.6317],"geometry": {"type": "MultiPolygon","coordinates": [[[[33.0989,-13.6379,1117.4271],[33.1024,-13.6536,1104.9282],[33.0824,-13.66,1112.2783],[33.0809,-13.681,1128.0179],[33.0872,-13.6814,1117.9467],[33.0943,-13.6792,1111.7676],[33.0985,-13.6755,1108.3416],[33.1087,-13.6603,1099.5161],[33.1153,-13.6542,1102.8323],[33.1202,-13.6729,1115.8522],[33.1257,-13.6806,1100.8362],[33.1384,-13.6753,1101.1797],[33.1384,-13.6691,1099.3926],[33.1418,-13.6646,1098.256],[33.1427,-13.6662,1098.256],[33.1494,-13.6665,1091.9319],[33.1729,-13.6653,1092.9287],[33.1725,-13.6592,1084.6024],[33.1744,-13.6536,1075.7806],[33.1661,-13.6498,1083.3477],[33.1625,-13.639099999999999,1089.9432],[33.1627,-13.6317,1084.6204],[33.0989,-13.6379,1117.4271]]]]}
,"properties": {"GID_3": "MWI.14.4.4_1","GID_0": "MWI","country": "Malawi","GID_1": "MWI.14_1","province": "Mchinji","NL_NAME_1": "NA","GID_2": "MWI.14.4_1","county": "SCMduwa","NL_NAME_2": "NA","city": "n.a.(785)","VARNAME_3": "NA","NL_NAME_3": "NA","TYPE_3": "Unknown","ENGTYPE_3": "Unknown","CC_3": "NA","HASC_3": "NA","name": "n.a.(785).city","area_km2": 32.14055,"hist_schema_id": "Elevation0-9000","hist_area_km2": {"1075": 4.32685,"1100": 22.8898,"1125": 4.92391}}}