{"type": "Feature","bbox": [35.7936,-14.71,35.8707,-14.6658],"geometry": {"type": "MultiPolygon","coordinates": [[[[35.8694,-14.7074,627.5],[35.8707,-14.7092,627.5],[35.8703,-14.6745,627.5],[35.8568,-14.6734,629.2995],[35.8528,-14.6692,630.8417],[35.8414,-14.6658,632.5315],[35.8336,-14.6686,634.3239],[35.8256,-14.6773,638.0982],[35.8197,-14.6792,642.8998],[35.8054,-14.692,643.0687],[35.8001,-14.6943,646.199],[35.7975,-14.6983,646.7354],[35.797,-14.7039,647.8019],[35.7946,-14.7052,649.7514],[35.7936,-14.7088,651.7067],[35.7996,-14.7086,655.073],[35.8065,-14.704,653.5891],[35.8114,-14.7033,652.6364],[35.8238,-14.7067,640.7487],[35.8558,-14.7082,627.8427],[35.8582,-14.71,627.9623],[35.8547,-14.6981,627.5],[35.8561,-14.6948,627.5],[35.8599,-14.6963,627.5],[35.8612,-14.7013,627.5],[35.8694,-14.7074,627.5]]]]}
,"properties": {"GID_3": "MWI.12.10.3_1","GID_0": "MWI","country": "Malawi","GID_1": "MWI.12_1","province": "Machinga","NL_NAME_1": "NA","GID_2": "MWI.12.10_1","county": "SCNgokwe","NL_NAME_2": "NA","city": "n.a.(1733)","VARNAME_3": "NA","NL_NAME_3": "NA","TYPE_3": "Unknown","ENGTYPE_3": "Unknown","CC_3": "NA","HASC_3": "NA","name": "n.a.(1733).city","area_km2": 25.20572,"hist_schema_id": "Elevation0-9000","hist_area_km2": {"625": 13.82329,"650": 11.38242}}}