{"type": "Feature","bbox": [33.6015,-12.6183,33.6734,-12.5333],"geometry": {"type": "MultiPolygon","coordinates": [[[[33.6077,-12.5437,1202.3492],[33.6076,-12.5542,1196.1068],[33.6208,-12.5614,1189.1509],[33.6174,-12.5692,1184.1763],[33.6116,-12.5755,1171.9252],[33.6095,-12.5883,1129.9186],[33.6119,-12.5895,1125.8962],[33.6114,-12.594,1128.1577],[33.6087,-12.5946,1132.584],[33.6015,-12.6032,1148.9487],[33.6034,-12.6063,1158.5837],[33.607,-12.6067,1145.4525],[33.6132,-12.6112,1149.6045],[33.611,-12.6183,1184.8706],[33.6145,-12.618,1177.704],[33.6201,-12.6096,1141.4691],[33.6205,-12.6029,1111.5466],[33.6233,-12.6008,1107.8132],[33.6236,-12.5981,1113.6343],[33.6443,-12.5822,1108.2957],[33.646,-12.5821,1101.1897],[33.6512,-12.5873,1088.4658],[33.6584,-12.5825,1110.6002],[33.6668,-12.5832,1109.083],[33.67,-12.5854,1100.0042],[33.6734,-12.5818,1129.2546],[33.6734,-12.573,1130.2882],[33.6686,-12.5741,1121.1715],[33.6704,-12.5645,1124.0332],[33.6686,-12.5575,1136.8458],[33.6713,-12.5524,1132.6868],[33.6673,-12.5464,1136.7175],[33.6621,-12.5424,1155.1028],[33.6607,-12.5362,1163.6709],[33.6584,-12.5344,1162.7643],[33.651,-12.5333,1182.2686],[33.6471,-12.5372,1163.6808],[33.6304,-12.5371,1185.9609],[33.6182,-12.5407,1206.6025],[33.6082,-12.5374,1224.3384],[33.6098,-12.544,1209.5291],[33.6077,-12.5437,1202.3492]]]]}
,"properties": {"GID_3": "MWI.17.8.8_1","GID_0": "MWI","country": "Malawi","GID_1": "MWI.17_1","province": "Mzimba","NL_NAME_1": "NA","GID_2": "MWI.17.8_1","county": "TAMabulabo","NL_NAME_2": "NA","city": "n.a.(359)","VARNAME_3": "NA","NL_NAME_3": "NA","TYPE_3": "Unknown","ENGTYPE_3": "Unknown","CC_3": "NA","HASC_3": "NA","name": "n.a.(359).city","area_km2": 38.73963,"hist_schema_id": "Elevation0-9000","hist_area_km2": {"1100": 1.15881,"1125": 7.4287,"1150": 9.53976,"1175": 9.80936,"1200": 7.59521,"1225": 2.85597,"1250": 0.31042,"1275": 0.04139}}}