{"type": "Feature","bbox": [34.5923,-14.9204,34.783,-14.729],"geometry": {"type": "MultiPolygon","coordinates": [[[[34.6946,-14.8633,927.1761],[34.7079,-14.8624,965.5253],[34.7173,-14.8657,927.7173],[34.7269,-14.8656,907.4573],[34.733,-14.8678,900.9623],[34.7388,-14.8657,893.9825],[34.7525,-14.8694,894.7856],[34.7758,-14.8592,930.5878],[34.783,-14.8602,928.2742],[34.7696,-14.8517,937.262],[34.7542,-14.8328,962.3721],[34.7496,-14.8147,974.2761],[34.7514,-14.8029,1039.4343],[34.7431,-14.7859,1076.2668],[34.7423,-14.7657,1070.5649],[34.7441,-14.7535,1085.7581],[34.7425,-14.7407,1116.5996],[34.7364,-14.7361,1069.416],[34.7358,-14.729,1059.082],[34.6998,-14.7323,1070.2594],[34.6987,-14.7352,1051.8496],[34.7012,-14.7384,1041.5494],[34.701,-14.7409,1041.9388],[34.6912,-14.7517,1017.5134],[34.6946,-14.7587,1009.0798],[34.6942,-14.7667,1012.1714],[34.6958,-14.7729,1012.6592],[34.6889,-14.7762,992.6649],[34.688,-14.7819,976.3388],[34.6767,-14.7744,981.0887],[34.6739,-14.7687,989.5576],[34.6683,-14.7649,991.5761],[34.6629,-14.7654,1006.5721],[34.6568,-14.7627,1015.1122],[34.6502,-14.7651,1016.0983],[34.6457,-14.7648,1022.541],[34.6412,-14.7682,1022.5116],[34.6276,-14.7677,1049.5269],[34.6236,-14.7693,1060.2693],[34.6215,-14.7723,1082.5896],[34.6205,-14.7788,1113.855],[34.618,-14.7831,1136.8228],[34.6182,-14.7911,1150.7711],[34.6124,-14.7956,1196.6965],[34.608,-14.792,1260.5157],[34.6037,-14.7912,1282.0491],[34.5956,-14.7965,1374.7545],[34.5931,-14.8008,1451.302],[34.5923,-14.8097,1484.1652],[34.5983,-14.8253,1447.2546],[34.6001,-14.839,1413.3947],[34.6125,-14.8485,1334.1261],[34.6236,-14.8537,1224.9551],[34.6267,-14.859,1209.5583],[34.63,-14.8606,1157.0668],[34.6328,-14.8598,1143.7115],[34.6373,-14.8674,1125.3024],[34.6447,-14.8729,1110.0676],[34.6522,-14.8959,1079.9199],[34.6548,-14.8969,1079.3049],[34.6571,-14.8952,1071.2214],[34.664,-14.9026,1057.21],[34.6667,-14.9021,1055.858],[34.6712,-14.9058,1060.9836],[34.6722,-14.9135,1034.0378],[34.6762,-14.9129,1037.6887],[34.6878,-14.9204,994.4475],[34.691,-14.9174,1020.8484],[34.6912,-14.9135,1075.8372],[34.6837,-14.8923,1150.7832],[34.6824,-14.8758,1057.9335],[34.6849,-14.8694,1034.8992],[34.6911,-14.8641,957.3635],[34.6946,-14.8633,927.1761]],
[[34.6118,-14.796,1231.4252],[34.618899999999996,-14.7995,1181.7749],[34.6199,-14.7969,1171.5073],[34.6237,-14.7976,1184.304],[34.6372,-14.807,1110.8809],[34.6518,-14.8125,1096.7687],[34.6505,-14.8184,1115.3103],[34.6559,-14.8242,1106.5358],[34.6553,-14.8268,1130.6573],[34.6531,-14.8288,1120.1039],[34.6404,-14.8256,1117.4163],[34.6362,-14.8274,1140.5762],[34.6314,-14.8268,1149.6035],[34.6208,-14.8219,1194.0353],[34.6198,-14.8162,1216.8217],[34.6147,-14.8095,1191.7788],[34.618,-14.8076,1177.9294],[34.6151,-14.8029,1196.3531],[34.6096,-14.7995,1230.3497],[34.6118,-14.796,1231.4252]]]]}
,"properties": {"GID_2": "MWI.22.6_1","GID_0": "MWI","country": "Malawi","GID_1": "MWI.22_1","province": "Ntcheu","NL_NAME_1": "NA","county": "TAKwataine","VARNAME_2": "NA","NL_NAME_2": "NA","TYPE_2": "TraditionalAuthority","ENGTYPE_2": "TraditionalAuthority","CC_2": "NA","HASC_2": "NA","name": "T_A_Kwataine.county","area_km2": 198.5141,"hist_schema_id": "Elevation0-9000","hist_area_km2": {"875": 0.1434,"900": 4.0782,"925": 16.1292,"950": 21.2752,"975": 22.2607,"1000": 23.758,"1025": 19.2695,"1050": 16.3586,"1075": 15.0051,"1100": 14.1219,"1125": 9.0383,"1150": 7.3781,"1175": 7.6648,"1200": 4.4883,"1225": 2.8284,"1250": 1.3733,"1275": 1.2913,"1300": 1.2093,"1325": 1.2912,"1350": 2.152,"1375": 1.7216,"1400": 1.0658,"1425": 0.8609,"1450": 0.7584,"1475": 0.5739,"1500": 0.5329,"1525": 0.5739,"1550": 0.3485,"1575": 0.3075,"1600": 0.205,"1625": 0.2665,"1650": 0.041,"1675": 0.1025,"1700": 0.041}}}