{"type": "Feature","bbox": [34.8155,-14.8937,34.8802,-14.8271],"geometry": {"type": "MultiPolygon","coordinates": [[[[34.8263,-14.8322,871.2742],[34.8228,-14.8337,875.6202],[34.8165,-14.8301,875.0938],[34.8155,-14.8319,874.0402],[34.8158,-14.8431,835.9714],[34.8187,-14.848,828.0748],[34.8223,-14.8507,828.0951],[34.8223,-14.8574,814.775],[34.8254,-14.8551,828.8815],[34.8308,-14.8546,831.1429],[34.8363,-14.8613,825.0557],[34.8373,-14.8643,814.2228],[34.8344,-14.8679,811.0394],[34.8339,-14.8733,800.9686],[34.8361,-14.8815,783.9346],[34.8461,-14.8894,765.8746],[34.8467,-14.8932,777.3778],[34.8522,-14.8937,786.3047],[34.8582,-14.8913,792.3991],[34.8592,-14.8818,755.527],[34.8556,-14.8685,761.6199],[34.8587,-14.8664,749.352],[34.8649,-14.8668,736.0999],[34.8698,-14.8622,722.3045],[34.8719,-14.8488,720.3203],[34.8802,-14.8409,696.5551],[34.8713,-14.8375,695.5312],[34.8599,-14.8305,706.5534],[34.8563,-14.8331,733.4521],[34.8491,-14.835,767.2061],[34.8421,-14.8271,781.2252],[34.8263,-14.8322,871.2742]]]]}
,"properties": {"GID_3": "MWI.22.4.13_1","GID_0": "MWI","country": "Malawi","GID_1": "MWI.22_1","province": "Ntcheu","NL_NAME_1": "NA","GID_2": "MWI.22.4_1","county": "SCMakwangwala","NL_NAME_2": "NA","city": "n.a.(1851)","VARNAME_3": "NA","NL_NAME_3": "NA","TYPE_3": "Unknown","ENGTYPE_3": "Unknown","CC_3": "NA","HASC_3": "NA","name": "n.a.(1851).city","area_km2": 26.43676,"hist_schema_id": "Elevation0-9000","hist_area_km2": {"700": 1.68059,"725": 1.53707,"750": 4.611,"775": 6.68054,"800": 4.03716,"825": 3.09462,"850": 2.84875,"875": 1.78308,"900": 0.16396}}}