{"type": "Feature","bbox": [33.8146,-14.0614,33.949,-13.9241],"geometry": {"type": "MultiPolygon","coordinates": [[[[33.8157,-14.0578,1108.729],[33.8146,-14.0599,1107.7081],[33.8175,-14.0614,1098.6733],[33.8248,-14.0601,1086.9158],[33.8293,-14.0558,1076.9547],[33.8452,-14.0602,1054.8992],[33.8499,-14.0563,1041.3367],[33.8488,-14.0548,1050.6073],[33.8555,-14.044,1043.2478],[33.8598,-14.0409,1038.1467],[33.8568,-14.0397,1043.5756],[33.8563,-14.0367,1049.5009],[33.8609,-14.0346,1041.0542],[33.8617,-14.0302,1045.8453],[33.8651,-14.0288,1044.1196],[33.8707,-14.0226,1027.1047],[33.8692,-14.0202,1034.1179],[33.8704,-14.0171,1022.0909],[33.8685,-14.014099999999999,1034.984],[33.8742,-14.0066,1028.3279],[33.8741,-14.0045,1034.9379],[33.8784,-14.0018,1027.6959],[33.8825,-13.9951,1022.1412],[33.8856,-13.9934,1021.8661],[33.8886,-13.9972,1022.2834],[33.8939,-13.9969,1014.9442],[33.8995,-13.988,1029.1246],[33.9096,-13.979,982.8267],[33.9067,-13.9762,993.4242],[33.9067,-13.974,1002.4533],[33.9162,-13.9718,986.4702],[33.924,-13.9626,1023.0022],[33.9265,-13.964,1006.9014],[33.9338,-13.9598,982.0557],[33.9327,-13.9553,968.2572],[33.934,-13.9536,979.1686],[33.9323,-13.95,968.0251],[33.9351,-13.9469,969.5452],[33.9341,-13.9417,975.9111],[33.9357,-13.9403,985.6132],[33.9412,-13.94,968.7208],[33.949,-13.9315,954.6807],[33.943,-13.9294,970.0524],[33.9346,-13.932,968.7305],[33.9251,-13.9305,983.566],[33.9232,-13.9313,975.9417],[33.9211,-13.9366,975.3392],[33.917,-13.9349,971.3976],[33.9118,-13.9373,980.7538],[33.9062,-13.9283,984.5893],[33.9005,-13.9241,997.4745],[33.8884,-13.9243,1005.7491],[33.889,-13.9348,990.7174],[33.8839,-13.94,997.5792],[33.8843,-13.945,983.3998],[33.8767,-13.9486,1000.6124],[33.8754,-13.9569,1005.42],[33.8697,-13.9614,1019.1432],[33.8691,-13.9718,1029.6426],[33.861,-13.9771,1042.8164],[33.8454,-13.9953,1089.2778],[33.8323,-14.0038,1130.5012],[33.8355,-14.0086,1127.1915],[33.8286,-14.0106,1121.3955],[33.8285,-14.0242,1121.78],[33.826,-14.0381,1104.8737],[33.8237,-14.0453,1104.3763],[33.8157,-14.0578,1108.729]]]]}
,"properties": {"GID_2": "MWI.11.5_1","GID_0": "MWI","country": "Malawi","GID_1": "MWI.11_1","province": "Lilongwe","NL_NAME_1": "NA","county": "SCTsabango","VARNAME_2": "NA","NL_NAME_2": "NA","TYPE_2": "Sub-chief","ENGTYPE_2": "Sub-chief","CC_2": "NA","HASC_2": "NA","name": "S_C_Tsabango.county","area_km2": 69.27119,"hist_schema_id": "Elevation0-9000","hist_area_km2": {"950": 0.4733,"975": 7.94299,"1000": 11.89321,"1025": 13.12679,"1050": 14.31816,"1075": 9.56535,"1100": 8.80406,"1125": 3.14734}}}