{"type":"Feature","properties":{"GID_3":"MWI.2.2.3_1","GID_0":"MWI","country":"Malawi","GID_1":"MWI.2_1","province":"Blantyre","NL_NAME_1":"NA","GID_2":"MWI.2.2_1","county":"TAChigaru","NL_NAME_2":"NA","city":"n.a.(2162)","VARNAME_3":"NA","NL_NAME_3":"NA","TYPE_3":"Unknown","ENGTYPE_3":"Unknown","CC_3":"NA","HASC_3":"NA","name":"n.a.(2162).city"},
"geometry":{"type": "MultiPolygon","coordinates": [[[[34.9029,-15.3864,464.5439],[34.9004,-15.3898,461.0956],[34.8967,-15.3899,449.207],[34.8939,-15.3926,447.0121],[34.8912,-15.3997,429.9924],[34.8878,-15.403,424.1766],[34.8816,-15.4138,438.3622],[34.8842,-15.4169,416.5991],[34.8836,-15.4196,412.0631],[34.8714,-15.4393,402.1372],[34.8648,-15.4392,408.4358],[34.8638,-15.4459,395.3375],[34.8931,-15.4546,499.796],[34.9032,-15.4509,505.5647],[34.9071,-15.4511,513.0218],[34.9116,-15.4545,521.8809],[34.9136,-15.4596,549.8504],[34.919,-15.4485,523.6342],[34.9101,-15.4411,502.7723],[34.9129,-15.4382,507.7015],[34.9107,-15.4351,497.9086],[34.9095,-15.4265,492.5581],[34.9145,-15.4144,506.2556],[34.9139,-15.4126,510.0526],[34.9105,-15.4122,529.0186],[34.9072,-15.4075,474.8766],[34.9075,-15.3919,474.927],[34.9043,-15.3897,476.232],[34.9029,-15.3864,464.5439]]]]}}