{"type":"Feature","properties":{"GID_3":"MWI.7.8.7_1","GID_0":"MWI","country":"Malawi","GID_1":"MWI.7_1","province":"Dowa","NL_NAME_1":"NA","GID_2":"MWI.7.8_1","county":"TADzoole","NL_NAME_2":"NA","city":"n.a.(665)","VARNAME_3":"NA","NL_NAME_3":"NA","TYPE_3":"Unknown","ENGTYPE_3":"Unknown","CC_3":"NA","HASC_3":"NA","name":"n.a.(665).city"},
"geometry":{"type": "MultiPolygon","coordinates": [[[[33.7793,-13.4913,1233.9371],[33.7737,-13.4969,1227.7498],[33.7839,-13.503,1246.2368],[33.8072,-13.4922,1294.21],[33.8182,-13.5039,1271.9583],[33.8125,-13.5094,1257.823],[33.8124,-13.515,1259.937],[33.8235,-13.5128,1273.209],[33.8323,-13.5076,1285.7852],[33.8211,-13.4839,1297.8999],[33.8115,-13.4709,1274.7937],[33.8064,-13.4748,1271.1157],[33.7988,-13.4768,1266.9841],[33.7957,-13.4818,1250.9033],[33.7793,-13.4913,1233.9371]]]]}}