{"type":"Feature","properties":{"GID_3":"MWI.15.3.24_1","GID_0":"MWI","country":"Malawi","GID_1":"MWI.15_1","province":"Mulanje","NL_NAME_1":"NA","GID_2":"MWI.15.3_1","county":"SCJuma","NL_NAME_2":"NA","city":"n.a.(2639)","VARNAME_3":"NA","NL_NAME_3":"NA","TYPE_3":"Unknown","ENGTYPE_3":"Unknown","CC_3":"NA","HASC_3":"NA","name":"n.a.(2639).city"},
"geometry":{"type": "MultiPolygon","coordinates": [[[[35.3239,-15.9085,736.3865],[35.3314,-15.9113,728.7079],[35.3535,-15.9254,692.2327],[35.359,-15.9248,683.321],[35.3565,-15.9201,689.8316],[35.3456,-15.9135,705.9623],[35.3533,-15.9041,705.4161],[35.3637,-15.9049,687.603],[35.3618,-15.8981,696.476],[35.3586,-15.8935,702.4185],[35.3483,-15.8914,709.8036],[35.3504,-15.8773,706.4171],[35.3408,-15.8745,714.9307],[35.3389,-15.8752,710.4227],[35.3359,-15.882,727.5955],[35.3284,-15.8879,725.4061],[35.3253,-15.8859,729.9205],[35.3212,-15.886,734.4434],[35.3239,-15.9085,736.3865]]]]}}