{"type":"Feature","properties":{"GID_3":"MWI.3.1.3_1","GID_0":"MWI","country":"Malawi","GID_1":"MWI.3_1","province":"Chikwawa","NL_NAME_1":"NA","GID_2":"MWI.3.1_1","county":"ChikwawaBoma","NL_NAME_2":"NA","city":"n.a.(2793)","VARNAME_3":"NA","NL_NAME_3":"NA","TYPE_3":"Unknown","ENGTYPE_3":"Unknown","CC_3":"NA","HASC_3":"NA","name":"n.a.(2793).city"},
"geometry":{"type": "MultiPolygon","coordinates": [[[[34.7882,-16.0256,112.0131],[34.7892,-16.0308,111.9609],[34.7923,-16.0345,111.9479],[34.7962,-16.0354,110.1412],[34.8014,-16.0393,109.3016],[34.8025,-16.0383,107.5503],[34.8055,-16.0326,75.25],[34.8051,-16.0284,78.1223],[34.7985,-16.0269,77.8889],[34.7961,-16.0222,79.0609],[34.7882,-16.0256,112.0131]]]]}}