{"type":"Feature","properties":{"GID_3":"MWI.6.6.13_1","GID_0":"MWI","country":"Malawi","GID_1":"MWI.6_1","province":"Dedza","NL_NAME_1":"NA","GID_2":"MWI.6.6_1","county":"TAKachindamoto","NL_NAME_2":"NA","city":"n.a.(1409)","VARNAME_3":"NA","NL_NAME_3":"NA","TYPE_3":"Unknown","ENGTYPE_3":"Unknown","CC_3":"NA","HASC_3":"NA","name":"n.a.(1409).city"},
"geometry":{"type": "MultiPolygon","coordinates": [[[[34.5657,-14.2708,512.9929],[34.5515,-14.2754,520.5312],[34.5513,-14.2782,521.6998],[34.5526,-14.2869,525.8701],[34.5645,-14.295,521.8156],[34.5551,-14.3151,531.1428],[34.5631,-14.3245,528.7202],[34.5962,-14.3014,499.1808],[34.5906,-14.2982,501.3875],[34.5998,-14.2843,498.0209],[34.6077,-14.2787,494.2497],[34.6113,-14.2698,492.7622],[34.6118,-14.2513,490.9386],[34.5997,-14.2604,497.8956],[34.5942,-14.2605,498.6433],[34.593,-14.267,502.4283],[34.5832,-14.2739,506.7119],[34.576,-14.2697,507.2408],[34.567,-14.2724,513.0636],[34.5657,-14.2708,512.9929]]]]}}