{"type":"Feature","properties":{"GID_3":"MWI.27.5.1_1","GID_0":"MWI","country":"Malawi","GID_1":"MWI.27_1","province":"Thyolo","NL_NAME_1":"NA","GID_2":"MWI.27.5_1","county":"SCThukuta","NL_NAME_2":"NA","city":"n.a.(3021)","VARNAME_3":"NA","NL_NAME_3":"NA","TYPE_3":"Unknown","ENGTYPE_3":"Unknown","CC_3":"NA","HASC_3":"NA","name":"n.a.(3021).city"},
"geometry":{"type": "MultiPolygon","coordinates": [[[[35.2434,-16.3199,400.735],[35.2365,-16.3175,436.8391],[35.2353,-16.3189,474.6886],[35.2305,-16.3316,601.2637],[35.2188,-16.347,475.3833],[35.2122,-16.3628,294.9713],[35.218,-16.3626,281.0614],[35.2184,-16.3643,265.7878],[35.2202,-16.3622,287.8452],[35.2245,-16.3655,253.5867],[35.2339,-16.3655,229.0852],[35.2391,-16.3599,253.416],[35.2421,-16.348,308.8075],[35.2343,-16.34,506.2068],[35.2366,-16.3388,484.6508],[35.237,-16.3345,449.2333],[35.2414,-16.3301,417.3457],[35.243,-16.3257,403.1122],[35.2416,-16.3223,417.8575],[35.2434,-16.3199,400.735]]]]}}