{"type":"Feature","properties":{"GID_3":"MWI.18.4.5_1","GID_0":"MWI","country":"Malawi","GID_1":"MWI.18_1","province":"Neno","NL_NAME_1":"NA","GID_2":"MWI.18.4_1","county":"TANgozi","NL_NAME_2":"NA","city":"n.a.(2157)","VARNAME_3":"NA","NL_NAME_3":"NA","TYPE_3":"Unknown","ENGTYPE_3":"Unknown","CC_3":"NA","HASC_3":"NA","name":"n.a.(2157).city"},
"geometry":{"type": "MultiPolygon","coordinates": [[[[34.6529,-15.398,905.7487],[34.6565,-15.3952,895.7461],[34.657,-15.387,873.1245],[34.6543,-15.3866,890.6097],[34.6527,-15.3838,887.1699],[34.6443,-15.3864,822.7817],[34.6462,-15.3928,838.8653],[34.6506,-15.3943,874.9564],[34.6529,-15.398,905.7487]]]]}}