{"type": "Feature","bbox": [34.8618,-16.4135,34.9063,-16.3974],"geometry": {"type": "MultiPolygon","coordinates": [[[[34.8723,-16.3982,96.7512],[34.8618,-16.3992,101.0456],[34.8627,-16.4043,103.9264],[34.8723,-16.4123,97.3983],[34.8756,-16.4098,94.8747],[34.8795,-16.4112,92.8956],[34.8825,-16.4092,91.0066],[34.8836,-16.4127,90.2997],[34.8866,-16.4127,87.3953],[34.8891,-16.4088,87.1259],[34.8918,-16.4135,85.139],[34.894,-16.4111,86.9974],[34.8958,-16.4131,83.2767],[34.8974,-16.4115,82.6946],[34.9063,-16.4108,79.0457],[34.9045,-16.4015,77.2811],[34.8867,-16.4021,87.8227],[34.8779,-16.4005,92.3619],[34.8769,-16.3974,93.6432],[34.8723,-16.3982,96.7512]]]]}
,"properties": {"GID_3": "MWI.3.11.13_1","GID_0": "MWI","country": "Malawi","GID_1": "MWI.3_1","province": "Chikwawa","NL_NAME_1": "NA","GID_2": "MWI.3.11_1","county": "TANgabu","NL_NAME_2": "NA","city": "n.a.(3040)","VARNAME_3": "NA","NL_NAME_3": "NA","TYPE_3": "Unknown","ENGTYPE_3": "Unknown","CC_3": "NA","HASC_3": "NA","name": "n.a.(3040).city","area_km2": 5.125426,"hist_schema_id": "Elevation0-9000","hist_area_km2": {"75": 1.850838,"100": 3.274588}}}