{"type":"Feature","properties":{"GID_3":"MWI.6.4.15_1","GID_0":"MWI","country":"Malawi","GID_1":"MWI.6_1","province":"Dedza","NL_NAME_1":"NA","GID_2":"MWI.6.4_1","county":"SCChilikumwendo","NL_NAME_2":"NA","city":"n.a.(1505)","VARNAME_3":"NA","NL_NAME_3":"NA","TYPE_3":"Unknown","ENGTYPE_3":"Unknown","CC_3":"NA","HASC_3":"NA","name":"n.a.(1505).city"},
"geometry":{"type": "MultiPolygon","coordinates": [[[[33.8509,-14.3656,1229.146],[33.8536,-14.3693,1230.9584],[33.8558,-14.3692,1233.1331],[33.857,-14.3737,1240.5001],[33.8649,-14.38,1242.1019],[33.8669,-14.3781,1241.1091],[33.8861,-14.3769,1232.9949],[33.8914,-14.3706,1238.59],[33.9086,-14.3683,1222.005],[33.9154,-14.3652,1223.076],[33.9073,-14.36,1233.3838],[33.9071,-14.3553,1228.9231],[33.9035,-14.3499,1219.9315],[33.8908,-14.353,1222.0703],[33.8826,-14.345,1212.6129],[33.8753,-14.3456,1222.4039],[33.872,-14.341,1217.0693],[33.8688,-14.3503,1224.8904],[33.8637,-14.3567,1228.6479],[33.8665,-14.3632,1224.2235],[33.8516,-14.3633,1229.533],[33.8509,-14.3656,1229.146]]]]}}