{"type":"Feature","properties":{"GID_3":"MWI.20.2.3_1","GID_0":"MWI","country":"Malawi","GID_1":"MWI.20_1","province":"Nkhotakota","NL_NAME_1":"NA","GID_2":"MWI.20.2_1","county":"NkhotakotaBoma","NL_NAME_2":"NA","city":"n.a.(436)","VARNAME_3":"NA","NL_NAME_3":"NA","TYPE_3":"Unknown","ENGTYPE_3":"Unknown","CC_3":"NA","HASC_3":"NA","name":"n.a.(436).city"},
"geometry":{"type": "MultiPolygon","coordinates": [[[[34.2964,-12.9178,480.7631],[34.2966,-12.9127,476.0586],[34.2897,-12.9163,499.7648],[34.2923,-12.9173,496.2981],[34.2964,-12.9178,480.7631]]],
[[[34.297,-12.9042,481.7383],[34.2959,-12.9047,482.1758],[34.2967,-12.9115,476.0586],[34.299,-12.9106,476.3931],[34.2998,-12.9038,478.41],[34.297,-12.9042,481.7383]]]]}}