{"type":"Feature","properties":{"GID_3":"MWI.22.4.9_1","GID_0":"MWI","country":"Malawi","GID_1":"MWI.22_1","province":"Ntcheu","NL_NAME_1":"NA","GID_2":"MWI.22.4_1","county":"SCMakwangwala","NL_NAME_2":"NA","city":"n.a.(1828)","VARNAME_3":"NA","NL_NAME_3":"NA","TYPE_3":"Unknown","ENGTYPE_3":"Unknown","CC_3":"NA","HASC_3":"NA","name":"n.a.(1828).city"},
"geometry":{"type": "MultiPolygon","coordinates": [[[[34.7507,-14.8006,1031.5397],[34.7514,-14.805,1029.8859],[34.7496,-14.8147,974.2761],[34.7553,-14.835,957.8116],[34.7636,-14.8328,930.0733],[34.7679,-14.8343,922.8051],[34.7693,-14.8324,931.7398],[34.7761,-14.8323,917.3251],[34.7793,-14.8302,903.1379],[34.7808,-14.8286,907.3604],[34.7799,-14.8207,927.5963],[34.786,-14.814,953.4818],[34.7827,-14.8105,960.6217],[34.7886,-14.806,917.8121],[34.7848,-14.7991,930.8114],[34.7815,-14.8002,935.6304],[34.7729,-14.7976,972.2171],[34.7694,-14.8005,967.955],[34.7654,-14.7988,986.8489],[34.7612,-14.8034,976.4767],[34.7507,-14.8006,1031.5397]]]]}}