{"type":"Feature","properties":{"GID_3":"MWI.7.6.2_1","GID_0":"MWI","country":"Malawi","GID_1":"MWI.7_1","province":"Dowa","NL_NAME_1":"NA","GID_2":"MWI.7.6_1","county":"SCMponela","NL_NAME_2":"NA","city":"n.a.(687)","VARNAME_3":"NA","NL_NAME_3":"NA","TYPE_3":"Unknown","ENGTYPE_3":"Unknown","CC_3":"NA","HASC_3":"NA","name":"n.a.(687).city"},
"geometry":{"type": "MultiPolygon","coordinates": [[[[33.7245,-13.5167,1195.2152],[33.7177,-13.5115,1188.6312],[33.7146,-13.5114,1187.3899],[33.7113,-13.5146,1186.9542],[33.7078,-13.5155,1179.7773],[33.6799,-13.5035,1157.9026],[33.6634,-13.5022,1141.3995],[33.6601,-13.5091,1145.0154],[33.6521,-13.519,1152.9697],[33.6472,-13.5305,1157.8827],[33.6475,-13.5343,1165.0811],[33.6528,-13.5373,1176.4287],[33.6628,-13.5392,1190.1841],[33.6764,-13.5397,1207.5259],[33.6926,-13.5548,1204.3015],[33.6985,-13.5463,1198.0856],[33.7079,-13.5385,1199.7086],[33.7083,-13.5313,1196.6536],[33.7104,-13.5281,1194.7029],[33.7142,-13.525,1193.6196],[33.7227,-13.5217,1193.829],[33.7245,-13.5167,1195.2152]]]]}}