{"type":"Feature","properties":{"GID_3":"MWI.3.11.8_1","GID_0":"MWI","country":"Malawi","GID_1":"MWI.3_1","province":"Chikwawa","NL_NAME_1":"NA","GID_2":"MWI.3.11_1","county":"TANgabu","NL_NAME_2":"NA","city":"n.a.(3026)","VARNAME_3":"NA","NL_NAME_3":"NA","TYPE_3":"Unknown","ENGTYPE_3":"Unknown","CC_3":"NA","HASC_3":"NA","name":"n.a.(3026).city"},
"geometry":{"type": "MultiPolygon","coordinates": [[[[34.7445,-16.4131,185.5068],[34.7623,-16.4066,168.6318],[34.7603,-16.395,173.9909],[34.7662,-16.3868,162.0497],[34.8024,-16.3877,151.8326],[34.8062,-16.3622,126.3315],[34.8126,-16.3501,111.3698],[34.8152,-16.3475,109.3257],[34.8245,-16.3471,105.2301],[34.8289,-16.349,103.0221],[34.8268,-16.3452,104.178],[34.8194,-16.3388,108.1779],[34.8142,-16.3301,108.7859],[34.8058,-16.3355,113.0499],[34.801,-16.3409,115.8671],[34.7893,-16.34,121.3794],[34.7848,-16.348,123.217],[34.78,-16.3457,125.3325],[34.7764,-16.3468,126.1586],[34.7716,-16.3454,127.0294],[34.749,-16.3509,137.4338],[34.7484,-16.3562,139.3893],[34.7437,-16.3663,150.4875],[34.7384,-16.3722,156.1651],[34.7391,-16.3867,169.8961],[34.7345,-16.3964,176.9956],[34.7276,-16.4018,197.567],[34.7445,-16.4131,185.5068]]]]}}