{"type":"Feature","properties":{"GID_3":"MWI.8.6.1_1","GID_0":"MWI","country":"Malawi","GID_1":"MWI.8_1","province":"Karonga","NL_NAME_1":"NA","GID_2":"MWI.8.6_1","county":"TAKilupula","NL_NAME_2":"NA","city":"n.a.(29)","VARNAME_3":"NA","NL_NAME_3":"NA","TYPE_3":"Unknown","ENGTYPE_3":"Unknown","CC_3":"NA","HASC_3":"NA","name":"n.a.(29).city"},
"geometry":{"type": "MultiPolygon","coordinates": [[[[33.8724,-9.6904,484.8474],[33.8739,-9.6938,484.2754],[33.878,-9.6953,483.6812],[33.8796,-9.7006,483.0499],[33.8838,-9.7048,481.7534],[33.8839,-9.7069,481.1524],[33.8914,-9.7015,481.8195],[33.9046,-9.7055,480.9662],[33.9097,-9.7017,481.6223],[33.9099,-9.6984,479.9752],[33.9132,-9.6939,483.7199],[33.9081,-9.6901,481.5537],[33.9036,-9.691,481.5643],[33.9011,-9.6883,483.9682],[33.8973,-9.6914,485.6636],[33.896,-9.6864,486.1266],[33.8911,-9.6876,486.2807],[33.892,-9.6834,488.2098],[33.8867,-9.6859,486.3004],[33.8799,-9.6856,485.0437],[33.8724,-9.6904,484.8474]]]]}}