{"type": "Feature","bbox": [35.1919,-15.2562,35.2578,-15.1949],"geometry": {"type": "MultiPolygon","coordinates": [[[[35.2078,-15.1949,651.6302],[35.1997,-15.2035,598.5011],[35.2007,-15.208,593.6906],[35.2185,-15.224,601.6437],[35.1994,-15.226,614.3427],[35.1959,-15.2307,600.9171],[35.1919,-15.24,592.3842],[35.1921,-15.2443,588.7878],[35.1959,-15.2466,583.2925],[35.1984,-15.2558,575.2065],[35.2002,-15.2562,576.6226],[35.2032,-15.254,573.9093],[35.2061,-15.2468,578.953],[35.2065,-15.2412,592.1432],[35.2101,-15.2365,590.8008],[35.2176,-15.2284,589.155],[35.2235,-15.2247,600.9676],[35.2308,-15.2251,607.6639],[35.2578,-15.2346,668.329],[35.2567,-15.2268,671.1125],[35.2514,-15.2153,654.4338],[35.2445,-15.2198,641.0099],[35.2339,-15.222,620.3339],[35.2265,-15.2159,610.2534],[35.2226,-15.2029,705.868],[35.2192,-15.2018,655.3771],[35.2171,-15.1987,667.1311],[35.2078,-15.1949,651.6302]]]]}
,"properties": {"GID_3": "MWI.12.11.13_1","GID_0": "MWI","country": "Malawi","GID_1": "MWI.12_1","province": "Machinga","NL_NAME_1": "NA","GID_2": "MWI.12.11_1","county": "SCSitola","NL_NAME_2": "NA","city": "n.a.(2050)","VARNAME_3": "NA","NL_NAME_3": "NA","TYPE_3": "Unknown","ENGTYPE_3": "Unknown","CC_3": "NA","HASC_3": "NA","name": "n.a.(2050).city","area_km2": 14.27985,"hist_schema_id": "Elevation0-9000","hist_area_km2": {"575": 0.85914,"600": 7.34442,"625": 3.62124,"650": 2.18908,"675": 0.2455,"700": 0.02046}}}