{"type": "Feature","bbox": [34.9705,-15.6805,35.0096,-15.6226],"geometry": {"type": "MultiPolygon","coordinates": [[[[34.9753,-15.6226,666.3961],[34.974,-15.623,666.2833],[34.9746,-15.6318,668.3523],[34.9705,-15.6366,675.0902],[34.9748,-15.6465,699.7036],[34.9728,-15.6554,731.8115],[34.9767,-15.6679,766.2606],[34.9888,-15.6805,777.6989],[35.0061,-15.6802,793.6922],[35.0093,-15.6716,771.1892],[35.0096,-15.6651,766.7274],[35.0058,-15.6649,761.256],[35.0036,-15.6619,753.1834],[35.0095,-15.6588,754.1299],[35.0096,-15.6486,726.4493],[35.0015,-15.6495,747.5389],[34.9981,-15.6465,743.0719],[34.9919,-15.6445,737.429],[34.9828,-15.6356,707.462],[34.9753,-15.6226,666.3961]]]]}
,"properties": {"GID_3": "MWI.2.3.13_1","GID_0": "MWI","country": "Malawi","GID_1": "MWI.2_1","province": "Blantyre","NL_NAME_1": "NA","GID_2": "MWI.2.3_1","county": "TAKapeni","NL_NAME_2": "NA","city": "n.a.(2386)","VARNAME_3": "NA","NL_NAME_3": "NA","TYPE_3": "Unknown","ENGTYPE_3": "Unknown","CC_3": "NA","HASC_3": "NA","name": "n.a.(2386).city","area_km2": 15.00533,"hist_schema_id": "Elevation0-9000","hist_area_km2": {"650": 0.08167,"675": 1.00047,"700": 1.42919,"725": 2.40912,"750": 4.40974,"775": 4.96067,"800": 0.71447}}}