{"type": "Feature","bbox": [34.0215,-14.3394,34.0662,-14.3028],"geometry": {"type": "MultiPolygon","coordinates": [[[[34.0215,-14.3314,1261.1538],[34.0281,-14.3346,1257.2758],[34.0459,-14.3362,1247.624],[34.0516,-14.3352,1234.3014],[34.0514,-14.3378,1239.3051],[34.0553,-14.3374,1234.8043],[34.0594,-14.3394,1221.3082],[34.0616,-14.3364,1224.2467],[34.0662,-14.3351,1232.4875],[34.0609,-14.3327,1225.2753],[34.0544,-14.323,1213.8712],[34.0531,-14.3171,1220.2258],[34.0489,-14.311,1208.2461],[34.0476,-14.3028,1216.5875],[34.0448,-14.3036,1215.5067],[34.0377,-14.31,1224.1117],[34.0228,-14.3112,1238.5155],[34.0247,-14.3223,1250.4365],[34.0215,-14.3314,1261.1538]]]]}
,"properties": {"GID_3": "MWI.6.9.4_1","GID_0": "MWI","country": "Malawi","GID_1": "MWI.6_1","province": "Dedza","NL_NAME_1": "NA","GID_2": "MWI.6.9_1","county": "TAPemba","NL_NAME_2": "NA","city": "n.a.(1464)","VARNAME_3": "NA","NL_NAME_3": "NA","TYPE_3": "Unknown","ENGTYPE_3": "Unknown","CC_3": "NA","HASC_3": "NA","name": "n.a.(1464).city","area_km2": 10.49754,"hist_schema_id": "Elevation0-9000","hist_area_km2": {"1200": 0.513606,"1225": 5.978071,"1250": 3.800439,"1275": 0.205424}}}