{"type": "Feature","bbox": [34.9483,-16.1349,35.0065,-16.0898],"geometry": {"type": "MultiPolygon","coordinates": [[[[34.966,-16.1316,163.8205],[34.9729,-16.1349,187.2452],[34.974,-16.1326,182.6868],[34.9875,-16.1317,220.3385],[34.9823,-16.1276,287.3106],[35.0065,-16.1002,447.9646],[35.0037,-16.098,426.3447],[35.0026,-16.0898,395.6086],[34.9991,-16.0907,423.6481],[34.9963,-16.0987,370.2061],[34.991,-16.1009,323.8238],[34.9915,-16.1045,312.8235],[34.99,-16.1056,309.1696],[34.9885,-16.1061,352.3602],[34.9784,-16.0969,414.6959],[34.9721,-16.1019,283.6939],[34.9673,-16.1101,231.2456],[34.9602,-16.107,420.5207],[34.9483,-16.111,345.5796],[34.958,-16.126,226.3965],[34.966,-16.1316,163.8205]]]]}
,"properties": {"GID_3": "MWI.27.4.11_1","GID_0": "MWI","country": "Malawi","GID_1": "MWI.27_1","province": "Thyolo","NL_NAME_1": "NA","GID_2": "MWI.27.4_1","county": "SCMphuka","NL_NAME_2": "NA","city": "n.a.(2894)","VARNAME_3": "NA","NL_NAME_3": "NA","TYPE_3": "Unknown","ENGTYPE_3": "Unknown","CC_3": "NA","HASC_3": "NA","name": "n.a.(2894).city","area_km2": 13.36218,"hist_schema_id": "Elevation0-9000","hist_area_km2": {"150": 0.04073,"175": 1.2017,"200": 1.6091,"225": 1.79246,"250": 1.46656,"275": 1.67027,"300": 1.2018,"325": 0.99812,"350": 1.0185,"375": 0.81481,"400": 0.77407,"425": 0.32592,"450": 0.28517,"475": 0.14259,"500": 0.02037}}}