{"type":"Feature","properties":{"GID_3":"MWI.22.6.9_1","GID_0":"MWI","country":"Malawi","GID_1":"MWI.22_1","province":"Ntcheu","NL_NAME_1":"NA","GID_2":"MWI.22.6_1","county":"TAKwataine","NL_NAME_2":"NA","city":"n.a.(1839)","VARNAME_3":"NA","NL_NAME_3":"NA","TYPE_3":"Unknown","ENGTYPE_3":"Unknown","CC_3":"NA","HASC_3":"NA","name":"n.a.(1839).city"},
"geometry":{"type": "MultiPolygon","coordinates": [[[[34.7029,-14.8626,974.1606],[34.7155,-14.8587,929.8722],[34.7378,-14.8589,898.6934],[34.735,-14.8487,914.8259],[34.7297,-14.8452,909.6671],[34.7327,-14.8409,907.597],[34.7332,-14.8362,914.3497],[34.739,-14.8285,937.2231],[34.753,-14.826599999999999,956.9379],[34.7496,-14.8147,974.2761],[34.7334,-14.8208,935.04],[34.7301,-14.8274,930.1527],[34.7236,-14.8254,924.7975],[34.7151,-14.8287,942.9381],[34.7163,-14.834,945.4406],[34.719,-14.8365,939.9401],[34.7134,-14.8415,957.6714],[34.7124,-14.8456,951.3447],[34.7154,-14.8478,940.8865],[34.7166,-14.8534,936.2528],[34.7128,-14.8526,945.3174],[34.7111,-14.8549,939.8228],[34.6989,-14.8551,989.904],[34.6966,-14.8511,990.9242],[34.6882,-14.8463,1019.0938],[34.6757,-14.8443,1063.2284],[34.6702,-14.8401,1088.1483],[34.6687,-14.8405,1098.3148],[34.6683,-14.8449,1057.8232],[34.6728,-14.8455,1047.3052],[34.679,-14.8526,1030.0537],[34.6882,-14.8537,953.1371],[34.6973,-14.8633,940.1438],[34.7029,-14.8626,974.1606]]]]}}