{"type": "Feature","bbox": [35.2195,-15.851,35.2603,-15.8224],"geometry": {"type": "MultiPolygon","coordinates": [[[[35.2195,-15.8283,997.1053],[35.2236,-15.8332,905.6599],[35.2226,-15.8386,880.3726],[35.2268,-15.8447,855.6974],[35.2354,-15.8458,841.6887],[35.2368,-15.8479,833.352],[35.2438,-15.851,828.9546],[35.2519,-15.8468,826.49],[35.2603,-15.8477,809.3312],[35.2511,-15.8384,835.0652],[35.2477,-15.831,864.7628],[35.243899999999996,-15.8298,855.7592],[35.2421,-15.8342,850.756],[35.2379,-15.8375,848.7043],[35.2301,-15.8224,882.3372],[35.2253,-15.823,892.4366],[35.2195,-15.8283,997.1053]]]]}
,"properties": {"GID_3": "MWI.4.3.23_1","GID_0": "MWI","country": "Malawi","GID_1": "MWI.4_1","province": "Chiradzulu","NL_NAME_1": "NA","GID_2": "MWI.4.3_1","county": "TAKadewere","NL_NAME_2": "NA","city": "n.a.(2588)","VARNAME_3": "NA","NL_NAME_3": "NA","TYPE_3": "Unknown","ENGTYPE_3": "Unknown","CC_3": "NA","HASC_3": "NA","name": "n.a.(2588).city","area_km2": 6.261971,"hist_schema_id": "Elevation0-9000","hist_area_km2": {"800": 0.020396,"825": 1.121809,"850": 2.549644,"875": 1.50943,"900": 0.775119,"925": 0.163184,"950": 0.081592,"975": 0.020398,"1025": 0.020398}}}