{"type":"Feature","properties":{"GID_3":"MWI.22.4.19_1","GID_0":"MWI","country":"Malawi","GID_1":"MWI.22_1","province":"Ntcheu","NL_NAME_1":"NA","GID_2":"MWI.22.4_1","county":"SCMakwangwala","NL_NAME_2":"NA","city":"n.a.(1886)","VARNAME_3":"NA","NL_NAME_3":"NA","TYPE_3":"Unknown","ENGTYPE_3":"Unknown","CC_3":"NA","HASC_3":"NA","name":"n.a.(1886).city"},
"geometry":{"type": "MultiPolygon","coordinates": [[[[34.8365,-14.8821,783.9346],[34.827,-14.8832,799.8674],[34.8102,-14.8781,854.8422],[34.8072,-14.8749,862.0771],[34.8066,-14.8766,859.8365],[34.8182,-14.889099999999999,835.7516],[34.8231,-14.8994,821.4581],[34.8236,-14.9081,787.626],[34.8269,-14.9111,786.876],[34.8323,-14.9051,798.9481],[34.8419,-14.9118,778.1909],[34.8602,-14.9184,747.8953],[34.8619,-14.9111,759.6252],[34.8639,-14.9118,756.7397],[34.8758,-14.9085,782.972],[34.8725,-14.9221,771.4882],[34.8747,-14.9275,751.7446],[34.873,-14.9297,751.3126],[34.8811,-14.9256,765.2543],[34.8845,-14.9269,752.8203],[34.8879,-14.9185,750.7457],[34.8883,-14.9132,756.2966],[34.8938,-14.9118,741.0289],[34.8839,-14.9008,780.1995],[34.8756,-14.8983,799.9215],[34.8751,-14.8953,814.4758],[34.8702,-14.8906,799.5376],[34.8474,-14.8937,772.8171],[34.8461,-14.8894,765.8746],[34.8365,-14.8821,783.9346]]]]}}