{"type":"Feature","properties":{"GID_3":"MWI.21.10.2_1","GID_0":"MWI","country":"Malawi","GID_1":"MWI.21_1","province":"Nsanje","NL_NAME_1":"NA","GID_2":"MWI.21.10_1","county":"TANyachikadza","NL_NAME_2":"NA","city":"n.a.(3119)","VARNAME_3":"NA","NL_NAME_3":"NA","TYPE_3":"Unknown","ENGTYPE_3":"Unknown","CC_3":"NA","HASC_3":"NA","name":"n.a.(3119).city"},
"geometry":{"type": "MultiPolygon","coordinates": [[[[35.2541,-17.0733,33.6362],[35.2587,-17.0769,33.6727],[35.2626,-17.0901,33.0488],[35.2665,-17.0956,33.7063],[35.2717,-17.0987,33.2755],[35.2734,-17.1024,32.3599],[35.2732,-17.111,32.7387],[35.2692,-17.1163,32.182],[35.2655,-17.1258,32.4811],[35.297,-17.1262,34.0511],[35.2988,-17.1241,34.7999],[35.3068,-17.1242,35.3599],[35.3092,-17.1225,33.9062],[35.3101,-17.1209,35.5555],[35.3065,-17.1173,34.7622],[35.3059,-17.1145,35.8113],[35.3064,-17.1032,35.5731],[35.3031,-17.0957,35.1715],[35.3077,-17.0785,34.9851],[35.3065,-17.0675,34.6388],[35.3126,-17.0603,35.2623],[35.309,-17.0578,35.5827],[35.2973,-17.0609,34.9864],[35.2968,-17.0593,35.1716],[35.2533,-17.0602,33.1604],[35.2563,-17.0688,33.7506],[35.2541,-17.0733,33.6362]]]]}}