{"type":"Feature","properties":{"GID_3":"MWI.28.8.34_1","GID_0":"MWI","country":"Malawi","GID_1":"MWI.28_1","province":"Zomba","NL_NAME_1":"NA","GID_2":"MWI.28.8_1","county":"TAMwambo","NL_NAME_2":"NA","city":"n.a.(2259)","VARNAME_3":"NA","NL_NAME_3":"NA","TYPE_3":"Unknown","ENGTYPE_3":"Unknown","CC_3":"NA","HASC_3":"NA","name":"n.a.(2259).city"},
"geometry":{"type": "MultiPolygon","coordinates": [[[[35.6273,-15.4999,632.9806],[35.6193,-15.4992,634.1838],[35.6114,-15.4962,633.5427],[35.6054,-15.4995,636.1793],[35.5954,-15.5137,639.9224],[35.5831,-15.5218,642.3103],[35.5647,-15.5208,644.6586],[35.5655,-15.53,647.6973],[35.5624,-15.5339,650.132],[35.5589,-15.5352,652.1843],[35.5625,-15.5424,650.4186],[35.5704,-15.5426,647.8202],[35.5774,-15.5383,647.2071],[35.5795,-15.5411,643.2326],[35.5839,-15.5422,645.3953],[35.5851,-15.5371,644.2448],[35.5817,-15.5363,642.4976],[35.5803,-15.5344,642.255],[35.5813,-15.5301,645.5487],[35.5895,-15.531,643.5966],[35.5914,-15.528,643.1613],[35.5989,-15.5284,640.9144],[35.6015,-15.522,640.353],[35.604,-15.5243,638.6017],[35.6101,-15.5232,639.8163],[35.6107,-15.5188,638.2899],[35.6141,-15.519,638.2731],[35.6146,-15.5109,636.3585],[35.6189,-15.5079,635.449],[35.6192,-15.5097,636.6526],[35.6224,-15.5107,636.7526],[35.6242,-15.5042,634.1302],[35.626,-15.5042,633.8812],[35.6273,-15.4999,632.9806]]]]}}