{"type": "Feature","bbox": [35.0736,-15.7256,35.1168,-15.6844],"geometry": {"type": "MultiPolygon","coordinates": [[[[35.1135,-15.7205,1095.2673],[35.1106,-15.7161,1177.2716],[35.1149,-15.707,1141.8993],[35.1142,-15.6997,1148.1848],[35.1168,-15.6958,1147.6115],[35.115,-15.6931,1125.16],[35.1113,-15.6971,1104.8936],[35.1065,-15.6969,1057.7485],[35.1044,-15.6952,1045.3729],[35.1059,-15.6906,1045.1005],[35.1,-15.6905,1084.5066],[35.1001,-15.6876,1082.0706],[35.0966,-15.6888,1122.6842],[35.0951,-15.6844,1014.3687],[35.0903,-15.6891,1027.9211],[35.0861,-15.6886,981.1481],[35.0819,-15.6951,1037.0311],[35.0839,-15.6966,1056.5139],[35.0804,-15.7032,1083.1404],[35.0851,-15.7116,1116.7069],[35.0819,-15.7203,1096.7402],[35.0736,-15.7248,1050.4609],[35.0788,-15.7256,1127.6622],[35.1135,-15.7205,1095.2673]]]]}
,"properties": {"GID_3": "MWI.2.7.6_1","GID_0": "MWI","country": "Malawi","GID_1": "MWI.2_1","province": "Blantyre","NL_NAME_1": "NA","GID_2": "MWI.2.7_1","county": "TAMachinjili","NL_NAME_2": "NA","city": "n.a.(2453)","VARNAME_3": "NA","NL_NAME_3": "NA","TYPE_3": "Unknown","ENGTYPE_3": "Unknown","CC_3": "NA","HASC_3": "NA","name": "n.a.(2453).city","area_km2": 11.919742,"hist_schema_id": "Elevation0-9000","hist_area_km2": {"975": 0.040824,"1000": 0.102061,"1025": 0.163296,"1050": 0.796051,"1075": 2.857475,"1100": 4.837226,"1125": 2.020652,"1150": 0.632725,"1175": 0.244922,"1200": 0.16328,"1225": 0.061231}}}