{"type":"Feature","properties":{"GID_3":"MWI.2.3.4_1","GID_0":"MWI","country":"Malawi","GID_1":"MWI.2_1","province":"Blantyre","NL_NAME_1":"NA","GID_2":"MWI.2.3_1","county":"TAKapeni","NL_NAME_2":"NA","city":"n.a.(2301)","VARNAME_3":"NA","NL_NAME_3":"NA","TYPE_3":"Unknown","ENGTYPE_3":"Unknown","CC_3":"NA","HASC_3":"NA","name":"n.a.(2301).city"},
"geometry":{"type": "MultiPolygon","coordinates": [[[[35.0126,-15.5733,653.6164],[35.0124,-15.5797,665.6174],[35.0153,-15.5844,661.1985],[35.0051,-15.5821,635.4935],[35.0089,-15.5921,655.0099],[35.0153,-15.5939,668.7154],[35.0174,-15.5967,673.188],[35.0279,-15.5991,691.518],[35.0283,-15.5974,705.9877],[35.024,-15.5924,696.9185],[35.0238,-15.5877,672.0704],[35.0284,-15.5908,691.1388],[35.031,-15.5908,695.5408],[35.0279,-15.5848,680.4768],[35.0379,-15.5733,680.6077],[35.0434,-15.5754,706.9581],[35.0507,-15.5733,668.6884],[35.0484,-15.5646,653.1396],[35.0492,-15.5613,644.0735],[35.0419,-15.5537,633.4711],[35.0372,-15.5536,619.3986],[35.0274,-15.5392,595.8712],[35.0204,-15.5389,597.429],[35.0228,-15.5509,622.0905],[35.0126,-15.5733,653.6164]]]]}}