{"type": "Feature","bbox": [34.9073,-15.2478,34.9865,-15.1312],"geometry": {"type": "MultiPolygon","coordinates": [[[[34.9321,-15.1312,593.5095],[34.9296,-15.1439,592.8624],[34.9302,-15.1612,567.4259],[34.937,-15.1747,553.9162],[34.9395,-15.1854,547.575],[34.9446,-15.1905,542.7078],[34.9439,-15.192,542.0487],[34.9379,-15.1913,544.2805],[34.9328,-15.1926,545.7424],[34.9182,-15.1894,557.4382],[34.9203,-15.197,552.2164],[34.9126,-15.2281,547.0889],[34.9073,-15.2404,552.9796],[34.9299,-15.245,520.981],[34.9368,-15.2478,516.9565],[34.9699,-15.2453,531.6727],[34.9865,-15.2202,533.2197],[34.984,-15.2157,538.0609],[34.969,-15.201599999999999,553.794],[34.9605,-15.1785,555.848],[34.9654,-15.1793,550.031],[34.9664,-15.1768,545.8006],[34.9667,-15.1718,548.5945],[34.9639,-15.1709,550.7626],[34.9661,-15.1689,550.2297],[34.9657,-15.1669,551.4588],[34.9686,-15.1639,552.249],[34.9706,-15.1582,553.996],[34.9671,-15.154,557.7103],[34.9694,-15.1526,557.0251],[34.9667,-15.1448,558.8664],[34.9617,-15.1437,565.5161],[34.965,-15.1402,561.6127],[34.9644,-15.1383,563.6191],[34.9599,-15.1381,568.1235],[34.958,-15.1359,567.4129],[34.9555,-15.1375,568.1783],[34.9545,-15.1332,568.0337],[34.9476,-15.1346,575.633],[34.9321,-15.1312,593.5095]]]]}
,"properties": {"GID_3": "MWI.1.3.41_1","GID_0": "MWI","country": "Malawi","GID_1": "MWI.1_1","province": "Balaka","NL_NAME_1": "NA","GID_2": "MWI.1.3_1","county": "TANsamala","NL_NAME_2": "NA","city": "n.a.(2027)","VARNAME_3": "NA","NL_NAME_3": "NA","TYPE_3": "Unknown","ENGTYPE_3": "Unknown","CC_3": "NA","HASC_3": "NA","name": "n.a.(2027).city","area_km2": 61.77055,"hist_schema_id": "Elevation0-9000","hist_area_km2": {"525": 19.35298,"550": 30.83417,"575": 10.82614,"600": 0.75726}}}