{"type":"Feature","properties":{"GID_3":"MWI.26.7.1_1","GID_0":"MWI","country":"Malawi","GID_1":"MWI.26_1","province":"Salima","NL_NAME_1":"NA","GID_2":"MWI.26.7_1","county":"TAKhombedza","NL_NAME_2":"NA","city":"n.a.(637)","VARNAME_3":"NA","NL_NAME_3":"NA","TYPE_3":"Unknown","ENGTYPE_3":"Unknown","CC_3":"NA","HASC_3":"NA","name":"n.a.(637).city"},
"geometry":{"type": "MultiPolygon","coordinates": [[[[34.317,-13.4259,478.7905],[34.3062,-13.4372,485.2978],[34.3055,-13.4429,488.1133],[34.3025,-13.4459,491.3049],[34.2901,-13.4472,500.285],[34.277,-13.4463,506.5713],[34.2634,-13.4489,517.7412],[34.2511,-13.4482,522.6506],[34.2411,-13.4539,525.6996],[34.2375,-13.4602,536.6615],[34.2422,-13.4616,534.1312],[34.2459,-13.4648,538.9268],[34.2487,-13.4739,547.8593],[34.2495,-13.4845,535.2062],[34.2508,-13.4854,532.9073],[34.2519,-13.4828,538.9095],[34.2617,-13.4794,523.1613],[34.2645,-13.4744,525.6373],[34.2741,-13.4722,511.6563],[34.2757,-13.4703,510.94],[34.2716,-13.4651,532.4755],[34.2726,-13.4615,527.7689],[34.275,-13.4596,521.7627],[34.2795,-13.4599,514.2262],[34.2868,-13.452,503.6778],[34.3071,-13.4528,490.4956],[34.3156,-13.4502,485.4814],[34.3282,-13.4428,480.0021],[34.3238,-13.4334,480.34],[34.317,-13.4259,478.7905]]]]}}