{"type":"Feature","properties":{"GID_3":"MWI.28.2.6_1","GID_0":"MWI","country":"Malawi","GID_1":"MWI.28_1","province":"Zomba","NL_NAME_1":"NA","GID_2":"MWI.28.2_1","county":"SCMbiza","NL_NAME_2":"NA","city":"n.a.(2279)","VARNAME_3":"NA","NL_NAME_3":"NA","TYPE_3":"Unknown","ENGTYPE_3":"Unknown","CC_3":"NA","HASC_3":"NA","name":"n.a.(2279).city"},
"geometry":{"type": "MultiPolygon","coordinates": [[[[35.332,-15.5399,810.7436],[35.3314,-15.5436,816.8861],[35.3364,-15.5466,802.4826],[35.3506,-15.5409,784.6809],[35.3559,-15.5324,782.5248],[35.3621,-15.5385,779.1906],[35.3591,-15.5441,775.5848],[35.3605,-15.5453,766.4668],[35.3644,-15.5435,766.3798],[35.3678,-15.5456,761.3497],[35.3698,-15.5421,762.5975],[35.3731,-15.5402,760.3838],[35.3662,-15.5309,771.7533],[35.3705,-15.5276,771.2634],[35.3808,-15.5258,760.7056],[35.3815,-15.5205,763.6185],[35.3764,-15.5222,763.7392],[35.3726,-15.5199,769.4799],[35.3654,-15.5212,770.0859],[35.3612,-15.5189,780.8987],[35.3401,-15.5236,797.9532],[35.3385,-15.5282,807.211],[35.3333,-15.5322,814.6642],[35.3394,-15.5344,813.1367],[35.3361,-15.5401,804.7191],[35.3346,-15.5389,807.9082],[35.332,-15.5399,810.7436]]]]}}