{"type": "Feature","bbox": [35.3518,-15.3125,35.3953,-15.287],"geometry": {"type": "MultiPolygon","coordinates": [[[[35.3713,-15.3125,971.2838],[35.3733,-15.3118,938.5176],[35.3763,-15.3073,842.0581],[35.3857,-15.3124,811.9417],[35.3849,-15.3096,811.6222],[35.3873,-15.3081,801.1827],[35.3943,-15.3081,780.7462],[35.3953,-15.2943,765.2108],[35.3908,-15.287,762.1726],[35.3876,-15.292,777.4827],[35.3741,-15.295,806.3904],[35.3603,-15.3002,961.1388],[35.3518,-15.2977,973.0928],[35.3551,-15.303,1114.9392],[35.3559,-15.3085,1251.5131],[35.368,-15.3072,961.2532],[35.3713,-15.3125,971.2838]]]]}
,"properties": {"GID_3": "MWI.28.6.13_1","GID_0": "MWI","country": "Malawi","GID_1": "MWI.28_1","province": "Zomba","NL_NAME_1": "NA","GID_2": "MWI.28.6_1","county": "TAMalemia","NL_NAME_2": "NA","city": "n.a.(2097)","VARNAME_3": "NA","NL_NAME_3": "NA","TYPE_3": "Unknown","ENGTYPE_3": "Unknown","CC_3": "NA","HASC_3": "NA","name": "n.a.(2097).city","area_km2": 6.523737,"hist_schema_id": "Elevation0-9000","hist_area_km2": {"775": 1.554278,"800": 1.533799,"825": 0.920268,"850": 0.429459,"875": 0.224956,"900": 0.224955,"925": 0.245401,"950": 0.245404,"975": 0.204505,"1000": 0.081802,"1025": 0.143153,"1050": 0.102253,"1075": 0.061351,"1100": 0.143153,"1125": 0.081801,"1150": 0.061351,"1175": 0.06135,"1200": 0.081801,"1225": 0.06135,"1250": 0.0409,"1275": 0.02045}}}