{"type": "Feature","bbox": [34.2704,-15.8331,34.3432,-15.749],"geometry": {"type": "MultiPolygon","coordinates": [[[[34.3183,-15.749,601.7222],[34.3117,-15.7544,589.3149],[34.2996,-15.7585,588.8983],[34.2977,-15.7689,557.4388],[34.2924,-15.7751,548.9072],[34.2871,-15.7849,514.101],[34.2854,-15.7855,514.101],[34.2829,-15.7838,503.3862],[34.28,-15.7877,500.5587],[34.2722,-15.7927,409.812],[34.2704,-15.8025,397.5471],[34.2731,-15.8112,407.8107],[34.2708,-15.8135,406.4757],[34.2732,-15.8163,399.0143],[34.2736,-15.8195,391.7297],[34.2846,-15.8284,347.2922],[34.2878,-15.8329,337.1132],[34.2892,-15.8331,335.3495],[34.2907,-15.8302,339.9943],[34.296,-15.8302,338.5089],[34.3164,-15.8329,321.1049],[34.3163,-15.8285,344.0067],[34.3263,-15.8224,537.8618],[34.3282,-15.8202,519.5816],[34.3274,-15.8185,476.6634],[34.3353,-15.8162,492.7733],[34.3355,-15.8099,527.639],[34.3373,-15.8082,544.1479],[34.3366,-15.8054,540.2678],[34.3432,-15.7988,564.5302],[34.3422,-15.7926,576.6233],[34.3271,-15.7972,550.0935],[34.3209,-15.7969,545.4259],[34.3153,-15.795,526.7597],[34.3087,-15.7883,542.8324],[34.3144,-15.7859,533.968],[34.3209,-15.7794,541.0737],[34.3181,-15.776,540.1077],[34.3259,-15.7753,542.8562],[34.3342,-15.779,567.082],[34.3289,-15.7681,575.2263],[34.3309,-15.7639,596.5894],[34.3285,-15.7623,595.8481],[34.3275,-15.7575,594.4891],[34.3183,-15.749,601.7222]]]]}
,"properties": {"GID_3": "MWI.3.5.3_1","GID_0": "MWI","country": "Malawi","GID_1": "MWI.3_1","province": "Chikwawa","NL_NAME_1": "NA","GID_2": "MWI.3.5_1","county": "TAChapananga","NL_NAME_2": "NA","city": "n.a.(2516)","VARNAME_3": "NA","NL_NAME_3": "NA","TYPE_3": "Unknown","ENGTYPE_3": "Unknown","CC_3": "NA","HASC_3": "NA","name": "n.a.(2516).city","area_km2": 40.25202,"hist_schema_id": "Elevation0-9000","hist_area_km2": {"300": 0.0408,"325": 1.59109,"350": 4.039,"375": 2.65199,"400": 2.16243,"425": 0.59161,"450": 0.67321,"475": 1.97886,"500": 5.01866,"525": 7.60972,"550": 7.0389,"575": 4.71325,"600": 1.69361,"625": 0.44889}}}