{"type":"Feature","properties":{"GID_2":"MWI.19.7_1","GID_0":"MWI","country":"Malawi","GID_1":"MWI.19_1","province":"NkhataBay","NL_NAME_1":"NA","county":"TAKabunduli","VARNAME_2":"NA","NL_NAME_2":"NA","TYPE_2":"TraditionalAuthority","ENGTYPE_2":"TraditionalAuthority","CC_2":"NA","HASC_2":"NA","name":"T_A_Kabunduli.county"},
"geometry":{"type": "MultiPolygon","coordinates": [[[[33.7894,-11.7962,1715.2327],[33.7912,-11.7994,1750.5078],[33.8163,-11.7996,1746.1056],[33.8456,-11.8133,1819.0604],[33.8457,-11.847,1824.7396],[33.823,-11.8853,1665.1277],[33.7975,-11.8858,1751.3744],[33.7919,-11.8845,1735.3914],[33.7834,-11.8886,1712.5315],[33.7781,-11.8934,1682.0205],[33.782,-11.9011,1672.717],[33.7885,-11.9042,1667.915],[33.7896,-11.909,1694.1733],[33.7938,-11.9135,1716.9202],[33.7924,-11.92,1756.8698],[33.7945,-11.9241,1745.2941],[33.792,-11.9284,1756.0734],[33.7924,-11.9332,1738.0891],[33.7979,-11.9439,1773.1135],[33.8039,-11.9493,1744.6287],[33.8056,-11.9529,1762.7146],[33.8017,-11.9648,1784.6661],[33.7954,-11.9716,1816.068],[33.7875,-11.9738,1793.6968],[33.787,-11.9773,1765.7327],[33.7937,-11.9809,1765.072],[33.7995,-11.9916,1722.6899],[33.8099,-11.9945,1726.9474],[33.8155,-12.0022,1754.6384],[33.8175,-12.0079,1734.3827],[33.8258,-12.0087,1788.903],[33.8342,-12.0056,1815.1577],[33.8381,-12.0057,1840.2622],[33.8413,-12.0083,1869.3279],[33.8413,-12.0135,1882.8187],[33.8446,-12.0156,1882.3029],[33.8453,-12.0196,1888.0349],[33.8475,-12.0177,1906.0699],[33.8501,-12.0203,1885.812],[33.8525,-12.0203,1901.6702],[33.8574,-12.0148,1833.2588],[33.8624,-12.0146,1815.8429],[33.8683,-12.0246,1805.3385],[33.8725,-12.0266,1831.8093],[33.8805,-12.0211,1753.8813],[33.8853,-12.0212,1857.5963],[33.888,-12.018,1912.3116],[33.8949,-12.0311,1840.3618],[33.9062,-12.0385,1669.5131],[33.9113,-12.0368,1520.9531],[33.9131,-12.0436,1471.2091],[33.9278,-12.0452,1181.7314],[33.9376,-12.0423,1041.7889],[33.9523,-12.0466,891.7471],[33.9684,-12.0415,1151.0966],[33.9956,-11.937,940.9554],[34.0001,-11.9333,901.8553],[34.012,-11.9314,861.1044],[34.0104,-11.9199,690.3223],[34.0112,-11.9091,814.48],[34.0034,-11.8942,941.1645],[34.0055,-11.8824,957.7478],[34.0028,-11.8718,944.8823],[34.0128,-11.8749,887.5465],[34.0194,-11.8806,757.8979],[34.0234,-11.8812,696.7103],[34.067,-11.8574,959.9666],[34.0678,-11.8561,916.6942],[34.0631,-11.8508,891.1272],[34.0625,-11.8382,856.1918],[34.0644,-11.8295,877.5131],[34.0626,-11.8176,807.0843],[34.068,-11.7991,857.4888],[34.0728,-11.7951,856.2394],[34.0837,-11.7996,758.4891],[34.0886,-11.7982,695.0475],[34.1017,-11.7846,645.5536],[34.1185,-11.7538,564.1642],[34.1337,-11.7455,592.7612],[34.1378,-11.6154,934.5377],[34.1346,-11.6111,686.7996],[34.0897,-11.5757,794.7095],[34.1032,-11.5342,883.1342],[34.0943,-11.5129,958.9314],[34.0949,-11.49,1315.282],[34.0873,-11.4834,1384.3745],[34.0836,-11.4764,1434.4882],[34.0899,-11.4747,1488.5769],[34.0882,-11.4671,1502.1838],[34.0763,-11.4683,1366.1792],[34.07,-11.4642,1299.9871],[34.0681,-11.4654,1311.7384],[34.0674,-11.4661,1311.7384],[34.0703,-11.4665,1315.1299],[34.071,-11.4683,1321.3264],[34.069,-11.4712,1321.6226],[34.0692,-11.4782,1280.3168],[34.0653,-11.4834,1238.002],[34.0645,-11.4884,1222.0442],[34.0561,-11.4929,1179.709],[34.0517,-11.5,1165.4452],[34.0462,-11.4998,1250.5168],[34.0413,-11.4952,1284.8718],[34.038,-11.4977,1273.8473],[34.0352,-11.4932,1239.496],[34.0223,-11.489,1176.4829],[34.0141,-11.4963,1178.1589],[34.0051,-11.4979,1185.545],[33.9883,-11.4974,1235.5272],[33.9717,-11.4912,1323.6423],[33.9669,-11.4915,1344.3519],[33.9689,-11.5044,1338.774],[33.9655,-11.5088,1330.5304],[33.9661,-11.5153,1326.7325],[33.9618,-11.5174,1324.7054],[33.9627,-11.529,1339.1254],[33.9567,-11.535,1345.6635],[33.9592,-11.5398,1349.7303],[33.9449,-11.5461,1358.6493],[33.939,-11.5519,1355.4149],[33.9363,-11.5574,1364.6667],[33.9326,-11.5596,1371.2767],[33.92,-11.5459,1384.5553],[33.9131,-11.5465,1413.1945],[33.9055,-11.5447,1398.1526],[33.9019,-11.5406,1409.6288],[33.8981,-11.5397,1479.2891],[33.8954,-11.5424,1476.1438],[33.8864,-11.5451,1544.2517],[33.8832,-11.5433,1497.6082],[33.8814,-11.54,1544.85],[33.8653,-11.5343,1577.3362],[33.8635,-11.5415,1540.8284],[33.8608,-11.5429,1528.5667],[33.8587,-11.5483,1616.8468],[33.8542,-11.5495,1612.778],[33.8508,-11.5561,1593.851],[33.8402,-11.5643,1574.1746],[33.841,-11.5679,1585.8164],[33.8392,-11.5732,1612.9637],[33.8296,-11.573,1680.6364],[33.8248,-11.58,1719.1528],[33.8187,-11.5803,1692.2284],[33.812,-11.5774,1718.2681],[33.7974,-11.5904,1679.5533],[33.7899,-11.59,1716.9072],[33.7836,-11.5953,1750.1914],[33.7827,-11.5975,1694.7678],[33.7889,-11.5999,1764.9392],[33.7904,-11.6031,1747.4751],[33.7795,-11.6079,1649.3196],[33.7694,-11.6205,1748.1218],[33.7743,-11.6368,1695.3765],[33.7628,-11.6359,1730.6396],[33.7566,-11.6406,1672.153],[33.7481,-11.6397,1648.6027],[33.7431,-11.6456,1685.7275],[33.7419,-11.6521,1697.198],[33.7371,-11.6554,1688.272],[33.7336,-11.6652,1694.2368],[33.7352,-11.6689,1695.9199],[33.7399,-11.6699,1692.261],[33.745,-11.6741,1706.3372],[33.7546,-11.6858,1721.4598],[33.7596,-11.6991,1690.7267],[33.7555,-11.7134,1634.2173],[33.7569,-11.7173,1667.0659],[33.7654,-11.7189,1646.6836],[33.7587,-11.7228,1635.6453],[33.7518,-11.7375,1623.2627],[33.7513,-11.745,1678.5033],[33.7579,-11.7504,1690.0916],[33.7591,-11.7561,1683.1923],[33.7686,-11.753,1688.8579],[33.7748,-11.7601,1668.6593],[33.7926,-11.7662,1755.302],[33.7953,-11.7687,1762.2993],[33.7942,-11.7763,1728.1129],[33.7885,-11.7794,1708.1493],[33.7869,-11.7856,1709.2489],[33.7866,-11.7923,1717.158],[33.7894,-11.7962,1715.2327]]]]}}