{"type": "Feature","bbox": [33.9936,-14.1775,34.0589,-14.1396],"geometry": {"type": "MultiPolygon","coordinates": [[[[34.0576,-14.1535,1163.8191],[34.0484,-14.1539,1176.377],[34.0443,-14.1482,1184.8711],[34.0407,-14.1481,1179.9152],[34.0337,-14.1423,1180.4998],[34.0283,-14.1463,1190.2053],[34.0221,-14.1466,1190.7139],[34.0164,-14.1493,1197.9509],[34.0038,-14.1417,1201.9161],[33.9947,-14.1396,1204.7336],[33.9936,-14.144,1206.1013],[33.9937,-14.1476,1211.8491],[33.9979,-14.149,1209.1825],[33.9955,-14.1519,1217.7764],[33.9951,-14.1598,1217.851],[34.0065,-14.1657,1216.4976],[34.0142,-14.1663,1218.4646],[34.0291,-14.163,1211.4111],[34.0318,-14.1655,1210.8955],[34.0328,-14.1716,1194.6179],[34.0387,-14.1754,1183.963],[34.0464,-14.1775,1160.8811],[34.0487,-14.1691,1165.6194],[34.0535,-14.1616,1160.981],[34.0589,-14.1568,1166.7866],[34.0576,-14.1535,1163.8191]]]]}
,"properties": {"GID_3": "MWI.11.13.11_1","GID_0": "MWI","country": "Malawi","GID_1": "MWI.11_1","province": "Lilongwe","NL_NAME_1": "NA","GID_2": "MWI.11.13_1","county": "TAKalumbu","NL_NAME_2": "NA","city": "n.a.(1294)","VARNAME_3": "NA","NL_NAME_3": "NA","TYPE_3": "Unknown","ENGTYPE_3": "Unknown","CC_3": "NA","HASC_3": "NA","name": "n.a.(1294).city","area_km2": 15.21313,"hist_schema_id": "Elevation0-9000","hist_area_km2": {"1150": 0.22614,"1175": 3.74159,"1200": 9.25127,"1225": 1.99413}}}