{"type":"Feature","properties":{"GID_3":"MWI.17.6.20_1","GID_0":"MWI","country":"Malawi","GID_1":"MWI.17_1","province":"Mzimba","NL_NAME_1":"NA","GID_2":"MWI.17.6_1","county":"TAChindi","NL_NAME_2":"NA","city":"n.a.(234)","VARNAME_3":"NA","NL_NAME_3":"NA","TYPE_3":"Unknown","ENGTYPE_3":"Unknown","CC_3":"NA","HASC_3":"NA","name":"n.a.(234).city"},
"geometry":{"type": "MultiPolygon","coordinates": [[[[33.6526,-11.6495,1437.8975],[33.6506,-11.6432,1449.6567],[33.6467,-11.6388,1471.54],[33.6433,-11.6371,1479.4512],[33.6304,-11.6362,1446.946],[33.6262,-11.6338,1421.0813],[33.6241,-11.6306,1420.0532],[33.6236,-11.6172,1428.4651],[33.6343,-11.6056,1435.5978],[33.6346,-11.5926,1433.5829],[33.633,-11.5904,1433.1508],[33.6151,-11.5904,1397.0359],[33.6092,-11.5858,1405.5879],[33.6003,-11.5829,1414.114],[33.5973,-11.5867,1388.694],[33.5887,-11.5912,1364.4751],[33.5876,-11.5977,1351.4453],[33.5848,-11.6019,1346.8418],[33.5682,-11.5946,1299.4952],[33.5614,-11.5883,1325.0134],[33.556,-11.5903,1343.275],[33.5518,-11.5966,1315.0859],[33.5447,-11.6013,1270.2869],[33.5506,-11.6088,1278.5859],[33.5568,-11.6093,1292.5864],[33.5629,-11.6184,1276.9352],[33.5721,-11.6233,1285.677],[33.5764,-11.6298,1302.4137],[33.5889,-11.6385,1305.5872],[33.5935,-11.6486,1324.3278],[33.5921,-11.657,1338.6104],[33.5996,-11.6637,1333.4083],[33.6053,-11.6715,1342.4243],[33.6134,-11.6776,1346.7467],[33.6124,-11.6728,1379.791],[33.6139,-11.6717,1379.791],[33.6307,-11.6735,1385.0599],[33.6342,-11.6719,1394.2126],[33.6526,-11.6495,1437.8975]]]]}}