{"type": "Feature","bbox": [35.3797,-14.7068,35.4347,-14.6474],"geometry": {"type": "MultiPolygon","coordinates": [[[[35.39,-14.7068,520.924],[35.4009,-14.7021,530.1496],[35.4127,-14.7024,543.3196],[35.4152,-14.6983,546.0587],[35.4099,-14.6944,539.9703],[35.4119,-14.6912,542.5422],[35.413,-14.6926,545.1552],[35.4218,-14.6926,555.2184],[35.4339,-14.6908,582.0391],[35.4329,-14.6851,579.7407],[35.4347,-14.6827,593.6868],[35.4322,-14.6742,586.2319],[35.4134,-14.6474,566.8513],[35.3986,-14.6476,535.0447],[35.3797,-14.6905,516.7144],[35.3897,-14.7036,521.162],[35.39,-14.7068,520.924]]]]}
,"properties": {"GID_3": "MWI.13.5.28_1","GID_0": "MWI","country": "Malawi","GID_1": "MWI.13_1","province": "Mangochi","NL_NAME_1": "NA","GID_2": "MWI.13.5_1","county": "SCChowe","NL_NAME_2": "NA","city": "n.a.(1722)","VARNAME_3": "NA","NL_NAME_3": "NA","TYPE_3": "Unknown","ENGTYPE_3": "Unknown","CC_3": "NA","HASC_3": "NA","name": "n.a.(1722).city","area_km2": 24.05861,"hist_schema_id": "Elevation0-9000","hist_area_km2": {"525": 9.88575,"550": 10.82967,"575": 3.22012,"600": 0.12306}}}