{"type":"Feature","properties":{"GID_2":"MWI.13.4_1","GID_0":"MWI","country":"Malawi","GID_1":"MWI.13_1","province":"Mangochi","NL_NAME_1":"NA","county":"MonkeyBayUrban","VARNAME_2":"NA","NL_NAME_2":"NA","TYPE_2":"Urban","ENGTYPE_2":"Urban","CC_2":"NA","HASC_2":"NA","name":"Monkey_Bay_Urban.county"},
"geometry":{"type": "MultiPolygon","coordinates": [[[[34.8221,-14.3708,521.2126],[34.8248,-14.3704,526.8557],[34.8295,-14.3657,534.166],[34.8134,-14.3549,508.3896],[34.8112,-14.3514,504.491],[34.8058,-14.3578,503.6887],[34.8098,-14.3597,507.7425],[34.809,-14.3672,511.2462],[34.8221,-14.3708,521.2126]]],
[[[34.9266,-14.0792,477.0513],[34.9253,-14.0722,515.5087],[34.9273,-14.0673,474.5],[34.9238,-14.0663,474.5],[34.922,-14.0714,474.5],[34.9201,-14.0714,474.6852],[34.9166,-14.0698,499.394],[34.9159,-14.0651,592.1233],[34.9128,-14.0676,637.3719],[34.9115,-14.0719,566.7794],[34.9034,-14.0774,517.4261],[34.9026,-14.0808,563.7212],[34.8909,-14.0898,588.4216],[34.9016,-14.093,497.233],[34.9016,-14.0994,509.4471],[34.91,-14.1027,487.6373],[34.9145,-14.1079,500.9286],[34.9288,-14.1008,474.5],[34.9253,-14.1009,477.1209],[34.9239,-14.0987,481.4249],[34.9277,-14.0899,478.2453],[34.9315,-14.0881,501.1251],[34.9308,-14.0813,474.5],[34.9266,-14.0792,477.0513]]]]}}