{"type": "Feature","bbox": [33.3364,-12.9135,33.4197,-12.8039],"geometry": {"type": "MultiPolygon","coordinates": [[[[33.3617,-12.8039,1074.2885],[33.3592,-12.8152,1061.6016],[33.362,-12.8249,1052.1453],[33.36,-12.8316,1047.1941],[33.3576,-12.8339,1044.9927],[33.3523,-12.8349,1051.3621],[33.3469,-12.8326,1042.1522],[33.3464,-12.8475,1033.23],[33.3541,-12.8576,1014.6987],[33.3496,-12.8608,1021.2671],[33.3429,-12.876,1029.8728],[33.3364,-12.8825,1017.3943],[33.3364,-12.8946,984.6845],[33.3546,-12.895,980.929],[33.3538,-12.9005,986.1542],[33.355,-12.9039,977.751],[33.3686,-12.9061,978.8266],[33.3743,-12.9118,977.2267],[33.3788,-12.9135,973.4885],[33.3836,-12.909,986.5018],[33.3948,-12.9092,975.9235],[33.3981,-12.9045,989.1606],[33.4072,-12.8986,970.2784],[33.4111,-12.8921,968.7107],[33.4197,-12.889099999999999,974.3428],[33.4094,-12.8839,984.7555],[33.396,-12.8703,1007.2117],[33.3966,-12.8648,1021.5662],[33.393,-12.8477,1033.6711],[33.3888,-12.8454,1031.6968],[33.3859,-12.8402,1035.2542],[33.3824,-12.8199,1056.0583],[33.3847,-12.8105,1074.2334],[33.3767,-12.8098,1070.6775],[33.3617,-12.8039,1074.2885]]]]}
,"properties": {"GID_3": "MWI.9.10.10_1","GID_0": "MWI","country": "Malawi","GID_1": "MWI.9_1","province": "Kasungu","NL_NAME_1": "NA","GID_2": "MWI.9.10_1","county": "TAChulu","NL_NAME_2": "NA","city": "n.a.(409)","VARNAME_3": "NA","NL_NAME_3": "NA","TYPE_3": "Unknown","ENGTYPE_3": "Unknown","CC_3": "NA","HASC_3": "NA","name": "n.a.(409).city","area_km2": 54.54768,"hist_schema_id": "Elevation0-9000","hist_area_km2": {"975": 4.2161,"1000": 15.005,"1025": 17.89978,"1050": 12.96126,"1075": 4.15545,"1100": 0.08269,"1125": 0.10336,"1150": 0.06202,"1175": 0.04135,"1200": 0.02067}}}