{"type": "Feature","bbox": [35.7635,-14.6885,35.8406,-14.6382],"geometry": {"type": "MultiPolygon","coordinates": [[[[35.7922,-14.6382,791.0989],[35.7679,-14.6762,810.7336],[35.766,-14.6818,750.5221],[35.7635,-14.6831,732.3388],[35.7679,-14.6881,687.1572],[35.7739,-14.687,681.6685],[35.7875,-14.6776,680.6821],[35.8017,-14.6743,659.9341],[35.8097,-14.6814,646.2567],[35.8087,-14.6885,642.1437],[35.8197,-14.6792,642.8998],[35.8256,-14.6773,638.0982],[35.8336,-14.6686,634.3239],[35.8406,-14.6663,632.9514],[35.8344,-14.6595,638.408],[35.8222,-14.6547,653.9241],[35.8199,-14.664,649.3755],[35.8154,-14.6566,653.8295],[35.8095,-14.6546,662.3859],[35.8029,-14.645,707.3615],[35.7994,-14.6432,775.3082],[35.7965,-14.6393,778.1726],[35.7937,-14.64,750.8594],[35.7922,-14.6382,791.0989]]]]}
,"properties": {"GID_3": "MWI.12.10.2_1","GID_0": "MWI","country": "Malawi","GID_1": "MWI.12_1","province": "Machinga","NL_NAME_1": "NA","GID_2": "MWI.12.10_1","county": "SCNgokwe","NL_NAME_2": "NA","city": "n.a.(1718)","VARNAME_3": "NA","NL_NAME_3": "NA","TYPE_3": "Unknown","ENGTYPE_3": "Unknown","CC_3": "NA","HASC_3": "NA","name": "n.a.(1718).city","area_km2": 20.69603,"hist_schema_id": "Elevation0-9000","hist_area_km2": {"625": 0.79994,"650": 6.70714,"675": 4.5535,"700": 3.48695,"725": 1.39478,"750": 1.59992,"775": 1.12817,"800": 0.69743,"825": 0.14358,"850": 0.10256,"875": 0.04102,"900": 0.04102}}}