{"type":"Feature","properties":{"GID_3":"MWI.27.8.20_1","GID_0":"MWI","country":"Malawi","GID_1":"MWI.27_1","province":"Thyolo","NL_NAME_1":"NA","GID_2":"MWI.27.8_1","county":"TAChimaliro","NL_NAME_2":"NA","city":"n.a.(2729)","VARNAME_3":"NA","NL_NAME_3":"NA","TYPE_3":"Unknown","ENGTYPE_3":"Unknown","CC_3":"NA","HASC_3":"NA","name":"n.a.(2729).city"},
"geometry":{"type": "MultiPolygon","coordinates": [[[[35.0797,-15.9944,1200.0332],[35.0817,-15.9993,1176.7433],[35.0817,-16.0078,1183.3536],[35.0866,-16.0131,1180.0472],[35.0946,-16.016,1119.4657],[35.0968,-16.023,1115.4119],[35.0996,-16.0255,1110.6974],[35.101,-16.0257,1095.2499],[35.105,-16.0184,1055.616],[35.115,-16.0107,1039.3818],[35.115,-16.0089,1050.0247],[35.1112,-16.0085,1067.839],[35.1102,-16.0026,1052.8477],[35.1034,-15.9955,1088.4658],[35.0997,-15.9955,1117.551],[35.0953,-15.9982,1114.8071],[35.093,-15.9917,1189.6383],[35.0883,-15.9885,1200.9401],[35.087,-15.9815,1179.5066],[35.092,-15.9775,1160.2327],[35.0923,-15.9689,1149.4915],[35.0863,-15.968,1136.9374],[35.0812,-15.9779,1174.3756],[35.0803,-15.9842,1172.6012],[35.0777,-15.9869,1192.5017],[35.0797,-15.9944,1200.0332]]]]}}