{"type":"Feature","properties":{"GID_3":"MWI.5.4.10_1","GID_0":"MWI","country":"Malawi","GID_1":"MWI.5_1","province":"Chitipa","NL_NAME_1":"NA","GID_2":"MWI.5.4_1","county":"TAMwabulambya","NL_NAME_2":"NA","city":"n.a.(4)","VARNAME_3":"NA","NL_NAME_3":"NA","TYPE_3":"Unknown","ENGTYPE_3":"Unknown","CC_3":"NA","HASC_3":"NA","name":"n.a.(4).city"},
"geometry":{"type": "MultiPolygon","coordinates": [[[[33.2875,-9.4984,1242.761],[33.2824,-9.5013,1258.9956],[33.2676,-9.4978,1241.0781],[33.2607,-9.4881,1259.0098],[33.2556,-9.4862,1264.4811],[33.2524,-9.4887,1245.4429],[33.2455,-9.4894,1247.7865],[33.2434,-9.5116,1306.9373],[33.2408,-9.5176,1304.7103],[33.2432,-9.5313,1329.4365],[33.2396,-9.5431,1307.6648],[33.2401,-9.5442,1302.2228],[33.2671,-9.5445,1349.3807],[33.2658,-9.5553,1401.6924],[33.2673,-9.5615,1372.6091],[33.2836,-9.5587,1342.2444],[33.2812,-9.5534,1333.9841],[33.2818,-9.543,1317.5028],[33.2881,-9.5325,1290.6351],[33.2875,-9.5251,1286.7557],[33.2931,-9.5122,1275.2764],[33.2925,-9.5068,1252.0507],[33.288,-9.5021,1252.3993],[33.2875,-9.4984,1242.761]]]]}}