{"type": "Feature","bbox": [34.9178,-15.9255,35.0755,-15.5073],"geometry": {"type": "MultiPolygon","coordinates": [[[[35.0377,-15.8699,1036.593],[35.0372,-15.8683,1031.0918],[35.0345,-15.869,1037.9758],[35.0282,-15.8774,1045.0287],[35.0269,-15.8818,1021.8314],[35.0234,-15.8803,1050.2026],[35.0209,-15.8816,1030.7145],[35.0182,-15.8863,986.5462],[35.0192,-15.8879,986.5462],[35.0176,-15.8887,1000.1902],[35.0186,-15.8902,976.5267],[35.0174,-15.8951,959.0983],[35.0132,-15.9011,986.7388],[35.0144,-15.9055,938.1272],[35.0115,-15.9069,944.4522],[35.0112,-15.9114,926.9158],[35.0071,-15.9124,893.1603],[35.011,-15.9179,897.9659],[35.0133,-15.9159,915.9339],[35.012,-15.9129,909.5577],[35.0138,-15.9132,915.1138],[35.0169,-15.9184,922.6197],[35.0203,-15.92,950.5212],[35.0249,-15.9255,972.1356],[35.0343,-15.9206,996.5919],[35.0407,-15.9117,1033.9618],[35.0501,-15.9141,1119.1541],[35.0543,-15.9103,1128.7302],[35.0644,-15.9058,1141.551],[35.065,-15.9023,1146.9214],[35.0667,-15.9014,1146.9214],[35.0646,-15.8882,1192.416],[35.0613,-15.8838,1185.7217],[35.056,-15.8823,1169.8223],[35.0581,-15.8803,1181.6033],[35.0548,-15.8749,1172.1132],[35.0432,-15.8715,1120.2291],[35.0384,-15.8716,1074.1737],[35.0377,-15.8699,1036.593]]],
[[[34.9834,-15.602,641.0914],[34.9802,-15.6067,652.6475],[34.9801,-15.613,648.9182],[34.9784,-15.6167,657.3459],[34.9795,-15.6181,649.879],[34.974,-15.623,666.2833],[34.9746,-15.6318,668.3523],[34.9706,-15.6357,678.661],[34.9748,-15.6465,699.7036],[34.9729,-15.6563,736.7791],[34.9777,-15.6695,763.1921],[34.9927,-15.6834,798.6418],[34.993,-15.6913,784.1285],[34.9903,-15.6943,767.5455],[34.9869,-15.6954,760.8359],[34.9959,-15.702,789.3023],[34.9962,-15.7037,781.3588],[34.9988,-15.7031,789.3805],[35.0012,-15.6997,793.8942],[35.0034,-15.7025,799.696],[35.0049,-15.7005,803.6519],[35.0096,-15.7015,816.609],[35.0181,-15.6809,805.9163],[35.0239,-15.6759,801.7767],[35.0265,-15.6833,815.0443],[35.0258,-15.692,847.9721],[35.0314,-15.6918,834.6318],[35.0352,-15.6895,811.832],[35.0402,-15.6838,802.3906],[35.0425,-15.6762,788.3261],[35.0408,-15.6759,783.2275],[35.0395,-15.6735,777.7119],[35.0406,-15.6711,789.0209],[35.0388,-15.6709,769.5297],[35.0385,-15.6691,786.9667],[35.0598,-15.66,803.0852],[35.0635,-15.656,813.3456],[35.0634,-15.6505,805.5978],[35.0576,-15.6456,792.5296],[35.0692,-15.6352,796.8723],[35.0729,-15.6345,787.917],[35.0755,-15.632,791.3307],[35.071,-15.6281,781.2862],[35.0712,-15.6208,760.5501],[35.0667,-15.614,734.8457],[35.0681,-15.6064,708.7376],[35.0654,-15.6019,698.8364],[35.0655,-15.5941,682.7946],[35.0685,-15.5889,675.0819],[35.0664,-15.5832,677.8657],[35.0683,-15.5771,665.0905],[35.0658,-15.5767,669.245],[35.0661,-15.5734,662.5048],[35.0583,-15.5633,649.269],[35.0554,-15.5645,650.1622],[35.055,-15.5618,644.5444],[35.053,-15.5605,647.2928],[35.0498,-15.5621,644.0735],[35.0419,-15.5537,633.4711],[35.0372,-15.5536,619.3986],[35.0274,-15.5392,595.8712],[35.018,-15.5385,599.8173],[35.0177,-15.5297,585.4524],[35.0137,-15.5259,577.1072],[35.0114,-15.5271,566.174],[35.0098,-15.5261,574.2269],[35.0073,-15.5236,567.2737],[35.0076,-15.5209,561.6755],[34.9993,-15.5205,554.8172],[34.9971,-15.5177,558.7234],[34.9915,-15.5184,546.3047],[34.987,-15.5154,539.9347],[34.9869,-15.5136,544.9618],[34.9837,-15.5149,540.3972],[34.9813,-15.5134,545.0867],[34.9738,-15.5134,524.5394],[34.9735,-15.5116,525.8133],[34.9699,-15.5104,534.0368],[34.9666,-15.5131,519.9096],[34.9619,-15.5122,519.4675],[34.9625,-15.5103,516.704],[34.9581,-15.5073,514.7614],[34.9563,-15.5142,505.9189],[34.9538,-15.5135,509.4169],[34.9525,-15.5158,504.9562],[34.9499,-15.5148,505.8649],[34.9485,-15.5181,500.1329],[34.9459,-15.5174,502.2366],[34.9452,-15.5192,500.2802],[34.9425,-15.5191,512.2593],[34.9389,-15.525,491.3557],[34.9369,-15.5231,498.4339],[34.9318,-15.5249,486.2632],[34.9254,-15.5236,488.4321],[34.9199,-15.5266,469.6112],[34.92,-15.5283,475.2874],[34.9254,-15.5286,482.8167],[34.925,-15.5332,489.7293],[34.922,-15.5354,492.8904],[34.9193,-15.535,495.9501],[34.9178,-15.5393,507.4604],[34.9201,-15.5406,496.4427],[34.9207,-15.5431,495.4653],[34.9347,-15.5467,516.138],[34.9396,-15.5525,535.8019],[34.946,-15.5517,535.6633],[34.9467,-15.5483,540.0009],[34.9484,-15.5477,546.5548],[34.9509,-15.5551,548.8702],[34.9619,-15.562,571.4634],[34.9616,-15.5646,585.2769],[34.9641,-15.5649,573.5958],[34.9641,-15.5693,579.7983],[34.9668,-15.5717,582.5349],[34.9686,-15.578,585.4495],[34.9713,-15.5788,600.4352],[34.9716,-15.5824,591.142],[34.9766,-15.5868,614.6785],[34.9755,-15.5933,625.217],[34.9766,-15.5992,627.1663],[34.9834,-15.602,641.0914]]],
[[[34.9809,-15.8385,945.0805],[34.9793,-15.8344,900.8669],[34.9775,-15.8339,909.1331],[34.9731,-15.8418,876.7448],[34.9681,-15.8437,866.7318],[34.971,-15.848,857.7205],[34.9704,-15.8516,867.5612],[34.9723,-15.8567,883.0885],[34.9701,-15.8618,903.9874],[34.9804,-15.8677,956.5034],[34.9908,-15.8663,916.1667],[34.9929,-15.8603,947.5688],[34.9953,-15.8593,941.942],[34.9954,-15.8522,962.8635],[35.001,-15.8513,1000.116],[35.0116,-15.8451,1137.5825],[35.008,-15.832,1080.2655],[35.005,-15.833,1043.6549],[35.0068,-15.8392,1085.1814],[35.0054,-15.845,1062.2354],[35.0028,-15.8449,1016.7191],[35.0011,-15.847,983.2385],[34.9998,-15.8446,994.1907],[35.0038,-15.84,1071.0861],[35.0025,-15.8368,1029.8041],[34.9998,-15.8366,1008.9103],[34.9971,-15.8421,996.1613],[34.9925,-15.8414,1009.5848],[34.9919,-15.845,1019.4525],[34.9869,-15.8494,988.2184],[34.9809,-15.8385,945.0805]]]]}
,"properties": {"GID_2": "MWI.2.3_1","GID_0": "MWI","country": "Malawi","GID_1": "MWI.2_1","province": "Blantyre","NL_NAME_1": "NA","county": "TAKapeni","VARNAME_2": "NA","NL_NAME_2": "NA","TYPE_2": "TraditionalAuthority","ENGTYPE_2": "TraditionalAuthority","CC_2": "NA","HASC_2": "NA","name": "T_A_Kapeni.county","area_km2": 212.0705,"hist_schema_id": "Elevation0-9000","hist_area_km2": {"475": 0.7763,"500": 3.861,"525": 6.8639,"550": 9.6011,"575": 9.6213,"600": 14.7476,"625": 14.0724,"650": 14.4593,"675": 15.5614,"700": 19.2567,"725": 20.6434,"750": 18.8449,"775": 18.6394,"800": 10.3092,"825": 2.0617,"850": 0.9795,"875": 0.6732,"900": 1.1217,"925": 1.6926,"950": 1.5499,"975": 2.3656,"1000": 3.6096,"1025": 3.5891,"1050": 3.2422,"1075": 3.4055,"1100": 2.0392,"1125": 2.5082,"1150": 3.1199,"1175": 2.3655,"1200": 0.4894}}}