{"type":"Feature","properties":{"GID_3":"MWI.4.4.13_1","GID_0":"MWI","country":"Malawi","GID_1":"MWI.4_1","province":"Chiradzulu","NL_NAME_1":"NA","GID_2":"MWI.4.4_1","county":"TALikoswe","NL_NAME_2":"NA","city":"n.a.(2579)","VARNAME_3":"NA","NL_NAME_3":"NA","TYPE_3":"Unknown","ENGTYPE_3":"Unknown","CC_3":"NA","HASC_3":"NA","name":"n.a.(2579).city"},
"geometry":{"type": "MultiPolygon","coordinates": [[[[35.1606,-15.8215,889.4274],[35.1452,-15.8183,926.1381],[35.1392,-15.814,960.1584],[35.1358,-15.8162,981.2576],[35.1343,-15.8205,958.4547],[35.1379,-15.8225,939.5536],[35.1375,-15.8246,931.8235],[35.1462,-15.8311,937.5068],[35.1493,-15.8359,939.2863],[35.1583,-15.8313,916.8875],[35.1661,-15.8219,891.8023],[35.1621,-15.8236,886.3415],[35.1606,-15.8215,889.4274]]]]}}