{"type": "Feature","bbox": [34.7358,-15.0001,34.9738,-14.7112],"geometry": {"type": "MultiPolygon","coordinates": [[[[34.8597,-14.9908,689.5382],[34.8636,-14.9938,686.0469],[34.8696,-14.9945,678.0898],[34.8713,-14.9933,678.0898],[34.8838,-14.9971,670.0652],[34.8884,-14.995,667.3469],[34.8923,-14.9968,663.0352],[34.8929,-14.9994,665.5632],[34.8987,-15.0001,657.3003],[34.9076,-14.9922,662.4639],[34.8917,-14.9565,739.8931],[34.9295,-14.8829,674.4136],[34.9382,-14.8496,663.4571],[34.9611,-14.8676,646.7802],[34.9641,-14.8666,645.7975],[34.9584,-14.8464,653.939],[34.9614,-14.8365,660.6379],[34.9611,-14.8295,665.2403],[34.9636,-14.8257,666.4605],[34.9618,-14.8249,667.5686],[34.9624,-14.8142,675.992],[34.9674,-14.8045,685.929],[34.9707,-14.8034,682.0872],[34.9737,-14.7987,687.7958],[34.9738,-14.7933,691.7825],[34.9713,-14.792,693.5439],[34.9695,-14.7877,698.9896],[34.9725,-14.7756,702.6605],[34.9674,-14.7704,714.132],[34.9588,-14.7521,722.5524],[34.9536,-14.7522,734.2579],[34.9485,-14.7492,746.9501],[34.9406,-14.748,762.0728],[34.9181,-14.7376,796.8365],[34.9175,-14.7347,799.955],[34.9209,-14.7254,822.9052],[34.9179,-14.7178,847.1494],[34.9194,-14.7112,919.1466],[34.8571,-14.7423,668.8658],[34.8518,-14.7438,661.049],[34.7742,-14.7252,1140.6183],[34.7358,-14.729,1059.082],[34.7364,-14.7361,1069.416],[34.7425,-14.7407,1116.5996],[34.7441,-14.7535,1085.7581],[34.7423,-14.7657,1070.5649],[34.7431,-14.7859,1076.2668],[34.7514,-14.8029,1039.4343],[34.7496,-14.8147,974.2761],[34.7542,-14.8328,962.3721],[34.7696,-14.8517,937.262],[34.783,-14.8602,928.2742],[34.7818,-14.8645,930.9215],[34.7724,-14.8696,917.6783],[34.7707,-14.8727,911.8225],[34.772,-14.8773,921.1266],[34.7776,-14.8834,898.3201],[34.7795,-14.8885,881.8383],[34.7787,-14.9004,880.3247],[34.7856,-14.9076,865.0187],[34.7886,-14.9152,859.7465],[34.7887,-14.9204,860.7839],[34.7934,-14.9223,836.3323],[34.7948,-14.925,848.2917],[34.7941,-14.9321,839.5159],[34.7891,-14.943,812.656],[34.7922,-14.9433,809.9238],[34.7975,-14.9503,792.1887],[34.8203,-14.9632,717.1055],[34.8232,-14.9682,712.5248],[34.8284,-14.9687,709.1605],[34.8304,-14.9708,713.6254],[34.8312,-14.975,707.7865],[34.8406,-14.983,708.201],[34.8438,-14.9823,701.9614],[34.8459,-14.9842,700.9049],[34.8464,-14.9875,708.1348],[34.851,-14.9896,699.5962],[34.8526,-14.9877,698.5477],[34.8562,-14.9881,689.8878],[34.8597,-14.9908,689.5382]]]]}
,"properties": {"GID_2": "MWI.22.4_1","GID_0": "MWI","country": "Malawi","GID_1": "MWI.22_1","province": "Ntcheu","NL_NAME_1": "NA","county": "SCMakwangwala","VARNAME_2": "NA","NL_NAME_2": "NA","TYPE_2": "Sub-chief","ENGTYPE_2": "Sub-chief","CC_2": "NA","HASC_2": "NA","name": "S_C_Makwangwala.county","area_km2": 504.1607,"hist_schema_id": "Elevation0-9000","hist_area_km2": {"650": 10.8637,"675": 80.1454,"700": 76.5534,"725": 64.2266,"750": 53.6478,"775": 44.3444,"800": 29.386,"825": 22.0501,"850": 23.1569,"875": 16.949,"900": 14.6747,"925": 14.7166,"950": 11.3765,"975": 9.1428,"1000": 7.5237,"1025": 6.8065,"1050": 5.6997,"1075": 5.7614,"1100": 5.3312,"1125": 1.7429,"1150": 0.0615}}}