{"type": "Feature","bbox": [33.8264,-14.0399,33.8666,-14.0105],"geometry": {"type": "MultiPolygon","coordinates": [[[[33.8264,-14.0342,1114.3033],[33.8385,-14.035,1110.1799],[33.8502,-14.0398,1052.5955],[33.8562,-14.0399,1043.5756],[33.8563,-14.0367,1049.5009],[33.8609,-14.0346,1041.0542],[33.8617,-14.0302,1045.8453],[33.8666,-14.0272,1037.7451],[33.8631,-14.0265,1056.0181],[33.8597,-14.0215,1061.0081],[33.8497,-14.0145,1097.1978],[33.8415,-14.0186,1083.8673],[33.832,-14.0105,1105.5452],[33.8286,-14.0106,1121.3955],[33.8285,-14.0242,1121.78],[33.8264,-14.0342,1114.3033]]]]}
,"properties": {"GID_3": "MWI.11.5.6_1","GID_0": "MWI","country": "Malawi","GID_1": "MWI.11_1","province": "Lilongwe","NL_NAME_1": "NA","GID_2": "MWI.11.5_1","county": "SCTsabango","NL_NAME_2": "NA","city": "n.a.(1146)","VARNAME_3": "NA","NL_NAME_3": "NA","TYPE_3": "Unknown","ENGTYPE_3": "Unknown","CC_3": "NA","HASC_3": "NA","name": "n.a.(1146).city","area_km2": 8.413151,"hist_schema_id": "Elevation0-9000","hist_area_km2": {"1025": 0.041139,"1050": 2.015824,"1075": 2.139297,"1100": 2.674136,"1125": 1.542756}}}