{"type": "Feature","bbox": [34.9063,-14.1819,34.9511,-14.1409],"geometry": {"type": "MultiPolygon","coordinates": [[[[34.935,-14.1409,477.4979],[34.925,-14.1421,499.5849],[34.9209,-14.1468,487.6567],[34.9153,-14.1479,489.4744],[34.9067,-14.1537,495.8708],[34.9063,-14.1613,497.6337],[34.9106,-14.1734,500.6301],[34.9137,-14.1774,513.6694],[34.9205,-14.1783,500.8446],[34.9283,-14.1819,493.3087],[34.9341,-14.1783,489.8391],[34.9389,-14.1706,483.9134],[34.9457,-14.1683,480.5792],[34.9505,-14.1638,476.3552],[34.9511,-14.1627,474.5],[34.9393,-14.1521,479.7126],[34.935,-14.1409,477.4979]]]]}
,"properties": {"GID_3": "MWI.13.13.5_1","GID_0": "MWI","country": "Malawi","GID_1": "MWI.13_1","province": "Mangochi","NL_NAME_1": "NA","GID_2": "MWI.13.13_1","county": "TANankumba","NL_NAME_2": "NA","city": "n.a.(1295)","VARNAME_3": "NA","NL_NAME_3": "NA","TYPE_3": "Unknown","ENGTYPE_3": "Unknown","CC_3": "NA","HASC_3": "NA","name": "n.a.(1295).city","area_km2": 13.48596,"hist_schema_id": "Elevation0-9000","hist_area_km2": {"475": 6.02357,"500": 7.09238,"525": 0.24668,"550": 0.10278,"575": 0.02056}}}