{"type":"Feature","properties":{"GID_3":"MWI.21.7.15_1","GID_0":"MWI","country":"Malawi","GID_1":"MWI.21_1","province":"Nsanje","NL_NAME_1":"NA","GID_2":"MWI.21.7_1","county":"TAMlolo","NL_NAME_2":"NA","city":"n.a.(3061)","VARNAME_3":"NA","NL_NAME_3":"NA","TYPE_3":"Unknown","ENGTYPE_3":"Unknown","CC_3":"NA","HASC_3":"NA","name":"n.a.(3061).city"},
"geometry":{"type": "MultiPolygon","coordinates": [[[[35.111,-16.5169,48.0625],[35.1398,-16.5177,47.0],[35.1462,-16.5163,47.7197],[35.1654,-16.518,54.1178],[35.1671,-16.5177,54.4567],[35.1675,-16.5114,53.6184],[35.187,-16.5116,52.9561],[35.1823,-16.5034,53.0715],[35.1919,-16.4818,52.8818],[35.1699,-16.4856,51.6478],[35.1733,-16.4803,51.6038],[35.1677,-16.4787,50.7588],[35.1628,-16.4747,52.1758],[35.1587,-16.4851,49.6889],[35.1503,-16.4878,51.5816],[35.1447,-16.4864,52.3589],[35.1437,-16.4924,49.176],[35.1357,-16.4946,49.5015],[35.1362,-16.4997,49.2443],[35.1345,-16.5007,49.201],[35.1339,-16.5043,49.4298],[35.1311,-16.5038,48.8765],[35.1289,-16.5068,49.298],[35.1245,-16.5059,48.7741],[35.1233,-16.5103,48.6642],[35.111,-16.5169,48.0625]]]]}}