{"type": "Feature","bbox": [34.9649,-16.2763,35.0264,-16.2219],"geometry": {"type": "MultiPolygon","coordinates": [[[[34.9697,-16.2376,62.3565],[34.9675,-16.2442,62.9379],[34.9719,-16.2523,61.5238],[34.984,-16.2525,61.1138],[34.9914,-16.2591,59.9925],[34.9953,-16.2592,59.4843],[35.0027,-16.2646,59.013],[35.0028,-16.2698,59.2734],[35.0076,-16.2718,59.3086],[35.0095,-16.2763,60.3446],[35.014,-16.2736,60.0171],[35.0169,-16.2669,59.9197],[35.0149,-16.2613,59.7373],[35.0246,-16.2591,59.1727],[35.014,-16.2493,59.3487],[35.0264,-16.2308,78.2095],[35.0227,-16.2237,84.409],[35.0116,-16.2249,77.0746],[35.0043,-16.2221,72.326],[35.0012,-16.2283,67.1005],[35.0026,-16.2326,64.7479],[34.9998,-16.2314,64.2337],[34.9911,-16.2219,67.6242],[34.9737,-16.2226,63.5779],[34.9726,-16.223,63.0333],[34.9746,-16.2251,62.2786],[34.9738,-16.2269,62.1485],[34.9649,-16.2306,62.6986],[34.9697,-16.2376,62.3565]]]]}
,"properties": {"GID_3": "MWI.3.9.10_1","GID_0": "MWI","country": "Malawi","GID_1": "MWI.3_1","province": "Chikwawa","NL_NAME_1": "NA","GID_2": "MWI.3.9_1","county": "TAMakhwira","NL_NAME_2": "NA","city": "n.a.(2976)","VARNAME_3": "NA","NL_NAME_3": "NA","TYPE_3": "Unknown","ENGTYPE_3": "Unknown","CC_3": "NA","HASC_3": "NA","name": "n.a.(2976).city","area_km2": 22.3508,"hist_schema_id": "Elevation0-9000","hist_area_km2": {"50": 15.89761,"75": 6.45319}}}