{"type":"Feature","properties":{"GID_3":"MWI.7.7.18_1","GID_0":"MWI","country":"Malawi","GID_1":"MWI.7_1","province":"Dowa","NL_NAME_1":"NA","GID_2":"MWI.7.7_1","county":"TAChiwere","NL_NAME_2":"NA","city":"n.a.(871)","VARNAME_3":"NA","NL_NAME_3":"NA","TYPE_3":"Unknown","ENGTYPE_3":"Unknown","CC_3":"NA","HASC_3":"NA","name":"n.a.(871).city"},
"geometry":{"type": "MultiPolygon","coordinates": [[[[34.1194,-13.7133,1051.0765],[34.1199,-13.7239,1009.1521],[34.1231,-13.7376,961.5935],[34.1301,-13.738,978.0175],[34.134,-13.7318,961.5889],[34.1387,-13.7287,950.0708],[34.14,-13.7229,918.4634],[34.1266,-13.7192,1020.2965],[34.1194,-13.7133,1051.0765]]]]}}