{"type": "Feature","bbox": [35.1513,-14.9329,35.2068,-14.8831],"geometry": {"type": "MultiPolygon","coordinates": [[[[35.1598,-14.9131,567.2078],[35.1644,-14.9234,552.4413],[35.1793,-14.9245,523.9819],[35.1828,-14.9329,523.3022],[35.1938,-14.9289,514.5511],[35.2007,-14.9293,511.2348],[35.2068,-14.9234,508.1978],[35.2048,-14.9206,509.8095],[35.1995,-14.9178,510.7919],[35.1897,-14.9186,515.1306],[35.1913,-14.9097,509.2819],[35.1884,-14.9065,511.6414],[35.1842,-14.9086,513.3412],[35.1747,-14.9084,523.1191],[35.1704,-14.8999,525.2933],[35.1682,-14.8831,527.5635],[35.1558,-14.8903,541.382],[35.1513,-14.8954,570.2832],[35.1575,-14.906,557.8186],[35.1598,-14.9131,567.2078]]]]}
,"properties": {"GID_3": "MWI.1.2.25_1","GID_0": "MWI","country": "Malawi","GID_1": "MWI.1_1","province": "Balaka","NL_NAME_1": "NA","GID_2": "MWI.1.2_1","county": "TAKalembo","NL_NAME_2": "NA","city": "n.a.(1893)","VARNAME_3": "NA","NL_NAME_3": "NA","TYPE_3": "Unknown","ENGTYPE_3": "Unknown","CC_3": "NA","HASC_3": "NA","name": "n.a.(1893).city","area_km2": 12.272423,"hist_schema_id": "Elevation0-9000","hist_area_km2": {"500": 1.18827,"525": 8.359142,"550": 2.41768,"575": 0.307331}}}