{"type":"Feature","properties":{"GID_3":"MWI.11.7.5_1","GID_0":"MWI","country":"Malawi","GID_1":"MWI.11_1","province":"Lilongwe","NL_NAME_1":"NA","GID_2":"MWI.11.7_1","county":"TAChimutu","NL_NAME_2":"NA","city":"n.a.(1022)","VARNAME_3":"NA","NL_NAME_3":"NA","TYPE_3":"Unknown","ENGTYPE_3":"Unknown","CC_3":"NA","HASC_3":"NA","name":"n.a.(1022).city"},
"geometry":{"type": "MultiPolygon","coordinates": [[[[33.9169,-13.8643,1159.7788],[33.903,-13.8665,1143.5331],[33.8979,-13.8705,1110.4427],[33.8964,-13.8676,1131.1084],[33.8921,-13.8693,1139.5774],[33.8854,-13.8692,1061.3289],[33.8875,-13.8713,1061.1958],[33.8894,-13.8814,1067.9996],[33.8932,-13.8827,1082.3054],[33.9,-13.8815,1077.613],[33.9003,-13.887,1057.0776],[33.8973,-13.8925,1040.3701],[33.9008,-13.8935,1057.792],[33.9054,-13.8982,1070.8315],[33.9106,-13.8984,1047.5515],[33.9108,-13.9099,1015.22],[33.9202,-13.9059,1058.3114],[33.9183,-13.8983,1062.3336],[33.9196,-13.8881,1081.5105],[33.9214,-13.8842,1107.2743],[33.9268,-13.88,1124.2637],[33.9259,-13.8774,1107.491],[33.9192,-13.8736,1108.5748],[33.9169,-13.8643,1159.7788]]]]}}