{"type":"Feature","properties":{"GID_3":"MWI.27.7.8_1","GID_0":"MWI","country":"Malawi","GID_1":"MWI.27_1","province":"Thyolo","NL_NAME_1":"NA","GID_2":"MWI.27.7_1","county":"TAChangata","NL_NAME_2":"NA","city":"n.a.(2985)","VARNAME_3":"NA","NL_NAME_3":"NA","TYPE_3":"Unknown","ENGTYPE_3":"Unknown","CC_3":"NA","HASC_3":"NA","name":"n.a.(2985).city"},
"geometry":{"type": "MultiPolygon","coordinates": [[[[35.1024,-16.2845,323.0094],[35.1207,-16.2839,413.4622],[35.1287,-16.2809,475.0591],[35.1319,-16.2688,710.9566],[35.1354,-16.2648,849.3763],[35.1404,-16.2508,959.9633],[35.1376,-16.2506,924.0212],[35.1304,-16.2449,731.8826],[35.1223,-16.2504,629.4634],[35.1099,-16.2532,506.0063],[35.1025,-16.2574,431.9705],[35.1093,-16.2664,785.109],[35.104,-16.2675,593.2587],[35.1078,-16.2689,733.4344],[35.1068,-16.2714,623.6072],[35.1086,-16.2735,646.5065],[35.1071,-16.278,532.572],[35.1024,-16.2813,372.3285],[35.1024,-16.2845,323.0094]]]]}}