{"type": "Feature","bbox": [33.9452,-14.1269,33.982,-14.0934],"geometry": {"type": "MultiPolygon","coordinates": [[[[33.9503,-14.1161,1176.0237],[33.9479,-14.1247,1186.9899],[33.9557,-14.1212,1161.2209],[33.9681,-14.1269,1211.8538],[33.9701,-14.1239,1213.8301],[33.9748,-14.1234,1210.5764],[33.9795,-14.1185,1207.3699],[33.982,-14.1095,1208.7563],[33.982,-14.0935,1202.8643],[33.9791,-14.0934,1186.2424],[33.9675,-14.1013,1157.9669],[33.9655,-14.1009,1153.4777],[33.9624,-14.0965,1168.609],[33.9534,-14.0968,1127.4197],[33.9534,-14.099,1123.7808],[33.9569,-14.1027,1133.7546],[33.9506,-14.102,1141.2799],[33.9452,-14.1043,1131.3933],[33.9516,-14.109,1153.0261],[33.9524,-14.1119,1159.5299],[33.9503,-14.1161,1176.0237]]]]}
,"properties": {"GID_3": "MWI.11.13.6_1","GID_0": "MWI","country": "Malawi","GID_1": "MWI.11_1","province": "Lilongwe","NL_NAME_1": "NA","GID_2": "MWI.11.13_1","county": "TAKalumbu","NL_NAME_2": "NA","city": "n.a.(1244)","VARNAME_3": "NA","NL_NAME_3": "NA","TYPE_3": "Unknown","ENGTYPE_3": "Unknown","CC_3": "NA","HASC_3": "NA","name": "n.a.(1244).city","area_km2": 9.746628,"hist_schema_id": "Elevation0-9000","hist_area_km2": {"1125": 0.390702,"1150": 2.961039,"1175": 2.91986,"1200": 3.289974,"1225": 0.185053}}}