{"type":"Feature","properties":{"GID_3":"MWI.15.6.13_1","GID_0":"MWI","country":"Malawi","GID_1":"MWI.15_1","province":"Mulanje","NL_NAME_1":"NA","GID_2":"MWI.15.6_1","county":"TAMabuka","NL_NAME_2":"NA","city":"n.a.(2824)","VARNAME_3":"NA","NL_NAME_3":"NA","TYPE_3":"Unknown","ENGTYPE_3":"Unknown","CC_3":"NA","HASC_3":"NA","name":"n.a.(2824).city"},
"geometry":{"type": "MultiPolygon","coordinates": [[[[35.6079,-16.0383,644.9459],[35.6068,-16.0418,634.4912],[35.601,-16.0478,671.8903],[35.5961,-16.0493,637.4067],[35.5928,-16.0475,632.0502],[35.588,-16.0499,608.3875],[35.5902,-16.0543,614.6084],[35.5863,-16.0561,608.9198],[35.5914,-16.0576,610.3344],[35.5945,-16.0611,637.2291],[35.6053,-16.0674,628.5068],[35.6062,-16.055,706.6273],[35.6103,-16.0557,726.2148],[35.6126,-16.0541,737.6519],[35.6142,-16.0564,690.0023],[35.6153,-16.0558,693.9585],[35.6135,-16.049,842.1132],[35.6157,-16.0504,869.1958],[35.6185,-16.0469,791.576],[35.6238,-16.0451,818.1945],[35.6262,-16.0423,842.5627],[35.6237,-16.0405,834.6179],[35.6155,-16.0416,690.6092],[35.6079,-16.0383,644.9459]]]]}}