{"type":"Feature","properties":{"GID_3":"MWI.8.8.4_1","GID_0":"MWI","country":"Malawi","GID_1":"MWI.8_1","province":"Karonga","NL_NAME_1":"NA","GID_2":"MWI.8.8_1","county":"TAWasambo","NL_NAME_2":"NA","city":"n.a.(104)","VARNAME_3":"NA","NL_NAME_3":"NA","TYPE_3":"Unknown","ENGTYPE_3":"Unknown","CC_3":"NA","HASC_3":"NA","name":"n.a.(104).city"},
"geometry":{"type": "MultiPolygon","coordinates": [[[[34.1924,-10.5532,492.8411],[34.1873,-10.5481,631.4686],[34.1793,-10.5457,658.8633],[34.1735,-10.5414,679.2843],[34.1661,-10.5401,731.8984],[34.1664,-10.5329,661.9951],[34.1692,-10.5298,708.5222],[34.1817,-10.5321,709.5042],[34.1822,-10.5279,652.7004],[34.1792,-10.5235,682.8755],[34.1802,-10.514,534.1931],[34.1833,-10.5112,523.1187],[34.1831,-10.5031,496.6211],[34.1875,-10.4969,489.4615],[34.158,-10.4981,509.6659],[34.155,-10.5,512.9617],[34.1535,-10.4985,511.9724],[34.1539,-10.4958,517.4188],[34.1521,-10.495,517.4861],[34.1499,-10.4977,514.8835],[34.1402,-10.5007,582.7684],[34.1429,-10.5061,545.0002],[34.1395,-10.5131,568.1853],[34.128,-10.5138,635.0905],[34.1218,-10.5188,644.0034],[34.1128,-10.5189,702.043],[34.1053,-10.5225,822.3502],[34.1082,-10.5463,1172.5911],[34.1042,-10.5489,1150.5645],[34.1045,-10.5683,1268.9083],[34.0931,-10.5754,1428.4607],[34.0951,-10.5742,1416.321],[34.0995,-10.5781,1336.74],[34.1088,-10.5785,1278.5024],[34.117,-10.5823,1187.5762],[34.135,-10.5714,668.3944],[34.1383,-10.5673,632.6369],[34.1469,-10.5657,597.6412],[34.1583,-10.5732,521.2062],[34.1668,-10.5749,500.5058],[34.1739,-10.5812,481.3293],[34.1755,-10.5762,481.2621],[34.1739,-10.5733,486.9275],[34.1765,-10.5666,490.7039],[34.1924,-10.5532,492.8411]]]]}}