{"type": "Feature","bbox": [35.3762,-15.7617,35.457,-15.7101],"geometry": {"type": "MultiPolygon","coordinates": [[[[35.3863,-15.7158,739.5831],[35.3838,-15.7183,738.68],[35.3794,-15.7429,739.4836],[35.3762,-15.7528,738.2925],[35.395,-15.7533,729.4573],[35.4109,-15.7617,720.8176],[35.4139,-15.7593,720.3589],[35.4315,-15.7553,714.4415],[35.442,-15.7455,712.2515],[35.457,-15.7375,707.3292],[35.4563,-15.7353,707.1495],[35.445,-15.7283,710.2083],[35.4292,-15.7234,717.0442],[35.4248,-15.7124,720.7149],[35.4152,-15.7143,725.321],[35.4078,-15.7125,724.6775],[35.4066,-15.7103,725.8922],[35.402,-15.7101,728.1747],[35.3911,-15.7178,736.1436],[35.3863,-15.7158,739.5831]]]]}
,"properties": {"GID_3": "MWI.15.3.11_1","GID_0": "MWI","country": "Malawi","GID_1": "MWI.15_1","province": "Mulanje","NL_NAME_1": "NA","GID_2": "MWI.15.3_1","county": "SCJuma","NL_NAME_2": "NA","city": "n.a.(2482)","VARNAME_3": "NA","NL_NAME_3": "NA","TYPE_3": "Unknown","ENGTYPE_3": "Unknown","CC_3": "NA","HASC_3": "NA","name": "n.a.(2482).city","area_km2": 30.03993,"hist_schema_id": "Elevation0-9000","hist_area_km2": {"700": 2.20401,"725": 26.06043,"750": 1.77549}}}