{"type": "Feature","bbox": [34.3217,-14.2784,34.3697,-14.2249],"geometry": {"type": "MultiPolygon","coordinates": [[[[34.3653,-14.252,1545.8267],[34.3638,-14.2465,1568.9244],[34.366,-14.2438,1551.1218],[34.366,-14.2404,1547.609],[34.3697,-14.2387,1512.3945],[34.3686,-14.231,1494.105],[34.36,-14.2325,1508.7986],[34.3491,-14.2302,1468.9525],[34.3476,-14.2297,1434.7625],[34.3492,-14.2249,1465.4138],[34.3395,-14.2255,1466.7491],[34.3332,-14.2293,1528.9143],[34.3321,-14.2286,1534.8875],[34.3332,-14.226,1531.1403],[34.3314,-14.2252,1528.3835],[34.3271,-14.229,1522.0736],[34.324,-14.2423,1567.015],[34.3241,-14.2486,1579.1489],[34.3217,-14.2533,1558.6169],[34.3309,-14.253,1547.4402],[34.3401,-14.2563,1513.365],[34.3448,-14.2562,1473.5037],[34.3415,-14.264,1482.1235],[34.3438,-14.2745,1554.1528],[34.3469,-14.2784,1536.9309],[34.3495,-14.2671,1492.4722],[34.3603,-14.267,1476.3812],[34.3684,-14.265,1463.1107],[34.3645,-14.2582,1492.3472],[34.3653,-14.252,1545.8267]]]]}
,"properties": {"GID_3": "MWI.6.8.13_1","GID_0": "MWI","country": "Malawi","GID_1": "MWI.6_1","province": "Dedza","NL_NAME_1": "NA","GID_2": "MWI.6.8_1","county": "TAKasumbu","NL_NAME_2": "NA","city": "n.a.(1383)","VARNAME_3": "NA","NL_NAME_3": "NA","TYPE_3": "Unknown","ENGTYPE_3": "Unknown","CC_3": "NA","HASC_3": "NA","name": "n.a.(1383).city","area_km2": 16.95388,"hist_schema_id": "Elevation0-9000","hist_area_km2": {"1425": 0.22607,"1450": 1.08921,"1475": 3.02092,"1500": 4.50046,"1525": 4.52098,"1550": 2.69204,"1575": 0.9042}}}