{"type":"Feature","properties":{"GID_3":"MWI.13.12.17_1","GID_0":"MWI","country":"Malawi","GID_1":"MWI.13_1","province":"Mangochi","NL_NAME_1":"NA","GID_2":"MWI.13.12_1","county":"TAMponda","NL_NAME_2":"NA","city":"n.a.(1575)","VARNAME_3":"NA","NL_NAME_3":"NA","TYPE_3":"Unknown","ENGTYPE_3":"Unknown","CC_3":"NA","HASC_3":"NA","name":"n.a.(1575).city"},
"geometry":{"type": "MultiPolygon","coordinates": [[[[35.2351,-14.4233,474.5],[35.2366,-14.4354,474.25],[35.2348,-14.441,474.0],[35.2371,-14.441,474.0],[35.2421,-14.4465,475.8329],[35.2475,-14.4431,475.609],[35.2524,-14.4436,475.6209],[35.2599,-14.4511,475.4166],[35.2649,-14.4529,478.4451],[35.2607,-14.4449,475.8389],[35.2658,-14.4404,475.6298],[35.2742,-14.4426,477.913],[35.2891,-14.4431,486.3658],[35.2975,-14.4456,490.966],[35.3015,-14.4427,493.3189],[35.3054,-14.443,492.7293],[35.3132,-14.4311,505.8897],[35.312,-14.4189,514.5291],[35.3139,-14.4148,516.0792],[35.3124,-14.408,514.5841],[35.31,-14.4093,510.6525],[35.3076,-14.4141,508.556],[35.2943,-14.4114,497.9418],[35.2926,-14.4187,495.829],[35.2662,-14.4108,480.8691],[35.258,-14.4059,474.5],[35.2423,-14.4153,474.5],[35.2385,-14.423,474.5],[35.2351,-14.4233,474.5]]]]}}