{"type":"Feature","properties":{"GID_3":"MWI.2.3.24_1","GID_0":"MWI","country":"Malawi","GID_1":"MWI.2_1","province":"Blantyre","NL_NAME_1":"NA","GID_2":"MWI.2.3_1","county":"TAKapeni","NL_NAME_2":"NA","city":"n.a.(2635)","VARNAME_3":"NA","NL_NAME_3":"NA","TYPE_3":"Unknown","ENGTYPE_3":"Unknown","CC_3":"NA","HASC_3":"NA","name":"n.a.(2635).city"},
"geometry":{"type": "MultiPolygon","coordinates": [[[[35.0372,-15.8683,1031.0918],[35.0327,-15.871,1048.7965],[35.0269,-15.8818,1021.8314],[35.0234,-15.8803,1050.2026],[35.0209,-15.8816,1030.7145],[35.0182,-15.8863,986.5462],[35.0192,-15.8879,986.5462],[35.0176,-15.8887,1000.1902],[35.0186,-15.8902,976.5267],[35.0174,-15.8951,959.0983],[35.0132,-15.9011,986.7388],[35.0144,-15.9055,938.1272],[35.0115,-15.9069,944.4522],[35.0112,-15.9114,926.9158],[35.0071,-15.9124,893.1603],[35.011,-15.9179,897.9659],[35.0133,-15.9159,915.9339],[35.012,-15.9129,909.5577],[35.0138,-15.9132,915.1138],[35.0169,-15.9184,922.6197],[35.0203,-15.92,950.5212],[35.0249,-15.9255,972.1356],[35.0343,-15.9206,996.5919],[35.0407,-15.9117,1033.9618],[35.0501,-15.9141,1119.1541],[35.0543,-15.9103,1128.7302],[35.0644,-15.9058,1141.551],[35.065,-15.9023,1146.9214],[35.0667,-15.9014,1146.9214],[35.0646,-15.8882,1192.416],[35.0613,-15.8838,1185.7217],[35.056,-15.8823,1169.8223],[35.0581,-15.8803,1181.6033],[35.0548,-15.8749,1172.1132],[35.0432,-15.8715,1120.2291],[35.0384,-15.8716,1074.1737],[35.0372,-15.8683,1031.0918]]]]}}