{"type": "Feature","bbox": [35.1814,-15.9264,35.2146,-15.8834],"geometry": {"type": "MultiPolygon","coordinates": [[[[35.2035,-15.8854,794.2885],[35.202,-15.886,802.0449],[35.2024,-15.8877,794.5516],[35.1959,-15.8834,804.2399],[35.189,-15.89,826.428],[35.1896,-15.8957,839.6242],[35.1929,-15.8967,853.9641],[35.1883,-15.9059,867.7705],[35.1814,-15.9121,900.1548],[35.1821,-15.9157,948.9788],[35.1901,-15.9264,857.8801],[35.1911,-15.923,850.0643],[35.1937,-15.9229,845.6091],[35.1975,-15.9192,831.7694],[35.1981,-15.9157,836.3489],[35.2053,-15.9075,810.947],[35.204,-15.9051,815.5858],[35.206,-15.9035,809.7769],[35.2069,-15.8994,810.2339],[35.2146,-15.8896,782.5338],[35.2116,-15.8868,790.937],[35.2088,-15.8872,795.6846],[35.2066,-15.8897,791.3463],[35.2035,-15.8854,794.2885]]]]}
,"properties": {"GID_3": "MWI.27.8.1_1","GID_0": "MWI","country": "Malawi","GID_1": "MWI.27_1","province": "Thyolo","NL_NAME_1": "NA","GID_2": "MWI.27.8_1","county": "TAChimaliro","NL_NAME_2": "NA","city": "n.a.(2645)","VARNAME_3": "NA","NL_NAME_3": "NA","TYPE_3": "Unknown","ENGTYPE_3": "Unknown","CC_3": "NA","HASC_3": "NA","name": "n.a.(2645).city","area_km2": 7.7077,"hist_schema_id": "Elevation0-9000","hist_area_km2": {"775": 0.224313,"800": 1.549775,"825": 2.365368,"850": 2.242926,"875": 1.182593,"900": 0.142725}}}