{"type":"Feature","properties":{"GID_3":"MWI.22.5.3_1","GID_0":"MWI","country":"Malawi","GID_1":"MWI.22_1","province":"Ntcheu","NL_NAME_1":"NA","GID_2":"MWI.22.5_1","county":"TAChakhumbira","NL_NAME_2":"NA","city":"n.a.(1628)","VARNAME_3":"NA","NL_NAME_3":"NA","TYPE_3":"Unknown","ENGTYPE_3":"Unknown","CC_3":"NA","HASC_3":"NA","name":"n.a.(1628).city"},
"geometry":{"type": "MultiPolygon","coordinates": [[[[34.4913,-14.4775,1250.3733],[34.487,-14.48,1361.6448],[34.4778,-14.4779,1370.3401],[34.4758,-14.488,1489.5856],[34.4792,-14.4915,1404.6086],[34.4844,-14.4931,1332.9404],[34.4833,-14.4978,1330.7393],[34.4796,-14.4981,1344.578],[34.4767,-14.5015,1339.7229],[34.465,-14.5005,1382.7401],[34.4622,-14.4992,1390.7075],[34.4596,-14.4956,1400.4905],[34.4496,-14.4959,1461.0334],[34.4567,-14.5097,1451.588],[34.4673,-14.5194,1453.0289],[34.4664,-14.5202,1467.0483],[34.4706,-14.5242,1502.2094],[34.4726,-14.5298,1500.7124],[34.4766,-14.5329,1561.0901],[34.4806,-14.531,1482.7089],[34.4877,-14.5221,1422.6969],[34.4856,-14.5132,1385.8621],[34.487,-14.5091,1353.2312],[34.484,-14.5083,1329.9771],[34.4832,-14.5063,1333.8351],[34.4846,-14.5022,1332.1052],[34.488,-14.5027,1344.4491],[34.4896,-14.5013,1426.9835],[34.4934,-14.4894,1234.5321],[34.4943,-14.4818,1215.9503],[34.4913,-14.4775,1250.3733]]]]}}