{"type":"Feature","properties":{"GID_3":"MWI.12.1.1_1","GID_0":"MWI","country":"Malawi","GID_1":"MWI.12_1","province":"Machinga","NL_NAME_1":"NA","GID_2":"MWI.12.1_1","county":"LakeChilwa","NL_NAME_2":"NA","city":"n.a.(2029)","VARNAME_3":"NA","NL_NAME_3":"NA","TYPE_3":"Unknown","ENGTYPE_3":"Unknown","CC_3":"NA","HASC_3":"NA","name":"n.a.(2029).city"},
"geometry":{"type": "MultiPolygon","coordinates": [[[[35.6639,-15.1806,623.1666],[35.6596,-15.1876,623.9033],[35.6587,-15.1937,623.1342],[35.6552,-15.2002,622.5],[35.7963,-15.1985,622.5],[35.7892,-15.1679,622.5],[35.7817,-15.1575,622.5],[35.7807,-15.157,622.5],[35.7806,-15.1598,622.5],[35.7759,-15.1568,622.5],[35.7755,-15.1583,622.5],[35.778,-15.1598,622.5],[35.7787,-15.1662,622.5],[35.776,-15.167,622.5],[35.7759,-15.1636,622.5],[35.774,-15.1627,622.5],[35.7654,-15.1716,622.5],[35.7615,-15.1632,622.5],[35.7538,-15.1588,622.9045],[35.7559,-15.155,623.8002],[35.7597,-15.1528,622.5],[35.7578,-15.1511,622.5],[35.753,-15.1505,622.7075],[35.7505,-15.1466,622.5],[35.7475,-15.1455,622.5],[35.7454,-15.148,622.825],[35.7495,-15.152,622.5],[35.747,-15.1581,622.5],[35.745,-15.1581,622.5],[35.7424,-15.1542,624.1029],[35.738,-15.1534,622.5],[35.7372,-15.1497,622.5],[35.7321,-15.1494,623.2992],[35.7293,-15.1464,622.5],[35.7262,-15.1462,622.5],[35.7258,-15.1434,623.5956],[35.7234,-15.1414,623.2309],[35.7177,-15.1422,623.9106],[35.7102,-15.1487,623.3072],[35.7068,-15.1487,623.7083],[35.6998,-15.1531,624.0071],[35.6939,-15.1605,623.1561],[35.6949,-15.1665,622.5],[35.6894,-15.1659,622.6912],[35.6867,-15.1702,622.5],[35.6821,-15.1725,623.8113],[35.683,-15.1829,623.2921],[35.6816,-15.1849,622.967],[35.6782,-15.1842,622.5262],[35.6738,-15.1776,623.9664],[35.6715,-15.1771,624.0206],[35.6639,-15.1806,623.1666]]]]}}