{"type":"Feature","properties":{"GID_3":"MWI.9.5.10_1","GID_0":"MWI","country":"Malawi","GID_1":"MWI.9_1","province":"Kasungu","NL_NAME_1":"NA","GID_2":"MWI.9.5_1","county":"SCKawamba","NL_NAME_2":"NA","city":"n.a.(565)","VARNAME_3":"NA","NL_NAME_3":"NA","TYPE_3":"Unknown","ENGTYPE_3":"Unknown","CC_3":"NA","HASC_3":"NA","name":"n.a.(565).city"},
"geometry":{"type": "MultiPolygon","coordinates": [[[[32.947,-13.3395,1091.0485],[32.9443,-13.3548,1082.0215],[33.1352,-13.3425,1044.7031],[33.1302,-13.3324,1046.8757],[33.121,-13.3234,1047.5415],[33.1119,-13.3209,1047.855],[33.1062,-13.3152,1048.5734],[33.0979,-13.3115,1049.4917],[33.087,-13.301,1053.1802],[33.0773,-13.2959,1058.7578],[33.0718,-13.2889,1058.2351],[33.0285,-13.2929,1074.0479],[33.0247,-13.3015,1067.3076],[33.0213,-13.3047,1078.1136],[33.0151,-13.3071,1080.5867],[33.0016,-13.3087,1090.7632],[32.9951,-13.3137,1094.781],[32.9902,-13.313,1095.9553],[32.974,-13.3261,1093.0615],[32.947,-13.3395,1091.0485]]]]}}