{"type":"Feature","properties":{"GID_3":"MWI.14.1.3_1","GID_0":"MWI","country":"Malawi","GID_1":"MWI.14_1","province":"Mchinji","NL_NAME_1":"NA","GID_2":"MWI.14.1_1","county":"MchinjiBoma","NL_NAME_2":"NA","city":"n.a.(954)","VARNAME_3":"NA","NL_NAME_3":"NA","TYPE_3":"Unknown","ENGTYPE_3":"Unknown","CC_3":"NA","HASC_3":"NA","name":"n.a.(954).city"},
"geometry":{"type": "MultiPolygon","coordinates": [[[[32.8924,-13.7974,1200.0918],[32.8992,-13.7995,1186.7869],[32.8992,-13.7959,1189.1941],[32.8951,-13.7923,1201.7947],[32.8924,-13.7974,1200.0918]]]]}}