{"type":"Feature","properties":{"GID_3":"MWI.17.6.23_1","GID_0":"MWI","country":"Malawi","GID_1":"MWI.17_1","province":"Mzimba","NL_NAME_1":"NA","GID_2":"MWI.17.6_1","county":"TAChindi","NL_NAME_2":"NA","city":"n.a.(239)","VARNAME_3":"NA","NL_NAME_3":"NA","TYPE_3":"Unknown","ENGTYPE_3":"Unknown","CC_3":"NA","HASC_3":"NA","name":"n.a.(239).city"},
"geometry":{"type": "MultiPolygon","coordinates": [[[[33.4939,-11.6261,1245.2057],[33.4958,-11.636,1263.4501],[33.4984,-11.6387,1254.6104],[33.502,-11.6392,1273.6536],[33.5075,-11.6476,1283.3312],[33.5132,-11.668,1301.71],[33.4963,-11.6717,1310.9927],[33.4893,-11.6751,1322.782],[33.4817,-11.6823,1336.8054],[33.4813,-11.6869,1335.8207],[33.4995,-11.7087,1339.895],[33.5059,-11.7226,1301.8518],[33.5164,-11.7298,1337.5071],[33.5172,-11.7362,1322.8529],[33.5205,-11.7408,1323.7793],[33.5217,-11.7539,1353.4561],[33.5234,-11.7573,1349.2029],[33.5229,-11.7617,1348.1946],[33.5459,-11.7612,1354.729],[33.5512,-11.7585,1332.1877],[33.5524,-11.7615,1334.5797],[33.546,-11.7723,1309.3696],[33.5597,-11.773,1292.1294],[33.5596,-11.7677,1309.5479],[33.5621,-11.759,1325.4717],[33.5654,-11.7532,1333.0542],[33.5655,-11.7419,1355.8152],[33.5686,-11.7235,1393.3521],[33.5659,-11.7156,1390.4856],[33.5668,-11.7092,1382.4424],[33.5628,-11.6789,1336.6696],[33.5602,-11.6718,1332.694],[33.5599,-11.6498,1325.022],[33.5623,-11.6436,1315.3025],[33.5391,-11.6356,1337.8285],[33.5374,-11.6335,1329.4592],[33.5279,-11.6357,1298.0554],[33.5247,-11.6303,1307.637],[33.4984,-11.6247,1263.7946],[33.4939,-11.6261,1245.2057]]]]}}