{"type":"Feature","properties":{"GID_3":"MWI.13.11.10_1","GID_0":"MWI","country":"Malawi","GID_1":"MWI.13_1","province":"Mangochi","NL_NAME_1":"NA","GID_2":"MWI.13.11_1","county":"TAMakanjila","NL_NAME_2":"NA","city":"n.a.(811)","VARNAME_3":"NA","NL_NAME_3":"NA","TYPE_3":"Unknown","ENGTYPE_3":"Unknown","CC_3":"NA","HASC_3":"NA","name":"n.a.(811).city"},
"geometry":{"type": "MultiPolygon","coordinates": [[[[35.0468,-13.7329,476.6043],[35.0512,-13.7287,478.8351],[35.0524,-13.7214,481.9019],[35.0479,-13.7163,484.5001],[35.0455,-13.7174,485.775],[35.04,-13.7108,486.9671],[35.0348,-13.7082,489.6786],[35.0326,-13.6985,495.6223],[35.0394,-13.6941,499.73],[35.0481,-13.6934,494.2936],[35.0496,-13.6957,494.0883],[35.0563,-13.697,495.8795],[35.0706,-13.6905,525.8005],[35.0744,-13.6849,532.9087],[35.0454,-13.6574,512.1754],[35.0399,-13.6612,510.4317],[35.0385,-13.6662,506.4587],[35.0358,-13.6659,513.1738],[35.0341,-13.6681,510.6307],[35.033,-13.6718,504.0813],[35.0346,-13.6759,502.4085],[35.032,-13.6788,501.0516],[35.0292,-13.6795,498.3757],[35.0217,-13.6772,501.0484],[35.0203,-13.6783,498.5703],[35.0208,-13.6861,494.5176],[35.0143,-13.7052,485.9046],[35.0155,-13.7112,484.2537],[35.0142,-13.7147,483.1717],[35.0158,-13.7258,476.9327],[35.0385,-13.7293,477.7131],[35.0468,-13.7329,476.6043]]]]}}