{"type":"Feature","properties":{"GID_3":"MWI.15.3.2_1","GID_0":"MWI","country":"Malawi","GID_1":"MWI.15_1","province":"Mulanje","NL_NAME_1":"NA","GID_2":"MWI.15.3_1","county":"SCJuma","NL_NAME_2":"NA","city":"n.a.(2379)","VARNAME_3":"NA","NL_NAME_3":"NA","TYPE_3":"Unknown","ENGTYPE_3":"Unknown","CC_3":"NA","HASC_3":"NA","name":"n.a.(2379).city"},
"geometry":{"type": "MultiPolygon","coordinates": [[[[35.4927,-15.6147,678.6118],[35.4891,-15.62,677.7834],[35.4889,-15.6245,676.097],[35.4837,-15.6282,683.6709],[35.4827,-15.6317,679.3893],[35.4775,-15.6374,685.2393],[35.4759,-15.6446,686.2714],[35.4724,-15.6525,690.0595],[35.471,-15.6529,690.0595],[35.4711,-15.6599,697.1843],[35.4748,-15.6658,696.3013],[35.4817,-15.6621,692.4507],[35.4908,-15.6526,688.9656],[35.5095,-15.659,677.6249],[35.5142,-15.6555,673.8389],[35.5141,-15.6536,675.8924],[35.5187,-15.6479,672.2399],[35.5182,-15.6452,674.2398],[35.5234,-15.6407,673.8157],[35.5078,-15.6222,676.686],[35.4927,-15.6147,678.6118]]]]}}