{"type":"Feature","properties":{"GID_3":"MWI.21.4.8_1","GID_0":"MWI","country":"Malawi","GID_1":"MWI.21_1","province":"Nsanje","NL_NAME_1":"NA","GID_2":"MWI.21.4_1","county":"SCMbenje","NL_NAME_2":"NA","city":"n.a.(3080)","VARNAME_3":"NA","NL_NAME_3":"NA","TYPE_3":"Unknown","ENGTYPE_3":"Unknown","CC_3":"NA","HASC_3":"NA","name":"n.a.(3080).city"},
"geometry":{"type": "MultiPolygon","coordinates": [[[[35.1023,-16.5711,56.2478],[35.1098,-16.573,55.9378],[35.1183,-16.5702,51.0395],[35.1202,-16.5677,50.9216],[35.1034,-16.5663,55.6018],[35.1023,-16.5711,56.2478]]]]}}