{"type":"Feature","properties":{"GID_3":"MWI.24.2.52_1","GID_0":"MWI","country":"Malawi","GID_1":"MWI.24_1","province":"Phalombe","NL_NAME_1":"NA","GID_2":"MWI.24.2_1","county":"TAMkhumba","NL_NAME_2":"NA","city":"n.a.(2534)","VARNAME_3":"NA","NL_NAME_3":"NA","TYPE_3":"Unknown","ENGTYPE_3":"Unknown","CC_3":"NA","HASC_3":"NA","name":"n.a.(2534).city"},
"geometry":{"type": "MultiPolygon","coordinates": [[[[35.6497,-15.7632,746.03],[35.6492,-15.7684,747.546],[35.6339,-15.7711,730.943],[35.632,-15.7692,729.1808],[35.6285,-15.7714,729.2264],[35.6258,-15.7763,731.0982],[35.6228,-15.7764,730.3385],[35.6213,-15.7785,726.819],[35.6193,-15.7764,723.7249],[35.6165,-15.7773,722.024],[35.6155,-15.7799,723.1112],[35.6176,-15.7811,723.6846],[35.6149,-15.7835,725.0405],[35.617,-15.7851,725.5631],[35.6143,-15.7905,728.1864],[35.6152,-15.7955,730.0837],[35.6286,-15.7953,735.8479],[35.6397,-15.8049,743.0689],[35.6441,-15.7971,747.4359],[35.6365,-15.7881,736.8577],[35.6412,-15.7885,743.5891],[35.6455,-15.7847,749.7065],[35.6587,-15.7886,770.7237],[35.6631,-15.7744,785.0004],[35.6497,-15.7632,746.03]]]]}}