{"type": "Feature","bbox": [33.6258,-14.4233,33.6771,-14.3687],"geometry": {"type": "MultiPolygon","coordinates": [[[[33.6612,-14.4233,1244.3363],[33.6627,-14.421,1244.2661],[33.6589,-14.4116,1242.6565],[33.6687,-14.404,1232.4172],[33.6705,-14.3959,1236.1479],[33.6744,-14.3891,1242.2673],[33.6738,-14.3852,1245.5243],[33.6771,-14.3792,1244.7844],[33.6676,-14.375,1218.3447],[33.6471,-14.3704,1191.7855],[33.6432,-14.3722,1188.2832],[33.6373,-14.3722,1178.1804],[33.6347,-14.3687,1162.9224],[33.6258,-14.3883,1173.7449],[33.6337,-14.3982,1183.5911],[33.6342,-14.4015,1186.8335],[33.6509,-14.4173,1215.385],[33.6612,-14.4233,1244.3363]]]]}
,"properties": {"GID_3": "MWI.11.8.60_1","GID_0": "MWI","country": "Malawi","GID_1": "MWI.11_1","province": "Lilongwe","NL_NAME_1": "NA","GID_2": "MWI.11.8_1","county": "TAChiseka","NL_NAME_2": "NA","city": "n.a.(1541)","VARNAME_3": "NA","NL_NAME_3": "NA","TYPE_3": "Unknown","ENGTYPE_3": "Unknown","CC_3": "NA","HASC_3": "NA","name": "n.a.(1541).city","area_km2": 19.18143,"hist_schema_id": "Elevation0-9000","hist_area_km2": {"1150": 0.02054,"1175": 4.12806,"1200": 7.94783,"1225": 5.27783,"1250": 1.80717}}}