{"type":"Feature","properties":{"GID_3":"MWI.28.8.19_1","GID_0":"MWI","country":"Malawi","GID_1":"MWI.28_1","province":"Zomba","NL_NAME_1":"NA","GID_2":"MWI.28.8_1","county":"TAMwambo","NL_NAME_2":"NA","city":"n.a.(2202)","VARNAME_3":"NA","NL_NAME_3":"NA","TYPE_3":"Unknown","ENGTYPE_3":"Unknown","CC_3":"NA","HASC_3":"NA","name":"n.a.(2202).city"},
"geometry":{"type": "MultiPolygon","coordinates": [[[[35.5498,-15.4351,639.9523],[35.545,-15.4347,640.7533],[35.5407,-15.4398,643.0538],[35.5301,-15.4397,647.468],[35.5278,-15.4438,646.1126],[35.5205,-15.4491,655.5905],[35.5234,-15.456,657.2299],[35.5221,-15.4584,657.5638],[35.5099,-15.4584,664.207],[35.5077,-15.4602,664.2778],[35.5094,-15.4676,663.2234],[35.5174,-15.4682,657.5229],[35.5203,-15.4718,658.6621],[35.5266,-15.4629,655.2345],[35.5309,-15.461,651.8701],[35.5351,-15.4504,648.0986],[35.5396,-15.4488,647.2429],[35.5414,-15.449,645.5378],[35.5435,-15.467,650.6201],[35.5552,-15.4607,640.1588],[35.5591,-15.4544,638.9741],[35.5524,-15.4505,642.4631],[35.5502,-15.4474,643.4106],[35.5519,-15.4417,641.2787],[35.5498,-15.4351,639.9523]]]]}}