{"type":"Feature","properties":{"GID_1":"MWI.11_1","GID_0":"MWI","country":"Malawi","province":"Lilongwe","VARNAME_1":"NA","NL_NAME_1":"NA","TYPE_1":"District","ENGTYPE_1":"District","CC_1":"NA","HASC_1":"MW.LI","ISO_1":"MW-LI","name":"Lilongwe.province"},
"geometry":{"type": "MultiPolygon","coordinates": [[[[33.6974,-14.4324,1214.2004],[33.6975,-14.4245,1215.8264],[33.6945,-14.4212,1211.704],[33.6972,-14.4124,1219.0004],[33.699,-14.4119,1214.7515],[33.7023,-14.4154,1210.0936],[33.7075,-14.4135,1207.7902],[33.7073,-14.4054,1211.2035],[33.7104,-14.4023,1205.7987],[33.7179,-14.3874,1219.2839],[33.722,-14.3871,1210.5381],[33.7244,-14.383,1219.0266],[33.7274,-14.3818,1213.877],[33.7308,-14.3834,1215.9114],[33.7311,-14.3882,1203.0706],[33.7409,-14.3852,1212.8071],[33.7486,-14.3852,1211.803],[33.7527,-14.3826,1216.5422],[33.764,-14.3798,1206.0413],[33.7707,-14.3745,1211.7892],[33.777,-14.3732,1203.1447],[33.7848,-14.3597,1200.4995],[33.7909,-14.3555,1207.2805],[33.7999,-14.3621,1196.5076],[33.8033,-14.3614,1193.8586],[33.8039,-14.3602,1201.3792],[33.8014,-14.358,1199.2915],[33.8039,-14.3538,1207.1672],[33.8016,-14.3525,1196.1456],[33.801,-14.3483,1200.2556],[33.8039,-14.3461,1192.6862],[33.8043,-14.3426,1199.1001],[33.8078,-14.3405,1193.7101],[33.8079,-14.3369,1197.1486],[33.8134,-14.3338,1200.4347],[33.8205,-14.3324,1196.2114],[33.8253,-14.3258,1194.408],[33.8274,-14.3254,1189.7178],[33.828,-14.322,1203.2112],[33.8318,-14.32,1190.928],[33.8383,-14.3118,1197.0964],[33.8453,-14.3124,1196.9287],[33.8486,-14.317,1188.2986],[33.8558,-14.3221,1193.4059],[33.867,-14.3229,1196.4972],[33.8798,-14.3189,1189.4386],[33.8841,-14.314,1190.4008],[33.8933,-14.3127,1188.3729],[33.8973,-14.3101,1184.6812],[33.9001,-14.3051,1191.7875],[33.903,-14.3073,1186.464],[33.9066,-14.3071,1191.6538],[33.9081,-14.3102,1184.7808],[33.9117,-14.3115,1185.0054],[33.9331,-14.3057,1181.8142],[33.9372,-14.3006,1180.9581],[33.9416,-14.3014,1177.2627],[33.9431,-14.2941,1182.6055],[33.9484,-14.2896,1173.4482],[33.9492,-14.2867,1173.6776],[33.9492,-14.2812,1177.9309],[33.9458,-14.2768,1177.149],[33.9464,-14.2718,1178.8549],[33.945,-14.2686,1177.7078],[33.9485,-14.2585,1178.0374],[33.9456,-14.2528,1177.5533],[33.9461,-14.234,1170.2004],[33.9556,-14.2202,1178.7848],[33.9495,-14.2121,1174.7542],[33.9524,-14.2062,1175.2007],[33.9556,-14.2046,1171.5837],[33.9628,-14.207,1175.8273],[33.9699,-14.2065,1172.0814],[33.9729,-14.2046,1170.95],[33.978,-14.205,1170.6495],[33.9801,-14.2015,1173.9261],[33.9838,-14.1994,1168.28],[33.9851,-14.1942,1177.1243],[33.9911,-14.1931,1167.7448],[33.9984,-14.1961,1176.3413],[34.0023,-14.2053,1166.3149],[34.0063,-14.2023,1177.7993],[34.0091,-14.204,1171.9137],[34.0127,-14.2005,1165.0935],[34.0146,-14.1936,1176.296],[34.019,-14.1963,1164.1132],[34.0242,-14.1969,1165.2782],[34.0289,-14.1944,1166.2605],[34.0301,-14.1911,1173.2717],[34.0374,-14.1869,1171.2441],[34.046,-14.1847,1168.9395],[34.0447,-14.1792,1162.6003],[34.0476,-14.1748,1161.3528],[34.0487,-14.1691,1165.6194],[34.0535,-14.1616,1160.981],[34.0592,-14.1561,1166.2913],[34.0577,-14.1522,1167.7303],[34.06,-14.1484,1158.636],[34.0601,-14.1443,1165.1226],[34.0579,-14.1429,1177.0438],[34.0623,-14.1352,1163.5767],[34.0647,-14.1342,1169.3589],[34.0766,-14.1383,1156.0551],[34.0872,-14.1364,1151.9677],[34.0896,-14.1271,1149.6312],[34.0891,-14.1235,1155.2322],[34.092,-14.1194,1152.7622],[34.0901,-14.1141,1153.196],[34.0975,-14.1056,1150.7653],[34.0949,-14.1016,1150.9487],[34.0982,-14.0936,1143.6682],[34.0982,-14.0885,1162.7178],[34.1005,-14.0855,1174.2471],[34.1057,-14.0851,1145.0283],[34.1111,-14.0822,1142.7979],[34.112,-14.075,1148.8096],[34.1144,-14.074,1139.6836],[34.1145,-14.0716,1141.2693],[34.1197,-14.0664,1144.1157],[34.1313,-14.0632,1127.7205],[34.1315,-14.0488,1129.8928],[34.1342,-14.0449,1113.2161],[34.1345,-14.0407,1105.0859],[34.1406,-14.0315,1070.5768],[34.143,-14.0315,1068.5424],[34.1451,-14.0264,1089.5359],[34.1477,-14.0248,1068.6715],[34.1524,-14.0239,1060.835],[34.1629,-14.0267,1031.2814],[34.1686,-14.0231,1026.5573],[34.1773,-13.9986,969.7823],[34.179,-13.9883,942.4178],[34.1831,-13.9851,914.3647],[34.1892,-13.9728,876.2141],[34.1951,-13.9692,853.4339],[34.2026,-13.9536,837.2509],[34.2072,-13.9351,854.4247],[34.2033,-13.934,786.8179],[34.2006,-13.9379,793.255],[34.2006,-13.9337,857.6685],[34.2078,-13.928,790.1859],[34.2139,-13.9317,768.5115],[34.218,-13.9303,816.099],[34.221,-13.9363,798.3668],[34.2237,-13.9357,759.09],[34.226,-13.9278,854.6025],[34.2239,-13.9213,730.5581],[34.2327,-13.9185,765.5853],[34.2414,-13.9004,776.9583],[34.2488,-13.9002,732.9259],[34.2531,-13.8964,674.1277],[34.2591,-13.8986,640.6853],[34.2632,-13.8963,655.5743],[34.2616,-13.8918,749.2711],[34.2737,-13.8754,670.1304],[34.2783,-13.8605,665.9442],[34.2741,-13.8621,649.8908],[34.2665,-13.859,667.5219],[34.2632,-13.8605,676.6279],[34.2611,-13.8595,678.6836],[34.259,-13.8609,684.6383],[34.2603,-13.8642,695.6104],[34.2578,-13.8667,710.6499],[34.2557,-13.8666,754.446],[34.252,-13.8628,756.434],[34.2511,-13.8662,774.981],[34.2464,-13.8644,771.3096],[34.2401,-13.8699,787.376],[34.236,-13.8647,807.1018],[34.2287,-13.8715,858.5071],[34.2236,-13.8698,866.6102],[34.2172,-13.8791,889.2054],[34.207,-13.8874,949.6501],[34.2033,-13.8886,973.6301],[34.1994,-13.8875,992.6375],[34.1946,-13.88,1127.7144],[34.1903,-13.8812,1240.2463],[34.1862,-13.8786,1273.4924],[34.1867,-13.8761,1275.6831],[34.2063,-13.8501,1158.1188],[34.2132,-13.847,1104.6544],[34.2151,-13.8432,1118.5077],[34.2208,-13.8396,1072.1855],[34.2234,-13.835,980.8197],[34.2286,-13.8335,961.8658],[34.2381,-13.8345,847.7509],[34.2368,-13.8283,799.5753],[34.2397,-13.8186,728.5263],[34.2318,-13.8124,677.356],[34.2351,-13.8012,621.8502],[34.233,-13.7994,664.7783],[34.2272,-13.803,634.1774],[34.2281,-13.8089,630.7318],[34.2145,-13.8181,647.064],[34.2104,-13.8189,670.33],[34.2078,-13.8177,689.0143],[34.2074,-13.8122,652.1833],[34.2,-13.8062,667.0334],[34.1735,-13.7967,751.3547],[34.1692,-13.7996,778.8965],[34.1587,-13.8117,734.5889],[34.1509,-13.8162,739.4269],[34.1466,-13.8208,756.4434],[34.1345,-13.8194,810.6924],[34.1349,-13.8237,725.7137],[34.129,-13.8258,773.5649],[34.1257,-13.8338,751.9847],[34.1233,-13.8337,753.4778],[34.1221,-13.8287,768.7431],[34.1206,-13.8281,768.7431],[34.1168,-13.831,785.4223],[34.1076,-13.8318,794.6257],[34.103,-13.8294,872.5206],[34.099,-13.8338,828.5579],[34.0953,-13.8329,894.1331],[34.0931,-13.8347,893.0778],[34.0882,-13.8321,829.4332],[34.0787,-13.8367,840.9128],[34.0773,-13.8318,959.6661],[34.0734,-13.8285,914.9211],[34.067,-13.8285,885.0172],[34.0672,-13.8242,946.0573],[34.0603,-13.8241,934.1898],[34.0579,-13.8306,924.1631],[34.0535,-13.8303,919.4855],[34.0478,-13.8336,935.876],[34.0461,-13.838,918.8422],[34.0379,-13.8439,919.8809],[34.034,-13.8371,932.6589],[34.0311,-13.8362,943.4545],[34.0284,-13.8327,968.7665],[34.0255,-13.8326,930.8502],[34.0256,-13.8226,978.6918],[34.021,-13.8224,954.9854],[34.0241,-13.8195,978.2759],[34.0232,-13.8129,999.3142],[34.0207,-13.8116,978.316],[34.0195,-13.8085,1012.7006],[34.0134,-13.8054,984.5465],[34.0095,-13.7986,1043.5571],[34.0074,-13.799,1061.9935],[34.0057,-13.8016,1004.7903],[34.004,-13.7975,1055.7184],[33.9974,-13.7937,1042.9443],[33.9954,-13.7956,1021.7689],[33.9876,-13.7964,1022.5671],[33.9837,-13.7907,1033.4326],[33.9787,-13.7917,1029.4688],[33.9725,-13.7833,1061.156],[33.9699,-13.7844,1075.4777],[33.9679,-13.7877,1061.8578],[33.9606,-13.7849,1058.9325],[33.9571,-13.7862,1071.411],[33.9575,-13.7881,1063.0059],[33.9521,-13.7863,1060.2197],[33.9481,-13.7812,1068.2078],[33.9502,-13.7799,1074.3049],[33.9498,-13.7785,1081.4299],[33.9437,-13.7706,1112.5422],[33.9377,-13.772,1102.5276],[33.9334,-13.7692,1102.116],[33.9292,-13.7742,1104.1182],[33.9253,-13.7724,1105.8439],[33.9227,-13.7683,1117.0444],[33.9123,-13.763,1129.4818],[33.9091,-13.7645,1137.9792],[33.9084,-13.7685,1117.5603],[33.9048,-13.7658,1140.4558],[33.9019,-13.7663,1130.4832],[33.898,-13.7643,1137.6558],[33.8924,-13.7692,1133.8949],[33.8858,-13.7635,1149.3179],[33.8735,-13.7612,1166.2529],[33.8704,-13.7644,1164.7946],[33.8652,-13.7637,1162.3815],[33.863,-13.7654,1159.5796],[33.8592,-13.7639,1162.387],[33.8551,-13.7654,1163.6814],[33.8519,-13.7694,1166.6509],[33.8522,-13.7722,1164.5771],[33.8483,-13.775,1185.6332],[33.8366,-13.7742,1183.052],[33.8313,-13.7703,1202.387],[33.8248,-13.7599,1227.4661],[33.82,-13.7575,1233.8684],[33.8158,-13.7581,1234.7574],[33.8116,-13.7482,1242.6177],[33.7993,-13.7482,1225.5754],[33.7953,-13.754,1224.5188],[33.7964,-13.7619,1202.0],[33.7933,-13.7669,1201.5327],[33.7893,-13.7663,1198.5144],[33.7799,-13.7688,1212.5995],[33.7718,-13.7667,1210.8094],[33.7602,-13.7584,1216.0939],[33.7572,-13.7528,1223.6211],[33.7649,-13.7369,1241.7826],[33.7623,-13.7279,1244.3601],[33.7632,-13.7195,1256.3759],[33.7578,-13.7105,1261.8436],[33.7567,-13.7056,1271.6263],[33.7512,-13.6994,1273.0382],[33.7559,-13.686,1289.1886],[33.7651,-13.675,1303.1998],[33.7661,-13.668,1314.1863],[33.7087,-13.6821,1303.4706],[33.7004,-13.6877,1281.6785],[33.6953,-13.689,1297.0577],[33.6147,-13.7015,1241.0056],[33.6101,-13.7029,1225.2654],[33.6094,-13.7048,1234.8765],[33.6035,-13.7076,1226.4814],[33.5967,-13.7094,1204.2524],[33.5947,-13.7066,1201.8053],[33.5931,-13.707,1204.7837],[33.5889,-13.7118,1196.9011],[33.588,-13.7222,1190.5295],[33.5833,-13.7243,1193.1755],[33.5747,-13.7237,1178.6517],[33.562,-13.7173,1169.3491],[33.5583,-13.7122,1169.1234],[33.5499,-13.7107,1172.7388],[33.545,-13.7114,1169.4564],[33.531,-13.7213,1147.3419],[33.5093,-13.7192,1129.9197],[33.5019,-13.7094,1116.8546],[33.5026,-13.6988,1115.0531],[33.5008,-13.6949,1113.5027],[33.4925,-13.6842,1125.0444],[33.4883,-13.6826,1126.8589],[33.4813,-13.6837,1119.5603],[33.4709,-13.6893,1110.2677],[33.4672,-13.6897,1104.1812],[33.4556,-13.68,1089.2935],[33.4556,-13.6739,1085.3168],[33.463,-13.6583,1085.3342],[33.459,-13.6453,1078.9237],[33.46,-13.6356,1087.9349],[33.455,-13.6235,1082.7307],[33.4496,-13.6156,1066.5928],[33.449,-13.5906,1066.5375],[33.4403,-13.5776,1070.182],[33.4376,-13.5704,1065.281],[33.4392,-13.5516,1055.7048],[33.4429,-13.5424,1054.6434],[33.4422,-13.5296,1055.0275],[33.4506,-13.519,1053.6366],[33.4523,-13.5128,1057.1311],[33.4506,-13.5077,1061.7008],[33.4457,-13.5015,1062.5659],[33.4375,-13.4966,1058.8513],[33.4321,-13.4971,1056.0195],[33.4116,-13.4819,1042.9099],[33.4077,-13.4826,1041.1906],[33.4082,-13.487,1041.21],[33.4049,-13.491,1041.4792],[33.3972,-13.4862,1049.0941],[33.3928,-13.4878,1041.3604],[33.3863,-13.487,1041.3771],[33.3801,-13.4923,1041.4521],[33.3776,-13.5011,1041.8269],[33.3749,-13.5033,1042.4183],[33.375,-13.5078,1042.0939],[33.3779,-13.5127,1042.687],[33.3739,-13.5216,1042.6492],[33.3726,-13.5287,1042.7959],[33.3733,-13.5312,1042.7612],[33.3796,-13.5369,1043.6321],[33.3787,-13.5442,1043.1993],[33.3814,-13.568,1044.0642],[33.3809,-13.5793,1046.196],[33.3748,-13.5828,1046.462],[33.3664,-13.5835,1050.8873],[33.3624,-13.5873,1045.0802],[33.3583,-13.5967,1044.0846],[33.3559,-13.5983,1045.5312],[33.3457,-13.5995,1050.9702],[33.3436,-13.6069,1043.8918],[33.3349,-13.6083,1047.7791],[33.3353,-13.6135,1044.7715],[33.3298,-13.6134,1048.8462],[33.3229,-13.6157,1049.1058],[33.3245,-13.6187,1045.312],[33.3229,-13.6239,1044.1221],[33.3167,-13.6281,1046.9274],[33.3194,-13.6336,1044.412],[33.3129,-13.6384,1048.0842],[33.3143,-13.643,1046.0294],[33.3136,-13.6492,1046.1771],[33.3064,-13.6498,1048.5994],[33.2994,-13.6552,1048.5674],[33.2992,-13.6692,1048.873],[33.2935,-13.6763,1045.4873],[33.2918,-13.6846,1045.3398],[33.2883,-13.6874,1045.5736],[33.286,-13.6923,1046.6493],[33.2818,-13.6954,1045.7781],[33.2814,-13.7025,1046.0532],[33.27,-13.7096,1045.7834],[33.2675,-13.7139,1047.2124],[33.2666,-13.7198,1047.0065],[33.2751,-13.7293,1049.0096],[33.2795,-13.7367,1050.0468],[33.2821,-13.745,1053.5737],[33.2818,-13.7494,1054.4889],[33.2765,-13.7582,1055.6272],[33.2717,-13.762,1057.6654],[33.2636,-13.7648,1059.9965],[33.2589,-13.7707,1056.8191],[33.2573,-13.7893,1057.2982],[33.2622,-13.7929,1056.0533],[33.2628,-13.8023,1056.8776],[33.2561,-13.8117,1058.7386],[33.2464,-13.82,1058.666],[33.245,-13.8241,1058.7368],[33.2463,-13.8343,1059.6815],[33.249,-13.84,1057.8395],[33.2613,-13.852,1062.079],[33.262,-13.8693,1059.5399],[33.2639,-13.8759,1059.4261],[33.2697,-13.8791,1063.2814],[33.2742,-13.885,1061.1926],[33.2823,-13.8917,1064.9919],[33.2948,-13.8928,1069.0658],[33.2987,-13.9056,1074.4878],[33.3016,-13.9086,1070.0077],[33.303,-13.9268,1083.6886],[33.3141,-13.9389,1085.931],[33.3139,-13.945,1078.6387],[33.3338,-13.9697,1092.1174],[33.3373,-13.9723,1091.5867],[33.3432,-13.9882,1101.2789],[33.3524,-14.002,1117.1508],[33.3514,-14.0158,1121.6865],[33.3545,-14.0166,1111.5199],[33.3533,-14.0209,1111.1838],[33.3489,-14.0245,1113.7173],[33.3339,-14.0261,1116.2209],[33.3303,-14.0347,1128.9651],[33.3515,-14.0703,1136.4814],[33.35,-14.0744,1148.2383],[33.3519,-14.0847,1154.8086],[33.3464,-14.0935,1166.8682],[33.3496,-14.0942,1154.894],[33.349,-14.0993,1166.3535],[33.3445,-14.1043,1154.8315],[33.3391,-14.1172,1169.6642],[33.3326,-14.128,1192.9265],[33.3354,-14.144,1195.5916],[33.3404,-14.1491,1197.1199],[33.3541,-14.1711,1223.3879],[33.355,-14.1952,1263.6652],[33.3454,-14.2052,1296.1738],[33.3478,-14.2113,1351.7271],[33.3472,-14.2138,1351.7028],[33.3516,-14.2169,1329.4075],[33.3585,-14.2175,1327.2875],[33.3649,-14.2118,1391.1613],[33.3748,-14.211,1484.2496],[33.3792,-14.2158,1446.6738],[33.3794,-14.2245,1408.7531],[33.3819,-14.2342,1480.6542],[33.3967,-14.2499,1487.985],[33.4055,-14.2702,1525.0098],[33.4142,-14.2802,1550.8076],[33.4191,-14.2898,1583.2495],[33.4195,-14.297,1593.265],[33.4241,-14.308,1595.6306],[33.4384,-14.3279,1599.1814],[33.4468,-14.3454,1550.8754],[33.4483,-14.3615,1504.189],[33.4642,-14.3777,1537.1379],[33.4743,-14.3975,1544.311],[33.4806,-14.4035,1517.876],[33.5149,-14.4191,1409.9124],[33.5246,-14.4203,1445.5251],[33.5368,-14.4273,1582.2173],[33.5448,-14.4356,1649.9652],[33.5539,-14.4517,1651.7493],[33.5572,-14.4545,1613.3779],[33.5649,-14.4711,1652.6101],[33.5731,-14.478,1616.6896],[33.5861,-14.4795,1605.1063],[33.5957,-14.4846,1674.441],[33.6131,-14.5012,1576.5581],[33.6189,-14.5081,1460.9041],[33.6299,-14.5316,1421.1682],[33.6298,-14.5436,1389.4578],[33.6274,-14.555,1348.1666],[33.6314,-14.5633,1353.808],[33.6377,-14.5705,1359.028],[33.6449,-14.5832,1351.311],[33.6805,-14.605,1333.281],[33.6907,-14.5917,1385.9097],[33.7047,-14.581,1347.4835],[33.707,-14.5764,1331.1035],[33.7132,-14.5718,1356.5366],[33.7024,-14.5472,1330.6484],[33.6915,-14.5437,1283.2258],[33.6803,-14.5069,1246.5281],[33.6847,-14.488,1237.3257],[33.695,-14.4632,1230.3584],[33.6974,-14.4324,1214.2004]]]]}}