{"type": "Feature","bbox": [34.9605,-15.2104,35.037,-15.1127],"geometry": {"type": "MultiPolygon","coordinates": [[[[34.9616,-15.1241,570.1707],[34.965,-15.1402,561.6127],[34.9617,-15.1437,565.5161],[34.9667,-15.1448,558.8664],[34.9694,-15.1526,557.0251],[34.9671,-15.154,557.7103],[34.9706,-15.1582,553.996],[34.9686,-15.1639,552.249],[34.9657,-15.1669,551.4588],[34.9661,-15.1689,550.2297],[34.9639,-15.1709,550.7626],[34.9667,-15.1718,548.5945],[34.9654,-15.1793,550.031],[34.9605,-15.1785,555.848],[34.9658,-15.1953,557.6008],[34.9716,-15.2053,548.4139],[34.9784,-15.2104,547.36],[34.9799,-15.2079,547.5729],[34.9903,-15.2073,535.5574],[35.012,-15.1974,526.9245],[35.0294,-15.2007,520.118],[35.037,-15.1978,508.126],[35.0364,-15.1861,511.8301],[35.0294,-15.1475,523.3454],[35.0225,-15.1451,534.5463],[35.0202,-15.141,537.851],[35.0164,-15.1399,543.8007],[35.0236,-15.135,534.1337],[35.0179,-15.128,545.352],[35.0178,-15.1251,548.9284],[35.0148,-15.1244,547.8287],[35.0101,-15.119,547.0599],[35.0071,-15.1213,552.5248],[35.0025,-15.1193,558.7454],[34.9955,-15.1206,565.0788],[34.9895,-15.1169,569.414],[34.9786,-15.1135,575.6813],[34.9653,-15.1127,589.8203],[34.9614,-15.1161,580.174],[34.9616,-15.1241,570.1707]]]]}
,"properties": {"GID_3": "MWI.1.3.38_1","GID_0": "MWI","country": "Malawi","GID_1": "MWI.1_1","province": "Balaka","NL_NAME_1": "NA","GID_2": "MWI.1.3_1","county": "TANsamala","NL_NAME_2": "NA","city": "n.a.(2022)","VARNAME_3": "NA","NL_NAME_3": "NA","TYPE_3": "Unknown","ENGTYPE_3": "Unknown","CC_3": "NA","HASC_3": "NA","name": "n.a.(2022).city","area_km2": 64.85083,"hist_schema_id": "Elevation0-9000","hist_area_km2": {"500": 0.26599,"525": 13.34135,"550": 35.52506,"575": 15.67749,"600": 0.04094}}}