{"type": "Feature","bbox": [35.2382,-16.9272,35.2564,-16.9058],"geometry": {"type": "MultiPolygon","coordinates": [[[[35.2415,-16.9058,80.4597],[35.2382,-16.9075,82.1073],[35.2383,-16.914,71.443],[35.2404,-16.9159,69.3357],[35.2411,-16.9211,68.1349],[35.2557,-16.9272,50.5165],[35.2564,-16.9218,54.6301],[35.2527,-16.9214,56.5465],[35.2516,-16.9141,65.1963],[35.2415,-16.9058,80.4597]]]]}
,"properties": {"GID_3": "MWI.21.2.2_1","GID_0": "MWI","country": "Malawi","GID_1": "MWI.21_1","province": "Nsanje","NL_NAME_1": "NA","GID_2": "MWI.21.2_1","county": "NsanjeBoma","NL_NAME_2": "NA","city": "n.a.(3102)","VARNAME_3": "NA","NL_NAME_3": "NA","TYPE_3": "Unknown","ENGTYPE_3": "Unknown","CC_3": "NA","HASC_3": "NA","name": "n.a.(3102).city","area_km2": 2.373318,"hist_schema_id": "Elevation0-9000","hist_area_km2": {"50": 0.608523,"75": 1.764795}}}