{"type":"Feature","properties":{"GID_3":"MWI.7.9.4_1","GID_0":"MWI","country":"Malawi","GID_1":"MWI.7_1","province":"Dowa","NL_NAME_1":"NA","GID_2":"MWI.7.9_1","county":"TAMsakambewa","NL_NAME_2":"NA","city":"n.a.(682)","VARNAME_3":"NA","NL_NAME_3":"NA","TYPE_3":"Unknown","ENGTYPE_3":"Unknown","CC_3":"NA","HASC_3":"NA","name":"n.a.(682).city"},
"geometry":{"type": "MultiPolygon","coordinates": [[[[34.0253,-13.6067,1000.2658],[34.0206,-13.5958,1035.2009],[34.0183,-13.5842,1126.8473],[34.0161,-13.5839,1131.8472],[34.0128,-13.589,1142.6027],[34.0089,-13.5886,1122.9717],[34.0057,-13.5837,1164.9868],[33.9993,-13.5784,1209.7262],[34.0012,-13.5677,1262.9019],[33.9978,-13.563,1318.123],[33.9957,-13.5541,1451.8955],[33.9919,-13.5484,1486.8176],[33.9944,-13.5443,1477.4685],[33.9935,-13.5398,1379.4028],[33.9811,-13.5354,1448.0066],[33.9789,-13.5332,1334.5454],[33.9837,-13.5227,1372.1443],[33.9938,-13.5243,1279.9636],[34.0011,-13.5221,1162.3574],[33.9978,-13.5175,1139.1632],[34.0017,-13.5103,1098.2626],[34.0016,-13.4988,1099.7208],[33.9899,-13.5018,1231.38],[33.9789,-13.5087,1166.9224],[33.9726,-13.5058,1252.8457],[33.9598,-13.514,1241.702],[33.9528,-13.5129,1257.2933],[33.938,-13.5233,1383.6354],[33.9333,-13.5303,1511.2692],[33.9347,-13.5327,1451.8911],[33.9485,-13.5378,1584.3179],[33.9461,-13.5392,1573.4275],[33.9448,-13.5427,1592.7886],[33.9279,-13.5528,1425.5959],[33.9271,-13.5555,1409.5995],[33.93,-13.566,1384.0146],[33.9343,-13.5697,1354.235],[33.9352,-13.5724,1363.6216],[33.9378,-13.573,1361.8296],[33.9404,-13.5789,1303.8289],[33.9445,-13.5808,1320.4562],[33.9464,-13.5773,1331.869],[33.9491,-13.5771,1318.0226],[33.95,-13.5829,1255.5563],[33.9557,-13.5869,1203.3073],[33.9585,-13.5867,1200.4742],[33.9622,-13.5905,1175.5458],[33.9663,-13.59,1172.5825],[33.968,-13.5943,1151.8088],[33.9721,-13.5943,1194.9562],[33.9733,-13.5958,1143.5013],[33.9812,-13.5949,1106.5608],[33.99,-13.5981,1072.9055],[33.9963,-13.5978,1073.1619],[34.0071,-13.6029,1043.0619],[34.0099,-13.6028,1034.5803],[34.0114,-13.6053,1027.9001],[34.0195,-13.6043,1028.274],[34.0225,-13.6077,1009.1055],[34.0253,-13.6067,1000.2658]]]]}}