{"type":"Feature","properties":{"GID_3":"MWI.14.3.11_1","GID_0":"MWI","country":"Malawi","GID_1":"MWI.14_1","province":"Mchinji","NL_NAME_1":"NA","GID_2":"MWI.14.3_1","county":"SCMavwere","NL_NAME_2":"NA","city":"n.a.(1080)","VARNAME_3":"NA","NL_NAME_3":"NA","TYPE_3":"Unknown","ENGTYPE_3":"Unknown","CC_3":"NA","HASC_3":"NA","name":"n.a.(1080).city"},
"geometry":{"type": "MultiPolygon","coordinates": [[[[33.0595,-13.9262,1084.8621],[33.051,-13.933,1081.7623],[33.0373,-13.9499,1096.1475],[33.0228,-13.9602,1114.1069],[33.0164,-13.9708,1117.2402],[33.0327,-13.9733,1128.3152],[33.0361,-13.9799,1132.8682],[33.0317,-13.99,1126.915],[33.0338,-14.0,1108.6023],[33.0455,-14.0021,1107.5815],[33.0473,-14.0048,1096.5659],[33.0503,-14.0025,1100.8154],[33.0556,-14.0084,1108.6888],[33.0584,-14.0078,1110.8767],[33.062,-13.991,1096.1725],[33.0767,-13.9724,1085.585],[33.0639,-13.9708,1105.1627],[33.0447,-13.9721,1112.4733],[33.0506,-13.9659,1101.2799],[33.0671,-13.9544,1086.6915],[33.0603,-13.9485,1098.0161],[33.0581,-13.9429,1095.9351],[33.0595,-13.9262,1084.8621]]]]}}