{"type":"Feature","properties":{"GID_3":"MWI.17.6.21_1","GID_0":"MWI","country":"Malawi","GID_1":"MWI.17_1","province":"Mzimba","NL_NAME_1":"NA","GID_2":"MWI.17.6_1","county":"TAChindi","NL_NAME_2":"NA","city":"n.a.(236)","VARNAME_3":"NA","NL_NAME_3":"NA","TYPE_3":"Unknown","ENGTYPE_3":"Unknown","CC_3":"NA","HASC_3":"NA","name":"n.a.(236).city"},
"geometry":{"type": "MultiPolygon","coordinates": [[[[33.4474,-11.6075,1225.777],[33.445,-11.6184,1231.8066],[33.45,-11.623,1242.2927],[33.4535,-11.63,1247.7078],[33.4482,-11.6328,1241.5883],[33.4397,-11.6336,1222.4393],[33.4335,-11.628,1209.5078],[33.4287,-11.6335,1211.2307],[33.4214,-11.6375,1204.1597],[33.4216,-11.654,1215.1328],[33.4315,-11.6558,1230.054],[33.4356,-11.6578,1240.0139],[33.4367,-11.6613,1233.5297],[33.4288,-11.6746,1240.2537],[33.431,-11.6762,1242.1395],[33.4422,-11.6779,1266.4597],[33.4592,-11.6746,1296.264],[33.4629,-11.6775,1293.7852],[33.4662,-11.682,1303.3049],[33.48,-11.6837,1347.1411],[33.4876,-11.6763,1325.3954],[33.4963,-11.6717,1310.9927],[33.513,-11.6689,1301.71],[33.513,-11.6636,1287.093],[33.5075,-11.6476,1283.3312],[33.502,-11.6392,1273.6536],[33.4984,-11.6387,1254.6104],[33.4951,-11.6343,1261.8691],[33.4939,-11.6261,1245.2057],[33.4916,-11.6228,1252.6318],[33.4915,-11.6146,1247.4329],[33.4937,-11.6075,1244.2269],[33.4634,-11.6108,1249.7146],[33.4609,-11.607,1249.4187],[33.4474,-11.6075,1225.777]]]]}}