{"type": "Feature","bbox": [34.2812,-12.9228,34.2978,-12.9042],"geometry": {"type": "MultiPolygon","coordinates": [[[[34.2864,-12.9051,491.8193],[34.2812,-12.9153,514.834],[34.2818,-12.9212,519.7949],[34.2954,-12.9228,489.081],[34.2978,-12.9202,481.7487],[34.2967,-12.9177,480.7631],[34.2897,-12.9163,499.7648],[34.2966,-12.9127,476.0586],[34.2959,-12.9042,481.7383],[34.2864,-12.9051,491.8193]]]]}
,"properties": {"GID_3": "MWI.20.2.2_1","GID_0": "MWI","country": "Malawi","GID_1": "MWI.20_1","province": "Nkhotakota","NL_NAME_1": "NA","GID_2": "MWI.20.2_1","county": "NkhotakotaBoma","NL_NAME_2": "NA","city": "n.a.(432)","VARNAME_3": "NA","NL_NAME_3": "NA","TYPE_3": "Unknown","ENGTYPE_3": "Unknown","CC_3": "NA","HASC_3": "NA","name": "n.a.(432).city","area_km2": 2.665904,"hist_schema_id": "Elevation0-9000","hist_area_km2": {"475": 0.454657,"500": 1.77727,"525": 0.433978}}}