{"type":"Feature","properties":{"GID_3":"MWI.4.7.6_1","GID_0":"MWI","country":"Malawi","GID_1":"MWI.4_1","province":"Chiradzulu","NL_NAME_1":"NA","GID_2":"MWI.4.7_1","county":"TANkalo","NL_NAME_2":"NA","city":"n.a.(2651)","VARNAME_3":"NA","NL_NAME_3":"NA","TYPE_3":"Unknown","ENGTYPE_3":"Unknown","CC_3":"NA","HASC_3":"NA","name":"n.a.(2651).city"},
"geometry":{"type": "MultiPolygon","coordinates": [[[[35.2946,-15.9001,736.8629],[35.2947,-15.8939,743.5308],[35.2918,-15.8898,746.5898],[35.2848,-15.8909,753.9243],[35.2816,-15.8888,758.0659],[35.2752,-15.8936,765.6016],[35.266,-15.896,789.288],[35.2646,-15.8972,786.239],[35.2643,-15.9012,781.8057],[35.2688,-15.9025,785.618],[35.2709,-15.9055,760.5989],[35.2744,-15.9066,751.4341],[35.2857,-15.9162,731.759],[35.2935,-15.9124,737.5159],[35.3034,-15.912,722.7809],[35.3021,-15.9091,726.0269],[35.2945,-15.9044,736.0896],[35.2946,-15.9001,736.8629]]]]}}