{"type":"Feature","properties":{"GID_3":"MWI.15.4.16_1","GID_0":"MWI","country":"Malawi","GID_1":"MWI.15_1","province":"Mulanje","NL_NAME_1":"NA","GID_2":"MWI.15.4_1","county":"SCLastonNjema","NL_NAME_2":"NA","city":"n.a.(2863)","VARNAME_3":"NA","NL_NAME_3":"NA","TYPE_3":"Unknown","ENGTYPE_3":"Unknown","CC_3":"NA","HASC_3":"NA","name":"n.a.(2863).city"},
"geometry":{"type": "MultiPolygon","coordinates": [[[[35.7162,-16.0691,671.9191],[35.7181,-16.0726,669.8301],[35.7227,-16.0727,657.2637],[35.7227,-16.0856,639.7788],[35.7343,-16.0807,632.5277],[35.7376,-16.0766,630.0617],[35.742,-16.0757,636.1711],[35.7407,-16.0744,639.2577],[35.7345,-16.0721,638.8726],[35.7329,-16.0691,636.416],[35.731,-16.0709,639.1238],[35.7162,-16.0691,671.9191]]]]}}