{"type": "Feature","bbox": [35.0543,-16.121,35.0755,-16.0881],"geometry": {"type": "MultiPolygon","coordinates": [[[[35.0755,-16.0949,965.6096],[35.0739,-16.0925,956.767],[35.0683,-16.0916,978.7698],[35.0628,-16.0881,999.3121],[35.0578,-16.0923,1048.9154],[35.0543,-16.0921,1059.1686],[35.0582,-16.1013,923.5527],[35.062,-16.101,913.006],[35.0556,-16.1075,827.8351],[35.0564,-16.1132,689.5817],[35.0548,-16.1139,689.5817],[35.0568,-16.1188,671.7721],[35.0558,-16.121,641.8429],[35.068,-16.1188,665.9508],[35.0682,-16.1162,763.707],[35.0701,-16.116,728.505],[35.074,-16.1103,828.6996],[35.071,-16.1052,873.2637],[35.0709,-16.0988,927.4262],[35.0755,-16.0949,965.6096]]]]}
,"properties": {"GID_3": "MWI.27.4.10_1","GID_0": "MWI","country": "Malawi","GID_1": "MWI.27_1","province": "Thyolo","NL_NAME_1": "NA","GID_2": "MWI.27.4_1","county": "SCMphuka","NL_NAME_2": "NA","city": "n.a.(2891)","VARNAME_3": "NA","NL_NAME_3": "NA","TYPE_3": "Unknown","ENGTYPE_3": "Unknown","CC_3": "NA","HASC_3": "NA","name": "n.a.(2891).city","area_km2": 5.235135,"hist_schema_id": "Elevation0-9000","hist_area_km2": {"650": 0.020369,"675": 0.162951,"700": 0.224058,"725": 0.305536,"750": 0.346276,"775": 0.162955,"800": 0.305542,"825": 0.448132,"850": 0.244437,"875": 0.387031,"900": 0.264812,"925": 0.488893,"950": 0.4889,"975": 0.590763,"1000": 0.387056,"1025": 0.203713,"1050": 0.122228,"1075": 0.081485}}}