{"type":"Feature","properties":{"GID_3":"MWI.13.13.16_1","GID_0":"MWI","country":"Malawi","GID_1":"MWI.13_1","province":"Mangochi","NL_NAME_1":"NA","GID_2":"MWI.13.13_1","county":"TANankumba","NL_NAME_2":"NA","city":"n.a.(1430)","VARNAME_3":"NA","NL_NAME_3":"NA","TYPE_3":"Unknown","ENGTYPE_3":"Unknown","CC_3":"NA","HASC_3":"NA","name":"n.a.(1430).city"},
"geometry":{"type": "MultiPolygon","coordinates": [[[[34.9125,-14.2787,559.6986],[34.9034,-14.2773,559.6393],[34.8955,-14.273,564.9993],[34.8857,-14.2712,572.827],[34.8806,-14.2742,594.1157],[34.8691,-14.277,616.7327],[34.8679,-14.2805,613.6031],[34.8715,-14.2975,624.3716],[34.8686,-14.3023,613.9357],[34.874,-14.3109,569.1022],[34.8602,-14.3147,556.6685],[34.8489,-14.3239,538.1393],[34.839,-14.3277,532.4322],[34.858,-14.3308,591.5828],[34.8619,-14.3341,605.8324],[34.9285,-14.3544,607.9591],[34.93,-14.3554,615.1987],[34.9297,-14.3601,624.5305],[34.931399999999996,-14.3624,632.9067],[34.9441,-14.3602,626.9868],[34.9579,-14.3666,642.2701],[34.9638,-14.3629,660.5299],[34.9737,-14.3612,636.8508],[34.9755,-14.3579,630.5178],[34.9757,-14.3509,612.1185],[34.9818,-14.348,618.5997],[34.9734,-14.3401,612.4963],[34.98,-14.3272,597.5441],[34.9631,-14.3174,619.1588],[34.9582,-14.3125,607.7645],[34.9513,-14.3022,603.4161],[34.9496,-14.2903,585.772],[34.9359,-14.2875,574.3819],[34.932,-14.2908,644.2562],[34.9305,-14.3006,595.4371],[34.9195,-14.3046,574.1509],[34.9186,-14.3002,571.982],[34.9158,-14.2969,567.2313],[34.9177,-14.2905,572.8545],[34.9207,-14.2874,565.0483],[34.9174,-14.2852,563.527],[34.9159,-14.2779,561.1665],[34.9125,-14.2787,559.6986]]]]}}