{"type": "Feature","bbox": [33.5833,-13.9219,33.7363,-13.6919],"geometry": {"type": "MultiPolygon","coordinates": [[[[33.7291,-13.8906,1091.3334],[33.729,-13.8833,1096.5411],[33.7342,-13.8797,1098.8566],[33.7335,-13.8766,1110.9509],[33.7348,-13.875,1095.6143],[33.7309,-13.8674,1103.546],[33.7232,-13.8598,1113.2878],[33.7193,-13.8494,1122.9116],[33.7151,-13.8458,1115.8978],[33.7133,-13.8408,1128.7748],[33.6997,-13.8367,1137.005],[33.6863,-13.8195,1136.8285],[33.6889,-13.8045,1150.5391],[33.6869,-13.7912,1169.5715],[33.6933,-13.7791,1172.3093],[33.6935,-13.7686,1171.6309],[33.689,-13.7572,1188.199],[33.6834,-13.7494,1199.7361],[33.6713,-13.7414,1217.4326],[33.6715,-13.7296,1240.0217],[33.6746,-13.7213,1245.925],[33.6743,-13.7153,1265.2415],[33.683,-13.706,1265.135],[33.6822,-13.6972,1272.2664],[33.6757,-13.6919,1285.9512],[33.6147,-13.7015,1241.0056],[33.6101,-13.7029,1225.2654],[33.6094,-13.7048,1234.8765],[33.6035,-13.7076,1226.4814],[33.5967,-13.7094,1204.2524],[33.5947,-13.7066,1201.8053],[33.5918,-13.7077,1204.7837],[33.5889,-13.7118,1196.9011],[33.588,-13.7222,1190.5295],[33.5833,-13.7243,1193.1755],[33.5846,-13.7279,1178.9016],[33.601,-13.7427,1204.9974],[33.6076,-13.7464,1210.0413],[33.6214,-13.7467,1227.1116],[33.6264,-13.7625,1213.4773],[33.6249,-13.7714,1199.6809],[33.6301,-13.7839,1190.4073],[33.6331,-13.7857,1182.9893],[33.642,-13.7832,1184.8723],[33.6387,-13.8065,1161.3995],[33.6269,-13.8211,1157.5245],[33.6226,-13.8232,1151.6798],[33.6236,-13.8267,1139.6243],[33.6279,-13.8315,1139.182],[33.6329,-13.8446,1131.519],[33.6407,-13.8502,1128.9757],[33.6531,-13.8561,1126.2582],[33.6585,-13.8664,1113.302],[33.6609,-13.8763,1105.7648],[33.6701,-13.8779,1104.8215],[33.6733,-13.88,1102.2207],[33.6797,-13.8893,1097.1892],[33.6834,-13.9019,1089.5249],[33.6915,-13.9093,1087.798],[33.6923,-13.912,1076.5643],[33.6963,-13.9103,1082.4764],[33.7064,-13.9103,1076.3752],[33.7155,-13.9161,1082.7861],[33.7295,-13.9219,1064.2031],[33.7314,-13.915,1080.0004],[33.7354,-13.9114,1071.9216],[33.736,-13.9067,1074.4225],[33.7348,-13.9045,1078.3474],[33.7363,-13.9026,1079.8496],[33.7344,-13.8979,1093.5986],[33.7305,-13.8953,1081.8],[33.7291,-13.8906,1091.3334]]]]}
,"properties": {"GID_2": "MWI.11.3_1","GID_0": "MWI","country": "Malawi","GID_1": "MWI.11_1","province": "Lilongwe","NL_NAME_1": "NA","county": "SCMtema","VARNAME_2": "NA","NL_NAME_2": "NA","TYPE_2": "Sub-chief","ENGTYPE_2": "Sub-chief","CC_2": "NA","HASC_2": "NA","name": "S_C_Mtema.county","area_km2": 170.9196,"hist_schema_id": "Elevation0-9000","hist_area_km2": {"1075": 2.5931,"1100": 12.5755,"1125": 22.0866,"1150": 29.2737,"1175": 23.101,"1200": 24.5468,"1225": 22.2016,"1250": 20.0814,"1275": 11.576,"1300": 2.8839}}}