{"type":"Feature","properties":{"GID_3":"MWI.4.5.6_1","GID_0":"MWI","country":"Malawi","GID_1":"MWI.4_1","province":"Chiradzulu","NL_NAME_1":"NA","GID_2":"MWI.4.5_1","county":"TAMpama","NL_NAME_2":"NA","city":"n.a.(2413)","VARNAME_3":"NA","NL_NAME_3":"NA","TYPE_3":"Unknown","ENGTYPE_3":"Unknown","CC_3":"NA","HASC_3":"NA","name":"n.a.(2413).city"},
"geometry":{"type": "MultiPolygon","coordinates": [[[[35.1336,-15.6803,1127.0774],[35.1422,-15.6791,1132.0371],[35.1474,-15.6756,1087.6445],[35.1523,-15.6713,1103.9399],[35.1507,-15.6663,1067.3741],[35.1555,-15.6658,1055.2164],[35.1564,-15.6683,1067.722],[35.1582,-15.6684,1041.7102],[35.1597,-15.6668,1030.3793],[35.1614,-15.6678,1030.3793],[35.1709,-15.6657,1022.0547],[35.1717,-15.6595,1007.4691],[35.1759,-15.6558,996.4918],[35.1754,-15.6532,1001.3892],[35.1732,-15.6515,1014.8458],[35.1585,-15.6541,1042.2715],[35.1596,-15.6506,1041.3077],[35.1543,-15.6487,1069.2382],[35.1496,-15.6519,1086.798],[35.1431,-15.6517,1080.6558],[35.1388,-15.6549,1065.7758],[35.1359,-15.6535,1054.814],[35.133,-15.659,1058.0046],[35.1268,-15.6602,999.5825],[35.1286,-15.6685,1041.9857],[35.1355,-15.6736,1111.4828],[35.1336,-15.6803,1127.0774]]]]}}