{"type":"Feature","properties":{"GID_3":"MWI.26.11.6_1","GID_0":"MWI","country":"Malawi","GID_1":"MWI.26_1","province":"Salima","NL_NAME_1":"NA","GID_2":"MWI.26.11_1","county":"TAPemba","NL_NAME_2":"NA","city":"n.a.(994)","VARNAME_3":"NA","NL_NAME_3":"NA","TYPE_3":"Unknown","ENGTYPE_3":"Unknown","CC_3":"NA","HASC_3":"NA","name":"n.a.(994).city"},
"geometry":{"type": "MultiPolygon","coordinates": [[[[34.4701,-13.8736,502.7738],[34.4826,-13.8721,493.7751],[34.4896,-13.867,489.9233],[34.4977,-13.8665,486.1043],[34.4996,-13.8644,486.5939],[34.5025,-13.8671,486.0472],[34.5021,-13.8707,485.8178],[34.505,-13.8742,485.9819],[34.5094,-13.8757,485.3621],[34.5174,-13.8731,484.5812],[34.5238,-13.8684,485.2428],[34.5394,-13.8619,486.3314],[34.5421,-13.8566,479.0],[34.5337,-13.8505,486.0056],[34.5095,-13.8408,491.1187],[34.5016,-13.8325,492.8638],[34.5001,-13.8349,492.2768],[34.4973,-13.8353,492.6161],[34.4976,-13.8429,490.698],[34.4952,-13.8461,489.7782],[34.4831,-13.8417,491.9322],[34.47,-13.8453,494.7838],[34.4701,-13.8736,502.7738]]]]}}