{"type":"Feature","properties":{"GID_3":"MWI.1.3.49_1","GID_0":"MWI","country":"Malawi","GID_1":"MWI.1_1","province":"Balaka","NL_NAME_1":"NA","GID_2":"MWI.1.3_1","county":"TANsamala","NL_NAME_2":"NA","city":"n.a.(2069)","VARNAME_3":"NA","NL_NAME_3":"NA","TYPE_3":"Unknown","ENGTYPE_3":"Unknown","CC_3":"NA","HASC_3":"NA","name":"n.a.(2069).city"},
"geometry":{"type": "MultiPolygon","coordinates": [[[[34.9699,-15.2453,531.6727],[34.9737,-15.2656,524.0728],[34.9709,-15.2879,504.0172],[34.9643,-15.3037,496.08],[34.9664,-15.3037,488.2938],[34.9611,-15.3246,484.8065],[35.0043,-15.3236,474.4133],[34.9995,-15.3104,480.5258],[34.9987,-15.2988,484.5367],[35.0043,-15.2725,492.8438],[35.004,-15.2643,496.3742],[35.0079,-15.2561,499.2994],[35.0062,-15.2552,499.7684],[35.0065,-15.2476,503.1961],[34.9996,-15.239,508.819],[34.9949,-15.2368,516.2628],[34.9858,-15.222,535.4899],[34.9699,-15.2453,531.6727]]]]}}