{"type":"Feature","properties":{"GID_3":"MWI.14.2.10_1","GID_0":"MWI","country":"Malawi","GID_1":"MWI.14_1","province":"Mchinji","NL_NAME_1":"NA","GID_2":"MWI.14.2_1","county":"SCDambe","NL_NAME_2":"NA","city":"n.a.(724)","VARNAME_3":"NA","NL_NAME_3":"NA","TYPE_3":"Unknown","ENGTYPE_3":"Unknown","CC_3":"NA","HASC_3":"NA","name":"n.a.(724).city"},
"geometry":{"type": "MultiPolygon","coordinates": [[[[33.0601,-13.5812,1077.9819],[33.0637,-13.5901,1082.3274],[33.0709,-13.5934,1081.7549],[33.0665,-13.6041,1088.0637],[33.0612,-13.6103,1093.5176],[33.1008,-13.6218,1101.9253],[33.1005,-13.636,1112.4977],[33.0989,-13.6379,1117.4271],[33.1316,-13.6351,1091.4069],[33.1223,-13.6214,1092.8562],[33.1203,-13.6093,1094.864],[33.1088,-13.6049,1095.4097],[33.1162,-13.5999,1096.1605],[33.1222,-13.591,1095.2919],[33.1274,-13.5877,1094.5852],[33.1269,-13.5801,1088.3937],[33.1293,-13.5746,1084.8959],[33.1281,-13.5668,1081.3129],[33.1157,-13.5585,1074.7456],[33.1121,-13.5503,1068.8607],[33.0928,-13.5518,1062.5243],[33.0907,-13.5516,1062.002],[33.09,-13.5495,1060.9054],[33.0601,-13.5812,1077.9819]]]]}}