{"type":"Feature","properties":{"GID_3":"MWI.9.11.1_1","GID_0":"MWI","country":"Malawi","GID_1":"MWI.9_1","province":"Kasungu","NL_NAME_1":"NA","GID_2":"MWI.9.11_1","county":"TAKaluluma","NL_NAME_2":"NA","city":"n.a.(331)","VARNAME_3":"NA","NL_NAME_3":"NA","TYPE_3":"Unknown","ENGTYPE_3":"Unknown","CC_3":"NA","HASC_3":"NA","name":"n.a.(331).city"},
"geometry":{"type": "MultiPolygon","coordinates": [[[[33.4727,-12.4205,1431.5472],[33.4664,-12.4205,1429.6086],[33.462,-12.4229,1423.66],[33.4599,-12.4299,1388.884],[33.4598,-12.4368,1357.7427],[33.4625,-12.4469,1461.8857],[33.4612,-12.4582,1464.8604],[33.4324,-12.4716,1344.4666],[33.4192,-12.4814,1300.8013],[33.4091,-12.5012,1299.9973],[33.3991,-12.5104,1268.8818],[33.3308,-12.5359,1254.2053],[33.3326,-12.5404,1251.4708],[33.3396,-12.5454,1249.7682],[33.3501,-12.5459,1270.2434],[33.3595,-12.5571,1282.2196],[33.3641,-12.5578,1277.5248],[33.3781,-12.5471,1280.6533],[33.3875,-12.534,1278.4086],[33.3951,-12.5273,1277.4849],[33.402,-12.522,1277.3445],[33.4105,-12.5185,1286.1218],[33.4121,-12.5208,1293.0513],[33.417,-12.5223,1286.8296],[33.4295,-12.5215,1263.2389],[33.4327,-12.5153,1271.7119],[33.4373,-12.5108,1272.067],[33.4457,-12.5065,1277.0868],[33.4552,-12.5139,1265.7803],[33.4657,-12.5167,1253.9028],[33.4744,-12.5137,1253.2825],[33.4756,-12.5127,1255.0698],[33.4745,-12.5086,1246.8933],[33.4773,-12.5031,1258.6436],[33.4666,-12.4964,1333.6376],[33.4754,-12.4943,1379.6799],[33.4826,-12.4947,1323.6484],[33.4999,-12.486,1351.8665],[33.5276,-12.4697,1321.9437],[33.5314,-12.4647,1309.9723],[33.533,-12.4646,1294.2322],[33.5327,-12.4605,1314.3206],[33.5354,-12.4613,1301.45],[33.5449,-12.4564,1413.2925],[33.583,-12.4455,1289.3615],[33.5815,-12.4259,1407.8877],[33.6058,-12.3733,1484.2722],[33.5948,-12.3732,1459.0326],[33.5878,-12.3757,1390.8927],[33.5794,-12.3869,1359.5964],[33.5801,-12.4011,1342.193],[33.5721,-12.4105,1335.3313],[33.5625,-12.4173,1332.5737],[33.5549,-12.4283,1311.3582],[33.5497,-12.4271,1339.5979],[33.5352,-12.4295,1334.4778],[33.5359,-12.4335,1343.5128],[33.5307,-12.4371,1356.1443],[33.5228,-12.4382,1364.0333],[33.5181,-12.4335,1352.8595],[33.4979,-12.436,1358.6641],[33.4861,-12.4311,1372.5457],[33.4731,-12.4306,1381.696],[33.4715,-12.4249,1406.8892],[33.4727,-12.4205,1431.5472]]]]}}