{"type": "Feature","bbox": [35.4045,-15.9147,35.4444,-15.8803],"geometry": {"type": "MultiPolygon","coordinates": [[[[35.4287,-15.881,712.2484],[35.4045,-15.8843,710.5612],[35.4046,-15.9044,703.29],[35.4075,-15.9129,707.0272],[35.4167,-15.9133,709.9073],[35.4244,-15.9115,713.6396],[35.4274,-15.9147,715.9644],[35.4352,-15.9084,718.8801],[35.4381,-15.8917,718.7734],[35.4444,-15.8877,720.205],[35.4379,-15.8803,715.9446],[35.4287,-15.881,712.2484]]]]}
,"properties": {"GID_3": "MWI.15.7.19_1","GID_0": "MWI","country": "Malawi","GID_1": "MWI.15_1","province": "Mulanje","NL_NAME_1": "NA","GID_2": "MWI.15.7_1","county": "TANkanda","NL_NAME_2": "NA","city": "n.a.(2642)","VARNAME_3": "NA","NL_NAME_3": "NA","TYPE_3": "Unknown","ENGTYPE_3": "Unknown","CC_3": "NA","HASC_3": "NA","name": "n.a.(2642).city","area_km2": 11.949365,"hist_schema_id": "Elevation0-9000","hist_area_km2": {"700": 7.544831,"725": 4.404535}}}