{"type": "Feature","bbox": [33.3327,-14.1504,33.397,-14.1004],"geometry": {"type": "MultiPolygon","coordinates": [[[[33.3967,-14.1395,1195.2419],[33.397,-14.1221,1204.3701],[33.3893,-14.1222,1204.3196],[33.3845,-14.124,1208.9528],[33.3766,-14.1185,1208.697],[33.3745,-14.1211,1208.1335],[33.3612,-14.1189,1185.6602],[33.3528,-14.1194,1191.6735],[33.3529,-14.1157,1190.1372],[33.3503,-14.1095,1177.9922],[33.355,-14.108,1169.6375],[33.3485,-14.1004,1152.675],[33.3445,-14.1043,1154.8315],[33.3391,-14.1172,1169.6642],[33.3327,-14.1273,1186.5338],[33.3327,-14.1342,1195.4944],[33.3354,-14.144,1195.5916],[33.3412,-14.1504,1209.8245],[33.3494,-14.1493,1240.562],[33.3488,-14.1429,1244.229],[33.3519,-14.1408,1234.1066],[33.3586,-14.1397,1216.8401],[33.3657,-14.1453,1249.0962],[33.3675,-14.1406,1236.4714],[33.3699,-14.139,1229.4865],[33.3863,-14.1496,1210.9674],[33.3863,-14.1471,1201.4333],[33.3924,-14.141,1193.2662],[33.3967,-14.1395,1195.2419]]]]}
,"properties": {"GID_3": "MWI.11.11.34_1","GID_0": "MWI","country": "Malawi","GID_1": "MWI.11_1","province": "Lilongwe","NL_NAME_1": "NA","GID_2": "MWI.11.11_1","county": "TAKalolo","NL_NAME_2": "NA","city": "n.a.(1252)","VARNAME_3": "NA","NL_NAME_3": "NA","TYPE_3": "Unknown","ENGTYPE_3": "Unknown","CC_3": "NA","HASC_3": "NA","name": "n.a.(1252).city","area_km2": 19.86164,"hist_schema_id": "Elevation0-9000","hist_area_km2": {"1150": 0.12338,"1175": 2.26184,"1200": 9.99252,"1225": 6.94936,"1250": 0.53455}}}