{"type":"Feature","properties":{"GID_3":"MWI.24.3.31_1","GID_0":"MWI","country":"Malawi","GID_1":"MWI.24_1","province":"Phalombe","NL_NAME_1":"NA","GID_2":"MWI.24.3_1","county":"TANazombe","NL_NAME_2":"NA","city":"n.a.(2675)","VARNAME_3":"NA","NL_NAME_3":"NA","TYPE_3":"Unknown","ENGTYPE_3":"Unknown","CC_3":"NA","HASC_3":"NA","name":"n.a.(2675).city"},
"geometry":{"type": "MultiPolygon","coordinates": [[[[35.7649,-15.9316,753.2996],[35.7821,-15.9269,716.5711],[35.7888,-15.9315,703.4383],[35.7935,-15.9304,700.1978],[35.7933,-15.9325,700.1362],[35.795,-15.9328,698.3132],[35.8004,-15.9307,694.5848],[35.8099,-15.9329,685.8248],[35.8114,-15.9294,685.6375],[35.807,-15.9226,690.0752],[35.8028,-15.9197,692.5674],[35.7751,-15.9195,734.0786],[35.7632,-15.9149,781.6412],[35.7599,-15.9179,826.8362],[35.7593,-15.9205,803.3484],[35.7649,-15.9316,753.2996]]]]}}