{"type": "Feature","bbox": [33.8993,-11.3754,33.9799,-11.2645],"geometry": {"type": "MultiPolygon","coordinates": [[[[33.9203,-11.2645,1167.6001],[33.9281,-11.3134,1209.0675],[33.9072,-11.3073,1164.2439],[33.8993,-11.3288,1160.095],[33.9089,-11.3278,1186.8035],[33.9185,-11.3296,1167.8368],[33.9159,-11.3323,1160.04],[33.9201,-11.3371,1174.7522],[33.9204,-11.3578,1238.3005],[33.9065,-11.3617,1206.6156],[33.9149,-11.3681,1232.1144],[33.921,-11.3754,1230.3657],[33.9384,-11.3632,1242.0737],[33.9406,-11.3602,1251.2377],[33.9473,-11.3579,1264.3973],[33.9696,-11.3435,1297.1262],[33.9744,-11.3437,1340.2637],[33.9789,-11.3314,1275.2616],[33.9799,-11.3135,1215.3252],[33.9766,-11.3103,1239.1533],[33.9721,-11.3113,1221.0469],[33.9703,-11.3142,1217.5986],[33.968,-11.3091,1260.9141],[33.9763,-11.2753,1396.9491],[33.9602,-11.2734,1294.2727],[33.942,-11.2696,1190.7345],[33.9382,-11.2672,1208.5056],[33.9346,-11.268,1178.9843],[33.9326,-11.2664,1187.26],[33.9294,-11.2669,1185.1536],[33.9203,-11.2645,1167.6001]]]]}
,"properties": {"GID_3": "MWI.17.10.18_1","GID_0": "MWI","country": "Malawi","GID_1": "MWI.17_1","province": "Mzimba","NL_NAME_1": "NA","GID_2": "MWI.17.10_1","county": "TAMtwalo","NL_NAME_2": "NA","city": "n.a.(181)","VARNAME_3": "NA","NL_NAME_3": "NA","TYPE_3": "Unknown","ENGTYPE_3": "Unknown","CC_3": "NA","HASC_3": "NA","name": "n.a.(181).city","area_km2": 60.97695,"hist_schema_id": "Elevation0-9000","hist_area_km2": {"1150": 0.18713,"1175": 5.67578,"1200": 13.53442,"1225": 13.59665,"1250": 12.20327,"1275": 8.17008,"1300": 2.84827,"1325": 2.12072,"1350": 1.06039,"1375": 0.47822,"1400": 0.35347,"1425": 0.2911,"1450": 0.37427,"1475": 0.08317}}}