{"type": "Feature","bbox": [35.6624,-16.077,35.7056,-16.0362],"geometry": {"type": "MultiPolygon","coordinates": [[[[35.6929,-16.0381,652.9686],[35.6934,-16.0409,648.025],[35.6899,-16.0403,651.1063],[35.6868,-16.0419,638.8693],[35.6868,-16.0445,638.2433],[35.6749,-16.0453,650.2996],[35.6722,-16.0474,634.0781],[35.67,-16.0456,633.387],[35.6632,-16.0532,626.7493],[35.6624,-16.0572,621.1609],[35.665,-16.0577,620.3083],[35.6651,-16.0614,619.7806],[35.6713,-16.0754,618.9028],[35.6811,-16.0745,634.962],[35.6923,-16.077,665.3981],[35.6919,-16.0704,652.2154],[35.6985,-16.0627,669.2464],[35.7,-16.0527,662.7719],[35.7048,-16.0498,671.4683],[35.7042,-16.0452,679.1742],[35.7056,-16.0408,714.7605],[35.697,-16.0401,663.8072],[35.695,-16.0362,679.8042],[35.6929,-16.0381,652.9686]]]]}
,"properties": {"GID_3": "MWI.15.4.13_1","GID_0": "MWI","country": "Malawi","GID_1": "MWI.15_1","province": "Mulanje","NL_NAME_1": "NA","GID_2": "MWI.15.4_1","county": "SCLastonNjema","NL_NAME_2": "NA","city": "n.a.(2821)","VARNAME_3": "NA","NL_NAME_3": "NA","TYPE_3": "Unknown","ENGTYPE_3": "Unknown","CC_3": "NA","HASC_3": "NA","name": "n.a.(2821).city","area_km2": 12.449129,"hist_schema_id": "Elevation0-9000","hist_area_km2": {"625": 3.422932,"650": 5.745732,"675": 2.995194,"700": 0.285271}}}