{"type":"Feature","properties":{"GID_2":"MWI.7.1_1","GID_0":"MWI","country":"Malawi","GID_1":"MWI.7_1","province":"Dowa","NL_NAME_1":"NA","county":"DowaBoma","VARNAME_2":"NA","NL_NAME_2":"NA","TYPE_2":"Boma","ENGTYPE_2":"Headquarter","CC_2":"NA","HASC_2":"NA","name":"Dowa_Boma.county"},
"geometry":{"type": "MultiPolygon","coordinates": [[[[33.9254,-13.6598,1389.2627],[33.9363,-13.6594,1379.2144],[33.9401,-13.6629,1368.561],[33.9416,-13.6595,1337.7764],[33.9406,-13.6497,1328.9595],[33.9428,-13.6419,1305.5649],[33.9422,-13.639,1293.454],[33.9249,-13.6382,1306.0493],[33.9216,-13.6404,1312.6277],[33.9212,-13.6524,1354.9165],[33.9162,-13.6578,1381.9318],[33.9145,-13.6629,1440.0066],[33.9254,-13.6598,1389.2627]]]]}}