{"type": "Feature","bbox": [33.0175,-13.4502,33.1326,-13.395],"geometry": {"type": "MultiPolygon","coordinates": [[[[33.1326,-13.4295,1046.2693],[33.1254,-13.4243,1047.327],[33.1066,-13.4057,1072.0791],[33.1067,-13.4036,1075.2621],[33.1123,-13.4001,1075.0593],[33.1101,-13.399,1074.894],[33.0906,-13.4052,1088.9929],[33.0968,-13.4138,1078.2505],[33.0947,-13.4148,1075.7748],[33.0671,-13.4143,1076.5043],[33.067,-13.4101,1081.139],[33.0694,-13.4055,1084.2217],[33.0595,-13.407,1089.8711],[33.0448,-13.395,1096.5458],[33.0448,-13.4123,1081.2667],[33.0241,-13.4101,1093.97],[33.0175,-13.4114,1083.9614],[33.0257,-13.4309,1070.2568],[33.0243,-13.4426,1064.0107],[33.0307,-13.4447,1060.5592],[33.0438,-13.4427,1058.3806],[33.0625,-13.4364,1058.8879],[33.0742,-13.4458,1054.6079],[33.0772,-13.446,1052.3201],[33.0827,-13.4405,1054.3086],[33.0907,-13.4413,1052.436],[33.095,-13.4379,1052.9993],[33.0963,-13.4417,1051.0464],[33.0984,-13.4419,1050.8175],[33.1032,-13.4365,1049.3408],[33.1049,-13.4389,1049.4968],[33.1099,-13.4381,1049.8339],[33.1154,-13.4394,1049.4314],[33.1194,-13.4502,1048.6697],[33.1292,-13.4433,1047.7736],[33.1326,-13.4295,1046.2693]]]]}
,"properties": {"GID_3": "MWI.14.5.4_1","GID_0": "MWI","country": "Malawi","GID_1": "MWI.14_1","province": "Mchinji","NL_NAME_1": "NA","GID_2": "MWI.14.5_1","county": "TAMkanda","NL_NAME_2": "NA","city": "n.a.(617)","VARNAME_3": "NA","NL_NAME_3": "NA","TYPE_3": "Unknown","ENGTYPE_3": "Unknown","CC_3": "NA","HASC_3": "NA","name": "n.a.(617).city","area_km2": 40.77134,"hist_schema_id": "Elevation0-9000","hist_area_km2": {"1050": 14.22924,"1075": 23.92281,"1100": 2.61929}}}