{"type": "Feature","bbox": [34.5085,-15.7223,34.6265,-15.6297],"geometry": {"type": "MultiPolygon","coordinates": [[[[34.6229,-15.7025,297.0327],[34.6265,-15.6986,291.9852],[34.6214,-15.6911,309.3412],[34.6161,-15.6901,303.3678],[34.6151,-15.6854,312.186],[34.6073,-15.6844,320.8678],[34.597,-15.6762,319.3896],[34.5987,-15.6663,331.8623],[34.5924,-15.6617,337.1656],[34.5929,-15.655,348.9171],[34.5902,-15.6482,348.4188],[34.5913,-15.6432,350.5458],[34.587,-15.6412,351.7681],[34.5837,-15.6363,355.6055],[34.5828,-15.6297,363.5055],[34.5761,-15.6315,364.7585],[34.5668,-15.6367,387.7679],[34.5406,-15.6381,560.1728],[34.5239,-15.6332,639.1226],[34.516,-15.6395,621.2292],[34.5167,-15.6548,610.3693],[34.5112,-15.6613,609.0559],[34.5116,-15.6642,606.017],[34.5154,-15.6685,595.5691],[34.5143,-15.6726,589.1746],[34.5109,-15.6741,594.0276],[34.5119,-15.6779,585.4297],[34.5085,-15.6825,578.745],[34.5106,-15.6856,583.5897],[34.5103,-15.6894,576.5363],[34.514,-15.6939,570.0425],[34.5135,-15.6988,567.1423],[34.5156,-15.7007,574.3756],[34.5102,-15.7047,562.9442],[34.5131,-15.7101,552.7324],[34.5188,-15.7032,571.9697],[34.5262,-15.7005,642.2948],[34.531,-15.7005,621.2306],[34.5402,-15.7037,634.5382],[34.5696,-15.7025,451.5838],[34.5714,-15.7126,471.8372],[34.5761,-15.721,445.5058],[34.5799,-15.7211,426.6122],[34.5833,-15.7176,454.9762],[34.586,-15.7205,396.0876],[34.5907,-15.7223,384.5894],[34.5932,-15.7195,388.1319],[34.6003,-15.7167,344.8093],[34.6105,-15.7064,358.3247],[34.6196,-15.7018,309.614],[34.6229,-15.7025,297.0327]]]]}
,"properties": {"GID_3": "MWI.16.3.6_1","GID_0": "MWI","country": "Malawi","GID_1": "MWI.16_1","province": "Mwanza","NL_NAME_1": "NA","GID_2": "MWI.16.3_1","county": "TAKanduku","NL_NAME_2": "NA","city": "n.a.(2392)","VARNAME_3": "NA","NL_NAME_3": "NA","TYPE_3": "Unknown","ENGTYPE_3": "Unknown","CC_3": "NA","HASC_3": "NA","name": "n.a.(2392).city","area_km2": 77.6534,"hist_schema_id": "Elevation0-9000","hist_area_km2": {"275": 0.02041,"300": 1.38802,"325": 4.00082,"350": 9.61468,"375": 10.94162,"400": 4.57256,"425": 4.0623,"450": 4.49098,"475": 5.47093,"500": 3.96032,"525": 2.65388,"550": 2.44962,"575": 4.51126,"600": 7.45098,"625": 7.61467,"650": 2.93974,"675": 1.04111,"700": 0.22456,"725": 0.04082,"750": 0.06123,"775": 0.04082,"800": 0.06123,"825": 0.04082}}}