{"type": "Feature","bbox": [33.227,-13.9351,33.2671,-13.8675],"geometry": {"type": "MultiPolygon","coordinates": [[[[33.2622,-13.8675,1060.4854],[33.2502,-13.8772,1081.9822],[33.2419,-13.8753,1095.3931],[33.2291,-13.8941,1105.4985],[33.2276,-13.9042,1109.5154],[33.2312,-13.913,1112.9583],[33.2379,-13.9108,1108.9116],[33.2407,-13.9116,1107.4775],[33.2422,-13.9178,1100.9316],[33.2474,-13.923,1089.8149],[33.2437,-13.9245,1097.121],[33.2382,-13.9237,1100.1344],[33.227,-13.9351,1121.8381],[33.2536,-13.9348,1095.7317],[33.2495,-13.9295,1091.4211],[33.2495,-13.9245,1085.9337],[33.2541,-13.9161,1084.3705],[33.2619,-13.9082,1074.7505],[33.2637,-13.8998,1071.749],[33.263,-13.8897,1066.8362],[33.267,-13.8799,1062.8307],[33.2671,-13.8778,1059.8804],[33.2634,-13.8751,1059.4261],[33.2622,-13.8675,1060.4854]]]]}
,"properties": {"GID_3": "MWI.14.3.2_1","GID_0": "MWI","country": "Malawi","GID_1": "MWI.14_1","province": "Mchinji","NL_NAME_1": "NA","GID_2": "MWI.14.3_1","county": "SCMavwere","NL_NAME_2": "NA","city": "n.a.(1026)","VARNAME_3": "NA","NL_NAME_3": "NA","TYPE_3": "Unknown","ENGTYPE_3": "Unknown","CC_3": "NA","HASC_3": "NA","name": "n.a.(1026).city","area_km2": 18.02922,"hist_schema_id": "Elevation0-9000","hist_area_km2": {"1050": 0.26759,"1075": 4.52808,"1100": 12.88372,"1125": 0.34983}}}