{"type": "Feature","bbox": [33.3945,-13.9489,33.6923,-13.68],"geometry": {"type": "MultiPolygon","coordinates": [[[[33.5468,-13.9235,1143.6522],[33.5558,-13.9242,1136.4175],[33.5613,-13.92,1128.3108],[33.5662,-13.9199,1124.2988],[33.576,-13.9246,1127.6658],[33.5775,-13.927,1116.6068],[33.5819,-13.9265,1112.2458],[33.5885,-13.9225,1110.798],[33.5963,-13.9141,1105.5253],[33.6063,-13.9098,1100.433],[33.6113,-13.9051,1101.5415],[33.6277,-13.8953,1099.8329],[33.6323,-13.8972,1090.3801],[33.6415,-13.9066,1085.5938],[33.6519,-13.9074,1083.4224],[33.6617,-13.9123,1087.3088],[33.6717,-13.9112,1089.6704],[33.69,-13.9153,1078.7733],[33.6919,-13.9142,1074.3458],[33.6923,-13.9115,1076.5643],[33.6834,-13.9019,1089.5249],[33.6797,-13.8893,1097.1892],[33.6738,-13.8807,1102.2207],[33.6701,-13.8779,1104.8215],[33.6614,-13.8769,1105.7648],[33.6585,-13.8664,1113.302],[33.6536,-13.8568,1120.7881],[33.6337,-13.8454,1131.519],[33.6279,-13.8315,1139.182],[33.6228,-13.8253,1144.2727],[33.6226,-13.8232,1151.6798],[33.6269,-13.8211,1157.5245],[33.6387,-13.8065,1161.3995],[33.642,-13.7832,1184.8723],[33.6331,-13.7857,1182.9893],[33.6301,-13.7839,1190.4073],[33.6249,-13.7714,1199.6809],[33.6264,-13.7625,1213.4773],[33.6214,-13.7467,1227.1116],[33.6076,-13.7464,1210.0413],[33.601,-13.7427,1204.9974],[33.5846,-13.7279,1178.9016],[33.5833,-13.7243,1193.1755],[33.5747,-13.7237,1178.6517],[33.562,-13.7173,1169.3491],[33.5603,-13.7137,1174.3593],[33.5568,-13.7116,1169.1234],[33.545,-13.7114,1169.4564],[33.53,-13.7215,1147.3419],[33.5093,-13.7192,1129.9197],[33.5019,-13.7094,1116.8546],[33.5026,-13.6988,1115.0531],[33.5008,-13.6949,1113.5027],[33.4925,-13.6842,1125.0444],[33.4883,-13.6826,1126.8589],[33.4813,-13.6837,1119.5603],[33.4709,-13.6893,1110.2677],[33.4672,-13.6897,1104.1812],[33.4556,-13.68,1089.2935],[33.442,-13.6884,1110.9697],[33.4381,-13.6952,1102.4911],[33.4396,-13.7019,1105.5715],[33.4383,-13.7111,1109.0222],[33.4216,-13.7273,1129.3065],[33.4214,-13.7315,1127.9331],[33.4272,-13.7385,1134.2527],[33.4287,-13.7463,1141.9318],[33.4344,-13.7499,1153.1332],[33.435,-13.7539,1155.4053],[33.4278,-13.7635,1161.4515],[33.4162,-13.7706,1140.4008],[33.4101,-13.7814,1119.9747],[33.3987,-13.7877,1113.1024],[33.3947,-13.7985,1099.6968],[33.3945,-13.8163,1110.729],[33.3969,-13.8259,1118.2272],[33.3992,-13.8278,1123.7343],[33.4053,-13.8231,1133.8655],[33.4089,-13.8234,1135.7014],[33.4211,-13.8358,1138.9076],[33.4164,-13.8557,1145.2037],[33.4166,-13.8616,1150.1311],[33.4282,-13.8719,1160.728],[33.4373,-13.8903,1180.3284],[33.4376,-13.8963,1185.1185],[33.4327,-13.9043,1188.8762],[33.43,-13.9067,1194.4722],[33.422,-13.9089,1183.1814],[33.4361,-13.9188,1207.9327],[33.445,-13.9222,1193.6824],[33.4776,-13.9144,1172.0889],[33.4864,-13.9091,1156.7346],[33.492,-13.9015,1160.8226],[33.5007,-13.8977,1159.7426],[33.5129,-13.8962,1156.1687],[33.5291,-13.8991,1137.4628],[33.5333,-13.9041,1135.3782],[33.5326,-13.914,1137.3379],[33.5284,-13.9179,1144.2175],[33.5191,-13.9204,1156.8932],[33.5159,-13.9237,1151.364],[33.5213,-13.9489,1160.0292],[33.5258,-13.9418,1148.6843],[33.5374,-13.9298,1149.3407],[33.5468,-13.9235,1143.6522]]]]}
,"properties": {"GID_2": "MWI.11.10_1","GID_0": "MWI","country": "Malawi","GID_1": "MWI.11_1","province": "Lilongwe","NL_NAME_1": "NA","county": "TAKabudula","VARNAME_2": "NA","NL_NAME_2": "NA","TYPE_2": "TraditionalAuthority","ENGTYPE_2": "TraditionalAuthority","CC_2": "NA","HASC_2": "NA","name": "T_A_Kabudula.county","area_km2": 539.0741,"hist_schema_id": "Elevation0-9000","hist_area_km2": {"1075": 1.9965,"1100": 31.1701,"1125": 107.6785,"1150": 174.4259,"1175": 153.6513,"1200": 57.7956,"1225": 11.8001,"1250": 0.556}}}