{"type":"Feature","properties":{"GID_3":"MWI.28.5.10_1","GID_0":"MWI","country":"Malawi","GID_1":"MWI.28_1","province":"Zomba","NL_NAME_1":"NA","GID_2":"MWI.28.5_1","county":"TAKuntumanji","NL_NAME_2":"NA","city":"n.a.(2107)","VARNAME_3":"NA","NL_NAME_3":"NA","TYPE_3":"Unknown","ENGTYPE_3":"Unknown","CC_3":"NA","HASC_3":"NA","name":"n.a.(2107).city"},
"geometry":{"type": "MultiPolygon","coordinates": [[[[35.565,-15.3147,622.5],[35.5297,-15.3065,624.4828],[35.518,-15.3094,626.2975],[35.506,-15.3061,630.3008],[35.5025,-15.3076,633.5399],[35.4967,-15.3065,639.7313],[35.4934,-15.3082,640.0765],[35.4889,-15.3036,642.1286],[35.4861,-15.3029,644.466],[35.4825,-15.3056,647.5618],[35.4817,-15.3083,649.4137],[35.4841,-15.3143,644.4182],[35.4879,-15.3154,641.8979],[35.487,-15.3182,641.6452],[35.4816,-15.3247,650.3595],[35.4803,-15.3295,654.8013],[35.4769,-15.3304,661.7714],[35.4722,-15.3363,668.9551],[35.4825,-15.3394,670.443],[35.4898,-15.3365,643.1205],[35.4914,-15.3375,642.678],[35.5019,-15.33,633.3404],[35.5176,-15.328,625.9777],[35.5204,-15.3256,625.5327],[35.5263,-15.3286,624.1906],[35.5632,-15.3364,622.5],[35.565,-15.3147,622.5]]]]}}