{"type": "Feature","bbox": [35.7828,-15.5362,35.8503,-15.4505],"geometry": {"type": "MultiPolygon","coordinates": [[[[35.7828,-15.4933,622.5],[35.7843,-15.5111,623.4146],[35.7913,-15.514099999999999,627.5173],[35.7965,-15.5236,652.4009],[35.8049,-15.5327,679.8207],[35.8146,-15.5285,658.9861],[35.8222,-15.5358,658.3737],[35.8423,-15.5362,639.2368],[35.8503,-15.4505,623.7629],[35.8426,-15.4505,622.5],[35.8427,-15.4532,622.5],[35.8402,-15.4546,622.5],[35.8406,-15.4574,622.5],[35.838,-15.4586,622.5],[35.8377,-15.4698,622.5],[35.8337,-15.4685,622.5],[35.8273,-15.4807,622.5],[35.8196,-15.4843,622.5],[35.8177,-15.4879,622.5],[35.8084,-15.4878,622.5],[35.8004,-15.4911,622.5],[35.7884,-15.4915,622.5],[35.7828,-15.4933,622.5]]]]}
,"properties": {"GID_3": "MWI.24.3.1_1","GID_0": "MWI","country": "Malawi","GID_1": "MWI.24_1","province": "Phalombe","NL_NAME_1": "NA","GID_2": "MWI.24.3_1","county": "TANazombe","NL_NAME_2": "NA","city": "n.a.(2214)","VARNAME_3": "NA","NL_NAME_3": "NA","TYPE_3": "Unknown","ENGTYPE_3": "Unknown","CC_3": "NA","HASC_3": "NA","name": "n.a.(2214).city","area_km2": 35.9991,"hist_schema_id": "Elevation0-9000","hist_area_km2": {"625": 29.80925,"650": 5.33185,"675": 0.53114,"700": 0.16343,"725": 0.12257,"750": 0.04086}}}