{"type":"Feature","properties":{"GID_3":"MWI.1.2.33_1","GID_0":"MWI","country":"Malawi","GID_1":"MWI.1_1","province":"Balaka","NL_NAME_1":"NA","GID_2":"MWI.1.2_1","county":"TAKalembo","NL_NAME_2":"NA","city":"n.a.(1944)","VARNAME_3":"NA","NL_NAME_3":"NA","TYPE_3":"Unknown","ENGTYPE_3":"Unknown","CC_3":"NA","HASC_3":"NA","name":"n.a.(1944).city"},
"geometry":{"type": "MultiPolygon","coordinates": [[[[35.1707,-14.973,537.4595],[35.1623,-14.9872,553.8812],[35.1729,-14.9963,521.1782],[35.1753,-15.0084,515.0961],[35.183,-15.0056,507.5228],[35.198,-15.005,498.7412],[35.1961,-15.0026,501.3654],[35.198,-14.9998,502.1525],[35.1969,-14.9976,502.5321],[35.1904,-14.9961,507.9109],[35.1814,-14.9861,517.1616],[35.1795,-14.9811,522.6145],[35.1875,-14.9627,516.3817],[35.176,-14.9641,560.8435],[35.1707,-14.973,537.4595]]]]}}