{"type":"Feature","properties":{"GID_3":"MWI.6.4.11_1","GID_0":"MWI","country":"Malawi","GID_1":"MWI.6_1","province":"Dedza","NL_NAME_1":"NA","GID_2":"MWI.6.4_1","county":"SCChilikumwendo","NL_NAME_2":"NA","city":"n.a.(1489)","VARNAME_3":"NA","NL_NAME_3":"NA","TYPE_3":"Unknown","ENGTYPE_3":"Unknown","CC_3":"NA","HASC_3":"NA","name":"n.a.(1489).city"},
"geometry":{"type": "MultiPolygon","coordinates": [[[[33.9171,-14.3435,1221.3324],[33.9222,-14.3524,1204.9619],[33.9347,-14.3502,1189.1324],[33.9346,-14.3566,1185.7893],[33.9438,-14.3605,1204.4039],[33.9507,-14.3673,1211.624],[33.9619,-14.3726,1226.2297],[33.9706,-14.3741,1237.877],[33.9659,-14.3636,1225.5902],[33.9603,-14.3656,1228.9431],[33.9587,-14.3643,1228.1693],[33.956,-14.355,1216.6658],[33.9604,-14.354,1209.1423],[33.955,-14.3522,1206.3331],[33.9543,-14.3501,1201.1782],[33.9573,-14.349,1207.1185],[33.9565,-14.3471,1213.1581],[33.9522,-14.347,1197.9365],[33.9406,-14.3422,1185.5098],[33.9391,-14.341,1186.3564],[33.9414,-14.3376,1190.5914],[33.9404,-14.3357,1194.0817],[33.9238,-14.33,1245.067],[33.9204,-14.3361,1229.22],[33.922,-14.3379,1230.3547],[33.9201,-14.3385,1225.2537],[33.9171,-14.3435,1221.3324]]]]}}