{"type": "Feature","bbox": [35.3659,-15.3403,35.3912,-15.3073],"geometry": {"type": "MultiPolygon","coordinates": [[[[35.3659,-15.3359,968.1469],[35.3812,-15.3403,819.3373],[35.3896,-15.338,794.1707],[35.3912,-15.3281,776.7505],[35.3832,-15.3262,823.7504],[35.3814,-15.323,843.7163],[35.3815,-15.3198,846.8384],[35.3861,-15.3152,803.0016],[35.3855,-15.3122,811.9417],[35.3763,-15.3073,842.0581],[35.3733,-15.3118,938.5176],[35.3713,-15.3125,971.2838],[35.3709,-15.3275,953.4884],[35.3683,-15.3282,966.7071],[35.368,-15.3327,953.9],[35.3659,-15.3359,968.1469]]]]}
,"properties": {"GID_3": "MWI.28.6.16_1","GID_0": "MWI","country": "Malawi","GID_1": "MWI.28_1","province": "Zomba","NL_NAME_1": "NA","GID_2": "MWI.28.6_1","county": "TAMalemia","NL_NAME_2": "NA","city": "n.a.(2109)","VARNAME_3": "NA","NL_NAME_3": "NA","TYPE_3": "Unknown","ENGTYPE_3": "Unknown","CC_3": "NA","HASC_3": "NA","name": "n.a.(2109).city","area_km2": 5.602801,"hist_schema_id": "Elevation0-9000","hist_area_km2": {"775": 0.245373,"800": 0.981481,"825": 1.063307,"850": 1.267806,"875": 0.695246,"900": 0.593002,"925": 0.327177,"950": 0.32717,"975": 0.102239}}}