{"type": "Feature","bbox": [34.0515,-14.1736,34.0805,-14.1342],"geometry": {"type": "MultiPolygon","coordinates": [[[[34.0788,-14.1383,1159.8252],[34.0744,-14.1381,1154.6051],[34.0647,-14.1342,1169.3589],[34.0623,-14.1352,1163.5767],[34.0579,-14.1429,1177.0438],[34.0601,-14.1443,1165.1226],[34.06,-14.1484,1158.636],[34.0577,-14.1522,1167.7303],[34.0592,-14.1561,1166.2913],[34.0515,-14.1651,1159.9817],[34.0629,-14.1723,1189.4999],[34.0726,-14.1736,1210.8909],[34.0782,-14.171,1210.0021],[34.0805,-14.1675,1202.0076],[34.0784,-14.1654,1196.689],[34.0771,-14.1589,1195.2588],[34.0787,-14.1527,1174.9176],[34.0774,-14.1416,1160.5337],[34.0788,-14.1383,1159.8252]]]]}
,"properties": {"GID_3": "MWI.6.7.7_1","GID_0": "MWI","country": "Malawi","GID_1": "MWI.6_1","province": "Dedza","NL_NAME_1": "NA","GID_2": "MWI.6.7_1","county": "TAKaphuka","NL_NAME_2": "NA","city": "n.a.(1290)","VARNAME_3": "NA","NL_NAME_3": "NA","TYPE_3": "Unknown","ENGTYPE_3": "Unknown","CC_3": "NA","HASC_3": "NA","name": "n.a.(1290).city","area_km2": 8.696215,"hist_schema_id": "Elevation0-9000","hist_area_km2": {"1150": 1.130772,"1175": 4.235094,"1200": 3.063107,"1225": 0.267242}}}