{"type": "Feature","bbox": [35.4311,-15.4656,35.4616,-15.4297],"geometry": {"type": "MultiPolygon","coordinates": [[[[35.4323,-15.4521,725.7457],[35.4385,-15.452,715.4734],[35.4393,-15.4587,721.335],[35.4425,-15.4619,718.9326],[35.4597,-15.4656,705.1592],[35.4616,-15.4617,703.6224],[35.4613,-15.4385,698.0063],[35.4587,-15.4371,692.9622],[35.4487,-15.4402,700.501],[35.4508,-15.436,708.1562],[35.4503,-15.4333,710.3722],[35.4477,-15.4324,714.3876],[35.4405,-15.4341,716.9038],[35.4369,-15.4303,721.7007],[35.4343,-15.4297,727.5121],[35.4312,-15.4402,719.1634],[35.4311,-15.4502,727.2025],[35.4323,-15.4521,725.7457]]]]}
,"properties": {"GID_3": "MWI.28.8.18_1","GID_0": "MWI","country": "Malawi","GID_1": "MWI.28_1","province": "Zomba","NL_NAME_1": "NA","GID_2": "MWI.28.8_1","county": "TAMwambo","NL_NAME_2": "NA","city": "n.a.(2199)","VARNAME_3": "NA","NL_NAME_3": "NA","TYPE_3": "Unknown","ENGTYPE_3": "Unknown","CC_3": "NA","HASC_3": "NA","name": "n.a.(2199).city","area_km2": 9.298486,"hist_schema_id": "Elevation0-9000","hist_area_km2": {"700": 5.701701,"725": 3.596785}}}