{"type": "Feature","bbox": [35.516,-15.7319,35.5671,-15.7112],"geometry": {"type": "MultiPolygon","coordinates": [[[[35.5174,-15.7279,705.389],[35.5179,-15.7319,704.2726],[35.5493,-15.7302,705.0516],[35.5542,-15.7292,704.3168],[35.5671,-15.7188,702.6631],[35.5593,-15.7193,702.3207],[35.5486,-15.7142,699.0361],[35.5408,-15.7135,705.9457],[35.5364,-15.7112,695.5435],[35.516,-15.7119,694.5452],[35.5174,-15.7279,705.389]]]]}
,"properties": {"GID_3": "MWI.24.2.38_1","GID_0": "MWI","country": "Malawi","GID_1": "MWI.24_1","province": "Phalombe","NL_NAME_1": "NA","GID_2": "MWI.24.2_1","county": "TAMkhumba","NL_NAME_2": "NA","city": "n.a.(2483)","VARNAME_3": "NA","NL_NAME_3": "NA","TYPE_3": "Unknown","ENGTYPE_3": "Unknown","CC_3": "NA","HASC_3": "NA","name": "n.a.(2483).city","area_km2": 8.939152,"hist_schema_id": "Elevation0-9000","hist_area_km2": {"700": 7.367671,"725": 1.22453,"750": 0.163271,"775": 0.122453,"800": 0.040818,"825": 0.020409}}}