{"type": "Feature","bbox": [33.4264,-12.9914,33.4781,-12.912],"geometry": {"type": "MultiPolygon","coordinates": [[[[33.4688,-12.913,1023.5645],[33.4483,-12.9158,998.6942],[33.4432,-12.912,1006.6362],[33.4384,-12.9196,1008.8209],[33.432,-12.923,1016.6393],[33.4274,-12.933,1030.8621],[33.4264,-12.9441,1052.8162],[33.4402,-12.9383,1016.8821],[33.4517,-12.9367,999.0344],[33.4498,-12.9458,1003.3489],[33.4448,-12.9565,1015.6446],[33.4436,-12.964,1013.8239],[33.4325,-12.9706,1031.7999],[33.4299,-12.9787,1036.634],[33.4414,-12.9862,1033.3507],[33.4563,-12.9914,1053.2749],[33.4588,-12.9912,1052.512],[33.4607,-12.9823,1045.3346],[33.4751,-12.9551,1036.8225],[33.4749,-12.9458,1039.2949],[33.4781,-12.9302,1043.991],[33.4688,-12.913,1023.5645]]]]}
,"properties": {"GID_3": "MWI.9.14.3_1","GID_0": "MWI","country": "Malawi","GID_1": "MWI.9_1","province": "Kasungu","NL_NAME_1": "NA","GID_2": "MWI.9.14_1","county": "TAMwase","NL_NAME_2": "NA","city": "n.a.(435)","VARNAME_3": "NA","NL_NAME_3": "NA","TYPE_3": "Unknown","ENGTYPE_3": "Unknown","CC_3": "NA","HASC_3": "NA","name": "n.a.(435).city","area_km2": 29.73418,"hist_schema_id": "Elevation0-9000","hist_area_km2": {"975": 0.062,"1000": 6.05477,"1025": 18.1628,"1050": 5.39263,"1075": 0.06198}}}