{"type":"Feature","properties":{"GID_2":"MWI.13.3_1","GID_0":"MWI","country":"Malawi","GID_1":"MWI.13_1","province":"Mangochi","NL_NAME_1":"NA","county":"MangochiTown","VARNAME_2":"NA","NL_NAME_2":"NA","TYPE_2":"Town","ENGTYPE_2":"Town","CC_2":"NA","HASC_2":"NA","name":"Mangochi_Town.county"},
"geometry":{"type": "MultiPolygon","coordinates": [[[[35.2776,-14.488,481.5763],[35.2824,-14.4882,482.6169],[35.2828,-14.4707,477.0128],[35.281,-14.4694,477.356],[35.2721,-14.4708,475.3531],[35.2621,-14.4648,473.5],[35.2538,-14.4646,475.6677],[35.2492,-14.4655,480.928],[35.2402,-14.4713,483.8164],[35.2402,-14.492,482.5941],[35.2566,-14.4922,479.4741],[35.2648,-14.4959,477.5876],[35.2707,-14.4949,474.2882],[35.2744,-14.4879,474.2654],[35.2776,-14.488,481.5763]]]]}}