{"type":"Feature","properties":{"GID_3":"MWI.11.16.26_1","GID_0":"MWI","country":"Malawi","GID_1":"MWI.11_1","province":"Lilongwe","NL_NAME_1":"NA","GID_2":"MWI.11.16_1","county":"TAMazengera","NL_NAME_2":"NA","city":"n.a.(1213)","VARNAME_3":"NA","NL_NAME_3":"NA","TYPE_3":"Unknown","ENGTYPE_3":"Unknown","CC_3":"NA","HASC_3":"NA","name":"n.a.(1213).city"},
"geometry":{"type": "MultiPolygon","coordinates": [[[[34.0361,-14.1005,1211.7227],[34.0547,-14.1023,1267.8121],[34.0493,-14.1187,1251.1165],[34.0495,-14.123,1243.3983],[34.0521,-14.1244,1285.2843],[34.0572,-14.1183,1239.4338],[34.0629,-14.1167,1218.5885],[34.0648,-14.1087,1225.2809],[34.0679,-14.1085,1202.1898],[34.0635,-14.1028,1254.6058],[34.0674,-14.1022,1282.7777],[34.0695,-14.0999,1241.6169],[34.0738,-14.101,1222.5819],[34.0775,-14.0911,1276.5211],[34.0763,-14.0887,1396.7439],[34.073,-14.0877,1320.5869],[34.0719,-14.0832,1349.0178],[34.0717,-14.0788,1326.9941],[34.0746,-14.0744,1308.3862],[34.0703,-14.0739,1286.5184],[34.0687,-14.0715,1273.1411],[34.0642,-14.0732,1281.5547],[34.0614,-14.0898,1271.2611],[34.0535,-14.0919,1258.7366],[34.0445,-14.0892,1232.4448],[34.0393,-14.0983,1216.1136],[34.0361,-14.1005,1211.7227]]]]}}