{"type": "Feature","bbox": [35.1153,-13.9631,35.1513,-13.8979],"geometry": {"type": "MultiPolygon","coordinates": [[[[35.1243,-13.9631,477.3115],[35.1329,-13.9594,480.842],[35.1442,-13.9584,486.8244],[35.1472,-13.9561,506.1154],[35.149,-13.9519,507.1404],[35.1513,-13.952,512.8049],[35.14,-13.9219,543.577],[35.133,-13.8979,534.2957],[35.1214,-13.9037,483.2336],[35.1153,-13.9035,474.5],[35.1197,-13.9084,474.5],[35.1232,-13.9168,475.1288],[35.1223,-13.9234,474.5],[35.1266,-13.9447,474.5],[35.1209,-13.9519,474.5],[35.1203,-13.9558,474.5],[35.1209,-13.9617,476.5026],[35.1243,-13.9631,477.3115]]]]}
,"properties": {"GID_3": "MWI.13.11.2_1","GID_0": "MWI","country": "Malawi","GID_1": "MWI.13_1","province": "Mangochi","NL_NAME_1": "NA","GID_2": "MWI.13.11_1","county": "TAMakanjila","NL_NAME_2": "NA","city": "n.a.(1050)","VARNAME_3": "NA","NL_NAME_3": "NA","TYPE_3": "Unknown","ENGTYPE_3": "Unknown","CC_3": "NA","HASC_3": "NA","name": "n.a.(1050).city","area_km2": 14.38424,"hist_schema_id": "Elevation0-9000","hist_area_km2": {"475": 7.8402,"500": 3.93055,"525": 2.22252,"550": 0.28809,"575": 0.08231,"600": 0.02058}}}