{"type": "Feature","bbox": [35.1687,-15.3894,35.2265,-15.3448],"geometry": {"type": "MultiPolygon","coordinates": [[[[35.1722,-15.3448,598.689],[35.1715,-15.3526,591.4699],[35.1687,-15.3562,584.7739],[35.182,-15.3663,597.6484],[35.1904,-15.3769,614.4616],[35.1939,-15.3792,623.0371],[35.1989,-15.3765,636.7792],[35.2104,-15.3833,678.9976],[35.2179,-15.3813,906.6383],[35.2213,-15.3894,933.1296],[35.2246,-15.3881,913.848],[35.2265,-15.3795,1015.1063],[35.2175,-15.3748,744.3668],[35.2202,-15.3649,685.1362],[35.2126,-15.3617,641.5476],[35.2109,-15.3584,634.1971],[35.2031,-15.3583,624.421],[35.1938,-15.3448,605.5175],[35.1722,-15.3448,598.689]]]]}
,"properties": {"GID_3": "MWI.28.7.21_1","GID_0": "MWI","country": "Malawi","GID_1": "MWI.28_1","province": "Zomba","NL_NAME_1": "NA","GID_2": "MWI.28.7_1","county": "TAMlumbe","NL_NAME_2": "NA","city": "n.a.(2131)","VARNAME_3": "NA","NL_NAME_3": "NA","TYPE_3": "Unknown","ENGTYPE_3": "Unknown","CC_3": "NA","HASC_3": "NA","name": "n.a.(2131).city","area_km2": 14.04536,"hist_schema_id": "Elevation0-9000","hist_area_km2": {"575": 0.08178,"600": 6.21536,"625": 3.7413,"650": 1.79905,"675": 0.81774,"700": 0.32709,"725": 0.10222,"750": 0.1431,"775": 0.02044,"800": 0.04089,"825": 0.04089,"850": 0.06133,"875": 0.06133,"900": 0.02044,"925": 0.08177,"950": 0.06133,"975": 0.20442,"1000": 0.04089,"1025": 0.1431,"1050": 0.02044,"1075": 0.02044}}}