{"type":"Feature","properties":{"GID_3":"MWI.7.5.11_1","GID_0":"MWI","country":"Malawi","GID_1":"MWI.7_1","province":"Dowa","NL_NAME_1":"NA","GID_2":"MWI.7.5_1","county":"SCMkukula","NL_NAME_2":"NA","city":"n.a.(863)","VARNAME_3":"NA","NL_NAME_3":"NA","TYPE_3":"Unknown","ENGTYPE_3":"Unknown","CC_3":"NA","HASC_3":"NA","name":"n.a.(863).city"},
"geometry":{"type": "MultiPolygon","coordinates": [[[[33.7572,-13.7063,1267.5061],[33.7578,-13.7105,1261.8436],[33.7631,-13.7188,1256.3759],[33.7623,-13.7279,1244.3601],[33.7649,-13.7359,1244.6887],[33.7572,-13.7528,1223.6211],[33.7602,-13.7584,1216.0939],[33.767,-13.7632,1212.8167],[33.7814,-13.7529,1219.5684],[33.7772,-13.7421,1234.4929],[33.7784,-13.7354,1250.5439],[33.7871,-13.7352,1251.3909],[33.7924,-13.7319,1234.0109],[33.7854,-13.7238,1245.4131],[33.7781,-13.7086,1265.6292],[33.7572,-13.7063,1267.5061]]]]}}