{"type":"Feature","properties":{"GID_3":"MWI.27.7.9_1","GID_0":"MWI","country":"Malawi","GID_1":"MWI.27_1","province":"Thyolo","NL_NAME_1":"NA","GID_2":"MWI.27.7_1","county":"TAChangata","NL_NAME_2":"NA","city":"n.a.(2989)","VARNAME_3":"NA","NL_NAME_3":"NA","TYPE_3":"Unknown","ENGTYPE_3":"Unknown","CC_3":"NA","HASC_3":"NA","name":"n.a.(2989).city"},
"geometry":{"type": "MultiPolygon","coordinates": [[[[35.112,-16.3111,392.4466],[35.1174,-16.306,404.767],[35.1176,-16.3026,495.4304],[35.1218,-16.2991,480.4015],[35.1292,-16.301,558.0671],[35.1302,-16.3054,509.4484],[35.1371,-16.3105,573.5692],[35.1499,-16.2935,762.5529],[35.1534,-16.2922,811.3417],[35.1615,-16.2821,929.5587],[35.1588,-16.278,829.9341],[35.1603,-16.2726,810.6387],[35.1597,-16.2644,870.8975],[35.1556,-16.263,877.4596],[35.1531,-16.2641,874.0907],[35.1484,-16.257,914.5165],[35.145,-16.2595,900.897],[35.1407,-16.2518,949.2477],[35.1375,-16.2569,948.9944],[35.1354,-16.2648,849.3763],[35.1319,-16.2688,710.9566],[35.1287,-16.2809,475.0591],[35.1207,-16.2839,413.4622],[35.1024,-16.2845,323.0094],[35.0998,-16.2947,658.0896],[35.1033,-16.3014,654.8253],[35.112,-16.3111,392.4466]]]]}}