{"type": "Feature","bbox": [33.3824,-13.6147,33.4492,-13.5462],"geometry": {"type": "MultiPolygon","coordinates": [[[[33.4411,-13.5462,1057.3271],[33.4321,-13.5501,1075.8899],[33.425,-13.557,1079.3817],[33.4197,-13.5718,1085.7046],[33.4203,-13.5755,1083.5045],[33.424,-13.5799,1082.0782],[33.4237,-13.5829,1084.3342],[33.4113,-13.5815,1098.2046],[33.4088,-13.5761,1109.5101],[33.4023,-13.5799,1095.6509],[33.3972,-13.5871,1071.4088],[33.3912,-13.5922,1072.028],[33.3828,-13.6106,1074.798],[33.3824,-13.6147,1079.3472],[33.3932,-13.6112,1105.5],[33.4121,-13.611,1102.5718],[33.4211,-13.6126,1095.4712],[33.4269,-13.6073,1090.8181],[33.4348,-13.6085,1097.416],[33.4424,-13.6137,1086.7537],[33.4492,-13.6112,1065.9215],[33.4491,-13.5912,1066.5375],[33.4376,-13.5716,1066.0828],[33.4391,-13.5523,1055.7048],[33.4411,-13.5462,1057.3271]]]]}
,"properties": {"GID_3": "MWI.11.14.5_1","GID_0": "MWI","country": "Malawi","GID_1": "MWI.11_1","province": "Lilongwe","NL_NAME_1": "NA","GID_2": "MWI.11.14_1","county": "TAKhongoni","NL_NAME_2": "NA","city": "n.a.(719)","VARNAME_3": "NA","NL_NAME_3": "NA","TYPE_3": "Unknown","ENGTYPE_3": "Unknown","CC_3": "NA","HASC_3": "NA","name": "n.a.(719).city","area_km2": 27.03842,"hist_schema_id": "Elevation0-9000","hist_area_km2": {"1050": 1.64885,"1075": 14.385,"1100": 10.88092,"1125": 0.12364}}}