{"type": "Feature","bbox": [33.3464,-14.1237,33.3944,-14.0664],"geometry": {"type": "MultiPolygon","coordinates": [[[[33.3933,-14.0851,1197.2284],[33.3864,-14.0853,1190.3152],[33.3814,-14.0887,1177.178],[33.3804,-14.084,1178.9443],[33.3747,-14.0825,1162.4945],[33.3707,-14.0857,1173.9824],[33.3624,-14.0884,1178.5596],[33.3578,-14.0668,1159.861],[33.3491,-14.0664,1138.2258],[33.3515,-14.0703,1136.4814],[33.35,-14.0744,1148.2383],[33.3519,-14.0847,1154.8086],[33.3464,-14.0935,1166.8682],[33.3496,-14.0942,1154.894],[33.3485,-14.1004,1152.675],[33.355,-14.108,1169.6375],[33.3503,-14.1095,1177.9922],[33.3529,-14.1157,1190.1372],[33.3528,-14.1194,1191.6735],[33.3612,-14.1189,1185.6602],[33.3745,-14.1211,1208.1335],[33.3766,-14.1185,1208.697],[33.3829,-14.1237,1215.6284],[33.3815,-14.1083,1196.3904],[33.3892,-14.0994,1200.2581],[33.3944,-14.0891,1201.0347],[33.3933,-14.0851,1197.2284]]]]}
,"properties": {"GID_3": "MWI.11.11.30_1","GID_0": "MWI","country": "Malawi","GID_1": "MWI.11_1","province": "Lilongwe","NL_NAME_1": "NA","GID_2": "MWI.11.11_1","county": "TAKalolo","NL_NAME_2": "NA","city": "n.a.(1210)","VARNAME_3": "NA","NL_NAME_3": "NA","TYPE_3": "Unknown","ENGTYPE_3": "Unknown","CC_3": "NA","HASC_3": "NA","name": "n.a.(1210).city","area_km2": 17.10891,"hist_schema_id": "Elevation0-9000","hist_area_km2": {"1125": 0.0617,"1150": 2.52951,"1175": 7.79365,"1200": 6.64181,"1225": 0.08225}}}