{"type":"Feature","properties":{"GID_3":"MWI.23.3.5_1","GID_0":"MWI","country":"Malawi","GID_1":"MWI.23_1","province":"Ntchisi","NL_NAME_1":"NA","GID_2":"MWI.23.3_1","county":"SCNthondo","NL_NAME_2":"NA","city":"n.a.(555)","VARNAME_3":"NA","NL_NAME_3":"NA","TYPE_3":"Unknown","ENGTYPE_3":"Unknown","CC_3":"NA","HASC_3":"NA","name":"n.a.(555).city"},
"geometry":{"type": "MultiPolygon","coordinates": [[[[33.9497,-13.2793,1136.0559],[33.9472,-13.2858,1143.3546],[33.9395,-13.2899,1150.76],[33.9374,-13.2991,1163.248],[33.9338,-13.3021,1192.3535],[33.9371,-13.3174,1261.0533],[33.9444,-13.32,1299.9448],[33.9473,-13.3227,1256.3297],[33.9501,-13.3371,1266.3516],[33.9526,-13.3413,1303.9305],[33.9592,-13.3465,1267.7725],[33.9672,-13.3496,1182.5259],[33.9682,-13.3554,1214.7983],[33.9665,-13.3613,1224.3328],[33.9736,-13.3701,1283.2852],[33.9838,-13.3697,1271.3785],[33.9887,-13.3478,1191.3535],[33.9938,-13.3394,1176.6411],[33.9906,-13.332,1170.863],[33.9823,-13.333,1172.5482],[33.979,-13.324,1093.6747],[33.971,-13.3216,1167.0771],[33.9633,-13.3227,1246.7949],[33.9597,-13.3214,1244.6711],[33.9613,-13.3176,1254.8384],[33.9577,-13.3153,1236.1833],[33.9614,-13.3098,1203.7128],[33.9656,-13.3102,1231.6168],[33.968,-13.3086,1193.4082],[33.9739,-13.2973,1171.6989],[33.9646,-13.2945,1115.9314],[33.9657,-13.2824,1084.9896],[33.9644,-13.2818,1084.9896],[33.9571,-13.286,1166.5789],[33.9541,-13.2816,1137.5037],[33.9546,-13.2751,1098.3546],[33.9533,-13.2742,1117.6936],[33.9497,-13.2793,1136.0559]]]]}}