{"type":"Feature","properties":{"GID_3":"MWI.13.6.4_1","GID_0":"MWI","country":"Malawi","GID_1":"MWI.13_1","province":"Mangochi","NL_NAME_1":"NA","GID_2":"MWI.13.6_1","county":"SCMbwanaNyambi","NL_NAME_2":"NA","city":"n.a.(1590)","VARNAME_3":"NA","NL_NAME_3":"NA","TYPE_3":"Unknown","ENGTYPE_3":"Unknown","CC_3":"NA","HASC_3":"NA","name":"n.a.(1590).city"},
"geometry":{"type": "MultiPolygon","coordinates": [[[[35.3548,-14.4318,571.1239],[35.3601,-14.4418,566.9124],[35.3694,-14.4664,558.6062],[35.376,-14.4756,614.6603],[35.3788,-14.4853,570.0458],[35.3976,-14.517,560.3284],[35.3987,-14.5247,577.7286],[35.397,-14.5309,568.5278],[35.3867,-14.5364,545.7867],[35.3823,-14.5415,540.356],[35.3812,-14.5472,538.2068],[35.3875,-14.5589,559.4641],[35.3985,-14.5692,590.2079],[35.3997,-14.5826,560.7551],[35.4158,-14.6177,604.6077],[35.4216,-14.6345,601.064],[35.4236,-14.6368,612.2474],[35.429,-14.6385,623.0768],[35.4309,-14.65,600.5828],[35.4414,-14.6738,624.4929],[35.4386,-14.68,603.1076],[35.4361,-14.6827,598.3669],[35.4342,-14.6825,593.6868],[35.4329,-14.6851,579.7407],[35.436,-14.6966,591.0363],[35.4374,-14.6994,586.9397],[35.442,-14.6957,653.2504],[35.4708,-14.6886,758.5391],[35.4676,-14.6611,809.7657],[35.4523,-14.6275,804.6534],[35.4543,-14.6253,788.3325],[35.4612,-14.6234,815.2125],[35.4686,-14.628,874.7527],[35.4704,-14.6257,870.1843],[35.487,-14.6228,828.5405],[35.4945,-14.6391,797.7469],[35.4863,-14.6568,780.4937],[35.4767,-14.6604,841.9708],[35.4784,-14.6639,832.6813],[35.4753,-14.6658,833.7285],[35.4817,-14.681,788.4595],[35.5067,-14.6669,833.7865],[35.4989,-14.6244,876.2351],[35.5015,-14.6043,908.193],[35.503,-14.5996,907.1307],[35.5104,-14.5896,990.2488],[35.5108,-14.5805,1288.5354],[35.517,-14.5768,1078.0718],[35.5237,-14.5692,976.1355],[35.521,-14.5664,968.1638],[35.5076,-14.563,981.4523],[35.5061,-14.5615,970.1891],[35.5065,-14.5577,981.3223],[35.5106,-14.5533,1023.0936],[35.5142,-14.5441,992.7666],[35.539,-14.543,1022.9311],[35.5393,-14.5462,952.8363],[35.5422,-14.5461,922.7493],[35.5446,-14.5296,909.6747],[35.5436,-14.5219,961.8235],[35.5452,-14.5215,992.4608],[35.5476,-14.5244,1027.0167],[35.5498,-14.5296,920.6768],[35.5526,-14.5284,930.5795],[35.5541,-14.5187,955.5908],[35.5584,-14.5177,1000.3456],[35.5612,-14.5056,897.9588],[35.5649,-14.5009,872.4199],[35.5629,-14.4844,833.8815],[35.5566,-14.4831,845.0378],[35.5463,-14.4861,855.4634],[35.5317,-14.5023,906.2225],[35.5277,-14.5102,978.4769],[35.5255,-14.5105,995.0234],[35.5152,-14.501,1090.5504],[35.5049,-14.4968,1183.3336],[35.4956,-14.4903,1315.8976],[35.4927,-14.4666,1696.287],[35.3637,-14.437,702.4153],[35.3589,-14.4352,617.9194],[35.3562,-14.4315,594.2065],[35.3548,-14.4318,571.1239]]]]}}