{"type": "Feature","bbox": [34.8869,-14.9067,34.9351,-14.8545],"geometry": {"type": "MultiPolygon","coordinates": [[[[34.9351,-14.8616,664.9863],[34.9211,-14.862,674.3084],[34.9127,-14.8573,681.7615],[34.9035,-14.8576,688.9124],[34.8966,-14.8545,695.405],[34.8921,-14.8687,765.0167],[34.8882,-14.8724,787.1381],[34.8869,-14.8782,786.8712],[34.8894,-14.8828,797.8109],[34.8886,-14.8878,793.9],[34.8917,-14.8896,785.4452],[34.8985,-14.8881,780.0837],[34.9034,-14.8895,759.4425],[34.904,-14.8925,771.1171],[34.9009,-14.8993,754.7182],[34.9138,-14.9015,737.6266],[34.9175,-14.9067,721.5398],[34.9295,-14.8829,674.4136],[34.9351,-14.8616,664.9863]]]]}
,"properties": {"GID_3": "MWI.22.4.17_1","GID_0": "MWI","country": "Malawi","GID_1": "MWI.22_1","province": "Ntcheu","NL_NAME_1": "NA","GID_2": "MWI.22.4_1","county": "SCMakwangwala","NL_NAME_2": "NA","city": "n.a.(1874)","VARNAME_3": "NA","NL_NAME_3": "NA","TYPE_3": "Unknown","ENGTYPE_3": "Unknown","CC_3": "NA","HASC_3": "NA","name": "n.a.(1874).city","area_km2": 17.86853,"hist_schema_id": "Elevation0-9000","hist_area_km2": {"675": 3.91402,"700": 3.91399,"725": 3.29903,"750": 3.77029,"775": 1.68026,"800": 1.20897,"825": 0.08196}}}