{"type":"Feature","properties":{"GID_3":"MWI.9.16.13_1","GID_0":"MWI","country":"Malawi","GID_1":"MWI.9_1","province":"Kasungu","NL_NAME_1":"NA","GID_2":"MWI.9.16_1","county":"TAWimbe","NL_NAME_2":"NA","city":"n.a.(439)","VARNAME_3":"NA","NL_NAME_3":"NA","TYPE_3":"Unknown","ENGTYPE_3":"Unknown","CC_3":"NA","HASC_3":"NA","name":"n.a.(439).city"},
"geometry":{"type": "MultiPolygon","coordinates": [[[[33.8055,-12.9206,1201.6677],[33.7864,-12.9227,1208.4653],[33.7828,-12.9362,1190.6831],[33.7828,-12.9421,1191.3379],[33.805,-12.9425,1208.0071],[33.8088,-12.9404,1219.7115],[33.8129,-12.9438,1221.4708],[33.8168,-12.9416,1207.5712],[33.8215,-12.9294,1199.4188],[33.8204,-12.9207,1219.877],[33.8151,-12.918,1218.2334],[33.8055,-12.9206,1201.6677]]]]}}