{"type":"Feature","properties":{"GID_3":"MWI.25.9.3_1","GID_0":"MWI","country":"Malawi","GID_1":"MWI.25_1","province":"Rumphi","NL_NAME_1":"NA","GID_2":"MWI.25.9_1","county":"TAChikulamayembe","NL_NAME_2":"NA","city":"n.a.(125)","VARNAME_3":"NA","NL_NAME_3":"NA","TYPE_3":"Unknown","ENGTYPE_3":"Unknown","CC_3":"NA","HASC_3":"NA","name":"n.a.(125).city"},
"geometry":{"type": "MultiPolygon","coordinates": [[[[33.688,-10.8679,1418.3484],[33.6842,-10.874,1376.5177],[33.6862,-10.8773,1399.5632],[33.6853,-10.8826,1470.8103],[33.69,-10.89,1325.0099],[33.6884,-10.8955,1361.093],[33.6943,-10.8988,1240.5378],[33.696,-10.9053,1371.2888],[33.6937,-10.911,1324.3889],[33.6965,-10.9166,1287.976],[33.6915,-10.9244,1195.8528],[33.6917,-10.9194,1216.897],[33.6895,-10.9149,1295.4674],[33.6829,-10.9195,1361.6942],[33.675,-10.9169,1240.4968],[33.6721,-10.918,1224.7693],[33.6703,-10.9229,1214.2029],[33.6731,-10.9304,1199.6355],[33.6693,-10.9312,1197.83],[33.6686,-10.9332,1197.113],[33.6724,-10.9375,1190.4047],[33.6789,-10.937,1184.4619],[33.6846,-10.939,1171.6301],[33.6898,-10.9349,1168.26],[33.6995,-10.9378,1156.8674],[33.7107,-10.936,1141.8821],[33.74,-10.9377,1111.4111],[33.74,-10.9218,1111.9958],[33.7432,-10.9162,1123.5441],[33.7454,-10.9178,1111.0015],[33.7541,-10.9114,1120.7692],[33.7602,-10.9123,1112.7399],[33.7649,-10.9108,1151.6525],[33.7648,-10.9029,1156.0664],[33.7607,-10.8985,1123.2805],[33.7598,-10.8937,1126.3876],[33.7621,-10.8779,1164.3542],[33.7655,-10.8683,1179.2068],[33.7677,-10.8673,1181.4742],[33.768,-10.8593,1221.7438],[33.765,-10.8481,1315.4808],[33.754,-10.8475,1245.7305],[33.7463,-10.8491,1214.2871],[33.7412,-10.8447,1371.6421],[33.7317,-10.8463,1267.6392],[33.7173,-10.8561,1467.4348],[33.7045,-10.8602,1385.5605],[33.6929,-10.8679,1479.1179],[33.688,-10.8679,1418.3484]]]]}}