{"type": "Feature","bbox": [34.5231,-14.1978,34.5927,-14.1334],"geometry": {"type": "MultiPolygon","coordinates": [[[[34.5678,-14.1334,474.5],[34.5562,-14.137,480.2442],[34.5474,-14.1375,487.1933],[34.5348,-14.1357,495.8185],[34.5231,-14.1466,513.4237],[34.5243,-14.1677,515.7411],[34.5284,-14.1701,511.2339],[34.5294,-14.1744,511.7947],[34.5299,-14.1841,513.3834],[34.5255,-14.189,517.0145],[34.5294,-14.1978,508.5289],[34.538,-14.1931,503.8968],[34.5474,-14.1904,499.0886],[34.5494,-14.1876,497.2667],[34.5551,-14.1863,496.154],[34.5572,-14.1825,493.219],[34.5655,-14.1797,490.9124],[34.5737,-14.1692,486.593],[34.5927,-14.151,474.5],[34.5804,-14.1383,474.5],[34.5678,-14.1334,474.5]]]]}
,"properties": {"GID_3": "MWI.6.6.3_1","GID_0": "MWI","country": "Malawi","GID_1": "MWI.6_1","province": "Dedza","NL_NAME_1": "NA","GID_2": "MWI.6.6_1","county": "TAKachindamoto","NL_NAME_2": "NA","city": "n.a.(1289)","VARNAME_3": "NA","NL_NAME_3": "NA","TYPE_3": "Unknown","ENGTYPE_3": "Unknown","CC_3": "NA","HASC_3": "NA","name": "n.a.(1289).city","area_km2": 32.6255,"hist_schema_id": "Elevation0-9000","hist_area_km2": {"475": 12.17084,"500": 19.50903,"525": 0.94563}}}