{"type":"Feature","properties":{"GID_3":"MWI.24.2.39_1","GID_0":"MWI","country":"Malawi","GID_1":"MWI.24_1","province":"Phalombe","NL_NAME_1":"NA","GID_2":"MWI.24.2_1","county":"TAMkhumba","NL_NAME_2":"NA","city":"n.a.(2490)","VARNAME_3":"NA","NL_NAME_3":"NA","TYPE_3":"Unknown","ENGTYPE_3":"Unknown","CC_3":"NA","HASC_3":"NA","name":"n.a.(2490).city"},
"geometry":{"type": "MultiPolygon","coordinates": [[[[35.5123,-15.7587,718.3945],[35.5118,-15.7632,723.2186],[35.5305,-15.7637,714.2083],[35.5465,-15.7683,734.9161],[35.5445,-15.7635,723.8106],[35.5347,-15.754,712.6673],[35.5529,-15.7421,716.3993],[35.5543,-15.7378,711.6431],[35.5706,-15.7435,718.8987],[35.574,-15.7384,716.0118],[35.5704,-15.7329,709.814],[35.5671,-15.7188,702.6631],[35.5542,-15.7292,704.3168],[35.5395,-15.7317,706.8623],[35.5173,-15.7316,703.9619],[35.5133,-15.7429,704.9387],[35.5123,-15.7587,718.3945]]]]}}