{"type":"Feature","properties":{"GID_3":"MWI.17.7.11_1","GID_0":"MWI","country":"Malawi","GID_1":"MWI.17_1","province":"Mzimba","NL_NAME_1":"NA","GID_2":"MWI.17.7_1","county":"TAM'Mbelwa","NL_NAME_2":"NA","city":"n.a.(284)","VARNAME_3":"NA","NL_NAME_3":"NA","TYPE_3":"Unknown","ENGTYPE_3":"Unknown","CC_3":"NA","HASC_3":"NA","name":"n.a.(284).city"},
"geometry":{"type": "MultiPolygon","coordinates": [[[[33.382,-11.9048,1177.7649],[33.3805,-11.9065,1176.2065],[33.3774,-11.9036,1184.2151],[33.3739,-11.9078,1182.4197],[33.3669,-11.9119,1179.7643],[33.366,-11.9192,1179.0325],[33.3672,-11.9217,1179.6753],[33.3728,-11.925,1180.1543],[33.3741,-11.9274,1178.6646],[33.3733,-11.929,1181.2562],[33.3777,-11.9312,1180.9136],[33.3746,-11.9346,1180.4524],[33.3717,-11.9341,1178.8641],[33.3729,-11.9354,1179.4067],[33.3724,-11.9392,1179.3484],[33.3663,-11.9493,1181.6315],[33.3686,-11.9501,1183.1686],[33.3712,-11.9551,1182.8223],[33.4236,-11.9578,1237.1315],[33.4249,-11.9462,1222.6462],[33.4631,-11.9441,1264.7107],[33.4486,-11.9388,1239.1249],[33.4384,-11.9279,1231.058],[33.4294,-11.9231,1214.1425],[33.4185,-11.9087,1200.572],[33.4121,-11.9066,1197.4951],[33.407,-11.9087,1188.3054],[33.3981,-11.9074,1186.9886],[33.3915,-11.9102,1181.6438],[33.382,-11.9048,1177.7649]]]]}}