{"type": "Feature","bbox": [34.1933,-14.1242,34.2531,-14.0947],"geometry": {"type": "MultiPolygon","coordinates": [[[[34.1988,-14.1081,1244.2202],[34.1979,-14.1127,1244.9762],[34.1933,-14.1185,1231.5823],[34.1971,-14.1214,1237.9172],[34.2122,-14.1218,1341.9303],[34.2198,-14.119,1343.0521],[34.2281,-14.1191,1340.9865],[34.2302,-14.1199,1345.6794],[34.2318,-14.1242,1347.3612],[34.2396,-14.1193,1415.66],[34.2435,-14.1114,1392.5027],[34.2531,-14.1044,1435.2966],[34.2506,-14.1002,1388.859],[34.2407,-14.103,1357.7063],[34.2369,-14.0953,1337.4832],[34.2303,-14.0971,1301.9794],[34.214,-14.0976,1274.5261],[34.2071,-14.0949,1262.8887],[34.202,-14.0947,1259.4146],[34.1989,-14.0979,1250.1545],[34.1988,-14.1081,1244.2202]]]]}
,"properties": {"GID_3": "MWI.6.10.14_1","GID_0": "MWI","country": "Malawi","GID_1": "MWI.6_1","province": "Dedza","NL_NAME_1": "NA","GID_2": "MWI.6.10_1","county": "TATambala","NL_NAME_2": "NA","city": "n.a.(1246)","VARNAME_3": "NA","NL_NAME_3": "NA","TYPE_3": "Unknown","ENGTYPE_3": "Unknown","CC_3": "NA","HASC_3": "NA","name": "n.a.(1246).city","area_km2": 13.55078,"hist_schema_id": "Elevation0-9000","hist_area_km2": {"1225": 0.02056,"1250": 2.0974,"1275": 1.83008,"1300": 2.79655,"1325": 2.77595,"1350": 2.24129,"1375": 0.86363,"1400": 0.69913,"1425": 0.14394,"1450": 0.06169,"1475": 0.02056}}}