{"type": "Feature","bbox": [35.0818,-15.4012,35.1457,-15.3696],"geometry": {"type": "MultiPolygon","coordinates": [[[[35.0829,-15.3741,497.4622],[35.0833,-15.3799,501.1357],[35.0818,-15.3819,501.6539],[35.0828,-15.3863,504.7848],[35.1058,-15.4012,527.5771],[35.1123,-15.3987,538.1597],[35.1121,-15.3942,536.2047],[35.1169,-15.395,550.3405],[35.1323,-15.3921,589.9214],[35.1411,-15.3888,582.3973],[35.1457,-15.3842,605.2374],[35.1246,-15.3853,554.5717],[35.117,-15.377,525.8917],[35.0991,-15.3788,510.5351],[35.0923,-15.3753,503.4758],[35.0894,-15.3696,498.7599],[35.0829,-15.3741,497.4622]]]]}
,"properties": {"GID_3": "MWI.28.7.25_1","GID_0": "MWI","country": "Malawi","GID_1": "MWI.28_1","province": "Zomba","NL_NAME_1": "NA","GID_2": "MWI.28.7_1","county": "TAMlumbe","NL_NAME_2": "NA","city": "n.a.(2148)","VARNAME_3": "NA","NL_NAME_3": "NA","TYPE_3": "Unknown","ENGTYPE_3": "Unknown","CC_3": "NA","HASC_3": "NA","name": "n.a.(2148).city","area_km2": 10.26203,"hist_schema_id": "Elevation0-9000","hist_area_km2": {"500": 2.943758,"525": 4.742572,"550": 1.062987,"575": 1.206078,"600": 0.286192,"625": 0.020442}}}