{"type":"Feature","properties":{"GID_3":"MWI.12.13.7_1","GID_0":"MWI","country":"Malawi","GID_1":"MWI.12_1","province":"Machinga","NL_NAME_1":"NA","GID_2":"MWI.12.13_1","county":"TALiwonde","NL_NAME_2":"NA","city":"n.a.(1855)","VARNAME_3":"NA","NL_NAME_3":"NA","TYPE_3":"Unknown","ENGTYPE_3":"Unknown","CC_3":"NA","HASC_3":"NA","name":"n.a.(1855).city"},
"geometry":{"type": "MultiPolygon","coordinates": [[[[35.4251,-14.8567,531.5273],[35.4274,-14.8604,531.6561],[35.4231,-14.8656,527.7567],[35.4299,-14.8661,531.348],[35.4344,-14.884,537.7043],[35.439,-14.8873,541.4774],[35.4434,-14.8695,543.037],[35.45,-14.8703,550.3848],[35.4637,-14.8755,566.2654],[35.4726,-14.875,577.934],[35.4751,-14.8775,577.7247],[35.476,-14.8611,576.5725],[35.4734,-14.8345,583.871],[35.4634,-14.8421,567.6066],[35.4535,-14.8402,555.4388],[35.445,-14.8486,542.4631],[35.4388,-14.848,538.2606],[35.4343,-14.8522,536.8785],[35.4251,-14.8567,531.5273]]]]}}