{"type": "Feature","bbox": [33.6747,-11.781,33.8316,-11.5178],"geometry": {"type": "MultiPolygon","coordinates": [[[[33.787,-11.7779,1711.7533],[33.7882,-11.781,1723.5264],[33.7892,-11.7787,1723.9816],[33.7942,-11.7763,1728.1129],[33.7953,-11.7687,1762.2993],[33.7939,-11.7668,1762.9518],[33.7748,-11.7601,1668.6593],[33.7686,-11.753,1688.8579],[33.7591,-11.7561,1683.1923],[33.7606,-11.7591,1698.3535],[33.7854,-11.7715,1722.9194],[33.787,-11.7779,1711.7533]]],
[[[33.7578,-11.7204,1640.061],[33.7587,-11.7228,1635.6453],[33.7654,-11.7189,1646.6836],[33.7569,-11.7173,1667.0659],[33.7578,-11.7204,1640.061]]],
[[[33.7558,-11.7171,1652.2152],[33.7569,-11.7173,1667.0659],[33.7555,-11.7134,1634.2173],[33.7544,-11.7158,1645.8865],[33.7558,-11.7171,1652.2152]]],
[[[33.7549,-11.7115,1624.5879],[33.7555,-11.7134,1634.2173],[33.7595,-11.6982,1690.7267],[33.7546,-11.6858,1721.4598],[33.7486,-11.6786,1708.1931],[33.7485,-11.6817,1708.9805],[33.7549,-11.7115,1624.5879]]],
[[[33.7946,-11.5187,1383.4263],[33.7924,-11.5178,1368.6152],[33.7825,-11.5336,1509.3735],[33.776,-11.5553,1535.2135],[33.7647,-11.5716,1803.1475],[33.7577,-11.5853,1630.3641],[33.7529,-11.5855,1625.8502],[33.7424,-11.5899,1441.5591],[33.7303,-11.5869,1479.4561],[33.7271,-11.5914,1470.3789],[33.7182,-11.5983,1466.615],[33.7128,-11.599,1399.108],[33.7073,-11.594,1374.8992],[33.7019,-11.5927,1378.8531],[33.6964,-11.584,1366.3755],[33.7047,-11.5613,1359.0203],[33.7032,-11.5592,1372.7332],[33.7002,-11.5602,1367.3112],[33.6947,-11.557,1329.5781],[33.6923,-11.553,1332.5715],[33.6862,-11.5623,1270.9976],[33.6816,-11.5579,1258.4652],[33.6747,-11.5798,1272.7677],[33.6789,-11.5978,1281.645],[33.677,-11.6062,1286.2152],[33.6792,-11.6106,1289.384],[33.6792,-11.6193,1296.7656],[33.6849,-11.6215,1307.7856],[33.6889,-11.63,1341.5778],[33.6934,-11.6308,1355.1401],[33.6879,-11.6353,1327.986],[33.6962,-11.6441,1411.614],[33.7017,-11.6452,1498.5703],[33.7108,-11.6429,1556.3999],[33.7213,-11.6473,1567.743],[33.7219,-11.6587,1631.0219],[33.7243,-11.6649,1643.8076],[33.7271,-11.6673,1655.006],[33.7352,-11.6689,1695.9199],[33.7336,-11.6652,1694.2368],[33.7361,-11.6612,1692.2172],[33.7362,-11.6571,1688.1771],[33.7419,-11.6521,1697.198],[33.7431,-11.6456,1685.7275],[33.7481,-11.6397,1648.6027],[33.7566,-11.6406,1672.153],[33.7628,-11.6359,1730.6396],[33.7743,-11.6368,1695.3765],[33.7694,-11.6205,1748.1218],[33.7795,-11.6079,1649.3196],[33.7904,-11.6031,1747.4751],[33.7889,-11.5999,1764.9392],[33.7827,-11.5975,1694.7678],[33.7867,-11.5922,1784.7961],[33.7899,-11.59,1716.9072],[33.7974,-11.5904,1679.5533],[33.812,-11.5774,1718.2681],[33.8187,-11.5803,1692.2284],[33.8226,-11.58,1687.0742],[33.8207,-11.577,1637.7207],[33.8209,-11.5714,1582.7167],[33.828,-11.5605,1484.4531],[33.8316,-11.5467,1470.5884],[33.8251,-11.5412,1424.3928],[33.824,-11.538,1479.2355],[33.8148,-11.5378,1518.7024],[33.8118,-11.5356,1420.9082],[33.8029,-11.5394,1362.02],[33.7998,-11.5364,1356.4086],[33.7983,-11.5414,1380.2607],[33.791,-11.5468,1426.7709],[33.8015,-11.5216,1395.1696],[33.7946,-11.5187,1383.4263]]]]}
,"properties": {"GID_3": "MWI.17.4.9_1","GID_0": "MWI","country": "Malawi","GID_1": "MWI.17_1","province": "Mzimba","NL_NAME_1": "NA","GID_2": "MWI.17.4_1","county": "SCKampingoSibande","NL_NAME_2": "NA","city": "n.a.(254)","VARNAME_3": "NA","NL_NAME_3": "NA","TYPE_3": "Unknown","ENGTYPE_3": "Unknown","CC_3": "NA","HASC_3": "NA","name": "n.a.(254).city","area_km2": 113.60601,"hist_schema_id": "Elevation0-9000","hist_area_km2": {"1250": 0.45698,"1275": 2.92866,"1300": 4.71477,"1325": 3.88385,"1350": 3.55157,"1375": 3.94627,"1400": 6.79188,"1425": 6.2519,"1450": 5.8988,"1475": 6.43871,"1500": 7.66418,"1525": 7.49797,"1550": 8.51547,"1575": 8.1829,"1600": 8.20354,"1625": 7.64266,"1650": 5.77348,"1675": 5.93906,"1700": 4.153,"1725": 2.01417,"1750": 0.9759,"1775": 1.22498,"1800": 0.4361,"1825": 0.33228,"1850": 0.14538,"1875": 0.02077,"1900": 0.02077}}}