{"type": "Feature","bbox": [35.3548,-14.7411,35.77,-14.382],"geometry": {"type": "MultiPolygon","coordinates": [[[[35.5507,-14.7131,874.1404],[35.5545,-14.7103,882.9019],[35.5537,-14.6877,854.9817],[35.5562,-14.68,846.6489],[35.5494,-14.6524,825.4846],[35.5555,-14.6441,823.2041],[35.5685,-14.6367,806.8828],[35.5724,-14.6299,805.0253],[35.5737,-14.6228,798.2686],[35.5717,-14.6168,797.7872],[35.5757,-14.6103,794.2192],[35.5872,-14.6095,785.4634],[35.5888,-14.6069,788.3461],[35.5952,-14.6055,782.9569],[35.6008,-14.5975,786.7523],[35.6123,-14.5931,772.3387],[35.6173,-14.5956,765.3005],[35.6235,-14.6015,755.9217],[35.6305,-14.6013,753.4546],[35.6363,-14.5892,782.8474],[35.6422,-14.5895,742.6932],[35.6442,-14.5852,744.0753],[35.6487,-14.5869,737.6229],[35.6557,-14.5829,740.3234],[35.6588,-14.5872,732.3825],[35.6626,-14.5848,730.4096],[35.6785,-14.5887,723.4287],[35.6844,-14.592,713.2078],[35.6865,-14.589,715.7109],[35.6884,-14.5888,715.7109],[35.6974,-14.5964,705.6543],[35.7049,-14.5977,701.6026],[35.7081,-14.5932,699.4095],[35.7222,-14.5882,694.4411],[35.7279,-14.593,693.7005],[35.7322,-14.5946,692.2527],[35.74,-14.5899,689.5533],[35.7442,-14.5905,687.899],[35.7469,-14.5931,688.0845],[35.7486,-14.5887,688.6097],[35.7515,-14.5865,686.8196],[35.7488,-14.5844,686.1354],[35.7495,-14.5817,686.8333],[35.7522,-14.5825,685.4711],[35.7536,-14.5811,686.1685],[35.7567,-14.5703,683.8079],[35.7643,-14.5631,683.0833],[35.764,-14.5584,680.4363],[35.7683,-14.5561,682.0881],[35.77,-14.5571,678.0493],[35.7267,-14.5006,840.6415],[35.6255,-14.382,753.5283],[35.6181,-14.3885,756.8394],[35.6196,-14.3937,759.3401],[35.6164,-14.3969,762.6328],[35.6153,-14.4006,767.1551],[35.6119,-14.4041,768.074],[35.6078,-14.4019,779.3387],[35.6028,-14.4041,784.9681],[35.6022,-14.4143,794.1166],[35.5998,-14.4179,789.6924],[35.596,-14.4217,795.8049],[35.5876,-14.4248,795.6623],[35.5865,-14.4273,795.7202],[35.5803,-14.4313,801.3636],[35.5763,-14.4375,804.4552],[35.5721,-14.475,823.8943],[35.5669,-14.4729,827.078],[35.5598,-14.475,830.5224],[35.556399999999996,-14.4795,839.5018],[35.5566,-14.4831,845.0378],[35.5455,-14.4867,856.986],[35.5417,-14.4926,869.2365],[35.5317,-14.5023,906.2225],[35.5268,-14.5106,978.4769],[35.5231,-14.509,985.2019],[35.5152,-14.501,1090.5504],[35.5049,-14.4968,1183.3336],[35.4956,-14.4903,1315.8976],[35.4927,-14.4666,1696.287],[35.3637,-14.437,702.4153],[35.3589,-14.4352,617.9194],[35.3562,-14.4315,594.2065],[35.3548,-14.4318,571.1239],[35.3601,-14.4418,566.9124],[35.3694,-14.4664,558.6062],[35.376,-14.4756,614.6603],[35.3788,-14.4853,570.0458],[35.3976,-14.517,560.3284],[35.3987,-14.5247,577.7286],[35.397,-14.5309,568.5278],[35.3867,-14.5364,545.7867],[35.3823,-14.5415,540.356],[35.3812,-14.5472,538.2068],[35.3875,-14.5589,559.4641],[35.3985,-14.5692,590.2079],[35.3997,-14.5826,560.7551],[35.4158,-14.6177,604.6077],[35.4216,-14.6345,601.064],[35.4236,-14.6368,612.2474],[35.429,-14.6385,623.0768],[35.4312,-14.651,600.5828],[35.4413,-14.6728,618.62],[35.4392,-14.6792,599.748],[35.4329,-14.6851,579.7407],[35.4376,-14.7005,590.9907],[35.484,-14.698,738.5737],[35.4979,-14.6948,716.5814],[35.5134,-14.6937,857.1059],[35.5157,-14.7197,833.4819],[35.515,-14.7411,766.8558],[35.5369,-14.7241,823.8054],[35.5438,-14.7219,838.959],[35.5446,-14.7094,881.1737],[35.5507,-14.7131,874.1404]]]]}
,"properties": {"GID_2": "MWI.13.6_1","GID_0": "MWI","country": "Malawi","GID_1": "MWI.13_1","province": "Mangochi","NL_NAME_1": "NA","county": "SCMbwanaNyambi","VARNAME_2": "NA","NL_NAME_2": "NA","TYPE_2": "Sub-chief","ENGTYPE_2": "Sub-chief","CC_2": "NA","HASC_2": "NA","name": "S_C_Mbwana_Nyambi.county","area_km2": 785.8802,"hist_schema_id": "Elevation0-9000","hist_area_km2": {"550": 1.2109,"575": 5.7054,"600": 9.5833,"625": 8.7832,"650": 9.2755,"675": 12.8051,"700": 29.2858,"725": 61.1409,"750": 75.3028,"775": 61.818,"800": 65.9003,"825": 71.4353,"850": 83.8874,"875": 68.0824,"900": 47.0734,"925": 37.677,"950": 29.6545,"975": 22.821,"1000": 16.2338,"1025": 11.4315,"1050": 8.9483,"1075": 7.9839,"1100": 5.5415,"1125": 4.4333,"1150": 3.4892,"1175": 3.0787,"1200": 2.2372,"1225": 2.771,"1250": 3.5305,"1275": 2.3811,"1300": 2.5453,"1325": 2.7096,"1350": 1.7448,"1375": 1.3959,"1400": 1.1085,"1425": 0.8006,"1450": 0.349,"1475": 0.349,"1500": 0.3901,"1525": 0.1848,"1550": 0.2464,"1575": 0.1437,"1600": 0.1437,"1625": 0.1232,"1650": 0.0616,"1675": 0.0411,"1700": 0.0411}}}