{"type": "Feature","bbox": [33.4391,-13.8262,33.4547,-13.8102],"geometry": {"type": "MultiPolygon","coordinates": [[[[33.4445,-13.8102,1174.123],[33.4415,-13.8113,1177.7227],[33.4391,-13.8148,1180.0558],[33.4411,-13.8238,1177.5901],[33.4462,-13.8262,1182.4495],[33.453,-13.826,1186.5698],[33.4546,-13.824,1185.7333],[33.4547,-13.8175,1178.9707],[33.4495,-13.8113,1165.2375],[33.4445,-13.8102,1174.123]]]]}
,"properties": {"GID_3": "MWI.11.10.27_1","GID_0": "MWI","country": "Malawi","GID_1": "MWI.11_1","province": "Lilongwe","NL_NAME_1": "NA","GID_2": "MWI.11.10_1","county": "TAKabudula","NL_NAME_2": "NA","city": "n.a.(971)","VARNAME_3": "NA","NL_NAME_3": "NA","TYPE_3": "Unknown","ENGTYPE_3": "Unknown","CC_3": "NA","HASC_3": "NA","name": "n.a.(971).city","area_km2": 2.244151,"hist_schema_id": "Elevation0-9000","hist_area_km2": {"1175": 2.244151}}}