{"type": "Feature","bbox": [33.9519,-14.1818,34.006,-14.1481],"geometry": {"type": "MultiPolygon","coordinates": [[[[33.9669,-14.1512,1248.4871],[33.962,-14.1481,1243.8805],[33.9591,-14.1554,1245.2657],[33.9519,-14.163,1211.8927],[33.9664,-14.167,1232.2712],[33.9685,-14.1738,1217.4878],[33.9704,-14.1746,1212.8035],[33.9709,-14.1803,1208.0713],[33.9851,-14.1778,1189.3433],[33.9902,-14.1818,1182.9294],[33.9944,-14.18,1189.8374],[34.0004,-14.1804,1202.9893],[34.0056,-14.1778,1202.2644],[34.006,-14.1761,1203.821],[33.9932,-14.1754,1201.1335],[33.9815,-14.167,1209.297],[33.9787,-14.1665,1204.8165],[33.9906,-14.1583,1222.1047],[33.9843,-14.1576,1223.1761],[33.9669,-14.1512,1248.4871]]]]}
,"properties": {"GID_3": "MWI.11.13.12_1","GID_0": "MWI","country": "Malawi","GID_1": "MWI.11_1","province": "Lilongwe","NL_NAME_1": "NA","GID_2": "MWI.11.13_1","county": "TAKalumbu","NL_NAME_2": "NA","city": "n.a.(1302)","VARNAME_3": "NA","NL_NAME_3": "NA","TYPE_3": "Unknown","ENGTYPE_3": "Unknown","CC_3": "NA","HASC_3": "NA","name": "n.a.(1302).city","area_km2": 8.202418,"hist_schema_id": "Elevation0-9000","hist_area_km2": {"1175": 0.082225,"1200": 3.638552,"1225": 2.466939,"1250": 1.994144,"1275": 0.020558}}}