{"type": "Feature","bbox": [33.726,-14.0906,33.7559,-14.0261],"geometry": {"type": "MultiPolygon","coordinates": [[[[33.7318,-14.0299,1068.3832],[33.7279,-14.039,1088.0865],[33.729,-14.0527,1095.3237],[33.726,-14.0624,1101.9877],[33.7326,-14.0652,1104.7695],[33.7344,-14.0761,1111.7615],[33.7398,-14.0819,1122.8241],[33.7452,-14.0828,1116.8499],[33.7481,-14.0862,1129.7002],[33.7559,-14.0906,1161.0907],[33.7542,-14.0783,1145.129],[33.7556,-14.0587,1117.0879],[33.751,-14.0408,1092.8701],[33.7509,-14.0314,1079.6951],[33.7407,-14.0315,1056.1332],[33.7394,-14.0261,1050.3076],[33.7318,-14.0299,1068.3832]]]]}
,"properties": {"GID_3": "MWI.11.15.14_1","GID_0": "MWI","country": "Malawi","GID_1": "MWI.11_1","province": "Lilongwe","NL_NAME_1": "NA","GID_2": "MWI.11.15_1","county": "TAMalili","NL_NAME_2": "NA","city": "n.a.(1164)","VARNAME_3": "NA","NL_NAME_3": "NA","TYPE_3": "Unknown","ENGTYPE_3": "Unknown","CC_3": "NA","HASC_3": "NA","name": "n.a.(1164).city","area_km2": 14.80847,"hist_schema_id": "Elevation0-9000","hist_area_km2": {"1050": 0.43196,"1075": 4.46339,"1100": 7.13677,"1125": 2.38562,"1150": 0.39073}}}