{"type": "Feature","bbox": [34.9063,-16.8276,35.1174,-16.5992],"geometry": {"type": "MultiPolygon","coordinates": [[[[34.9105,-16.6917,296.4653],[34.9122,-16.6919,300.5231],[34.9153,-16.6976,306.487],[34.9149,-16.713,286.8968],[34.9166,-16.7145,286.8968],[34.9193,-16.7244,263.7676],[34.9203,-16.7354,250.0646],[34.9244,-16.7444,257.9141],[34.9389,-16.7443,267.4227],[34.9613,-16.7384,234.3566],[34.9694,-16.7423,232.1841],[34.9715,-16.748,228.6338],[34.9825,-16.7467,271.2432],[34.9868,-16.7599,249.0741],[34.9864,-16.7629,241.3562],[34.9895,-16.765,240.4362],[34.9896,-16.7677,240.7976],[34.9937,-16.7694,249.2009],[34.9919,-16.7806,251.9564],[34.9955,-16.7902,226.2756],[35.0027,-16.7917,239.2852],[35.0035,-16.7957,243.4955],[35.0265,-16.8047,254.4782],[35.0338,-16.8184,239.7679],[35.0393,-16.8229,242.6586],[35.0644,-16.8276,240.6393],[35.0679,-16.8255,257.9242],[35.0724,-16.8186,259.8946],[35.0905,-16.8182,266.1942],[35.0917,-16.8211,269.6456],[35.0943,-16.82,272.3499],[35.0959,-16.8211,284.3073],[35.0991,-16.8174,284.8293],[35.1089,-16.8145,318.6859],[35.1174,-16.8157,334.4355],[35.1146,-16.7935,332.0658],[35.109,-16.7808,287.4006],[35.1079,-16.7648,277.729],[35.1027,-16.7493,288.4693],[35.1052,-16.7401,303.878],[35.1057,-16.7303,309.2377],[35.1034,-16.7267,275.5814],[35.1072,-16.7244,324.9003],[35.1105,-16.7191,323.6222],[35.1169,-16.7179,337.9713],[35.1167,-16.716,339.8959],[35.1111,-16.7144,334.2642],[35.1062,-16.7055,287.5778],[35.1006,-16.6995,277.1342],[35.0991,-16.6922,254.2399],[35.0924,-16.6852,224.8027],[35.091,-16.6753,215.4081],[35.0857,-16.6662,163.3365],[35.0741,-16.6591,133.1064],[35.0653,-16.6606,117.3832],[35.0607,-16.6594,110.1803],[35.057,-16.6558,103.6829],[35.0559,-16.6521,114.8028],[35.0065,-16.5992,117.0505],[34.993,-16.6079,132.481],[34.9761,-16.6088,142.3703],[34.9718,-16.6164,150.0466],[34.9618,-16.6258,171.4761],[34.947,-16.6296,175.181],[34.9415,-16.6334,231.0636],[34.9327,-16.6357,283.7479],[34.9268,-16.6441,221.1393],[34.9214,-16.6477,241.9245],[34.9158,-16.6591,247.266],[34.9083,-16.6663,268.8141],[34.909,-16.6729,280.1327],[34.9063,-16.6837,284.6291],[34.9109,-16.6887,294.8255],[34.9105,-16.6917,296.4653]]]]}
,"properties": {"GID_3": "MWI.21.1.1_1","GID_0": "MWI","country": "Malawi","GID_1": "MWI.21_1","province": "Nsanje","NL_NAME_1": "NA","GID_2": "MWI.21.1_1","county": "MwabviGameReserve","NL_NAME_2": "NA","city": "n.a.(3084)","VARNAME_3": "NA","NL_NAME_3": "NA","TYPE_3": "Unknown","ENGTYPE_3": "Unknown","CC_3": "NA","HASC_3": "NA","name": "n.a.(3084).city","area_km2": 342.4891,"hist_schema_id": "Elevation0-9000","hist_area_km2": {"100": 2.4987,"125": 33.5563,"150": 48.0514,"175": 68.6784,"200": 58.0328,"225": 53.7844,"250": 44.9113,"275": 20.4668,"300": 9.6661,"325": 2.4367,"350": 0.3046,"375": 0.1015}}}