{"type": "Feature","bbox": [35.3246,-15.752,35.3861,-15.7058],"geometry": {"type": "MultiPolygon","coordinates": [[[[35.3607,-15.7058,754.694],[35.3622,-15.7095,753.0076],[35.3577,-15.7107,754.2939],[35.3538,-15.7083,758.9025],[35.3511,-15.7158,753.9923],[35.3454,-15.7153,758.275],[35.3407,-15.7096,763.3811],[35.33,-15.7115,776.4887],[35.329,-15.7133,773.2288],[35.3378,-15.7154,767.8356],[35.3423,-15.7208,763.4492],[35.3358,-15.7277,768.7272],[35.3246,-15.7273,775.327],[35.3256,-15.7319,773.6871],[35.3284,-15.7395,768.7057],[35.3328,-15.7402,765.863],[35.3342,-15.7434,764.4945],[35.3427,-15.7423,759.5668],[35.3645,-15.7436,745.9553],[35.3757,-15.752,738.2925],[35.3792,-15.7438,738.9835],[35.3803,-15.732,740.6425],[35.3861,-15.7144,740.261],[35.3816,-15.7111,743.7302],[35.3607,-15.7058,754.694]]]]}
,"properties": {"GID_3": "MWI.15.3.10_1","GID_0": "MWI","country": "Malawi","GID_1": "MWI.15_1","province": "Mulanje","NL_NAME_1": "NA","GID_2": "MWI.15.3_1","county": "SCJuma","NL_NAME_2": "NA","city": "n.a.(2475)","VARNAME_3": "NA","NL_NAME_3": "NA","TYPE_3": "Unknown","ENGTYPE_3": "Unknown","CC_3": "NA","HASC_3": "NA","name": "n.a.(2475).city","area_km2": 19.89822,"hist_schema_id": "Elevation0-9000","hist_area_km2": {"725": 0.08164,"750": 16.28593,"775": 3.53065}}}