{"type": "Feature","bbox": [34.0497,-11.7612,34.135,-11.6793],"geometry": {"type": "MultiPolygon","coordinates": [[[[34.135,-11.7188,627.58],[34.1243,-11.7195,656.2716],[34.1008,-11.715,554.3875],[34.0964,-11.7126,553.8927],[34.0929,-11.7078,570.7512],[34.0878,-11.7058,580.1324],[34.086,-11.6991,591.0172],[34.0812,-11.6925,608.2961],[34.055,-11.6793,664.1673],[34.0551,-11.6832,689.4519],[34.0507,-11.686,771.8717],[34.053,-11.6895,739.6421],[34.0497,-11.6954,775.2175],[34.0516,-11.7073,644.3677],[34.0548,-11.7118,606.8958],[34.0616,-11.7162,596.502],[34.0619,-11.7196,634.6196],[34.065,-11.7227,576.0236],[34.0605,-11.7237,623.5419],[34.0548,-11.7276,640.1112],[34.059,-11.732,620.0267],[34.0695,-11.729,577.4709],[34.0726,-11.7312,583.5187],[34.0739,-11.7343,563.4305],[34.0773,-11.734,576.7824],[34.0794,-11.7373,576.7916],[34.0858,-11.7415,554.7366],[34.0861,-11.7443,549.1772],[34.0911,-11.7464,542.9966],[34.0941,-11.7415,543.1772],[34.1053,-11.7575,553.6009],[34.1122,-11.7612,563.4733],[34.1156,-11.7602,548.6794],[34.1191,-11.7532,564.1642],[34.1337,-11.7455,592.7612],[34.135,-11.7188,627.58]]]]}
,"properties": {"GID_3": "MWI.19.7.8_1","GID_0": "MWI","country": "Malawi","GID_1": "MWI.19_1","province": "NkhataBay","NL_NAME_1": "NA","GID_2": "MWI.19.7_1","county": "TAKabunduli","NL_NAME_2": "NA","city": "n.a.(246)","VARNAME_3": "NA","NL_NAME_3": "NA","TYPE_3": "Unknown","ENGTYPE_3": "Unknown","CC_3": "NA","HASC_3": "NA","name": "n.a.(246).city","area_km2": 38.73817,"hist_schema_id": "Elevation0-9000","hist_area_km2": {"550": 4.38019,"575": 7.53566,"600": 8.76076,"625": 6.31116,"650": 3.63302,"675": 2.11756,"700": 2.0346,"725": 1.22488,"750": 1.18335,"775": 0.74737,"800": 0.43596,"825": 0.24912,"850": 0.12456}}}