{"type":"Feature","properties":{"GID_3":"MWI.20.7.3_1","GID_0":"MWI","country":"Malawi","GID_1":"MWI.20_1","province":"Nkhotakota","NL_NAME_1":"NA","GID_2":"MWI.20.7_1","county":"TAKanyenda","NL_NAME_2":"NA","city":"n.a.(335)","VARNAME_3":"NA","NL_NAME_3":"NA","TYPE_3":"Unknown","ENGTYPE_3":"Unknown","CC_3":"NA","HASC_3":"NA","name":"n.a.(335).city"},
"geometry":{"type": "MultiPolygon","coordinates": [[[[34.124,-12.4026,475.7425],[34.123,-12.403,476.8886],[34.1247,-12.4072,476.1732],[34.1191,-12.4093,476.6718],[34.0994,-12.4064,476.6896],[34.0908,-12.4088,477.3378],[34.0931,-12.412,478.9988],[34.0887,-12.4172,483.6053],[34.0882,-12.4208,489.6103],[34.0927,-12.4249,498.091],[34.0961,-12.4308,495.5076],[34.1012,-12.451,486.3221],[34.105,-12.4587,486.2512],[34.1051,-12.4687,487.2574],[34.1062,-12.4691,488.371],[34.1126,-12.4682,504.1953],[34.1122,-12.437,479.7785],[34.1656,-12.4366,475.9729],[34.1675,-12.4364,476.4754],[34.1653,-12.4348,475.9379],[34.1706,-12.4328,475.317],[34.1704,-12.4353,476.0622],[34.1741,-12.4356,476.2659],[34.1721,-12.4304,475.1476],[34.1694,-12.4299,476.9309],[34.172,-12.4289,475.1009],[34.1729,-12.4255,475.8811],[34.1695,-12.4133,474.7316],[34.1651,-12.4076,474.5],[34.1611,-12.4097,475.5351],[34.1563,-12.4086,475.8081],[34.1456,-12.4141,476.1147],[34.1417,-12.4141,475.7988],[34.1331,-12.4104,475.8333],[34.1288,-12.4046,476.5588],[34.124,-12.4026,475.7425]]],
[[[34.124,-12.4017,475.7425],[34.1272,-12.4015,475.9164],[34.1319,-12.4063,476.649],[34.1355,-12.4066,476.4964],[34.1337,-12.4095,476.2045],[34.141,-12.4094,476.5326],[34.1405,-12.4111,475.8498],[34.1446,-12.4121,476.4266],[34.1515,-12.4104,475.6533],[34.1562,-12.407,476.0328],[34.1637,-12.4058,474.5],[34.1614,-12.4022,474.5],[34.1573,-12.4009,474.5],[34.1464,-12.4023,474.5],[34.1386,-12.3993,474.5],[34.1227,-12.3979,474.5],[34.1215,-12.3991,474.5],[34.1236,-12.3999,475.2476],[34.1222,-12.4014,476.1172],[34.124,-12.4017,475.7425]]]]}}