{"type": "Feature","bbox": [35.3919,-15.6621,35.446,-15.6244],"geometry": {"type": "MultiPolygon","coordinates": [[[[35.3968,-15.6329,734.9534],[35.3946,-15.639099999999999,744.0624],[35.3919,-15.6411,813.5103],[35.3936,-15.6529,772.5212],[35.4,-15.661,744.3323],[35.4031,-15.6584,737.8397],[35.4239,-15.6621,719.4117],[35.4257,-15.6559,716.8933],[35.4392,-15.6539,709.9125],[35.4437,-15.6507,706.1036],[35.446,-15.6297,698.8354],[35.4423,-15.6303,702.5718],[35.429,-15.6388,712.0424],[35.4274,-15.6353,711.2653],[35.4179,-15.6289,723.079],[35.4164,-15.6244,720.8537],[35.4141,-15.6259,720.3788],[35.4115,-15.6247,720.4546],[35.4089,-15.6257,723.467],[35.4047,-15.6297,725.1928],[35.402,-15.6294,733.5013],[35.3968,-15.6329,734.9534]]]]}
,"properties": {"GID_3": "MWI.28.2.39_1","GID_0": "MWI","country": "Malawi","GID_1": "MWI.28_1","province": "Zomba","NL_NAME_1": "NA","GID_2": "MWI.28.2_1","county": "SCMbiza","NL_NAME_2": "NA","city": "n.a.(2387)","VARNAME_3": "NA","NL_NAME_3": "NA","TYPE_3": "Unknown","ENGTYPE_3": "Unknown","CC_3": "NA","HASC_3": "NA","name": "n.a.(2387).city","area_km2": 16.08841,"hist_schema_id": "Elevation0-9000","hist_area_km2": {"700": 3.55255,"725": 9.94299,"750": 2.47038,"775": 0.12249}}}