{"type":"Feature","properties":{"GID_3":"MWI.7.9.12_1","GID_0":"MWI","country":"Malawi","GID_1":"MWI.7_1","province":"Dowa","NL_NAME_1":"NA","GID_2":"MWI.7.9_1","county":"TAMsakambewa","NL_NAME_2":"NA","city":"n.a.(725)","VARNAME_3":"NA","NL_NAME_3":"NA","TYPE_3":"Unknown","ENGTYPE_3":"Unknown","CC_3":"NA","HASC_3":"NA","name":"n.a.(725).city"},
"geometry":{"type": "MultiPolygon","coordinates": [[[[33.851,-13.5604,1343.8345],[33.8604,-13.5621,1376.4896],[33.8667,-13.5691,1398.0948],[33.8757,-13.5702,1508.5801],[33.875,-13.5781,1456.5181],[33.8851,-13.5886,1391.2086],[33.8841,-13.5941,1370.7539],[33.8951,-13.6006,1359.6926],[33.8988,-13.6006,1334.9675],[33.8991,-13.5965,1344.2994],[33.9059,-13.5804,1397.3508],[33.9151,-13.5714,1450.4451],[33.9114,-13.5648,1463.0449],[33.9053,-13.5619,1483.1887],[33.9012,-13.557,1491.4036],[33.9004,-13.5532,1512.6191],[33.896,-13.5495,1501.0978],[33.8908,-13.5626,1501.2513],[33.8821,-13.5661,1492.7563],[33.8815,-13.5612,1459.6489],[33.8783,-13.559,1454.3536],[33.8766,-13.5534,1440.4163],[33.868899999999996,-13.55,1433.7593],[33.8652,-13.5509,1423.418],[33.8582,-13.5578,1371.8206],[33.851,-13.5604,1343.8345]]]]}}