{"type":"Feature","properties":{"GID_3":"MWI.7.8.10_1","GID_0":"MWI","country":"Malawi","GID_1":"MWI.7_1","province":"Dowa","NL_NAME_1":"NA","GID_2":"MWI.7.8_1","county":"TADzoole","NL_NAME_2":"NA","city":"n.a.(693)","VARNAME_3":"NA","NL_NAME_3":"NA","TYPE_3":"Unknown","ENGTYPE_3":"Unknown","CC_3":"NA","HASC_3":"NA","name":"n.a.(693).city"},
"geometry":{"type": "MultiPolygon","coordinates": [[[[33.6071,-13.5232,1175.0353],[33.5974,-13.5368,1189.1462],[33.5956,-13.549,1193.1899],[33.6025,-13.5493,1185.9171],[33.621,-13.5597,1210.1365],[33.6382,-13.5655,1190.0701],[33.6396,-13.5672,1195.4716],[33.6374,-13.5733,1202.5597],[33.6213,-13.5936,1235.2329],[33.6273,-13.5934,1224.9202],[33.636,-13.5903,1226.6072],[33.6438,-13.5911,1214.1705],[33.6515,-13.5951,1219.5104],[33.659,-13.5927,1213.2856],[33.6561,-13.5799,1202.1813],[33.6509,-13.5724,1208.0559],[33.6607,-13.5642,1190.6736],[33.6629,-13.5568,1181.2598],[33.6602,-13.5518,1183.0302],[33.6551,-13.5471,1172.0081],[33.6505,-13.5364,1172.4379],[33.6479,-13.5351,1166.856],[33.646,-13.5441,1170.8916],[33.6227,-13.539,1182.6671],[33.6145,-13.5354,1174.3853],[33.6119,-13.5337,1177.3213],[33.6124,-13.5325,1175.131],[33.6265,-13.526,1172.1207],[33.6167,-13.5138,1173.7446],[33.6071,-13.5232,1175.0353]]]]}}