{"type": "Feature","bbox": [35.5265,-14.389,35.5771,-14.3668],"geometry": {"type": "MultiPolygon","coordinates": [[[[35.5508,-14.3721,871.142],[35.5419,-14.3724,879.4834],[35.5325,-14.37,898.0389],[35.5276,-14.3668,912.702],[35.5265,-14.368,919.1439],[35.532,-14.3828,878.2501],[35.5375,-14.384,866.3839],[35.539,-14.3869,864.0318],[35.5465,-14.389,849.2211],[35.5513,-14.3885,835.4094],[35.5489,-14.3804,860.3795],[35.5579,-14.378,849.2188],[35.5715,-14.3782,857.1426],[35.5748,-14.3766,865.4075],[35.5771,-14.3725,843.9121],[35.576,-14.3703,849.8345],[35.5508,-14.3721,871.142]]]]}
,"properties": {"GID_3": "MWI.13.9.22_1","GID_0": "MWI","country": "Malawi","GID_1": "MWI.13_1","province": "Mangochi","NL_NAME_1": "NA","GID_2": "MWI.13.9_1","county": "TAJalasi","NL_NAME_2": "NA","city": "n.a.(1539)","VARNAME_3": "NA","NL_NAME_3": "NA","TYPE_3": "Unknown","ENGTYPE_3": "Unknown","CC_3": "NA","HASC_3": "NA","name": "n.a.(1539).city","area_km2": 5.85339,"hist_schema_id": "Elevation0-9000","hist_area_km2": {"850": 1.519817,"875": 3.22449,"900": 1.068005,"925": 0.041078}}}