{"type": "Feature","bbox": [33.6979,-13.2162,33.7715,-13.1524],"geometry": {"type": "MultiPolygon","coordinates": [[[[33.7112,-13.2002,1052.2952],[33.7296,-13.2022,1072.1051],[33.7319,-13.2072,1060.8494],[33.7292,-13.2122,1073.9226],[33.7306,-13.2162,1066.448],[33.7468,-13.2117,1092.3279],[33.7536,-13.2083,1097.4243],[33.7548,-13.2059,1088.0791],[33.7628,-13.2046,1102.614],[33.769,-13.2017,1103.9673],[33.7715,-13.1927,1089.9196],[33.7625,-13.1856,1068.812],[33.7603,-13.1794,1063.5198],[33.7565,-13.1774,1056.0304],[33.7543,-13.1721,1058.7428],[33.7489,-13.1663,1039.0312],[33.7485,-13.1584,1029.9763],[33.7533,-13.1559,1020.5995],[33.7513,-13.1524,1036.2275],[33.7421,-13.1526,1045.7571],[33.7252,-13.1697,1031.8826],[33.7185,-13.1696,1034.2037],[33.7128,-13.1753,1035.0444],[33.7017,-13.178,1037.8795],[33.6982,-13.1861,1049.1058],[33.6979,-13.1912,1046.5737],[33.7009,-13.197,1024.6331],[33.7112,-13.2002,1052.2952]]]]}
,"properties": {"GID_3": "MWI.23.2.10_1","GID_0": "MWI","country": "Malawi","GID_1": "MWI.23_1","province": "Ntchisi","NL_NAME_1": "NA","GID_2": "MWI.23.2_1","county": "SCChilooko","NL_NAME_2": "NA","city": "n.a.(512)","VARNAME_3": "NA","NL_NAME_3": "NA","TYPE_3": "Unknown","ENGTYPE_3": "Unknown","CC_3": "NA","HASC_3": "NA","name": "n.a.(512).city","area_km2": 29.70548,"hist_schema_id": "Elevation0-9000","hist_area_km2": {"1025": 6.44101,"1050": 8.54646,"1075": 12.0965,"1100": 2.62151}}}