{"type": "Feature","bbox": [33.6698,-13.4289,33.7311,-13.3831],"geometry": {"type": "MultiPolygon","coordinates": [[[[33.6852,-13.3869,1187.0881],[33.6878,-13.3997,1217.1196],[33.6839,-13.4014,1220.9487],[33.675,-13.4001,1222.4519],[33.6727,-13.4033,1226.1549],[33.6698,-13.4139,1186.4944],[33.6771,-13.4264,1182.0862],[33.6816,-13.4289,1189.866],[33.69,-13.4192,1195.8972],[33.6979,-13.4135,1231.3276],[33.6995,-13.4098,1232.3625],[33.7035,-13.4092,1224.3065],[33.7139,-13.4117,1230.4659],[33.7235,-13.405,1216.6272],[33.7311,-13.4033,1232.0751],[33.7274,-13.3911,1214.4075],[33.7216,-13.3831,1214.2213],[33.7071,-13.3896,1195.8652],[33.6943,-13.3857,1178.0052],[33.6852,-13.3869,1187.0881]]]]}
,"properties": {"GID_3": "MWI.7.3.19_1","GID_0": "MWI","country": "Malawi","GID_1": "MWI.7_1","province": "Dowa","NL_NAME_1": "NA","GID_2": "MWI.7.3_1","county": "SCChakhaza","NL_NAME_2": "NA","city": "n.a.(612)","VARNAME_3": "NA","NL_NAME_3": "NA","TYPE_3": "Unknown","ENGTYPE_3": "Unknown","CC_3": "NA","HASC_3": "NA","name": "n.a.(612).city","area_km2": 16.76791,"hist_schema_id": "Elevation0-9000","hist_area_km2": {"1175": 1.91804,"1200": 7.91991,"1225": 6.92996}}}