{"type": "Feature","bbox": [35.0481,-15.1923,35.0902,-15.0069],"geometry": {"type": "MultiPolygon","coordinates": [[[[35.068,-15.1923,494.2379],[35.072,-15.19,495.5641],[35.0781,-15.1908,495.8423],[35.0788,-15.1891,496.553],[35.0762,-15.1851,498.6439],[35.0776,-15.1813,497.9722],[35.0768,-15.1763,498.923],[35.0723,-15.1697,507.6972],[35.0724,-15.1666,510.1738],[35.0651,-15.1573,519.6548],[35.0601,-15.1636,507.9207],[35.0506,-15.1656,504.1228],[35.0481,-15.1742,516.2613],[35.0523,-15.1809,515.6175],[35.0611,-15.1875,504.9839],[35.064,-15.1915,500.1361],[35.068,-15.1923,494.2379]]],
[[[35.0577,-15.0161,626.1475],[35.0617,-15.0211,628.4471],[35.0577,-15.025,632.1008],[35.0611,-15.0269,624.6688],[35.067,-15.0274,621.7804],[35.0696,-15.0259,612.6158],[35.0813,-15.0273,599.3745],[35.0902,-15.0158,581.0975],[35.0894,-15.0116,587.029],[35.0853,-15.0084,595.0457],[35.0778,-15.0069,601.2646],[35.071,-15.0125,612.3249],[35.06,-15.0121,617.8678],[35.0577,-15.0161,626.1475]]]]}
,"properties": {"GID_3": "MWI.1.3.19_1","GID_0": "MWI","country": "Malawi","GID_1": "MWI.1_1","province": "Balaka","NL_NAME_1": "NA","GID_2": "MWI.1.3_1","county": "TANsamala","NL_NAME_2": "NA","city": "n.a.(1974)","VARNAME_3": "NA","NL_NAME_3": "NA","TYPE_3": "Unknown","ENGTYPE_3": "Unknown","CC_3": "NA","HASC_3": "NA","name": "n.a.(1974).city","area_km2": 13.18217,"hist_schema_id": "Elevation0-9000","hist_area_km2": {"500": 6.67086,"525": 0.96176,"575": 0.26622,"600": 2.9079,"625": 2.33448,"650": 0.04095}}}