{"type": "Feature","bbox": [35.1104,-15.3405,35.1552,-15.293],"geometry": {"type": "MultiPolygon","coordinates": [[[[35.1232,-15.2994,499.8889],[35.1203,-15.3107,498.7874],[35.1206,-15.3161,497.2537],[35.117,-15.3202,492.7896],[35.1104,-15.3395,504.6623],[35.129,-15.3405,508.8326],[35.1336,-15.3342,569.3427],[35.1402,-15.3333,599.5226],[35.148,-15.3245,565.9548],[35.1459,-15.3183,561.2788],[35.1407,-15.3133,552.3105],[35.1492,-15.3127,582.3398],[35.1552,-15.3051,569.957],[35.1519,-15.2973,518.2925],[35.1446,-15.293,491.2004],[35.1411,-15.2942,495.0642],[35.1363,-15.3013,512.7554],[35.1232,-15.2994,499.8889]]]]}
,"properties": {"GID_3": "MWI.28.7.11_1","GID_0": "MWI","country": "Malawi","GID_1": "MWI.28_1","province": "Zomba","NL_NAME_1": "NA","GID_2": "MWI.28.7_1","county": "TAMlumbe","NL_NAME_2": "NA","city": "n.a.(2101)","VARNAME_3": "NA","NL_NAME_3": "NA","TYPE_3": "Unknown","ENGTYPE_3": "Unknown","CC_3": "NA","HASC_3": "NA","name": "n.a.(2101).city","area_km2": 14.15072,"hist_schema_id": "Elevation0-9000","hist_area_km2": {"475": 0.02045,"500": 7.8115,"525": 2.53575,"550": 1.45189,"575": 1.5541,"600": 0.77702}}}