{"type":"Feature","properties":{"GID_3":"MWI.15.6.46_1","GID_0":"MWI","country":"Malawi","GID_1":"MWI.15_1","province":"Mulanje","NL_NAME_1":"NA","GID_2":"MWI.15.6_1","county":"TAMabuka","NL_NAME_2":"NA","city":"n.a.(2928)","VARNAME_3":"NA","NL_NAME_3":"NA","TYPE_3":"Unknown","ENGTYPE_3":"Unknown","CC_3":"NA","HASC_3":"NA","name":"n.a.(2928).city"},
"geometry":{"type": "MultiPolygon","coordinates": [[[[35.3441,-16.1332,594.2463],[35.3395,-16.1415,585.8202],[35.3325,-16.1498,601.4594],[35.3406,-16.1517,566.8033],[35.3371,-16.1546,579.5851],[35.3447,-16.163,521.7745],[35.3522,-16.1571,531.2883],[35.3529,-16.147,541.8453],[35.3721,-16.1359,552.7009],[35.3629,-16.1269,585.4835],[35.3608,-16.1311,573.1495],[35.3561,-16.1281,569.4186],[35.3496,-16.1343,590.499],[35.3441,-16.1332,594.2463]]]]}}