{"type": "Feature","bbox": [33.8034,-14.0737,33.8454,-14.0558],"geometry": {"type": "MultiPolygon","coordinates": [[[[33.8083,-14.0632,1120.7665],[33.8034,-14.0707,1131.8186],[33.8064,-14.0726,1112.1884],[33.8149,-14.0737,1104.0876],[33.8216,-14.0669,1097.3459],[33.8254,-14.0652,1090.6443],[33.8454,-14.0614,1047.736],[33.835,-14.0566,1066.946],[33.8293,-14.0558,1076.9547],[33.824,-14.0604,1093.5122],[33.8175,-14.0614,1098.6733],[33.8146,-14.0599,1107.7081],[33.8116,-14.0648,1117.4561],[33.8083,-14.0632,1120.7665]]]]}
,"properties": {"GID_3": "MWI.11.12.3_1","GID_0": "MWI","country": "Malawi","GID_1": "MWI.11_1","province": "Lilongwe","NL_NAME_1": "NA","GID_2": "MWI.11.12_1","county": "TAKalumba","NL_NAME_2": "NA","city": "n.a.(1193)","VARNAME_3": "NA","NL_NAME_3": "NA","TYPE_3": "Unknown","ENGTYPE_3": "Unknown","CC_3": "NA","HASC_3": "NA","name": "n.a.(1193).city","area_km2": 3.393494,"hist_schema_id": "Elevation0-9000","hist_area_km2": {"1050": 0.308505,"1075": 0.884381,"1100": 1.480788,"1125": 0.719819}}}