{"type": "Feature","bbox": [35.6132,-14.6484,35.6667,-14.5852],"geometry": {"type": "MultiPolygon","coordinates": [[[[35.6442,-14.5852,744.0753],[35.6422,-14.5895,742.6932],[35.6371,-14.5888,746.8907],[35.6348,-14.5905,798.4896],[35.6305,-14.6013,753.4546],[35.6235,-14.6015,755.9217],[35.6154,-14.5953,763.8358],[35.6132,-14.6072,799.2449],[35.6148,-14.6158,778.5599],[35.6178,-14.6184,767.1786],[35.6228,-14.6127,760.0377],[35.6268,-14.6125,750.745],[35.6298,-14.6101,750.8291],[35.6314,-14.6108,749.4163],[35.6433,-14.6372,816.4813],[35.6506,-14.6461,797.0265],[35.655,-14.6484,796.0053],[35.6606,-14.6457,1003.0248],[35.6662,-14.6403,866.7618],[35.6667,-14.63,832.8062],[35.6607,-14.6187,873.35],[35.6589,-14.612,821.2076],[35.6573,-14.6111,772.6345],[35.6536,-14.6129,777.4321],[35.6505,-14.607,751.2945],[35.6498,-14.5975,745.4355],[35.6543,-14.5916,746.1873],[35.6455,-14.596,751.2245],[35.6442,-14.5852,744.0753]]]]}
,"properties": {"GID_3": "MWI.12.14.4_1","GID_0": "MWI","country": "Malawi","GID_1": "MWI.12_1","province": "Machinga","NL_NAME_1": "NA","GID_2": "MWI.12.14_1","county": "TANyambi","NL_NAME_2": "NA","city": "n.a.(1688)","VARNAME_3": "NA","NL_NAME_3": "NA","TYPE_3": "Unknown","ENGTYPE_3": "Unknown","CC_3": "NA","HASC_3": "NA","name": "n.a.(1688).city","area_km2": 17.41807,"hist_schema_id": "Elevation0-9000","hist_area_km2": {"725": 0.10259,"750": 5.72434,"775": 1.43617,"800": 0.96426,"825": 0.92319,"850": 0.77959,"875": 0.61546,"900": 0.63597,"925": 0.53339,"950": 0.47185,"975": 0.65648,"1000": 0.63596,"1025": 0.53338,"1050": 0.45133,"1075": 0.59493,"1100": 0.57441,"1125": 0.45132,"1150": 0.22566,"1175": 0.2872,"1200": 0.16412,"1225": 0.16412,"1250": 0.18463,"1275": 0.1436,"1300": 0.06154,"1325": 0.06154,"1350": 0.02051,"1375": 0.02051}}}