{"type": "Feature","bbox": [33.9162,-14.0117,33.975,-13.9562],"geometry": {"type": "MultiPolygon","coordinates": [[[[33.9213,-13.9666,977.6934],[33.9162,-13.9718,986.4702],[33.9189,-13.9748,996.6511],[33.9195,-13.9788,989.978],[33.9222,-13.98,1003.9056],[33.9216,-13.9859,998.3466],[33.9252,-13.9881,1026.1776],[33.9213,-13.9903,991.2234],[33.9227,-13.9957,994.7634],[33.9281,-13.9984,1015.4231],[33.9278,-14.0006,1007.7177],[33.9343,-14.0022,1064.2212],[33.9417,-14.0117,1039.0266],[33.9454,-14.0065,1084.3928],[33.945,-14.0038,1099.1072],[33.9467,-14.0016,1142.2029],[33.9528,-13.9987,1150.7612],[33.959,-14.0008,1148.5657],[33.9578,-13.9912,1118.3314],[33.9556,-13.9862,1086.7351],[33.9706,-13.9855,1111.5532],[33.975,-13.9775,1105.0947],[33.9713,-13.9668,1091.803],[33.9733,-13.9589,1079.5962],[33.9716,-13.9562,1057.0946],[33.9626,-13.9662,1089.3848],[33.9547,-13.9661,1051.4694],[33.9484,-13.9605,1020.4132],[33.9449,-13.9608,1023.708],[33.9407,-13.9649,993.1708],[33.9391,-13.9603,1000.0017],[33.9339,-13.9583,982.0331],[33.9338,-13.9598,982.0557],[33.9265,-13.964,1006.9014],[33.924,-13.9626,1023.0022],[33.9213,-13.9666,977.6934]]]]}
,"properties": {"GID_3": "MWI.11.16.3_1","GID_0": "MWI","country": "Malawi","GID_1": "MWI.11_1","province": "Lilongwe","NL_NAME_1": "NA","GID_2": "MWI.11.16_1","county": "TAMazengera","NL_NAME_2": "NA","city": "n.a.(1101)","VARNAME_3": "NA","NL_NAME_3": "NA","TYPE_3": "Unknown","ENGTYPE_3": "Unknown","CC_3": "NA","HASC_3": "NA","name": "n.a.(1101).city","area_km2": 21.74687,"hist_schema_id": "Elevation0-9000","hist_area_km2": {"975": 1.50201,"1000": 3.6623,"1025": 3.45648,"1050": 2.67462,"1075": 3.18897,"1100": 4.03248,"1125": 2.65397,"1150": 0.57604}}}