{"type": "Feature","bbox": [35.1917,-15.9879,35.2519,-15.9491],"geometry": {"type": "MultiPolygon","coordinates": [[[[35.2027,-15.9594,807.2361],[35.1977,-15.9661,829.3249],[35.1917,-15.9662,863.0699],[35.1967,-15.9716,829.3414],[35.2047,-15.9704,821.6867],[35.2077,-15.967,807.3728],[35.2125,-15.9671,804.5588],[35.2195,-15.963,785.4297],[35.2227,-15.9774,812.832],[35.2279,-15.9874,784.5588],[35.2347,-15.9879,770.8842],[35.2391,-15.9833,766.4741],[35.2468,-15.984,740.9034],[35.2519,-15.9803,735.1661],[35.244,-15.9775,755.1135],[35.2365,-15.9783,762.2916],[35.235,-15.9772,772.2918],[35.2322,-15.9616,775.8685],[35.2259,-15.9547,780.2825],[35.2236,-15.9491,779.0977],[35.2184,-15.9518,780.3672],[35.2153,-15.9515,782.5247],[35.2109,-15.9559,798.4558],[35.2027,-15.9594,807.2361]]]]}
,"properties": {"GID_3": "MWI.27.8.14_1","GID_0": "MWI","country": "Malawi","GID_1": "MWI.27_1","province": "Thyolo","NL_NAME_1": "NA","GID_2": "MWI.27.8_1","county": "TAChimaliro","NL_NAME_2": "NA","city": "n.a.(2706)","VARNAME_3": "NA","NL_NAME_3": "NA","TYPE_3": "Unknown","ENGTYPE_3": "Unknown","CC_3": "NA","HASC_3": "NA","name": "n.a.(2706).city","area_km2": 8.704003,"hist_schema_id": "Elevation0-9000","hist_area_km2": {"725": 0.040766,"750": 0.550337,"775": 3.016851,"800": 3.872994,"825": 1.161903,"850": 0.061152}}}