{"type":"Feature","properties":{"GID_3":"MWI.20.7.11_1","GID_0":"MWI","country":"Malawi","GID_1":"MWI.20_1","province":"Nkhotakota","NL_NAME_1":"NA","GID_2":"MWI.20.7_1","county":"TAKanyenda","NL_NAME_2":"NA","city":"n.a.(350)","VARNAME_3":"NA","NL_NAME_3":"NA","TYPE_3":"Unknown","ENGTYPE_3":"Unknown","CC_3":"NA","HASC_3":"NA","name":"n.a.(350).city"},
"geometry":{"type": "MultiPolygon","coordinates": [[[[34.1838,-12.4854,477.4155],[34.1717,-12.5179,480.3365],[34.17,-12.5183,480.5121],[34.1694,-12.5145,482.2019],[34.1675,-12.5136,480.0082],[34.1586,-12.5177,482.8135],[34.1654,-12.5257,481.8166],[34.1776,-12.5272,479.6399],[34.1805,-12.5215,479.2291],[34.184,-12.5241,478.3865],[34.1877,-12.5212,477.9842],[34.1944,-12.5269,476.4947],[34.1973,-12.5254,476.4589],[34.1959,-12.5129,475.3644],[34.192,-12.4988,476.3021],[34.1838,-12.4854,477.4155]]]]}}