{"type":"Feature","properties":{"GID_3":"MWI.27.6.23_1","GID_0":"MWI","country":"Malawi","GID_1":"MWI.27_1","province":"Thyolo","NL_NAME_1":"NA","GID_2":"MWI.27.6_1","county":"TABvumbwe","NL_NAME_2":"NA","city":"n.a.(2734)","VARNAME_3":"NA","NL_NAME_3":"NA","TYPE_3":"Unknown","ENGTYPE_3":"Unknown","CC_3":"NA","HASC_3":"NA","name":"n.a.(2734).city"},
"geometry":{"type": "MultiPolygon","coordinates": [[[[35.0648,-15.9749,1126.3259],[35.0659,-15.9788,1132.3346],[35.0632,-15.9859,1143.7649],[35.0598,-15.9898,1169.4855],[35.0587,-15.9884,1175.345],[35.0568,-15.9904,1172.842],[35.0511,-15.9903,1126.4802],[35.048,-15.9885,1122.167],[35.0457,-15.9899,1110.5911],[35.0462,-15.9955,1120.0583],[35.044,-16.0006,1152.3099],[35.0497,-16.0002,1148.9529],[35.051,-16.0025,1157.7632],[35.0546,-16.0035,1158.01],[35.0585,-16.0004,1154.0925],[35.0589,-15.9958,1151.7645],[35.0682,-15.9963,1196.989],[35.0687,-15.9927,1202.8293],[35.0758,-15.9851,1202.3846],[35.0777,-15.974,1183.3151],[35.0741,-15.9726,1166.3818],[35.0648,-15.9749,1126.3259]]]]}}