{"type": "Feature","bbox": [34.6255,-14.8288,34.656,-14.81],"geometry": {"type": "MultiPolygon","coordinates": [[[[34.6255,-14.8245,1170.7833],[34.6314,-14.8268,1149.6035],[34.6362,-14.8274,1140.5762],[34.6404,-14.8256,1117.4163],[34.6531,-14.8288,1120.1039],[34.656,-14.8256,1111.947],[34.6525,-14.8201,1132.3369],[34.6495,-14.8195,1115.3103],[34.6451,-14.8153,1143.7183],[34.6352,-14.8138,1157.498],[34.6302,-14.81,1165.9791],[34.6265,-14.8134,1154.0891],[34.6373,-14.8207,1144.3004],[34.635,-14.8221,1134.1869],[34.6309,-14.8216,1145.9229],[34.6255,-14.8245,1170.7833]]]]}
,"properties": {"GID_3": "MWI.22.1.3_1","GID_0": "MWI","country": "Malawi","GID_1": "MWI.22_1","province": "Ntcheu","NL_NAME_1": "NA","GID_2": "MWI.22.1_1","county": "NtcheuBoma","NL_NAME_2": "NA","city": "n.a.(1836)","VARNAME_3": "NA","NL_NAME_3": "NA","TYPE_3": "Unknown","ENGTYPE_3": "Unknown","CC_3": "NA","HASC_3": "NA","name": "n.a.(1836).city","area_km2": 3.279489,"hist_schema_id": "Elevation0-9000","hist_area_km2": {"1100": 0.081985,"1125": 1.414263,"1150": 1.39379,"1175": 0.389452}}}