{"type":"Feature","properties":{"GID_3":"MWI.22.5.2_1","GID_0":"MWI","country":"Malawi","GID_1":"MWI.22_1","province":"Ntcheu","NL_NAME_1":"NA","GID_2":"MWI.22.5_1","county":"TAChakhumbira","NL_NAME_2":"NA","city":"n.a.(1613)","VARNAME_3":"NA","NL_NAME_3":"NA","TYPE_3":"Unknown","ENGTYPE_3":"Unknown","CC_3":"NA","HASC_3":"NA","name":"n.a.(1613).city"},
"geometry":{"type": "MultiPolygon","coordinates": [[[[34.5164,-14.4532,844.2657],[34.5049,-14.4518,1053.1146],[34.5032,-14.4571,1029.1042],[34.4991,-14.4573,1054.5566],[34.4944,-14.4552,1058.455],[34.4918,-14.4567,1026.9601],[34.4913,-14.4775,1250.3733],[34.4943,-14.4818,1215.9503],[34.4936,-14.4886,1234.5321],[34.4896,-14.5013,1426.9835],[34.488,-14.5027,1344.4491],[34.4846,-14.5022,1332.1052],[34.4833,-14.507,1333.8351],[34.487,-14.5091,1353.2312],[34.4856,-14.5139,1385.8621],[34.4886,-14.5269,1449.0118],[34.495,-14.5284,1505.0103],[34.5008,-14.524,1482.7148],[34.5151,-14.5234,1473.7908],[34.5255,-14.5201,1478.5575],[34.5331,-14.5414,1776.106],[34.5349,-14.5401,1790.1409],[34.5362,-14.535,1685.9467],[34.5331,-14.5196,1538.4899],[34.5437,-14.5168,1054.811],[34.5459,-14.5143,958.7439],[34.5457,-14.511,911.6298],[34.5433,-14.5031,910.3025],[34.5402,-14.4985,935.287],[34.5265,-14.4912,1116.2969],[34.5129,-14.487,1258.0952],[34.5138,-14.4678,1098.965],[34.5121,-14.4591,929.8358],[34.5164,-14.4532,844.2657]]]]}}