{"type":"Feature","properties":{"GID_3":"MWI.11.5.2_1","GID_0":"MWI","country":"Malawi","GID_1":"MWI.11_1","province":"Lilongwe","NL_NAME_1":"NA","GID_2":"MWI.11.5_1","county":"SCTsabango","NL_NAME_2":"NA","city":"n.a.(1090)","VARNAME_3":"NA","NL_NAME_3":"NA","TYPE_3":"Unknown","ENGTYPE_3":"Unknown","CC_3":"NA","HASC_3":"NA","name":"n.a.(1090).city"},
"geometry":{"type": "MultiPolygon","coordinates": [[[[33.8843,-13.945,983.3998],[33.8824,-13.9456,1006.5872],[33.8858,-13.9533,997.9703],[33.8915,-13.9623,1017.6621],[33.8946,-13.9625,1044.2369],[33.8861,-13.972,1054.2533],[33.8862,-13.9775,1034.3718],[33.8842,-13.9827,1032.1692],[33.885,-13.9898,1031.4271],[33.8869,-13.9918,1030.8441],[33.8971,-13.9919,1014.4688],[33.9096,-13.979,982.8267],[33.9067,-13.9762,993.4242],[33.9067,-13.974,1002.4533],[33.9162,-13.9718,986.4702],[33.9213,-13.9666,977.6934],[33.9224,-13.9581,1002.9275],[33.9113,-13.9525,1023.8188],[33.907,-13.9528,1008.6859],[33.8992,-13.9566,1026.593],[33.8963,-13.9518,1013.5814],[33.8843,-13.945,983.3998]]]]}}