{"type":"Feature","properties":{"GID_3":"MWI.23.5.3_1","GID_0":"MWI","country":"Malawi","GID_1":"MWI.23_1","province":"Ntchisi","NL_NAME_1":"NA","GID_2":"MWI.23.5_1","county":"TAKalumo","NL_NAME_2":"NA","city":"n.a.(545)","VARNAME_3":"NA","NL_NAME_3":"NA","TYPE_3":"Unknown","ENGTYPE_3":"Unknown","CC_3":"NA","HASC_3":"NA","name":"n.a.(545).city"},
"geometry":{"type": "MultiPolygon","coordinates": [[[[33.7096,-13.2491,1073.7709],[33.7057,-13.2585,1086.7821],[33.7083,-13.2676,1084.9758],[33.7078,-13.2805,1099.663],[33.7118,-13.2869,1101.9248],[33.7175,-13.2913,1110.5841],[33.7165,-13.2961,1110.3076],[33.7187,-13.2972,1108.0594],[33.7177,-13.3001,1111.1648],[33.7216,-13.3036,1119.1538],[33.7208,-13.3091,1118.822],[33.7226,-13.3135,1122.3003],[33.7189,-13.3175,1134.4272],[33.7212,-13.3282,1134.7161],[33.7257,-13.3319,1148.2288],[33.7301,-13.3398,1146.9658],[33.7337,-13.3407,1157.5787],[33.7492,-13.3363,1183.7793],[33.7642,-13.3363,1210.0569],[33.7659,-13.3349,1205.0084],[33.7645,-13.3308,1196.1272],[33.7666,-13.3234,1176.9429],[33.7576,-13.3157,1162.8682],[33.7655,-13.3108,1192.1766],[33.7763,-13.308,1211.4056],[33.779,-13.3054,1216.6467],[33.7815,-13.2991,1202.6703],[33.7786,-13.2881,1183.1104],[33.7752,-13.2864,1180.3512],[33.7731,-13.2826,1171.0746],[33.7672,-13.2861,1174.4747],[33.7623,-13.2791,1179.3583],[33.7444,-13.2819,1141.879],[33.7358,-13.2849,1129.259],[33.728,-13.2729,1105.8535],[33.723,-13.2577,1088.6074],[33.7171,-13.2515,1080.6771],[33.7123,-13.2513,1074.7174],[33.7098,-13.2465,1072.4758],[33.7096,-13.2491,1073.7709]]]]}}