{"type": "Feature","bbox": [33.5116,-10.2457,33.6366,-10.0809],"geometry": {"type": "MultiPolygon","coordinates": [[[[33.5116,-10.1925,1564.4883],[33.5143,-10.1943,1543.948],[33.5215,-10.2146,1500.4242],[33.5353,-10.2173,1502.1132],[33.5413,-10.2226,1502.402],[33.5443,-10.2289,1497.7209],[33.5439,-10.2334,1513.687],[33.5491,-10.245,1479.0808],[33.5537,-10.2439,1492.3258],[33.5602,-10.2457,1518.1941],[33.5632,-10.2371,1628.4382],[33.5623,-10.234,1579.8621],[33.5707,-10.2242,1634.823],[33.6361,-10.1333,1685.7412],[33.6366,-10.1306,1633.3782],[33.6329,-10.121,1661.1719],[33.6319,-10.1059,1704.4996],[33.6365,-10.1004,1697.3442],[33.6354,-10.0957,1789.8359],[33.6316,-10.0928,1770.1866],[33.6295,-10.0885,1756.7524],[33.6196,-10.0809,1686.2349],[33.6069,-10.0876,1742.7295],[33.6056,-10.0891,1699.1052],[33.6064,-10.0927,1678.3513],[33.6044,-10.0958,1598.8127],[33.5958,-10.0959,1648.703],[33.5932,-10.099,1602.1545],[33.5889,-10.0965,1622.6812],[33.5875,-10.0932,1606.417],[33.579,-10.0953,1414.4902],[33.5718,-10.0906,1323.8445],[33.5692,-10.0943,1340.5055],[33.5672,-10.1068,1350.9969],[33.5694,-10.1111,1341.7375],[33.57,-10.1195,1357.9685],[33.5627,-10.1232,1404.6077],[33.5619,-10.1346,1430.9437],[33.5571,-10.1407,1409.4872],[33.5528,-10.1373,1391.7957],[33.5497,-10.1388,1410.6733],[33.5432,-10.1475,1460.7909],[33.5417,-10.152,1500.3622],[33.5365,-10.1576,1469.9927],[33.5348,-10.1631,1450.4869],[33.5332,-10.1638,1437.3464],[33.5307,-10.1618,1529.7073],[33.5291,-10.1629,1540.2734],[33.529,-10.1667,1492.9268],[33.5177,-10.1804,1528.9753],[33.5116,-10.1925,1564.4883]]]]}
,"properties": {"GID_3": "MWI.5.6.5_1","GID_0": "MWI","country": "Malawi","GID_1": "MWI.5_1","province": "Chitipa","NL_NAME_1": "NA","GID_2": "MWI.5.6_1","county": "TAMwenewenya","NL_NAME_2": "NA","city": "n.a.(78)","VARNAME_3": "NA","NL_NAME_3": "NA","TYPE_3": "Unknown","ENGTYPE_3": "Unknown","CC_3": "NA","HASC_3": "NA","name": "n.a.(78).city","area_km2": 121.02379,"hist_schema_id": "Elevation0-9000","hist_area_km2": {"1325": 0.45922,"1350": 2.29605,"1375": 3.02646,"1400": 5.38475,"1425": 6.72025,"1450": 7.28336,"1475": 11.06017,"1500": 15.96359,"1525": 9.59947,"1550": 5.96885,"1575": 6.19871,"1600": 6.03176,"1625": 5.78131,"1650": 5.84392,"1675": 6.4908,"1700": 5.94812,"1725": 5.88536,"1750": 5.02964,"1775": 3.08867,"1800": 1.7321,"1825": 0.64693,"1850": 0.37563,"1875": 0.08347,"1900": 0.0626,"1925": 0.0626}}}