{"type": "Feature","bbox": [33.3148,-11.8439,33.4031,-11.7692],"geometry": {"type": "MultiPolygon","coordinates": [[[[33.3148,-11.8422,1183.6514],[33.3433,-11.8398,1172.8444],[33.3615,-11.8439,1205.2972],[33.3841,-11.8361,1193.7429],[33.3909,-11.8398,1181.5616],[33.4007,-11.8342,1170.1912],[33.4031,-11.8238,1167.7944],[33.3983,-11.8195,1165.9799],[33.3954,-11.8131,1180.1619],[33.3924,-11.8146,1167.071],[33.3878,-11.8133,1173.7438],[33.3862,-11.8111,1173.1086],[33.3862,-11.8021,1163.7876],[33.3766,-11.7995,1166.9482],[33.3721,-11.7938,1162.2852],[33.3688,-11.7919,1167.4897],[33.363,-11.7931,1159.8127],[33.3536,-11.7775,1156.1973],[33.3466,-11.7787,1154.9915],[33.346,-11.7753,1160.9137],[33.3411,-11.7731,1156.1082],[33.3394,-11.7739,1152.1157],[33.3372,-11.7692,1149.9313],[33.3354,-11.7692,1148.5637],[33.3212,-11.777,1166.6617],[33.3262,-11.7803,1171.0183],[33.3308,-11.7887,1175.4724],[33.3335,-11.7989,1176.6605],[33.3337,-11.8076,1175.7437],[33.3249,-11.8299,1175.3894],[33.3148,-11.8422,1183.6514]]]]}
,"properties": {"GID_3": "MWI.17.7.1_1","GID_0": "MWI","country": "Malawi","GID_1": "MWI.17_1","province": "Mzimba","NL_NAME_1": "NA","GID_2": "MWI.17.7_1","county": "TAM'Mbelwa","NL_NAME_2": "NA","city": "n.a.(257)","VARNAME_3": "NA","NL_NAME_3": "NA","TYPE_3": "Unknown","ENGTYPE_3": "Unknown","CC_3": "NA","HASC_3": "NA","name": "n.a.(257).city","area_km2": 43.08344,"hist_schema_id": "Elevation0-9000","hist_area_km2": {"1150": 3.5284,"1175": 30.00911,"1200": 9.54593}}}