{"type": "Feature","bbox": [34.7553,-14.8546,34.8263,-14.8119],"geometry": {"type": "MultiPolygon","coordinates": [[[[34.815,-14.8119,830.4969],[34.804,-14.8222,877.3627],[34.7946,-14.8206,918.3717],[34.7949,-14.8156,910.9873],[34.786,-14.8136,953.4818],[34.7799,-14.8207,927.5963],[34.7808,-14.8286,907.3604],[34.7776,-14.8317,899.7731],[34.7693,-14.8324,931.7398],[34.7679,-14.8343,922.8051],[34.7636,-14.8328,930.0733],[34.7553,-14.835,957.8116],[34.7696,-14.8517,937.262],[34.7751,-14.8546,937.4792],[34.7772,-14.8522,933.3823],[34.7849,-14.8515,919.0781],[34.7938,-14.8464,896.0806],[34.8012,-14.8476,890.7194],[34.8094,-14.8434,860.0609],[34.8175,-14.8456,833.2841],[34.8158,-14.8431,835.9714],[34.8158,-14.8304,882.7562],[34.8228,-14.8337,875.6202],[34.8263,-14.8322,871.2742],[34.8231,-14.8253,852.4144],[34.8232,-14.8153,881.7789],[34.815,-14.8119,830.4969]]]]}
,"properties": {"GID_3": "MWI.22.4.11_1","GID_0": "MWI","country": "Malawi","GID_1": "MWI.22_1","province": "Ntcheu","NL_NAME_1": "NA","GID_2": "MWI.22.4_1","county": "SCMakwangwala","NL_NAME_2": "NA","city": "n.a.(1838)","VARNAME_3": "NA","NL_NAME_3": "NA","TYPE_3": "Unknown","ENGTYPE_3": "Unknown","CC_3": "NA","HASC_3": "NA","name": "n.a.(1838).city","area_km2": 18.73299,"hist_schema_id": "Elevation0-9000","hist_area_km2": {"825": 0.26645,"850": 2.41851,"875": 4.71406,"900": 4.22207,"925": 5.22631,"950": 1.86509,"975": 0.0205}}}