{"type": "Feature","bbox": [33.1088,-13.6351,33.1679,-13.5752],"geometry": {"type": "MultiPolygon","coordinates": [[[[33.1292,-13.5752,1084.8959],[33.1269,-13.5801,1088.3937],[33.1274,-13.5877,1094.5852],[33.1222,-13.591,1095.2919],[33.1162,-13.5999,1096.1605],[33.1088,-13.6049,1095.4097],[33.1203,-13.6093,1094.864],[33.1223,-13.6214,1092.8562],[33.1316,-13.6351,1091.4069],[33.1495,-13.6332,1078.1721],[33.1602,-13.6183,1074.4299],[33.1624,-13.6114,1068.8669],[33.1531,-13.6102,1075.4712],[33.1532,-13.5981,1082.8108],[33.1679,-13.5835,1090.8661],[33.1487,-13.5765,1098.8455],[33.1292,-13.5752,1084.8959]]]]}
,"properties": {"GID_3": "MWI.14.2.13_1","GID_0": "MWI","country": "Malawi","GID_1": "MWI.14_1","province": "Mchinji","NL_NAME_1": "NA","GID_2": "MWI.14.2_1","county": "SCDambe","NL_NAME_2": "NA","city": "n.a.(741)","VARNAME_3": "NA","NL_NAME_3": "NA","TYPE_3": "Unknown","ENGTYPE_3": "Unknown","CC_3": "NA","HASC_3": "NA","name": "n.a.(741).city","area_km2": 24.37851,"hist_schema_id": "Elevation0-9000","hist_area_km2": {"1075": 9.6646,"1100": 14.7139}}}