{"type":"Feature","properties":{"GID_3":"MWI.7.7.22_1","GID_0":"MWI","country":"Malawi","GID_1":"MWI.7_1","province":"Dowa","NL_NAME_1":"NA","GID_2":"MWI.7.7_1","county":"TAChiwere","NL_NAME_2":"NA","city":"n.a.(906)","VARNAME_3":"NA","NL_NAME_3":"NA","TYPE_3":"Unknown","ENGTYPE_3":"Unknown","CC_3":"NA","HASC_3":"NA","name":"n.a.(906).city"},
"geometry":{"type": "MultiPolygon","coordinates": [[[[34.1918,-13.7664,818.968],[34.1852,-13.7775,848.7117],[34.1763,-13.7837,752.6683],[34.1779,-13.7896,816.9583],[34.1735,-13.7967,751.3547],[34.2,-13.8062,667.0334],[34.2078,-13.8128,652.1833],[34.2087,-13.8186,713.9694],[34.2145,-13.8181,647.064],[34.2275,-13.8094,630.7318],[34.2289,-13.8075,642.4384],[34.2272,-13.803,634.1774],[34.233,-13.7994,664.7783],[34.2313,-13.798,689.4104],[34.2339,-13.7937,669.5051],[34.2505,-13.7848,628.038],[34.2468,-13.7795,643.5865],[34.2374,-13.7712,677.6951],[34.2362,-13.767,681.7942],[34.2233,-13.7622,750.014],[34.2186,-13.7565,751.2443],[34.2068,-13.7478,770.9211],[34.2058,-13.7502,764.5652],[34.2006,-13.7529,786.8657],[34.1965,-13.7577,805.1016],[34.1918,-13.7664,818.968]]]]}}