{"type":"Feature","properties":{"GID_3":"MWI.1.3.27_1","GID_0":"MWI","country":"Malawi","GID_1":"MWI.1_1","province":"Balaka","NL_NAME_1":"NA","GID_2":"MWI.1.3_1","county":"TANsamala","NL_NAME_2":"NA","city":"n.a.(1994)","VARNAME_3":"NA","NL_NAME_3":"NA","TYPE_3":"Unknown","ENGTYPE_3":"Unknown","CC_3":"NA","HASC_3":"NA","name":"n.a.(1994).city"},
"geometry":{"type": "MultiPolygon","coordinates": [[[[35.1591,-15.0777,511.0496],[35.1345,-15.0881,520.5991],[35.1422,-15.0897,513.9644],[35.1483,-15.0961,508.5647],[35.1562,-15.0935,503.0237],[35.1641,-15.0874,506.3788],[35.1675,-15.0822,506.4567],[35.1715,-15.0857,501.1566],[35.1878,-15.0721,489.5149],[35.1994,-15.0699,484.5322],[35.203,-15.0625,481.8493],[35.2,-15.0592,487.6689],[35.1979,-15.0595,485.1581],[35.1955,-15.0531,489.5157],[35.1927,-15.0526,492.496],[35.1893,-15.0473,496.5752],[35.1835,-15.0484,496.7622],[35.1757,-15.0461,501.7581],[35.1726,-15.0484,503.2844],[35.1717,-15.0527,507.5219],[35.1731,-15.0638,504.6338],[35.1701,-15.0665,504.8879],[35.1652,-15.0771,514.9121],[35.1591,-15.0777,511.0496]]]]}}