{"type":"Feature","properties":{"GID_3":"MWI.13.9.15_1","GID_0":"MWI","country":"Malawi","GID_1":"MWI.13_1","province":"Mangochi","NL_NAME_1":"NA","GID_2":"MWI.13.9_1","county":"TAJalasi","NL_NAME_2":"NA","city":"n.a.(1508)","VARNAME_3":"NA","NL_NAME_3":"NA","TYPE_3":"Unknown","ENGTYPE_3":"Unknown","CC_3":"NA","HASC_3":"NA","name":"n.a.(1508).city"},
"geometry":{"type": "MultiPolygon","coordinates": [[[[35.5365,-14.3443,911.3376],[35.535,-14.3457,906.7738],[35.5383,-14.3554,894.0746],[35.5365,-14.3589,888.452],[35.5373,-14.363,879.092],[35.5292,-14.3678,908.7975],[35.5419,-14.3724,879.4834],[35.5508,-14.3721,871.142],[35.5568,-14.3653,882.2417],[35.5566,-14.3608,897.5566],[35.559,-14.3586,880.3946],[35.5572,-14.3492,858.6948],[35.5469,-14.3517,895.9491],[35.5365,-14.3443,911.3376]]]]}}