{"type":"Feature","properties":{"GID_3":"MWI.7.9.11_1","GID_0":"MWI","country":"Malawi","GID_1":"MWI.7_1","province":"Dowa","NL_NAME_1":"NA","GID_2":"MWI.7.9_1","county":"TAMsakambewa","NL_NAME_2":"NA","city":"n.a.(713)","VARNAME_3":"NA","NL_NAME_3":"NA","TYPE_3":"Unknown","ENGTYPE_3":"Unknown","CC_3":"NA","HASC_3":"NA","name":"n.a.(713).city"},
"geometry":{"type": "MultiPolygon","coordinates": [[[[34.0271,-13.607,998.4504],[34.031,-13.6089,1002.914],[34.0322,-13.6135,975.7323],[34.0354,-13.6124,993.3417],[34.0351,-13.5969,1167.5754],[34.0331,-13.5934,1146.4669],[34.0343,-13.5907,1225.8778],[34.0379,-13.5856,1108.6854],[34.0491,-13.5836,981.3217],[34.0511,-13.5804,990.0831],[34.056,-13.5788,977.5555],[34.0555,-13.5709,1012.359],[34.0527,-13.5696,987.7698],[34.0477,-13.5623,1019.6021],[34.0394,-13.5549,1067.6093],[34.0255,-13.5583,1140.7804],[34.0134,-13.5591,1303.2927],[34.0075,-13.5539,1201.0684],[34.0075,-13.5482,1161.1182],[34.0092,-13.5463,1205.8342],[34.0046,-13.5407,1229.2119],[33.9935,-13.5398,1379.4028],[33.9944,-13.5443,1477.4685],[33.9919,-13.5484,1486.8176],[33.9957,-13.5541,1451.8955],[33.9978,-13.563,1318.123],[34.0012,-13.5677,1262.9019],[33.9993,-13.5784,1209.7262],[34.0057,-13.5837,1164.9868],[34.0089,-13.5886,1122.9717],[34.0128,-13.589,1142.6027],[34.0161,-13.5839,1131.8472],[34.0183,-13.5842,1126.8473],[34.0206,-13.5958,1035.2009],[34.0243,-13.605,1006.3314],[34.0271,-13.607,998.4504]]]]}}