{"type": "Feature","bbox": [35.1202,-15.7091,35.1865,-15.6499],"geometry": {"type": "MultiPolygon","coordinates": [[[[35.1828,-15.6903,1235.0349],[35.1727,-15.6876,1687.1569],[35.1789,-15.6801,1537.5872],[35.1865,-15.6595,950.3687],[35.1799,-15.6499,1028.7094],[35.1732,-15.6515,1014.8458],[35.1761,-15.6549,998.0625],[35.1717,-15.6595,1007.4691],[35.1709,-15.6657,1022.0547],[35.1614,-15.6678,1030.3793],[35.1597,-15.6668,1030.3793],[35.1582,-15.6684,1041.7102],[35.1564,-15.6683,1067.722],[35.1555,-15.6658,1055.2164],[35.1507,-15.6663,1067.3741],[35.1523,-15.6713,1103.9399],[35.1495,-15.6738,1089.6688],[35.1422,-15.6791,1132.0371],[35.1336,-15.6803,1127.0774],[35.1309,-15.6874,1136.0782],[35.1202,-15.6936,1144.564],[35.1276,-15.6992,1123.4095],[35.1448,-15.6965,1247.6429],[35.1516,-15.6984,1228.0443],[35.149,-15.7057,1129.1787],[35.1543,-15.7058,1280.9003],[35.1579,-15.7091,1200.5204],[35.1656,-15.7053,1242.7488],[35.1828,-15.6903,1235.0349]]]]}
,"properties": {"GID_3": "MWI.4.5.7_1","GID_0": "MWI","country": "Malawi","GID_1": "MWI.4_1","province": "Chiradzulu","NL_NAME_1": "NA","GID_2": "MWI.4.5_1","county": "TAMpama","NL_NAME_2": "NA","city": "n.a.(2415)","VARNAME_3": "NA","NL_NAME_3": "NA","TYPE_3": "Unknown","ENGTYPE_3": "Unknown","CC_3": "NA","HASC_3": "NA","name": "n.a.(2415).city","area_km2": 19.84129,"hist_schema_id": "Elevation0-9000","hist_area_km2": {"950": 0.14291,"975": 0.28581,"1000": 1.12284,"1025": 1.00033,"1050": 1.08195,"1075": 1.02069,"1100": 0.8982,"1125": 1.12272,"1150": 1.93919,"1175": 0.89816,"1200": 0.67361,"1225": 0.87773,"1250": 0.73484,"1275": 0.87771,"1300": 0.83689,"1325": 0.69401,"1350": 0.83689,"1375": 0.65318,"1400": 0.61236,"1425": 0.36742,"1450": 0.46948,"1475": 0.38783,"1500": 0.26536,"1525": 0.24494,"1550": 0.16329,"1575": 0.30618,"1600": 0.18371,"1625": 0.18371,"1650": 0.22453,"1675": 0.1633,"1700": 0.24494,"1725": 0.14288,"1750": 0.12247,"1775": 0.06123}}}