{"type":"Feature","properties":{"GID_3":"MWI.28.6.3_1","GID_0":"MWI","country":"Malawi","GID_1":"MWI.28_1","province":"Zomba","NL_NAME_1":"NA","GID_2":"MWI.28.6_1","county":"TAMalemia","NL_NAME_2":"NA","city":"n.a.(2053)","VARNAME_3":"NA","NL_NAME_3":"NA","TYPE_3":"Unknown","ENGTYPE_3":"Unknown","CC_3":"NA","HASC_3":"NA","name":"n.a.(2053).city"},
"geometry":{"type": "MultiPolygon","coordinates": [[[[35.3528,-15.204,775.6688],[35.359,-15.2119,770.6721],[35.3683,-15.206,754.3647],[35.3751,-15.2184,737.0033],[35.3923,-15.2175,726.9516],[35.3957,-15.2207,713.8801],[35.4005,-15.2214,707.8914],[35.406,-15.2251,700.0463],[35.4078,-15.2245,703.1697],[35.4112,-15.2276,697.7426],[35.4173,-15.2256,695.6216],[35.4273,-15.2268,686.8888],[35.423,-15.2195,689.194],[35.4134,-15.2154,696.9],[35.4075,-15.209,706.387],[35.3968,-15.2047,712.5902],[35.3896,-15.1988,722.48],[35.3777,-15.1994,737.4548],[35.3651,-15.1967,753.3793],[35.362,-15.1988,756.167],[35.36,-15.2041,760.7867],[35.3528,-15.204,775.6688]]]]}}