{"type":"Feature","properties":{"GID_3":"MWI.2.7.1_1","GID_0":"MWI","country":"Malawi","GID_1":"MWI.2_1","province":"Blantyre","NL_NAME_1":"NA","GID_2":"MWI.2.7_1","county":"TAMachinjili","NL_NAME_2":"NA","city":"n.a.(2397)","VARNAME_3":"NA","NL_NAME_3":"NA","TYPE_3":"Unknown","ENGTYPE_3":"Unknown","CC_3":"NA","HASC_3":"NA","name":"n.a.(2397).city"},
"geometry":{"type": "MultiPolygon","coordinates": [[[[35.0701,-15.6348,796.8723],[35.0576,-15.6456,792.5296],[35.0634,-15.6505,805.5978],[35.0638,-15.6541,810.5234],[35.0588,-15.6604,800.1901],[35.0654,-15.6603,815.2283],[35.0643,-15.6643,819.9546],[35.0696,-15.6708,866.7493],[35.0723,-15.6709,872.3546],[35.0723,-15.6732,906.1815],[35.0762,-15.6695,879.7148],[35.0793,-15.6709,889.6758],[35.0872,-15.6648,934.0681],[35.0874,-15.6627,909.532],[35.0831,-15.6587,889.0322],[35.0847,-15.647,836.5511],[35.0821,-15.6423,818.2008],[35.0817,-15.6362,813.7601],[35.075,-15.6329,781.5759],[35.0701,-15.6348,796.8723]]]]}}