{"type": "Feature","bbox": [35.6908,-15.5974,35.7839,-15.5126],"geometry": {"type": "MultiPolygon","coordinates": [[[[35.6919,-15.5413,624.9755],[35.6908,-15.5449,625.1399],[35.6923,-15.5614,626.3721],[35.7017,-15.5755,628.4208],[35.7091,-15.5817,628.8375],[35.7078,-15.5862,628.8807],[35.7054,-15.5862,629.4587],[35.7053,-15.589,629.2554],[35.7096,-15.5891,633.317],[35.7104,-15.5914,629.8682],[35.7157,-15.5942,634.8672],[35.7168,-15.5974,630.0345],[35.7202,-15.5962,722.6284],[35.7197,-15.5924,650.8748],[35.7233,-15.5893,639.0414],[35.7289,-15.5891,652.0555],[35.7469,-15.5805,635.2259],[35.7573,-15.5777,639.7495],[35.7624,-15.5729,638.2925],[35.7636,-15.5663,634.058],[35.7722,-15.5702,634.5018],[35.7788,-15.5788,647.4569],[35.7805,-15.5792,648.2961],[35.7839,-15.5725,642.2209],[35.7826,-15.5617,634.1521],[35.7684,-15.5563,627.8672],[35.7642,-15.5508,626.0671],[35.7605,-15.5407,624.435],[35.7568,-15.5374,624.0343],[35.7493,-15.5244,623.5448],[35.7316,-15.5126,622.5],[35.725,-15.5227,623.4498],[35.7223,-15.5227,623.5205],[35.7189,-15.5192,623.6401],[35.7151,-15.5229,623.7288],[35.7115,-15.5235,623.707],[35.7075,-15.5296,624.0413],[35.7083,-15.5341,624.2772],[35.6989,-15.5417,624.524],[35.6919,-15.5413,624.9755]]]]}
,"properties": {"GID_3": "MWI.24.3.3_1","GID_0": "MWI","country": "Malawi","GID_1": "MWI.24_1","province": "Phalombe","NL_NAME_1": "NA","GID_2": "MWI.24.3_1","county": "TANazombe","NL_NAME_2": "NA","city": "n.a.(2271)","VARNAME_3": "NA","NL_NAME_3": "NA","TYPE_3": "Unknown","ENGTYPE_3": "Unknown","CC_3": "NA","HASC_3": "NA","name": "n.a.(2271).city","area_km2": 50.16527,"hist_schema_id": "Elevation0-9000","hist_area_km2": {"625": 48.28632,"650": 1.87895}}}