{"type": "Feature","bbox": [35.8293,-15.0041,35.8898,-14.9435],"geometry": {"type": "MultiPolygon","coordinates": [[[[35.8664,-15.0041,624.8671],[35.8898,-14.9536,630.6037],[35.8591,-14.9435,629.6886],[35.8483,-14.9619,632.1709],[35.8293,-14.9881,624.5458],[35.8478,-14.9972,624.6451],[35.8664,-15.0041,624.8671]]]]}
,"properties": {"GID_3": "MWI.12.12.30_1","GID_0": "MWI","country": "Malawi","GID_1": "MWI.12_1","province": "Machinga","NL_NAME_1": "NA","GID_2": "MWI.12.12_1","county": "TAKawinga","NL_NAME_2": "NA","city": "n.a.(1933)","VARNAME_3": "NA","NL_NAME_3": "NA","TYPE_3": "Unknown","ENGTYPE_3": "Unknown","CC_3": "NA","HASC_3": "NA","name": "n.a.(1933).city","area_km2": 23.30882,"hist_schema_id": "Elevation0-9000","hist_area_km2": {"625": 23.08352,"650": 0.22531}}}