{"type":"Feature","properties":{"GID_3":"MWI.11.8.24_1","GID_0":"MWI","country":"Malawi","GID_1":"MWI.11_1","province":"Lilongwe","NL_NAME_1":"NA","GID_2":"MWI.11.8_1","county":"TAChiseka","NL_NAME_2":"NA","city":"n.a.(1320)","VARNAME_3":"NA","NL_NAME_3":"NA","TYPE_3":"Unknown","ENGTYPE_3":"Unknown","CC_3":"NA","HASC_3":"NA","name":"n.a.(1320).city"},
"geometry":{"type": "MultiPolygon","coordinates": [[[[33.5377,-14.1666,1165.8481],[33.5308,-14.1666,1167.7308],[33.5231,-14.1718,1164.5547],[33.5044,-14.1781,1171.8326],[33.5047,-14.1795,1171.8326],[33.5096,-14.1849,1167.2214],[33.5199,-14.1867,1158.8367],[33.5403,-14.1822,1151.1027],[33.5433,-14.1834,1147.8129],[33.5472,-14.1853,1145.1473],[33.5408,-14.1913,1158.1021],[33.5407,-14.1957,1162.1959],[33.5458,-14.1957,1152.9871],[33.551,-14.2027,1137.0806],[33.5571,-14.2047,1115.9078],[33.5632,-14.1989,1121.5726],[33.5753,-14.1967,1110.4924],[33.5733,-14.1916,1123.3911],[33.5692,-14.1897,1123.6112],[33.5643,-14.1904,1130.1262],[33.5604,-14.1745,1156.9453],[33.5529,-14.164,1171.189],[33.5483,-14.1676,1169.4492],[33.5377,-14.1666,1165.8481]]]]}}