{"type":"Feature","properties":{"GID_3":"MWI.15.4.11_1","GID_0":"MWI","country":"Malawi","GID_1":"MWI.15_1","province":"Mulanje","NL_NAME_1":"NA","GID_2":"MWI.15.4_1","county":"SCLastonNjema","NL_NAME_2":"NA","city":"n.a.(2815)","VARNAME_3":"NA","NL_NAME_3":"NA","TYPE_3":"Unknown","ENGTYPE_3":"Unknown","CC_3":"NA","HASC_3":"NA","name":"n.a.(2815).city"},
"geometry":{"type": "MultiPolygon","coordinates": [[[[35.7157,-16.0338,920.2252],[35.71,-16.0422,714.2177],[35.7097,-16.0457,683.0549],[35.7045,-16.0473,674.0565],[35.7043,-16.0506,671.4683],[35.7,-16.0527,662.7719],[35.6985,-16.0627,669.2464],[35.6919,-16.0704,652.2154],[35.6923,-16.077,665.3981],[35.7031,-16.076,661.7639],[35.6987,-16.0714,643.157],[35.6983,-16.0691,658.962],[35.7053,-16.0665,650.3696],[35.7161,-16.0672,669.763],[35.7204,-16.0599,679.7639],[35.7234,-16.0401,891.4225],[35.7276,-16.0351,1059.0063],[35.7157,-16.0338,920.2252]]]]}}