{"type":"Feature","properties":{"GID_3":"MWI.20.6.3_1","GID_0":"MWI","country":"Malawi","GID_1":"MWI.20_1","province":"Nkhotakota","NL_NAME_1":"NA","GID_2":"MWI.20.6_1","county":"SCMwansambo","NL_NAME_2":"NA","city":"n.a.(546)","VARNAME_3":"NA","NL_NAME_3":"NA","TYPE_3":"Unknown","ENGTYPE_3":"Unknown","CC_3":"NA","HASC_3":"NA","name":"n.a.(546).city"},
"geometry":{"type": "MultiPolygon","coordinates": [[[[34.1076,-13.2587,620.6306],[34.1065,-13.2624,636.8868],[34.1025,-13.2624,648.5055],[34.1014,-13.2667,659.3906],[34.0871,-13.2707,691.1738],[34.0838,-13.2783,699.7718],[34.087,-13.2936,696.0366],[34.0958,-13.2917,675.481],[34.1172,-13.2935,636.4453],[34.1191,-13.2946,642.9782],[34.1182,-13.3003,655.6311],[34.1211,-13.3016,649.4246],[34.1284,-13.3005,641.9418],[34.1386,-13.2943,616.8288],[34.1371,-13.2862,609.6794],[34.1431,-13.271,619.5697],[34.1469,-13.266,609.1902],[34.1391,-13.2573,602.6257],[34.1398,-13.2488,596.0457],[34.1328,-13.2484,603.152],[34.1277,-13.2537,609.0259],[34.1108,-13.2565,632.5726],[34.1076,-13.2587,620.6306]]]]}}