{"type": "Feature","bbox": [33.0067,-9.5809,33.167,-9.4425],"geometry": {"type": "MultiPolygon","coordinates": [[[[33.0281,-9.5005,1660.1205],[33.0406,-9.5049,1610.4016],[33.0441,-9.5116,1605.4518],[33.0432,-9.5207,1567.5547],[33.0399,-9.5277,1532.1666],[33.0346,-9.5323,1511.9729],[33.0343,-9.5523,1422.4155],[33.0301,-9.5559,1406.26],[33.0298,-9.5587,1402.1565],[33.0314,-9.5619,1403.8826],[33.0384,-9.5652,1430.475],[33.0381,-9.5688,1407.2921],[33.0345,-9.574,1390.7068],[33.035,-9.5782,1396.3591],[33.0385,-9.5805,1426.0459],[33.0445,-9.5809,1377.8612],[33.0526,-9.5792,1430.8265],[33.0559,-9.5725,1441.6437],[33.0608,-9.5749,1379.994],[33.0656,-9.571,1424.7214],[33.0669,-9.5664,1410.754],[33.0575,-9.559,1447.9702],[33.0613,-9.5551,1418.5181],[33.07,-9.5553,1399.5154],[33.0754,-9.5533,1394.6759],[33.0785,-9.5588,1351.325],[33.0871,-9.5595,1500.2689],[33.0923,-9.5565,1362.1917],[33.0902,-9.5456,1539.5728],[33.0929,-9.5425,1455.8096],[33.0963,-9.5429,1493.7906],[33.0991,-9.5342,1639.897],[33.0988,-9.5307,1631.4688],[33.1021,-9.5248,1398.708],[33.0965,-9.5195,1389.2982],[33.1005,-9.5172,1420.922],[33.0946,-9.5102,1526.4308],[33.0948,-9.5083,1534.4712],[33.1123,-9.5136,1377.9996],[33.1295,-9.5061,1306.309],[33.139,-9.5107,1291.6906],[33.1415,-9.5094,1292.0117],[33.1449,-9.5035,1285.5897],[33.1452,-9.5076,1282.3281],[33.1505,-9.5093,1280.2988],[33.1608,-9.519,1308.6146],[33.1654,-9.5203,1324.5577],[33.1623,-9.5105,1308.0044],[33.1669,-9.5033,1282.329],[33.167,-9.4921,1272.6511],[33.1616,-9.4925,1286.0332],[33.1529,-9.4896,1399.1704],[33.1481,-9.4908,1355.8391],[33.1434,-9.4881,1314.437],[33.1421,-9.4889,1283.2037],[33.1388,-9.4844,1317.4541],[33.1277,-9.4783,1290.29],[33.1259,-9.4791,1287.0127],[33.1242,-9.4776,1281.1036],[33.1229,-9.4789,1280.9614],[33.1213,-9.4752,1281.5172],[33.1111,-9.4643,1287.2451],[33.1039,-9.4628,1294.6335],[33.0964,-9.454,1293.9504],[33.0796,-9.4495,1301.3093],[33.0705,-9.4425,1306.8464],[33.0671,-9.4527,1359.2277],[33.0711,-9.4521,1335.5502],[33.0737,-9.4557,1398.9548],[33.0716,-9.4573,1483.2339],[33.0682,-9.4568,1451.6372],[33.0621,-9.4624,1680.7238],[33.0613,-9.4686,1500.5906],[33.0691,-9.4763,1492.3374],[33.074,-9.4773,1530.2598],[33.0738,-9.48,1450.514],[33.0765,-9.4816,1444.2095],[33.0752,-9.484,1449.6873],[33.069,-9.485,1497.1924],[33.0667,-9.4876,1503.795],[33.0613,-9.4862,1499.3407],[33.0565,-9.4893,1547.8075],[33.0536,-9.4893,1547.5919],[33.0458,-9.4833,1571.6377],[33.0389,-9.4812,1587.5724],[33.0378,-9.4771,1592.4158],[33.0412,-9.4711,1567.4827],[33.0385,-9.4668,1553.5366],[33.0287,-9.4597,1570.4839],[33.0243,-9.4588,1566.4851],[33.02,-9.4634,1571.7212],[33.0115,-9.4626,1554.0957],[33.0067,-9.4654,1560.157],[33.0108,-9.4662,1568.2288],[33.0129,-9.4707,1589.0566],[33.0182,-9.4724,1728.5927],[33.0183,-9.4781,1619.7977],[33.0211,-9.4786,1656.0728],[33.029,-9.4872,1692.6064],[33.0295,-9.4914,1631.1461],[33.0254,-9.4962,1621.0089],[33.0281,-9.5005,1660.1205]]]]}
,"properties": {"GID_3": "MWI.5.3.2_1","GID_0": "MWI","country": "Malawi","GID_1": "MWI.5_1","province": "Chitipa","NL_NAME_1": "NA","GID_2": "MWI.5.3_1","county": "TAKameme","NL_NAME_2": "NA","city": "n.a.(2)","VARNAME_3": "NA","NL_NAME_3": "NA","TYPE_3": "Unknown","ENGTYPE_3": "Unknown","CC_3": "NA","HASC_3": "NA","name": "n.a.(2).city","area_km2": 106.39504,"hist_schema_id": "Elevation0-9000","hist_area_km2": {"1275": 7.46554,"1300": 14.74326,"1325": 6.29463,"1350": 2.42583,"1375": 1.25464,"1400": 2.88545,"1425": 4.55817,"1450": 6.27269,"1475": 5.54091,"1500": 5.89652,"1525": 7.10937,"1550": 7.98779,"1575": 8.00888,"1600": 7.298,"1625": 5.60427,"1650": 3.86865,"1675": 2.55124,"1700": 1.94482,"1725": 1.33839,"1750": 1.08745,"1775": 0.56463,"1800": 0.58554,"1825": 0.46007,"1850": 0.39733,"1875": 0.18821,"1900": 0.06274}}}