{"type":"Feature","properties":{"GID_3":"MWI.26.6.2_1","GID_0":"MWI","country":"Malawi","GID_1":"MWI.26_1","province":"Salima","NL_NAME_1":"NA","GID_2":"MWI.26.6_1","county":"TAKaronga","NL_NAME_2":"NA","city":"n.a.(789)","VARNAME_3":"NA","NL_NAME_3":"NA","TYPE_3":"Unknown","ENGTYPE_3":"Unknown","CC_3":"NA","HASC_3":"NA","name":"n.a.(789).city"},
"geometry":{"type": "MultiPolygon","coordinates": [[[[34.3167,-13.7027,558.2855],[34.3179,-13.7057,555.5972],[34.3199,-13.7065,556.2603],[34.3259,-13.7027,558.5676],[34.3373,-13.7037,555.9614],[34.3533,-13.7023,544.8398],[34.3638,-13.6978,535.8655],[34.381,-13.7165,527.5515],[34.3864,-13.7306,523.126],[34.3976,-13.728,515.7496],[34.4063,-13.7244,511.4218],[34.4035,-13.7206,513.4014],[34.404,-13.7077,509.571],[34.4078,-13.7043,507.9448],[34.4104,-13.6967,506.2148],[34.4143,-13.6918,505.906],[34.4198,-13.6768,500.6559],[34.4265,-13.6774,505.9095],[34.4381,-13.674,499.3759],[34.4516,-13.6785,503.1624],[34.4604,-13.6771,496.6308],[34.4566,-13.6594,490.9382],[34.4537,-13.6519,488.3757],[34.4053,-13.6439,492.9448],[34.3826,-13.6385,504.7112],[34.3593,-13.6363,514.3397],[34.3503,-13.649,520.3073],[34.3463,-13.6512,524.8617],[34.3439,-13.656,528.7568],[34.3445,-13.6595,526.3661],[34.3408,-13.6629,530.5458],[34.3405,-13.6659,530.8929],[34.3432,-13.6705,532.8444],[34.3422,-13.6745,533.5959],[34.3443,-13.6754,534.4739],[34.3442,-13.6769,535.6853],[34.3391,-13.6802,539.0597],[34.3384,-13.6835,539.9485],[34.3337,-13.6831,542.5659],[34.3275,-13.6885,548.7152],[34.3216,-13.7006,552.1594],[34.3167,-13.7027,558.2855]],
[[34.3866,-13.6569,502.3953],[34.3931,-13.6583,507.2884],[34.3911,-13.6661,508.0566],[34.3849,-13.6709,510.8475],[34.3755,-13.6687,515.4695],[34.3813,-13.6587,506.6535],[34.3866,-13.6569,502.3953]]]]}}