{"type":"Feature","properties":{"GID_3":"MWI.15.6.16_1","GID_0":"MWI","country":"Malawi","GID_1":"MWI.15_1","province":"Mulanje","NL_NAME_1":"NA","GID_2":"MWI.15.6_1","county":"TAMabuka","NL_NAME_2":"NA","city":"n.a.(2834)","VARNAME_3":"NA","NL_NAME_3":"NA","TYPE_3":"Unknown","ENGTYPE_3":"Unknown","CC_3":"NA","HASC_3":"NA","name":"n.a.(2834).city"},
"geometry":{"type": "MultiPolygon","coordinates": [[[[35.6713,-16.0754,618.9028],[35.6614,-16.0706,640.3815],[35.6571,-16.0637,646.5789],[35.6516,-16.0588,674.3994],[35.6484,-16.0592,671.2468],[35.645,-16.0548,675.8748],[35.6476,-16.0508,668.1016],[35.643,-16.0518,663.8796],[35.6416,-16.0492,670.4194],[35.6358,-16.0599,662.5688],[35.6294,-16.0653,663.8981],[35.6239,-16.0621,652.4957],[35.6213,-16.063,634.4243],[35.619,-16.0533,722.1802],[35.6142,-16.0564,690.0023],[35.6126,-16.0541,737.6519],[35.6094,-16.0558,719.0836],[35.607,-16.0544,736.2599],[35.6046,-16.0655,638.1073],[35.6055,-16.0683,613.6577],[35.5915,-16.071,625.4088],[35.5978,-16.0789,633.0355],[35.608,-16.0765,656.908],[35.6105,-16.0777,653.8711],[35.6233,-16.0744,656.3332],[35.6272,-16.0703,672.4157],[35.6427,-16.0694,638.8734],[35.6494,-16.0702,651.4376],[35.6556,-16.0746,654.7056],[35.6623,-16.0735,642.7132],[35.6724,-16.079,619.7417],[35.6713,-16.0754,618.9028]]]]}}