{"type":"Feature","properties":{"GID_3":"MWI.6.9.33_1","GID_0":"MWI","country":"Malawi","GID_1":"MWI.6_1","province":"Dedza","NL_NAME_1":"NA","GID_2":"MWI.6.9_1","county":"TAPemba","NL_NAME_2":"NA","city":"n.a.(1588)","VARNAME_3":"NA","NL_NAME_3":"NA","TYPE_3":"Unknown","ENGTYPE_3":"Unknown","CC_3":"NA","HASC_3":"NA","name":"n.a.(1588).city"},
"geometry":{"type": "MultiPolygon","coordinates": [[[[33.9031,-14.4509,1222.1346],[33.9079,-14.4552,1220.6947],[33.9118,-14.4543,1241.1471],[33.9143,-14.451599999999999,1249.4478],[33.9291,-14.4499,1251.1167],[33.9328,-14.4424,1240.8481],[33.9331,-14.4347,1235.7114],[33.9138,-14.4304,1237.9641],[33.9004,-14.4239,1204.3384],[33.8912,-14.4245,1229.4585],[33.8931,-14.4338,1220.4675],[33.889,-14.4401,1213.0969],[33.8902,-14.4448,1212.1165],[33.8941,-14.4502,1230.0398],[33.897,-14.4499,1230.4713],[33.9005,-14.4468,1215.3958],[33.9029,-14.4486,1215.2092],[33.9031,-14.4509,1222.1346]]]]}}