{"type":"Feature","properties":{"GID_3":"MWI.12.7.1_1","GID_0":"MWI","country":"Malawi","GID_1":"MWI.12_1","province":"Machinga","NL_NAME_1":"NA","GID_2":"MWI.12.7_1","county":"SCChiwalo","NL_NAME_2":"NA","city":"n.a.(1760)","VARNAME_3":"NA","NL_NAME_3":"NA","TYPE_3":"Unknown","ENGTYPE_3":"Unknown","CC_3":"NA","HASC_3":"NA","name":"n.a.(1760).city"},
"geometry":{"type": "MultiPolygon","coordinates": [[[[35.5575,-14.7115,885.1788],[35.555,-14.7102,882.0736],[35.5498,-14.7133,869.8645],[35.5446,-14.7094,881.1737],[35.5446,-14.7203,844.9977],[35.5505,-14.7218,838.884],[35.5575,-14.7115,885.1788]]]]}}