{"type": "Feature","bbox": [35.675,-14.9093,35.7147,-14.85],"geometry": {"type": "MultiPolygon","coordinates": [[[[35.675,-14.872,670.632],[35.6879,-14.8843,656.7878],[35.7012,-14.9093,641.2698],[35.7105,-14.8842,654.2614],[35.7098,-14.8821,654.4619],[35.7038,-14.8794,652.8409],[35.7035,-14.864,660.0021],[35.7086,-14.8609,660.1568],[35.7145,-14.8612,656.0658],[35.7146,-14.858,656.0577],[35.7127,-14.8583,657.2297],[35.7147,-14.85,658.6287],[35.6975,-14.8503,669.612],[35.6875,-14.8531,675.9107],[35.6876,-14.8579,674.61],[35.6825,-14.858,676.4811],[35.6809,-14.8604,675.2801],[35.6802,-14.8702,672.6976],[35.6792,-14.8716,671.8918],[35.675,-14.872,670.632]]]]}
,"properties": {"GID_3": "MWI.12.6.14_1","GID_0": "MWI","country": "Malawi","GID_1": "MWI.12_1","province": "Machinga","NL_NAME_1": "NA","GID_2": "MWI.12.6_1","county": "SCChikweo","NL_NAME_2": "NA","city": "n.a.(1867)","VARNAME_3": "NA","NL_NAME_3": "NA","TYPE_3": "Unknown","ENGTYPE_3": "Unknown","CC_3": "NA","HASC_3": "NA","name": "n.a.(1867).city","area_km2": 13.34018,"hist_schema_id": "Elevation0-9000","hist_area_km2": {"650": 7.95057,"675": 5.38961}}}