{"type":"Feature","properties":{"GID_3":"MWI.2.4.16_1","GID_0":"MWI","country":"Malawi","GID_1":"MWI.2_1","province":"Blantyre","NL_NAME_1":"NA","GID_2":"MWI.2.4_1","county":"TAKuntaja","NL_NAME_2":"NA","city":"n.a.(2478)","VARNAME_3":"NA","NL_NAME_3":"NA","TYPE_3":"Unknown","ENGTYPE_3":"Unknown","CC_3":"NA","HASC_3":"NA","name":"n.a.(2478).city"},
"geometry":{"type": "MultiPolygon","coordinates": [[[[34.9075,-15.7106,658.6947],[34.9046,-15.7102,655.8372],[34.9013,-15.7072,652.0154],[34.8942,-15.7108,634.8767],[34.8865,-15.7247,582.5966],[34.888,-15.7319,559.5793],[34.8846,-15.7334,558.6357],[34.8838,-15.7371,565.797],[34.8753,-15.7383,530.4207],[34.8721,-15.7446,513.8346],[34.8742,-15.7473,527.2477],[34.8688,-15.7494,526.0337],[34.8693,-15.7523,507.5316],[34.8672,-15.7544,530.4999],[34.8655,-15.7552,515.5858],[34.862,-15.7519,513.9277],[34.8556,-15.7547,500.8823],[34.8547,-15.7633,472.5178],[34.8518,-15.7656,467.744],[34.8557,-15.7708,458.8381],[34.8543,-15.7735,461.5616],[34.855,-15.7775,474.4601],[34.8625,-15.7815,448.5225],[34.8603,-15.7836,453.0577],[34.8563,-15.784,461.4849],[34.8606,-15.7888,436.6868],[34.8583,-15.793,421.9407],[34.8593,-15.7955,425.6046],[34.8614,-15.796,429.1027],[34.8622,-15.7925,444.9492],[34.8732,-15.7757,581.8861],[34.8805,-15.7719,605.0538],[34.8852,-15.7731,657.2961],[34.892,-15.7614,651.5797],[34.8988,-15.7702,625.3621],[34.9005,-15.7674,637.2898],[34.9071,-15.7637,656.1136],[34.9057,-15.7575,683.3817],[34.9086,-15.7554,677.7332],[34.91,-15.7436,685.0243],[34.9082,-15.7386,691.9557],[34.9163,-15.7288,699.4507],[34.9151,-15.7227,717.5771],[34.9069,-15.7188,661.6749],[34.9075,-15.7106,658.6947]]]]}}