{"type": "Feature","bbox": [33.215,-14.0065,33.2551,-13.9351],"geometry": {"type": "MultiPolygon","coordinates": [[[[33.227,-13.9351,1121.8381],[33.215,-13.9633,1083.55],[33.2292,-13.9673,1088.442],[33.2265,-13.9804,1104.6333],[33.2285,-13.9937,1119.5564],[33.2401,-13.9937,1135.6666],[33.2414,-13.9969,1148.1415],[33.2402,-13.9982,1151.5803],[33.2478,-14.0047,1141.8252],[33.2532,-14.0065,1137.1895],[33.2551,-14.0039,1136.9817],[33.2512,-13.995,1130.8196],[33.255,-13.9767,1102.9911],[33.2386,-13.9699,1093.3656],[33.2505,-13.9567,1123.1831],[33.2414,-13.9509,1116.5334],[33.227,-13.9351,1121.8381]]]]}
,"properties": {"GID_3": "MWI.14.3.12_1","GID_0": "MWI","country": "Malawi","GID_1": "MWI.14_1","province": "Mchinji","NL_NAME_1": "NA","GID_2": "MWI.14.3_1","county": "SCMavwere","NL_NAME_2": "NA","city": "n.a.(1086)","VARNAME_3": "NA","NL_NAME_3": "NA","TYPE_3": "Unknown","ENGTYPE_3": "Unknown","CC_3": "NA","HASC_3": "NA","name": "n.a.(1086).city","area_km2": 15.86332,"hist_schema_id": "Elevation0-9000","hist_area_km2": {"1075": 0.26748,"1100": 7.22191,"1125": 7.40702,"1150": 0.9669}}}