{"type":"Feature","properties":{"GID_3":"MWI.2.5.3_1","GID_0":"MWI","country":"Malawi","GID_1":"MWI.2_1","province":"Blantyre","NL_NAME_1":"NA","GID_2":"MWI.2.5_1","county":"TAKunthembwe","NL_NAME_2":"NA","city":"n.a.(2342)","VARNAME_3":"NA","NL_NAME_3":"NA","TYPE_3":"Unknown","ENGTYPE_3":"Unknown","CC_3":"NA","HASC_3":"NA","name":"n.a.(2342).city"},
"geometry":{"type": "MultiPolygon","coordinates": [[[[34.7551,-15.6275,270.379],[34.7569,-15.6275,263.4922],[34.7626,-15.647,263.861],[34.7627,-15.659,255.0184],[34.7726,-15.6694,310.8992],[34.775,-15.6766,322.6946],[34.7706,-15.6871,365.5128],[34.7706,-15.6917,370.8066],[34.7753,-15.696,398.2621],[34.78,-15.6977,413.5459],[34.7824,-15.7016,435.6376],[34.7861,-15.7027,409.5756],[34.8167,-15.697,517.9301],[34.8326,-15.6881,595.5295],[34.8246,-15.684,585.4584],[34.828,-15.6797,590.4521],[34.8251,-15.6742,589.3598],[34.8284,-15.6651,605.5925],[34.8266,-15.658,608.8326],[34.8381,-15.6514,620.4085],[34.8461,-15.6547,663.3464],[34.8482,-15.6492,622.0151],[34.853,-15.6447,624.1767],[34.8556,-15.6338,579.1641],[34.8533,-15.618,532.7737],[34.8576,-15.6062,505.7916],[34.855,-15.6013,460.5425],[34.8584,-15.601,499.3099],[34.8587,-15.5986,507.4357],[34.8632,-15.5999,506.7795],[34.8645,-15.5988,524.4279],[34.8625,-15.58,495.4918],[34.8564,-15.5804,494.5909],[34.8531,-15.5862,480.3268],[34.8481,-15.589,466.9031],[34.847,-15.5844,479.4581],[34.8442,-15.5809,503.9846],[34.8243,-15.5864,452.783],[34.8223,-15.5965,443.6093],[34.8196,-15.6015,495.1553],[34.8162,-15.6064,455.5031],[34.811,-15.6091,484.3687],[34.8075,-15.6137,468.3358],[34.805,-15.6127,483.1072],[34.802,-15.6064,446.8281],[34.802,-15.5928,557.8114],[34.7958,-15.5973,527.1891],[34.7934,-15.6023,405.7374],[34.7888,-15.6058,395.1968],[34.7761,-15.6044,335.3037],[34.7713,-15.6014,338.0124],[34.762,-15.5998,308.412],[34.7622,-15.6026,300.8671],[34.7742,-15.6069,338.5981],[34.7758,-15.6103,355.9602],[34.7754,-15.6141,365.2383],[34.7723,-15.623,371.4846],[34.7671,-15.6216,339.0929],[34.7625,-15.6251,307.9526],[34.7551,-15.6275,270.379]]]]}}