{"type":"Feature","properties":{"GID_3":"MWI.9.13.2_1","GID_0":"MWI","country":"Malawi","GID_1":"MWI.9_1","province":"Kasungu","NL_NAME_1":"NA","GID_2":"MWI.9.13_1","county":"TAKapelula","NL_NAME_2":"NA","city":"n.a.(416)","VARNAME_3":"NA","NL_NAME_3":"NA","TYPE_3":"Unknown","ENGTYPE_3":"Unknown","CC_3":"NA","HASC_3":"NA","name":"n.a.(416).city"},
"geometry":{"type": "MultiPolygon","coordinates": [[[[33.8595,-12.8778,1152.2111],[33.8597,-12.8888,1183.6116],[33.8646,-12.8922,1208.4724],[33.8712,-12.886,1177.7073],[33.8776,-12.8831,1159.9872],[33.8776,-12.878,1179.9895],[33.8883,-12.8787,1194.5435],[33.8896,-12.8839,1178.1172],[33.8809,-12.8848,1151.0177],[33.8812,-12.8896,1155.5488],[33.8909,-12.9027,1118.9509],[33.8969,-12.9062,1118.7063],[33.8981,-12.9088,1114.4862],[33.8999,-12.9037,1138.1625],[33.8975,-12.8977,1151.379],[33.8981,-12.8948,1147.5952],[33.9024,-12.8922,1161.4178],[33.9092,-12.895,1132.5935],[33.9128,-12.8926,1133.54],[33.9134,-12.8897,1140.041],[33.9115,-12.8868,1153.8276],[33.9137,-12.88,1172.3788],[33.9115,-12.874,1191.9954],[33.9249,-12.8739,1165.0165],[33.9289,-12.871,1155.2573],[33.9164,-12.8678,1146.0737],[33.9149,-12.8441,1046.9368],[33.8693,-12.8391,1078.8308],[33.8584,-12.8597,1114.6412],[33.8612,-12.8705,1132.9419],[33.8595,-12.8778,1152.2111]]]]}}