{"type":"Feature","properties":{"GID_3":"MWI.11.6.8_1","GID_0":"MWI","country":"Malawi","GID_1":"MWI.11_1","province":"Lilongwe","NL_NAME_1":"NA","GID_2":"MWI.11.6_1","county":"TAChadza","NL_NAME_2":"NA","city":"n.a.(1224)","VARNAME_3":"NA","NL_NAME_3":"NA","TYPE_3":"Unknown","ENGTYPE_3":"Unknown","CC_3":"NA","HASC_3":"NA","name":"n.a.(1224).city"},
"geometry":{"type": "MultiPolygon","coordinates": [[[[33.8423,-14.0884,1058.4249],[33.8417,-14.0913,1064.8838],[33.845,-14.0925,1068.2152],[33.8432,-14.1057,1071.0688],[33.8456,-14.1051,1066.5984],[33.8612,-14.1201,1099.1462],[33.8765,-14.1199,1136.4181],[33.8765,-14.1172,1123.6112],[33.8726,-14.1146,1128.137],[33.868,-14.1077,1140.3464],[33.8721,-14.1025,1123.7672],[33.8721,-14.0961,1115.5754],[33.8746,-14.0951,1124.5817],[33.8764,-14.0881,1124.2151],[33.8578,-14.0854,1110.1418],[33.8521,-14.0798,1084.6218],[33.8507,-14.0846,1081.396],[33.8423,-14.0884,1058.4249]]]]}}