{"type": "Feature","bbox": [35.2282,-15.1201,35.2921,-15.0819],"geometry": {"type": "MultiPolygon","coordinates": [[[[35.2347,-15.0916,506.2026],[35.2282,-15.0892,520.2909],[35.2327,-15.1058,514.6929],[35.2377,-15.116,542.0498],[35.2445,-15.1168,537.8835],[35.245,-15.1103,526.373],[35.2492,-15.1085,520.5806],[35.2514,-15.1122,526.7386],[35.2521,-15.1183,550.8864],[35.2572,-15.1201,552.8988],[35.2706,-15.1148,555.464],[35.2835,-15.1135,547.76],[35.2921,-15.1053,541.8005],[35.2891,-15.1027,528.0972],[35.2818,-15.107,531.7014],[35.2734,-15.1092,529.2351],[35.2676,-15.0932,509.5701],[35.2531,-15.0819,497.3295],[35.2402,-15.0937,505.9257],[35.2347,-15.0916,506.2026]]]]}
,"properties": {"GID_3": "MWI.12.11.4_1","GID_0": "MWI","country": "Malawi","GID_1": "MWI.12_1","province": "Machinga","NL_NAME_1": "NA","GID_2": "MWI.12.11_1","county": "SCSitola","NL_NAME_2": "NA","city": "n.a.(2010)","VARNAME_3": "NA","NL_NAME_3": "NA","TYPE_3": "Unknown","ENGTYPE_3": "Unknown","CC_3": "NA","HASC_3": "NA","name": "n.a.(2010).city","area_km2": 13.65341,"hist_schema_id": "Elevation0-9000","hist_area_km2": {"500": 4.38075,"525": 7.79891,"550": 1.47375}}}