{"type": "Feature","bbox": [35.5491,-15.7256,35.588,-15.6501],"geometry": {"type": "MultiPolygon","coordinates": [[[[35.5541,-15.6534,683.2007],[35.5527,-15.6594,685.6534],[35.5533,-15.6663,689.5223],[35.5592,-15.6835,696.1591],[35.5518,-15.6848,696.5939],[35.5491,-15.6984,696.0328],[35.5521,-15.6986,695.7735],[35.5569,-15.7033,696.7806],[35.5568,-15.705,696.4496],[35.5622,-15.706,698.8203],[35.5646,-15.7087,698.6305],[35.5669,-15.7077,700.054],[35.5685,-15.7117,702.2346],[35.5723,-15.7126,702.5214],[35.5721,-15.7144,700.4418],[35.5671,-15.7188,702.6631],[35.5685,-15.7256,705.3222],[35.5819,-15.7236,706.5509],[35.588,-15.7104,706.1952],[35.5811,-15.6972,702.4908],[35.5817,-15.6501,690.094],[35.5541,-15.6534,683.2007]]]]}
,"properties": {"GID_3": "MWI.24.2.24_1","GID_0": "MWI","country": "Malawi","GID_1": "MWI.24_1","province": "Phalombe","NL_NAME_1": "NA","GID_2": "MWI.24.2_1","county": "TAMkhumba","NL_NAME_2": "NA","city": "n.a.(2416)","VARNAME_3": "NA","NL_NAME_3": "NA","TYPE_3": "Unknown","ENGTYPE_3": "Unknown","CC_3": "NA","HASC_3": "NA","name": "n.a.(2416).city","area_km2": 21.88236,"hist_schema_id": "Elevation0-9000","hist_area_km2": {"675": 0.95953,"700": 20.92283}}}