{"type":"Feature","properties":{"GID_3":"MWI.13.11.19_1","GID_0":"MWI","country":"Malawi","GID_1":"MWI.13_1","province":"Mangochi","NL_NAME_1":"NA","GID_2":"MWI.13.11_1","county":"TAMakanjila","NL_NAME_2":"NA","city":"n.a.(932)","VARNAME_3":"NA","NL_NAME_3":"NA","TYPE_3":"Unknown","ENGTYPE_3":"Unknown","CC_3":"NA","HASC_3":"NA","name":"n.a.(932).city"},
"geometry":{"type": "MultiPolygon","coordinates": [[[[35.0807,-13.8124,474.5],[35.085,-13.8104,476.0],[35.0892,-13.8159,475.6997],[35.0983,-13.8195,494.9113],[35.1092,-13.8139,531.7067],[35.0973,-13.7713,533.8602],[35.0945,-13.7719,524.0358],[35.0921,-13.7704,520.4147],[35.0851,-13.776,492.3057],[35.0726,-13.7787,474.5],[35.0764,-13.7833,475.4906],[35.0784,-13.7904,475.2863],[35.0774,-13.7966,475.7293],[35.0807,-13.8124,474.5]]]]}}