{"type": "Feature","bbox": [32.9835,-13.4991,33.1194,-13.4364],"geometry": {"type": "MultiPolygon","coordinates": [[[[33.1194,-13.4502,1048.6697],[33.1154,-13.4394,1049.4314],[33.1099,-13.4381,1049.8339],[33.1049,-13.4389,1049.4968],[33.1032,-13.4365,1049.3408],[33.0984,-13.4419,1050.8175],[33.0963,-13.4417,1051.0464],[33.095,-13.4379,1052.9993],[33.0907,-13.4413,1052.436],[33.0827,-13.4405,1054.3086],[33.0772,-13.446,1052.3201],[33.0742,-13.4458,1054.6079],[33.0625,-13.4364,1058.8879],[33.0609,-13.4364,1058.8879],[33.0546,-13.4395,1061.1689],[33.0341,-13.4445,1058.5481],[33.0292,-13.4444,1062.7827],[33.0192,-13.4399,1064.5649],[33.0157,-13.442,1062.2673],[33.0066,-13.4429,1061.8672],[32.9931,-13.4552,1065.9236],[32.9835,-13.4581,1066.7573],[32.9881,-13.4606,1065.8572],[33.0267,-13.4675,1068.2385],[33.0399,-13.4676,1068.5426],[33.0417,-13.4921,1072.5952],[33.0404,-13.4957,1070.0986],[33.0442,-13.4977,1067.5435],[33.0575,-13.4991,1055.0261],[33.0707,-13.4931,1053.2562],[33.0856,-13.491,1050.0062],[33.0936,-13.4839,1050.4293],[33.0961,-13.4765,1050.7081],[33.0966,-13.4664,1048.3635],[33.0991,-13.4627,1049.6927],[33.1022,-13.4606,1048.9404],[33.1091,-13.4598,1048.5345],[33.1194,-13.4502,1048.6697]]]]}
,"properties": {"GID_3": "MWI.14.5.7_1","GID_0": "MWI","country": "Malawi","GID_1": "MWI.14_1","province": "Mchinji","NL_NAME_1": "NA","GID_2": "MWI.14.5_1","county": "TAMkanda","NL_NAME_2": "NA","city": "n.a.(642)","VARNAME_3": "NA","NL_NAME_3": "NA","TYPE_3": "Unknown","ENGTYPE_3": "Unknown","CC_3": "NA","HASC_3": "NA","name": "n.a.(642).city","area_km2": 52.76558,"hist_schema_id": "Elevation0-9000","hist_area_km2": {"1050": 30.93004,"1075": 21.83553}}}