{"type":"Feature","properties":{"GID_2":"MWI.27.12_1","GID_0":"MWI","country":"Malawi","GID_1":"MWI.27_1","province":"Thyolo","NL_NAME_1":"NA","county":"TAThomas","VARNAME_2":"NA","NL_NAME_2":"NA","TYPE_2":"TraditionalAuthority","ENGTYPE_2":"TraditionalAuthority","CC_2":"NA","HASC_2":"NA","name":"T_A_Thomas.county"},
"geometry":{"type": "MultiPolygon","coordinates": [[[[34.9872,-16.0509,603.6517],[34.9921,-16.0572,616.4425],[34.9945,-16.0577,668.3827],[35.0023,-16.0531,896.2638],[35.005,-16.0482,956.6147],[35.0145,-16.0393,1152.0365],[35.0182,-16.0377,1251.494],[35.0213,-16.0386,1276.7593],[35.0249,-16.0227,1246.8036],[35.028,-16.017,1187.5946],[35.0272,-16.0135,1185.3298],[35.0182,-16.0064,1089.1143],[35.0187,-16.0019,1070.438],[35.0208,-16.0001,1052.2144],[35.0211,-15.9964,1053.3102],[35.0237,-15.9926,1018.0454],[35.0229,-15.9894,1013.1924],[35.0183,-15.9847,998.8223],[35.0185,-15.9812,1007.0342],[35.0145,-15.9792,976.7405],[35.0146,-15.9774,970.6603],[35.0118,-15.9771,954.0327],[35.0119,-15.9735,970.6711],[35.0074,-15.974,950.0837],[35.0017,-15.9622,840.6996],[35.0026,-15.958,817.9937],[34.9988,-15.9555,879.9045],[34.9846,-15.9571,745.236],[34.9822,-15.9599,661.5114],[34.9757,-15.9568,667.8945],[34.9634,-15.9584,551.4287],[34.9569,-15.9637,570.4716],[34.9541,-15.9636,520.1048],[34.9546,-15.9713,440.8459],[34.9498,-15.9718,479.6103],[34.9478,-15.9737,462.9311],[34.9517,-15.9773,405.8832],[34.9497,-15.9838,445.1689],[34.9402,-15.99,380.465],[34.9385,-15.9931,345.6233],[34.9306,-15.9897,339.3086],[34.925,-15.9903,328.9288],[34.9209,-15.9942,369.4954],[34.9208,-15.9971,308.1137],[34.9223,-15.9992,280.8071],[34.927,-16.0008,275.5999],[34.9268,-16.0025,273.1755],[34.9189,-16.0049,269.6235],[34.9155,-16.0035,281.316],[34.9093,-16.0051,245.1987],[34.9018,-16.0109,297.8824],[34.9057,-16.0137,266.8825],[34.9037,-16.0227,287.8615],[34.9117,-16.032,277.1249],[34.9161,-16.0499,249.7457],[34.9158,-16.0561,251.2849],[34.9226,-16.0625,264.9724],[34.9261,-16.063,282.5783],[34.9262,-16.0657,248.8098],[34.9298,-16.0686,215.9699],[34.9332,-16.0748,190.3136],[34.9318,-16.0763,189.8909],[34.9373,-16.0808,187.1078],[34.9395,-16.0791,188.5692],[34.938,-16.0775,200.1479],[34.9437,-16.0727,207.2742],[34.9454,-16.0657,245.8976],[34.9608,-16.0626,373.4985],[34.9632,-16.0561,567.7308],[34.9668,-16.0546,530.4366],[34.9774,-16.0548,524.8418],[34.9807,-16.0505,574.393],[34.9872,-16.0509,603.6517]]]]}}