{"type":"Feature","properties":{"GID_3":"MWI.3.11.12_1","GID_0":"MWI","country":"Malawi","GID_1":"MWI.3_1","province":"Chikwawa","NL_NAME_1":"NA","GID_2":"MWI.3.11_1","county":"TANgabu","NL_NAME_2":"NA","city":"n.a.(3038)","VARNAME_3":"NA","NL_NAME_3":"NA","TYPE_3":"Unknown","ENGTYPE_3":"Unknown","CC_3":"NA","HASC_3":"NA","name":"n.a.(3038).city"},
"geometry":{"type": "MultiPolygon","coordinates": [[[[34.733,-16.4203,207.0896],[34.7441,-16.43,195.3998],[34.7383,-16.4316,208.0017],[34.7358,-16.4348,203.3403],[34.7341,-16.4449,212.2528],[34.7368,-16.4546,226.7655],[34.7429,-16.4548,249.8297],[34.7543,-16.4487,198.6045],[34.7597,-16.4515,208.5937],[34.7723,-16.4425,181.3384],[34.7734,-16.439,172.6367],[34.7786,-16.4335,165.3763],[34.7882,-16.4342,155.5054],[34.7923,-16.4283,153.8479],[34.7868,-16.4218,156.7087],[34.7957,-16.412,141.1362],[34.7835,-16.4116,153.3358],[34.781,-16.4076,160.696],[34.7756,-16.4065,163.2299],[34.7754,-16.4001,173.8645],[34.8024,-16.3877,151.8326],[34.7662,-16.3868,162.0497],[34.7603,-16.395,173.9909],[34.7623,-16.4066,168.6318],[34.7449,-16.4129,184.1798],[34.733,-16.4203,207.0896]]]]}}