{"type":"Feature","properties":{"GID_2":"MWI.25.3_1","GID_0":"MWI","country":"Malawi","GID_1":"MWI.25_1","province":"Rumphi","NL_NAME_1":"NA","county":"RumphiBoma","VARNAME_2":"NA","NL_NAME_2":"NA","TYPE_2":"Boma","ENGTYPE_2":"Headquarter","CC_2":"NA","HASC_2":"NA","name":"Rumphi_Boma.county"},
"geometry":{"type": "MultiPolygon","coordinates": [[[[33.8752,-11.0336,1064.0104],[33.8768,-11.0331,1057.6122],[33.8784,-11.0265,1116.5183],[33.8717,-11.015,1081.563],[33.8721,-11.0085,1107.8027],[33.8702,-11.0066,1177.1086],[33.8711,-11.0025,1245.9969],[33.8367,-11.0024,1134.2202],[33.837,-11.0278,1056.804],[33.848,-11.0287,1056.233],[33.8585,-11.0264,1053.9143],[33.8616,-11.0314,1060.5625],[33.8676,-11.0355,1054.4088],[33.8752,-11.0336,1064.0104]]]]}}