{"type": "Feature","bbox": [33.8517,-9.7699,33.8785,-9.7272],"geometry": {"type": "MultiPolygon","coordinates": [[[[33.8522,-9.733,510.0663],[33.8517,-9.7374,529.9607],[33.8542,-9.7448,492.3254],[33.861,-9.7474,491.7336],[33.8641,-9.7523,485.0208],[33.8659,-9.7604,482.5413],[33.8643,-9.7689,482.6532],[33.8785,-9.7699,479.6869],[33.8775,-9.7593,478.98],[33.8727,-9.7584,481.6879],[33.8699,-9.7441,482.355],[33.8653,-9.7386,534.0076],[33.8668,-9.732,505.8333],[33.8659,-9.7285,497.1528],[33.864,-9.7272,525.0093],[33.8554,-9.7303,568.9588],[33.8522,-9.733,510.0663]]]]}
,"properties": {"GID_3": "MWI.8.6.6_1","GID_0": "MWI","country": "Malawi","GID_1": "MWI.8_1","province": "Karonga","NL_NAME_1": "NA","GID_2": "MWI.8.6_1","county": "TAKilupula","NL_NAME_2": "NA","city": "n.a.(40)","VARNAME_3": "NA","NL_NAME_3": "NA","TYPE_3": "Unknown","ENGTYPE_3": "Unknown","CC_3": "NA","HASC_3": "NA","name": "n.a.(40).city","area_km2": 5.767317,"hist_schema_id": "Elevation0-9000","hist_area_km2": {"475": 2.82088,"500": 1.04482,"525": 0.564215,"550": 0.940361,"575": 0.397041}}}