{"type":"Feature","properties":{"GID_3":"MWI.19.5.1_1","GID_0":"MWI","country":"Malawi","GID_1":"MWI.19_1","province":"NkhataBay","NL_NAME_1":"NA","GID_2":"MWI.19.5_1","county":"SCZilakoma","NL_NAME_2":"NA","city":"n.a.(295)","VARNAME_3":"NA","NL_NAME_3":"NA","TYPE_3":"Unknown","ENGTYPE_3":"Unknown","CC_3":"NA","HASC_3":"NA","name":"n.a.(295).city"},
"geometry":{"type": "MultiPolygon","coordinates": [[[[33.8243,-12.1675,1190.7444],[33.8261,-12.1656,1202.0996],[33.8344,-12.1671,1196.7798],[33.8396,-12.1648,1163.1561],[33.8455,-12.1666,1176.2533],[33.8547,-12.1628,1156.704],[33.8635,-12.1637,1125.0226],[33.8643,-12.1779,1213.7517],[33.8728,-12.1942,1044.2241],[33.8761,-12.1944,1060.847],[33.8813,-12.1879,1102.061],[33.8865,-12.1933,961.8031],[33.8931,-12.1899,923.1411],[33.8999,-12.1955,961.2744],[33.9028,-12.2021,880.5058],[33.9068,-12.2041,842.1785],[33.9084,-12.2109,926.7726],[33.9141,-12.2086,955.9141],[33.9193,-12.2108,885.1779],[33.9244,-12.2087,962.8505],[33.9341,-12.2107,890.2414],[33.9389,-12.214,760.9153],[33.9429,-12.2127,849.5],[33.9529,-12.214,734.4383],[33.9627,-12.2239,595.7074],[33.9676,-12.2211,653.2372],[33.9714,-12.222,579.8303],[33.9721,-12.2233,561.7288],[33.9696,-12.2277,536.3925],[33.9723,-12.229,508.1465],[33.979,-12.2127,588.3436],[33.9992,-12.1738,656.998],[34.0218,-12.1514,606.0379],[34.0299,-12.1516,496.971],[34.0321,-12.1465,484.023],[34.0347,-12.1303,490.5742],[34.0407,-12.1158,490.1921],[34.0312,-12.1108,585.1311],[34.028,-12.1115,631.5441],[34.0184,-12.0822,586.4268],[34.0105,-12.0666,622.4415],[34.0124,-12.0541,619.5627],[34.0041,-12.0432,754.2953],[33.9952,-12.0439,926.4312],[33.9889,-12.0464,1050.9014],[33.969,-12.041,1132.3251],[33.9531,-12.0466,891.7471],[33.9376,-12.0423,1041.7889],[33.9278,-12.0452,1181.7314],[33.9139,-12.0439,1471.2091],[33.9122,-12.0424,1523.4054],[33.9113,-12.0368,1520.9531],[33.9062,-12.0385,1669.5131],[33.8949,-12.0311,1840.3618],[33.888,-12.018,1912.3116],[33.8853,-12.0212,1857.5963],[33.8805,-12.0211,1753.8813],[33.8725,-12.0266,1831.8093],[33.8683,-12.0246,1805.3385],[33.8624,-12.0146,1815.8429],[33.8574,-12.0148,1833.2588],[33.8525,-12.0203,1901.6702],[33.8468,-12.0178,1906.0699],[33.8435,-12.0218,1882.6538],[33.8341,-12.0246,1893.9316],[33.82,-12.0238,1714.7107],[33.8142,-12.0279,1754.0776],[33.8053,-12.0269,1792.6414],[33.7992,-12.0325,1726.0359],[33.7922,-12.0491,1762.272],[33.7839,-12.0534,1756.3201],[33.7772,-12.0615,1731.7462],[33.7775,-12.0697,1745.1578],[33.7833,-12.0987,1545.7338],[33.8026,-12.1315,1243.1042],[33.8071,-12.1504,1224.4639],[33.8243,-12.1675,1190.7444]]]]}}