{"type":"Feature","properties":{"GID_3":"MWI.13.9.19_1","GID_0":"MWI","country":"Malawi","GID_1":"MWI.13_1","province":"Mangochi","NL_NAME_1":"NA","GID_2":"MWI.13.9_1","county":"TAJalasi","NL_NAME_2":"NA","city":"n.a.(1523)","VARNAME_3":"NA","NL_NAME_3":"NA","TYPE_3":"Unknown","ENGTYPE_3":"Unknown","CC_3":"NA","HASC_3":"NA","name":"n.a.(1523).city"},
"geometry":{"type": "MultiPolygon","coordinates": [[[[35.577,-14.3705,849.8345],[35.5811,-14.3745,831.174],[35.5932,-14.3791,804.7795],[35.6017,-14.376,789.2122],[35.5921,-14.3721,821.2381],[35.5902,-14.3664,824.1044],[35.5972,-14.3671,803.6237],[35.5979,-14.3654,812.5433],[35.6078,-14.3644,810.9559],[35.6011,-14.3573,809.2021],[35.5834,-14.3625,846.5991],[35.5823,-14.3639,842.2947],[35.5837,-14.3683,848.629],[35.577,-14.3705,849.8345]]]]}}