{"type":"Feature","properties":{"GID_3":"MWI.6.6.15_1","GID_0":"MWI","country":"Malawi","GID_1":"MWI.6_1","province":"Dedza","NL_NAME_1":"NA","GID_2":"MWI.6.6_1","county":"TAKachindamoto","NL_NAME_2":"NA","city":"n.a.(1424)","VARNAME_3":"NA","NL_NAME_3":"NA","TYPE_3":"Unknown","ENGTYPE_3":"Unknown","CC_3":"NA","HASC_3":"NA","name":"n.a.(1424).city"},
"geometry":{"type": "MultiPolygon","coordinates": [[[[34.4765,-14.3366,1235.0059],[34.4746,-14.3591,1482.5465],[34.4846,-14.3814,1423.4238],[34.4854,-14.394,1365.9985],[34.493899999999996,-14.4192,1167.8362],[34.4979,-14.4222,1000.5685],[34.4996,-14.4191,945.8744],[34.5023,-14.4183,963.9475],[34.5157,-14.4298,871.8242],[34.5176,-14.4333,945.2574],[34.5154,-14.4399,1000.5222],[34.5195,-14.444,869.1209],[34.5247,-14.4437,797.4554],[34.5323,-14.4375,766.9846],[34.54,-14.4399,720.1441],[34.5501,-14.4299,683.9159],[34.5535,-14.4284,632.9971],[34.5559,-14.4325,665.9515],[34.5634,-14.4361,590.7455],[34.5686,-14.4362,579.2822],[34.5766,-14.4391,553.3721],[34.5756,-14.4323,549.4224],[34.5718,-14.4238,584.632],[34.5729,-14.4055,601.228],[34.5686,-14.3877,572.1176],[34.5571,-14.3603,600.2634],[34.5544,-14.3466,582.627],[34.5462,-14.3276,566.5902],[34.5394,-14.3167,559.2056],[34.5296,-14.3054,587.054],[34.5213,-14.3049,579.8907],[34.5176,-14.3,604.019],[34.5127,-14.3031,624.9372],[34.5114,-14.3065,644.8011],[34.5081,-14.3081,640.3942],[34.5053,-14.3149,649.3499],[34.5026,-14.3162,659.9965],[34.5018,-14.3104,653.3381],[34.5084,-14.2915,616.7924],[34.5079,-14.2875,605.7896],[34.5049,-14.294,625.3416],[34.4983,-14.2946,628.8478],[34.4925,-14.2994,655.9859],[34.4883,-14.2995,707.5085],[34.481,-14.2651,705.832],[34.4761,-14.2995,1043.1562],[34.4765,-14.3366,1235.0059]]]]}}