{"type": "Feature","bbox": [34.9924,-13.6627,35.0353,-13.6312],"geometry": {"type": "MultiPolygon","coordinates": [[[[34.9924,-13.6505,518.7964],[34.9934,-13.6627,506.8526],[35.0004,-13.6619,515.8311],[35.0085,-13.6575,526.8481],[35.0303,-13.6509,530.2271],[35.0353,-13.6479,517.6205],[35.0179,-13.6312,543.195],[35.0114,-13.6375,533.0035],[35.0069,-13.6448,531.0537],[34.9962,-13.647,519.1777],[34.9924,-13.6505,518.7964]]]]}
,"properties": {"GID_3": "MWI.13.11.8_1","GID_0": "MWI","country": "Malawi","GID_1": "MWI.13_1","province": "Mangochi","NL_NAME_1": "NA","GID_2": "MWI.13.11_1","county": "TAMakanjila","NL_NAME_2": "NA","city": "n.a.(784)","VARNAME_3": "NA","NL_NAME_3": "NA","TYPE_3": "Unknown","ENGTYPE_3": "Unknown","CC_3": "NA","HASC_3": "NA","name": "n.a.(784).city","area_km2": 7.664504,"hist_schema_id": "Elevation0-9000","hist_area_km2": {"500": 0.329641,"525": 6.881563,"550": 0.453299}}}