{"type":"Feature","properties":{"GID_3":"MWI.6.8.5_1","GID_0":"MWI","country":"Malawi","GID_1":"MWI.6_1","province":"Dedza","NL_NAME_1":"NA","GID_2":"MWI.6.8_1","county":"TAKasumbu","NL_NAME_2":"NA","city":"n.a.(1274)","VARNAME_3":"NA","NL_NAME_3":"NA","TYPE_3":"Unknown","ENGTYPE_3":"Unknown","CC_3":"NA","HASC_3":"NA","name":"n.a.(1274).city"},
"geometry":{"type": "MultiPolygon","coordinates": [[[[34.3229,-14.1216,1207.5726],[34.3185,-14.1298,1174.1436],[34.3224,-14.133,1247.5002],[34.3236,-14.1384,1312.0342],[34.3296,-14.1439,1271.2168],[34.3286,-14.1488,1294.884],[34.331,-14.1515,1335.5056],[34.3218,-14.1577,1401.125],[34.3154,-14.1586,1373.8022],[34.3131,-14.1559,1321.9548],[34.3138,-14.1511,1334.0367],[34.31,-14.1492,1326.2806],[34.3098,-14.1541,1319.3215],[34.3042,-14.1648,1418.3469],[34.3064,-14.1666,1418.1355],[34.3125,-14.1669,1371.8409],[34.3146,-14.1688,1371.123],[34.3137,-14.1725,1378.6074],[34.3162,-14.1744,1381.3239],[34.3148,-14.1767,1387.1659],[34.317,-14.1774,1404.4543],[34.3142,-14.1819,1388.2003],[34.3184,-14.1833,1409.8517],[34.3183,-14.1881,1424.1764],[34.3261,-14.1854,1383.6913],[34.3324,-14.1801,1288.0432],[34.3363,-14.1748,1290.3397],[34.34,-14.1637,1322.7996],[34.3516,-14.1522,1293.455],[34.3441,-14.1467,1203.308],[34.3377,-14.138,1184.0907],[34.3342,-14.1297,1238.6367],[34.3257,-14.125,1188.3267],[34.3229,-14.1216,1207.5726]]]]}}