{"type":"Feature","properties":{"GID_3":"MWI.4.6.2_1","GID_0":"MWI","country":"Malawi","GID_1":"MWI.4_1","province":"Chiradzulu","NL_NAME_1":"NA","GID_2":"MWI.4.6_1","county":"TANchema","NL_NAME_2":"NA","city":"n.a.(2332)","VARNAME_3":"NA","NL_NAME_3":"NA","TYPE_3":"Unknown","ENGTYPE_3":"Unknown","CC_3":"NA","HASC_3":"NA","name":"n.a.(2332).city"},
"geometry":{"type": "MultiPolygon","coordinates": [[[[35.2134,-15.5974,935.726],[35.2117,-15.6056,936.3727],[35.2223,-15.6074,922.2001],[35.2283,-15.5982,894.882],[35.2351,-15.5962,887.5638],[35.2366,-15.5928,890.5776],[35.2355,-15.5917,889.9985],[35.236,-15.5866,897.6401],[35.231,-15.5818,901.499],[35.2312,-15.5774,907.2084],[35.226,-15.5728,917.379],[35.2264,-15.5712,923.0552],[35.2239,-15.5716,914.1207],[35.2213,-15.5686,931.2993],[35.2175,-15.5702,928.0269],[35.2173,-15.5719,919.7208],[35.2158,-15.5704,931.0344],[35.2068,-15.5708,952.8594],[35.2023,-15.5737,983.0307],[35.204,-15.5747,941.6738],[35.2068,-15.5723,941.446],[35.2084,-15.573,940.5488],[35.208,-15.5831,960.4995],[35.2111,-15.5878,937.9838],[35.219,-15.5942,918.0349],[35.215,-15.5995,938.6329],[35.2134,-15.5974,935.726]]]]}}