{"type":"Feature","properties":{"GID_3":"MWI.14.5.21_1","GID_0":"MWI","country":"Malawi","GID_1":"MWI.14_1","province":"Mchinji","NL_NAME_1":"NA","GID_2":"MWI.14.5_1","county":"TAMkanda","NL_NAME_2":"NA","city":"n.a.(756)","VARNAME_3":"NA","NL_NAME_3":"NA","TYPE_3":"Unknown","ENGTYPE_3":"Unknown","CC_3":"NA","HASC_3":"NA","name":"n.a.(756).city"},
"geometry":{"type": "MultiPolygon","coordinates": [[[[32.9436,-13.6518,1128.8442],[32.9364,-13.6483,1136.9287],[32.9317,-13.6398,1129.0985],[32.9245,-13.6445,1137.9324],[32.9206,-13.6371,1126.8485],[32.9113,-13.6356,1136.5222],[32.9146,-13.6207,1131.0527],[32.9095,-13.6138,1138.2462],[32.9084,-13.6094,1138.48],[32.8997,-13.6047,1137.7632],[32.8994,-13.6026,1134.9686],[32.9027,-13.598,1129.729],[32.8959,-13.5956,1138.4172],[32.8907,-13.5965,1141.9238],[32.877,-13.603,1169.8486],[32.8651,-13.6111,1187.0947],[32.8743,-13.6162,1178.49],[32.8826,-13.6369,1196.078],[32.8878,-13.6445,1188.6948],[32.8829,-13.6478,1188.531],[32.8806,-13.6521,1198.4373],[32.8798,-13.658,1196.262],[32.9436,-13.6518,1128.8442]]]]}}