{"type": "Feature","bbox": [34.0104,-13.7063,34.0808,-13.6488],"geometry": {"type": "MultiPolygon","coordinates": [[[[34.0104,-13.6599,1282.041],[34.0236,-13.6661,1242.7357],[34.0311,-13.6666,1170.3967],[34.0339,-13.6691,1167.0853],[34.0423,-13.668,1095.6675],[34.049,-13.6704,1085.1306],[34.0539,-13.6681,1054.0171],[34.0599,-13.6689,1056.2339],[34.0579,-13.6759,1069.8191],[34.0523,-13.6792,1071.2086],[34.0533,-13.682,1064.7284],[34.0501,-13.6871,1103.7485],[34.0545,-13.6983,1171.4259],[34.055,-13.7046,1209.9685],[34.0573,-13.7063,1202.3328],[34.0641,-13.7056,1159.1161],[34.0683,-13.6909,1098.6661],[34.075,-13.6897,1083.514],[34.0804,-13.6847,1083.1593],[34.0808,-13.6795,1044.0571],[34.0767,-13.6706,985.7875],[34.08,-13.6683,981.1775],[34.0767,-13.6625,1034.7965],[34.0798,-13.6588,949.7268],[34.0744,-13.6557,1020.5363],[34.0671,-13.6585,1077.0294],[34.0541,-13.6488,1148.118],[34.0332,-13.6604,1209.6616],[34.0208,-13.655,1286.1436],[34.0104,-13.6599,1282.041]]]]}
,"properties": {"GID_3": "MWI.7.7.9_1","GID_0": "MWI","country": "Malawi","GID_1": "MWI.7_1","province": "Dowa","NL_NAME_1": "NA","GID_2": "MWI.7.7_1","county": "TAChiwere","NL_NAME_2": "NA","city": "n.a.(797)","VARNAME_3": "NA","NL_NAME_3": "NA","TYPE_3": "Unknown","ENGTYPE_3": "Unknown","CC_3": "NA","HASC_3": "NA","name": "n.a.(797).city","area_km2": 18.0262,"hist_schema_id": "Elevation0-9000","hist_area_km2": {"950": 0.06181,"975": 0.12361,"1000": 0.51504,"1025": 1.09189,"1050": 1.75111,"1075": 2.57515,"1100": 3.15203,"1125": 1.83351,"1150": 1.54508,"1175": 1.62744,"1200": 1.31847,"1225": 1.13312,"1250": 0.94771,"1275": 0.20602,"1300": 0.14422}}}