{"type":"Feature","properties":{"GID_3":"MWI.24.2.44_1","GID_0":"MWI","country":"Malawi","GID_1":"MWI.24_1","province":"Phalombe","NL_NAME_1":"NA","GID_2":"MWI.24.2_1","county":"TAMkhumba","NL_NAME_2":"NA","city":"n.a.(2503)","VARNAME_3":"NA","NL_NAME_3":"NA","TYPE_3":"Unknown","ENGTYPE_3":"Unknown","CC_3":"NA","HASC_3":"NA","name":"n.a.(2503).city"},
"geometry":{"type": "MultiPolygon","coordinates": [[[[35.5465,-15.7683,734.9161],[35.5497,-15.7788,813.9886],[35.5587,-15.7717,733.7448],[35.5594,-15.7708,734.8112],[35.5575,-15.7704,732.8679],[35.5687,-15.7582,728.1346],[35.575,-15.7624,734.2957],[35.5831,-15.7626,732.1278],[35.5844,-15.7544,725.4286],[35.5872,-15.7481,721.0757],[35.5738,-15.7456,725.8972],[35.5543,-15.7378,711.6431],[35.5529,-15.7421,716.3993],[35.5347,-15.754,712.6673],[35.5445,-15.7635,723.8106],[35.5465,-15.7683,734.9161]]]]}}