{"type":"Feature","properties":{"GID_3":"MWI.17.5.2_1","GID_0":"MWI","country":"Malawi","GID_1":"MWI.17_1","province":"Mzimba","NL_NAME_1":"NA","GID_2":"MWI.17.5_1","county":"SCKhosoloGwazaJere","NL_NAME_2":"NA","city":"n.a.(333)","VARNAME_3":"NA","NL_NAME_3":"NA","TYPE_3":"Unknown","ENGTYPE_3":"Unknown","CC_3":"NA","HASC_3":"NA","name":"n.a.(333).city"},
"geometry":{"type": "MultiPolygon","coordinates": [[[[33.7047,-12.4004,1442.1147],[33.7017,-12.4105,1486.2444],[33.7084,-12.4125,1434.9414],[33.71,-12.4179,1382.0188],[33.7068,-12.4212,1348.8335],[33.7066,-12.425,1364.7781],[33.714,-12.4396,1376.2548],[33.7088,-12.4503,1365.9772],[33.7096,-12.4576,1382.8589],[33.7016,-12.4698,1307.087],[33.7041,-12.4868,1262.8184],[33.7017,-12.4897,1246.6543],[33.7143,-12.5003,1254.4641],[33.7153,-12.5006,1279.5435],[33.7172,-12.4943,1285.7419],[33.7177,-12.4854,1313.3921],[33.727,-12.4731,1373.4645],[33.7329,-12.4608,1358.6012],[33.7426,-12.4632,1365.0382],[33.7476,-12.4661,1288.8501],[33.7536,-12.473,1194.0979],[33.7597,-12.4739,1163.9863],[33.7614,-12.4697,1154.7568],[33.7607,-12.4578,1236.4569],[33.7647,-12.4568,1170.5868],[33.7647,-12.4509,1228.2029],[33.7696,-12.4505,1184.0808],[33.7705,-12.4469,1214.3533],[33.7766,-12.44,1257.3712],[33.7947,-12.447,1276.7025],[33.8025,-12.4422,1252.7456],[33.8058,-12.4456,1256.697],[33.8113,-12.4454,1246.9016],[33.8166,-12.4488,1226.1267],[33.8174,-12.4522,1210.0187],[33.8248,-12.4517,1211.6758],[33.8285,-12.454,1201.4906],[33.8273,-12.4475,1224.4172],[33.829,-12.4421,1230.5715],[33.8263,-12.4262,1192.3303],[33.8312,-12.419,1203.0277],[33.8243,-12.4237,1228.7295],[33.8211,-12.4219,1241.4265],[33.8164,-12.4243,1276.061],[33.8134,-12.4222,1287.9949],[33.8044,-12.425,1304.4382],[33.7804,-12.4121,1347.5149],[33.7715,-12.4187,1315.2231],[33.7679,-12.4301,1261.2216],[33.7611,-12.4351,1255.0759],[33.7588,-12.4322,1269.1729],[33.7491,-12.4313,1304.489],[33.7496,-12.4278,1294.2888],[33.7467,-12.4254,1302.3359],[33.7499,-12.4224,1301.0865],[33.7459,-12.422,1306.6284],[33.7455,-12.4183,1314.3713],[33.7463,-12.412,1333.3505],[33.7504,-12.4081,1334.3572],[33.7503,-12.4007,1350.052],[33.7467,-12.3968,1366.3507],[33.7435,-12.3873,1560.8085],[33.7417,-12.3867,1548.7213],[33.7337,-12.3943,1548.3972],[33.7261,-12.4041,1498.4374],[33.7183,-12.4049,1496.887],[33.7047,-12.4004,1442.1147]]]]}}