{"type": "Feature","bbox": [33.5728,-11.9133,33.5937,-11.8952],"geometry": {"type": "MultiPolygon","coordinates": [[[[33.5895,-11.8952,1303.2015],[33.5862,-11.9005,1323.5499],[33.579,-11.9065,1339.4167],[33.5728,-11.9081,1322.7397],[33.5737,-11.9128,1322.5276],[33.593,-11.9133,1348.1211],[33.5937,-11.9058,1325.114],[33.5895,-11.8952,1303.2015]]]]}
,"properties": {"GID_3": "MWI.17.1.4_1","GID_0": "MWI","country": "Malawi","GID_1": "MWI.17_1","province": "Mzimba","NL_NAME_1": "NA","GID_2": "MWI.17.1_1","county": "MzimbaBoma","NL_NAME_2": "NA","city": "n.a.(282)","VARNAME_3": "NA","NL_NAME_3": "NA","TYPE_3": "Unknown","ENGTYPE_3": "Unknown","CC_3": "NA","HASC_3": "NA","name": "n.a.(282).city","area_km2": 2.427281,"hist_schema_id": "Elevation0-9000","hist_area_km2": {"1300": 0.186716,"1325": 0.746861,"1350": 1.493704}}}