{"type":"Feature","properties":{"GID_3":"MWI.1.2.31_1","GID_0":"MWI","country":"Malawi","GID_1":"MWI.1_1","province":"Balaka","NL_NAME_1":"NA","GID_2":"MWI.1.2_1","county":"TAKalembo","NL_NAME_2":"NA","city":"n.a.(1927)","VARNAME_3":"NA","NL_NAME_3":"NA","TYPE_3":"Unknown","ENGTYPE_3":"Unknown","CC_3":"NA","HASC_3":"NA","name":"n.a.(1927).city"},
"geometry":{"type": "MultiPolygon","coordinates": [[[[35.0953,-14.964,632.4406],[35.1391,-14.9989,580.5285],[35.1377,-15.0048,606.7506],[35.1406,-15.0113,565.7316],[35.1517,-15.0166,538.4827],[35.1616,-15.0164,528.9008],[35.1759,-15.0113,515.7952],[35.1729,-14.9963,521.1782],[35.1623,-14.9872,553.8812],[35.1707,-14.973,537.4595],[35.1541,-14.9709,560.913],[35.1468,-14.9665,569.7697],[35.1449,-14.9634,574.3822],[35.1452,-14.9584,593.7979],[35.1434,-14.9545,598.4338],[35.1387,-14.9535,598.308],[35.1204,-14.9385,596.502],[35.1166,-14.9397,589.7913],[35.1161,-14.9456,595.4213],[35.1041,-14.9457,598.0042],[35.1016,-14.9525,607.2737],[35.0952,-14.9609,626.2914],[35.0953,-14.964,632.4406]]]]}}