{"type":"Feature","properties":{"GID_3":"MWI.14.5.19_1","GID_0":"MWI","country":"Malawi","GID_1":"MWI.14_1","province":"Mchinji","NL_NAME_1":"NA","GID_2":"MWI.14.5_1","county":"TAMkanda","NL_NAME_2":"NA","city":"n.a.(740)","VARNAME_3":"NA","NL_NAME_3":"NA","TYPE_3":"Unknown","ENGTYPE_3":"Unknown","CC_3":"NA","HASC_3":"NA","name":"n.a.(740).city"},
"geometry":{"type": "MultiPolygon","coordinates": [[[[33.0206,-13.575,1063.3633],[33.0051,-13.5789,1082.204],[32.987,-13.5862,1084.2477],[32.9757,-13.616,1098.6643],[32.9705,-13.6142,1104.0039],[32.9637,-13.6144,1111.9246],[32.9685,-13.6273,1120.24],[32.9651,-13.6338,1121.9792],[32.974,-13.6398,1108.649],[32.9791,-13.6364,1101.0273],[32.9828,-13.6362,1097.4502],[32.9913,-13.6424,1096.4908],[32.9935,-13.6473,1092.4817],[33.0175,-13.6456,1088.4099],[33.013,-13.6252,1081.3381],[33.0185,-13.6171,1075.3699],[33.0221,-13.6043,1069.4352],[33.0206,-13.575,1063.3633]]]]}}