{"type":"Feature","properties":{"GID_3":"MWI.11.10.31_1","GID_0":"MWI","country":"Malawi","GID_1":"MWI.11_1","province":"Lilongwe","NL_NAME_1":"NA","GID_2":"MWI.11.10_1","county":"TAKabudula","NL_NAME_2":"NA","city":"n.a.(999)","VARNAME_3":"NA","NL_NAME_3":"NA","TYPE_3":"Unknown","ENGTYPE_3":"Unknown","CC_3":"NA","HASC_3":"NA","name":"n.a.(999).city"},
"geometry":{"type": "MultiPolygon","coordinates": [[[[33.6175,-13.8838,1102.1152],[33.6201,-13.8811,1110.2609],[33.6207,-13.8773,1105.8561],[33.6164,-13.862,1122.6862],[33.608,-13.8554,1134.3167],[33.5903,-13.8543,1128.1257],[33.5931,-13.8443,1133.8549],[33.5902,-13.8417,1138.276],[33.5689,-13.8407,1159.7],[33.5625,-13.8438,1145.1444],[33.555,-13.8503,1123.8947],[33.5577,-13.8545,1121.8601],[33.5655,-13.8585,1118.7793],[33.5689,-13.8728,1106.3221],[33.5719,-13.8752,1110.2568],[33.5824,-13.8767,1111.6252],[33.5929,-13.8833,1098.6697],[33.6035,-13.8862,1104.7495],[33.6106,-13.8863,1099.635],[33.6175,-13.8838,1102.1152]]]]}}