{"type":"Feature","properties":{"GID_2":"MWI.8.8_1","GID_0":"MWI","country":"Malawi","GID_1":"MWI.8_1","province":"Karonga","NL_NAME_1":"NA","county":"TAWasambo","VARNAME_2":"NA","NL_NAME_2":"NA","TYPE_2":"TraditionalAuthority","ENGTYPE_2":"TraditionalAuthority","CC_2":"NA","HASC_2":"NA","name":"T_A_Wasambo.county"},
"geometry":{"type": "MultiPolygon","coordinates": [[[[34.1887,-10.5558,491.8712],[34.2232,-10.5349,542.2069],[34.2281,-10.5285,491.3157],[34.2239,-10.5231,508.5967],[34.2172,-10.5193,477.6246],[34.203,-10.5026,480.7462],[34.2033,-10.4849,478.6698],[34.2054,-10.4771,480.2662],[34.2091,-10.4707,478.0666],[34.2257,-10.455,476.7617],[34.2377,-10.4482,476.9621],[34.2525,-10.4428,478.0997],[34.2588,-10.4418,477.3559],[34.269,-10.4559,475.5401],[34.2712,-10.4542,481.9277],[34.2671,-10.4472,505.4606],[34.2674,-10.4437,496.9492],[34.2651,-10.4416,501.1656],[34.2651,-10.4378,476.7601],[34.2615,-10.4336,474.5],[34.2579,-10.4316,475.8878],[34.2516,-10.435,481.3363],[34.244,-10.4348,484.0841],[34.2448,-10.4329,489.889],[34.2398,-10.4296,490.1703],[34.2431,-10.4268,535.5445],[34.2453,-10.4219,579.2917],[34.2503,-10.4002,573.0295],[34.25,-10.3952,566.5817],[34.2513,-10.3938,533.0936],[34.2486,-10.3923,570.6638],[34.244,-10.3846,515.0806],[34.2425,-10.3846,548.962],[34.242,-10.3806,556.0187],[34.2398,-10.3789,570.1421],[34.2393,-10.3719,536.2856],[34.2418,-10.3682,505.9091],[34.2359,-10.3648,527.6953],[34.2339,-10.3612,474.5],[34.2306,-10.3619,474.5],[34.2235,-10.3585,520.3962],[34.2206,-10.3508,474.5],[34.2105,-10.3457,489.3044],[34.2043,-10.3381,474.5],[34.1994,-10.3379,476.7552],[34.1943,-10.3328,506.734],[34.1897,-10.3185,503.5881],[34.1849,-10.3139,474.5],[34.1825,-10.3152,474.5],[34.1792,-10.3142,494.5569],[34.1745,-10.3195,545.7192],[34.1679,-10.3226,510.2867],[34.1602,-10.3203,500.1989],[34.1508,-10.3101,489.5155],[34.1332,-10.3125,495.7616],[34.1255,-10.3086,497.8986],[34.117,-10.3159,500.6817],[34.1154,-10.3196,501.269],[34.1186,-10.3306,504.6345],[34.1242,-10.3375,508.9077],[34.1192,-10.3515,514.5774],[34.1236,-10.3614,519.4014],[34.12,-10.376,527.0854],[34.1245,-10.3936,533.131],[34.1241,-10.3984,537.5481],[34.1206,-10.4055,540.5517],[34.1228,-10.4099,543.1943],[34.1213,-10.4233,551.1299],[34.1191,-10.4273,553.5607],[34.1131,-10.4317,557.8713],[34.107,-10.4333,564.017],[34.0964,-10.4315,577.0184],[34.0799,-10.4421,628.566],[34.0839,-10.4658,902.9888],[34.1021,-10.5092,698.5538],[34.1067,-10.5293,900.6341],[34.1082,-10.5463,1172.5911],[34.1042,-10.5489,1150.5645],[34.1045,-10.5683,1268.9083],[34.0931,-10.5754,1428.4607],[34.0951,-10.5742,1416.321],[34.0995,-10.5781,1336.74],[34.1088,-10.5785,1278.5024],[34.117,-10.5823,1187.5762],[34.135,-10.5714,668.3944],[34.1383,-10.5673,632.6369],[34.1469,-10.5657,597.6412],[34.1583,-10.5732,521.2062],[34.1668,-10.5749,500.5058],[34.1739,-10.5812,481.3293],[34.1755,-10.5762,481.2621],[34.1739,-10.5733,486.9275],[34.1761,-10.5672,490.7039],[34.1887,-10.5558,491.8712]]]]}}