{"type": "Feature","bbox": [33.4703,-10.5838,34.5756,-9.4919],"geometry": {"type": "MultiPolygon","coordinates": [[[[34.1726,-10.5806,481.3293],[34.1776,-10.5834,476.429],[34.2291,-10.5781,474.5],[34.3335,-10.5768,474.5],[34.4187,-10.5567,474.5],[34.5121,-10.5406,474.5],[34.5373,-10.5376,474.5],[34.5527,-10.5276,474.5],[34.5485,-10.5221,474.5],[34.5582,-10.5221,474.5],[34.5608,-10.5198,474.5],[34.5583,-10.5166,474.5],[34.5469,-10.5097,474.5],[34.5532,-10.498,474.5],[34.5712,-10.4798,474.5],[34.5756,-10.4672,474.5],[34.574,-10.4619,474.5],[34.5684,-10.4566,474.5],[34.568,-10.4536,474.5],[34.5706,-10.4479,597.1213],[34.5694,-10.444,635.0034],[34.5631,-10.4391,474.5],[34.5527,-10.4448,474.5],[34.5506,-10.4412,474.5],[34.5458,-10.4198,474.5],[34.5416,-10.4156,474.5],[34.5419,-10.3876,474.5],[34.5475,-10.3823,474.5],[34.552,-10.3529,474.5],[34.5558,-10.346,474.5],[34.5591,-10.3251,474.5],[34.5698,-10.3076,474.5],[34.5685,-10.3042,474.5],[34.5708,-10.2932,474.5],[34.5649,-10.2619,474.5],[34.5578,-10.2552,474.5],[34.5526,-10.2315,474.5],[34.5559,-10.2087,474.5],[34.5548,-10.1885,474.5],[34.5483,-10.1666,485.038],[34.5421,-10.1576,474.5],[34.5358,-10.1436,543.4565],[34.5342,-10.133,600.802],[34.5225,-10.1153,553.5382],[34.5327,-10.1044,575.3016],[34.5296,-10.0804,474.5],[34.539,-10.0642,521.3329],[34.5351,-10.0608,474.5],[34.5351,-10.0572,561.4045],[34.5386,-10.0523,893.925],[34.5359,-10.0484,669.804],[34.5241,-10.0164,927.0027],[34.5096,-9.9936,790.4126],[34.5066,-9.9833,909.4261],[34.5015,-9.9764,895.2566],[34.4932,-9.9724,600.806],[34.489,-9.9671,753.4545],[34.4779,-9.9588,703.3802],[34.471,-9.9503,839.6429],[34.458,-9.9413,572.1865],[34.4527,-9.9309,752.0686],[34.4287,-9.9007,620.2905],[34.3938,-9.8654,474.5],[34.3622,-9.8191,491.7681],[34.3445,-9.8065,474.5],[34.3307,-9.7869,474.5],[34.3275,-9.7708,474.5],[34.3192,-9.7563,474.5],[34.306,-9.7402,474.5],[34.2702,-9.7104,474.5],[34.248,-9.6867,474.5],[34.2458,-9.6818,478.3607],[34.2042,-9.6423,474.5],[34.1964,-9.6379,474.5],[34.1747,-9.6121,531.7795],[34.1657,-9.6072,478.2902],[34.1553,-9.5973,476.3271],[34.1382,-9.5855,474.5],[34.1357,-9.5807,482.5625],[34.1119,-9.5578,474.5],[34.1027,-9.5493,558.8771],[34.0921,-9.5432,484.3843],[34.0757,-9.5266,477.437],[34.0669,-9.5245,484.7138],[34.0623,-9.521,476.7917],[34.0577,-9.5116,474.5],[34.0538,-9.5072,480.4641],[34.0425,-9.4956,507.7684],[34.0363,-9.4919,484.8794],[34.0151,-9.4945,477.6078],[33.9861,-9.5112,477.3512],[33.9648,-9.5284,476.2962],[33.9547,-9.5463,477.7341],[33.9453,-9.5722,475.8492],[33.9462,-9.5814,477.1626],[33.9593,-9.6006,474.5],[33.9586,-9.605,474.5],[33.9667,-9.6218,474.5],[33.9671,-9.627,474.5],[33.9574,-9.6434,474.5],[33.9543,-9.6693,474.5],[33.9504,-9.6778,474.5],[33.9432,-9.7061,474.5],[33.9389,-9.7117,476.011],[33.9313,-9.7066,476.1487],[33.9213,-9.7093,479.2556],[33.9184,-9.7084,478.984],[33.9148,-9.7138,479.3347],[33.9138,-9.7106,479.5464],[33.9117,-9.7109,478.5543],[33.9089,-9.7077,481.4241],[33.9071,-9.709,481.5057],[33.9077,-9.707,481.5599],[33.9038,-9.708,478.1888],[33.9016,-9.7041,478.6465],[33.9046,-9.7055,480.9662],[33.9097,-9.7017,481.6223],[33.9099,-9.6984,479.9752],[33.9131,-9.6947,483.4242],[33.912,-9.6923,480.8828],[33.9074,-9.6899,481.5537],[33.9043,-9.6912,481.5643],[33.9011,-9.6883,483.9682],[33.8973,-9.6914,485.6636],[33.8966,-9.6868,485.1966],[33.8945,-9.6861,486.3322],[33.8911,-9.6876,486.2807],[33.8925,-9.6838,484.9415],[33.8879,-9.6829,485.6082],[33.8882,-9.6793,485.121],[33.8838,-9.6757,486.8905],[33.8811,-9.6763,486.7591],[33.8804,-9.6798,486.3515],[33.8778,-9.68,486.5409],[33.8793,-9.6725,486.0306],[33.8768,-9.6708,487.3663],[33.8726,-9.6717,491.0422],[33.8718,-9.669,490.0401],[33.8691,-9.6684,489.1181],[33.8676,-9.6659,488.7144],[33.8686,-9.664,489.8248],[33.8672,-9.6611,491.6378],[33.8576,-9.6556,489.0085],[33.8475,-9.6446,492.1588],[33.8357,-9.6383,494.5264],[33.8277,-9.6368,495.7471],[33.816,-9.629,504.8987],[33.8147,-9.6215,500.5471],[33.8034,-9.6074,500.5831],[33.7911,-9.6043,507.4413],[33.7761,-9.5877,506.3208],[33.7666,-9.5837,566.4879],[33.7596,-9.582,528.2903],[33.7435,-9.5824,521.6501],[33.7377,-9.5801,525.4206],[33.7358,-9.5837,522.9763],[33.7303,-9.5824,523.9904],[33.729,-9.58,521.0104],[33.7234,-9.5833,512.5992],[33.7187,-9.582,531.7352],[33.7168,-9.5833,521.4438],[33.7151,-9.5885,520.8629],[33.7096,-9.5903,533.5137],[33.7121,-9.5946,526.7012],[33.7057,-9.6005,546.1396],[33.7069,-9.6054,529.6653],[33.705,-9.6066,538.4222],[33.7048,-9.6137,518.55],[33.7018,-9.6184,534.1075],[33.6918,-9.6108,520.9739],[33.6849,-9.608,553.0844],[33.6621,-9.609,600.6595],[33.6602,-9.6052,678.7703],[33.6563,-9.6054,776.8246],[33.6463,-9.5998,803.1395],[33.6425,-9.599,806.1245],[33.6377,-9.6003,718.678],[33.6402,-9.6041,700.7501],[33.6408,-9.6117,757.8959],[33.6472,-9.6203,745.2611],[33.6499,-9.6297,750.1947],[33.6539,-9.6351,732.9978],[33.6542,-9.6384,726.962],[33.6516,-9.6453,736.0364],[33.6542,-9.6567,749.0842],[33.663,-9.6656,622.6168],[33.6721,-9.6629,593.0539],[33.6716,-9.6678,569.404],[33.668,-9.6703,574.1124],[33.6695,-9.6762,588.9481],[33.6662,-9.6861,677.6217],[33.6515,-9.7053,1130.5902],[33.6833,-9.7295,1029.1956],[33.6738,-9.7458,1140.0938],[33.6888,-9.7576,975.4697],[33.6876,-9.7698,898.3814],[33.6953,-9.7735,882.8589],[33.6995,-9.778,857.0389],[33.6997,-9.7816,874.0128],[33.6981,-9.7838,926.4337],[33.7004,-9.7869,841.0678],[33.6977,-9.7905,868.3608],[33.7001,-9.7917,817.5602],[33.6978,-9.7924,852.2117],[33.6858,-9.7895,911.9562],[33.6801,-9.7923,835.4672],[33.661,-9.7901,881.4486],[33.6652,-9.7949,853.608],[33.6648,-9.7965,853.711],[33.6585,-9.7952,925.385],[33.6588,-9.7979,886.6893],[33.6522,-9.8018,875.9178],[33.6477,-9.8102,895.4719],[33.639,-9.816,934.2206],[33.6363,-9.8155,952.067],[33.6342,-9.8186,918.2769],[33.6358,-9.824,909.1934],[33.6288,-9.8238,890.7644],[33.6215,-9.8195,886.874],[33.6244,-9.8277,928.3533],[33.6167,-9.8351,929.3293],[33.6185,-9.8384,930.9528],[33.6133,-9.8429,1001.7779],[33.612,-9.8472,1131.0056],[33.6087,-9.8506,1103.1599],[33.6062,-9.8559,1048.3749],[33.6066,-9.8613,1006.5842],[33.6005,-9.8615,1039.9497],[33.5982,-9.8669,1027.1984],[33.5917,-9.8702,1033.116],[33.5901,-9.8768,1113.5408],[33.5818,-9.8819,1067.1742],[33.58,-9.8865,1044.4291],[33.5744,-9.8876,1043.8552],[33.5692,-9.8838,1081.5756],[33.5628,-9.8898,1054.6177],[33.5594,-9.8901,1061.2162],[33.5548,-9.8951,1064.3464],[33.5436,-9.8992,1086.3401],[33.5408,-9.8968,1135.9419],[33.5349,-9.9014,1174.6982],[33.5348,-9.9079,1135.6096],[33.5304,-9.9164,1206.749],[33.5194,-9.9182,1248.2089],[33.5159,-9.9152,1315.3943],[33.5134,-9.9195,1334.332],[33.508,-9.9211,1293.4634],[33.5043,-9.9253,1362.6271],[33.4891,-9.9292,1397.5728],[33.4846,-9.9342,1448.1345],[33.4721,-9.939,1341.7273],[33.4765,-9.9494,1345.1677],[33.4732,-9.9564,1409.0435],[33.4734,-9.9678,1426.6239],[33.4703,-9.9734,1506.266],[33.4828,-9.978,1488.1177],[33.4898,-9.9787,1528.1672],[33.4919,-9.9718,1457.8715],[33.4966,-9.9686,1470.2461],[33.4996,-9.9685,1454.9147],[33.5105,-9.9834,1327.1763],[33.524,-9.9871,1336.3853],[33.5353,-9.9931,1299.1683],[33.5371,-9.9974,1244.6025],[33.5341,-10.0008,1253.1335],[33.5376,-10.0106,1260.6564],[33.5475,-10.0106,1405.0277],[33.5523,-10.0137,1409.8141],[33.5561,-10.0138,1490.844],[33.5714,-10.0108,1556.2642],[33.5771,-10.0159,1573.3506],[33.5842,-10.0131,1566.4177],[33.5894,-10.0158,1677.2712],[33.5907,-10.0254,1572.6858],[33.5997,-10.035,1666.6198],[33.6026,-10.0444,1704.0649],[33.6082,-10.0494,1656.6868],[33.6085,-10.0593,1670.9771],[33.6099,-10.0604,1674.2168],[33.6213,-10.0625,1598.5284],[33.6483,-10.072,1863.6606],[33.6669,-10.0636,1351.197],[33.6716,-10.0628,1274.3358],[33.675,-10.0656,1222.0298],[33.69,-10.0654,1110.2745],[33.7009,-10.061,1056.7539],[33.7075,-10.0634,929.8644],[33.7114,-10.0594,866.5146],[33.7156,-10.0599,808.7386],[33.7204,-10.0683,843.821],[33.7191,-10.0705,872.2731],[33.7211,-10.0754,869.3644],[33.7252,-10.0775,830.3541],[33.7256,-10.0811,862.2505],[33.723,-10.0833,895.5187],[33.725,-10.0872,896.0358],[33.727,-10.0998,943.0044],[33.7259,-10.1054,923.6846],[33.7277,-10.111,897.0997],[33.7369,-10.1149,894.913],[33.7405,-10.1141,892.096],[33.7458,-10.1245,900.0968],[33.7408,-10.1278,925.6749],[33.7629,-10.1607,1050.306],[33.7518,-10.1632,931.6735],[33.7545,-10.1658,922.0381],[33.7523,-10.1675,920.2037],[33.7498,-10.1669,952.1985],[33.7509,-10.1725,929.3296],[33.7475,-10.1859,967.2938],[33.7495,-10.1881,955.4613],[33.7444,-10.1956,955.5361],[33.7458,-10.2068,958.2676],[33.7576,-10.237,1213.6521],[33.7972,-10.2684,1443.6438],[33.8188,-10.2954,1649.9321],[33.8296,-10.3428,1543.0212],[33.9047,-10.4895,2325.2417],[33.9308,-10.4964,2257.5884],[34.0331,-10.5685,1745.3118],[34.0812,-10.5838,1588.7803],[34.0852,-10.5838,1654.6165],[34.0897,-10.5778,1512.437],[34.0951,-10.5742,1416.321],[34.0995,-10.5781,1336.74],[34.1088,-10.5785,1278.5024],[34.117,-10.5823,1187.5762],[34.135,-10.5714,668.3944],[34.1383,-10.5673,632.6369],[34.1469,-10.5657,597.6412],[34.1583,-10.5732,521.2062],[34.1668,-10.5749,500.5058],[34.1726,-10.5806,481.3293]]]]}
,"properties": {"GID_1": "MWI.8_1","GID_0": "MWI","country": "Malawi","province": "Karonga","VARNAME_1": "NA","NL_NAME_1": "NA","TYPE_1": "District","ENGTYPE_1": "District","CC_1": "NA","HASC_1": "MW.KR","ISO_1": "MW-KR","name": "Karonga.province","area_km2": 8785.34,"hist_schema_id": "Elevation0-9000","hist_area_km2": {"475": 5258.586,"500": 299.199,"525": 208.899,"550": 200.282,"575": 171.184,"600": 116.717,"625": 101.338,"650": 99.451,"675": 98.477,"700": 93.306,"725": 88.826,"750": 92.319,"775": 107.456,"800": 117.974,"825": 117.639,"850": 103.852,"875": 88.921,"900": 75.076,"925": 66.85,"950": 65.407,"975": 64.783,"1000": 56.513,"1025": 53.172,"1050": 48.597,"1075": 45.716,"1100": 45.067,"1125": 40.869,"1150": 36.043,"1175": 34.496,"1200": 34.016,"1225": 35.603,"1250": 32.888,"1275": 32.845,"1300": 31.51,"1325": 32.178,"1350": 29.694,"1375": 27.316,"1400": 25.313,"1425": 23.499,"1450": 21.619,"1475": 19.907,"1500": 20.322,"1525": 20.112,"1550": 19.318,"1575": 17.857,"1600": 17.688,"1625": 18.335,"1650": 18.063,"1675": 17.853,"1700": 18.916,"1725": 18.603,"1750": 17.434,"1775": 17.977,"1800": 14.952,"1825": 13.846,"1850": 12.115,"1875": 11.364,"1900": 10.259,"1925": 9.57,"1950": 8.695,"1975": 8.152,"2000": 7.423,"2025": 8.549,"2050": 8.486,"2075": 8.507,"2100": 9.445,"2125": 11.071,"2150": 12.093,"2175": 13.115,"2200": 12.698,"2225": 12.385,"2250": 9.883,"2275": 8.028,"2300": 4.691,"2325": 2.732,"2350": 0.897,"2375": 0.396,"2400": 0.104}}}