{"type": "Feature","bbox": [35.4266,-15.2367,35.4864,-15.2122],"geometry": {"type": "MultiPolygon","coordinates": [[[[35.4273,-15.2268,686.8888],[35.4266,-15.2317,682.3397],[35.4317,-15.2345,677.0574],[35.4426,-15.2314,672.184],[35.4467,-15.2367,657.2196],[35.4546,-15.2341,651.4671],[35.4557,-15.2307,657.9438],[35.4568,-15.2331,651.5681],[35.4637,-15.2334,650.0629],[35.4723,-15.2271,648.8245],[35.4864,-15.2316,644.6451],[35.4845,-15.2242,642.5229],[35.4744,-15.2205,645.026],[35.4655,-15.2139,650.7767],[35.4604,-15.2148,656.9221],[35.455,-15.2122,674.1937],[35.4428,-15.2137,691.7069],[35.4273,-15.2268,686.8888]]]]}
,"properties": {"GID_3": "MWI.12.9.7_1","GID_0": "MWI","country": "Malawi","GID_1": "MWI.12_1","province": "Machinga","NL_NAME_1": "NA","GID_2": "MWI.12.9_1","county": "SCMposa","NL_NAME_2": "NA","city": "n.a.(2065)","VARNAME_3": "NA","NL_NAME_3": "NA","TYPE_3": "Unknown","ENGTYPE_3": "Unknown","CC_3": "NA","HASC_3": "NA","name": "n.a.(2065).city","area_km2": 10.188139,"hist_schema_id": "Elevation0-9000","hist_area_km2": {"650": 4.316653,"675": 3.068707,"700": 2.618654,"725": 0.184125}}}