{"type": "Feature","bbox": [34.5119,-15.4267,34.5987,-15.3108],"geometry": {"type": "MultiPolygon","coordinates": [[[[34.5743,-15.3108,1591.2898],[34.5746,-15.3218,1485.9045],[34.559,-15.3328,1335.9001],[34.5564,-15.3363,1251.9883],[34.5529,-15.3357,1264.7388],[34.5403,-15.3262,1167.2466],[34.5326,-15.3332,1203.5234],[34.5312,-15.3423,1190.0059],[34.52,-15.3477,1205.25],[34.5168,-15.3719,1247.7354],[34.5201,-15.3844,1223.8157],[34.5136,-15.3983,1167.1154],[34.5223,-15.3993,1107.3528],[34.5244,-15.3974,1090.6942],[34.5316,-15.3975,961.3272],[34.5328,-15.3988,913.4076],[34.528,-15.4031,991.0332],[34.5281,-15.4084,1101.2012],[34.5259,-15.4102,1130.3225],[34.5259,-15.4139,1110.7507],[34.5226,-15.4132,1103.7844],[34.5198,-15.4153,1099.821],[34.5128,-15.4165,1166.6578],[34.5119,-15.4207,1144.8767],[34.546,-15.4267,768.3519],[34.5468,-15.4213,787.3529],[34.5438,-15.4161,786.2126],[34.5446,-15.407,807.1807],[34.5475,-15.4033,832.5044],[34.5479,-15.3983,857.2522],[34.5503,-15.3945,886.4933],[34.5541,-15.3936,898.9777],[34.5543,-15.3825,942.6383],[34.558,-15.3785,937.2461],[34.559,-15.3728,999.374],[34.5621,-15.3709,1047.8291],[34.5707,-15.3724,1124.1404],[34.5748,-15.3755,1052.0508],[34.5914,-15.3765,1033.259],[34.5949,-15.3748,1087.6989],[34.5936,-15.3638,1081.5624],[34.5974,-15.3461,1444.0726],[34.5973,-15.3347,1431.9512],[34.5954,-15.3323,1382.1565],[34.5987,-15.3255,1339.1726],[34.5983,-15.318,1286.567],[34.5853,-15.3162,1408.5466],[34.5743,-15.3108,1591.2898]]]]}
,"properties": {"GID_3": "MWI.18.2.4_1","GID_0": "MWI","country": "Malawi","GID_1": "MWI.18_1","province": "Neno","NL_NAME_1": "NA","GID_2": "MWI.18.2_1","county": "TADambe","NL_NAME_2": "NA","city": "n.a.(2112)","VARNAME_3": "NA","NL_NAME_3": "NA","TYPE_3": "Unknown","ENGTYPE_3": "Unknown","CC_3": "NA","HASC_3": "NA","name": "n.a.(2112).city","area_km2": 59.96373,"hist_schema_id": "Elevation0-9000","hist_area_km2": {"775": 0.4701,"800": 0.75625,"825": 0.8789,"850": 0.63364,"875": 1.24688,"900": 1.71708,"925": 2.1464,"950": 1.81939,"975": 1.88076,"1000": 1.57415,"1025": 1.73768,"1050": 2.75984,"1075": 2.94386,"1100": 4.41589,"1125": 4.29327,"1150": 4.33427,"1175": 3.9459,"1200": 3.29164,"1225": 2.31032,"1250": 1.57433,"1275": 1.63569,"1300": 1.59481,"1325": 1.55398,"1350": 2.76039,"1375": 2.4128,"1400": 2.31056,"1425": 1.43132,"1450": 0.71568,"1475": 0.36807,"1500": 0.26583,"1525": 0.18404}}}