{"type": "Feature","bbox": [35.6484,-14.4938,35.7137,-14.4429],"geometry": {"type": "MultiPolygon","coordinates": [[[[35.6492,-14.4441,753.8702],[35.6517,-14.4541,740.9963],[35.6484,-14.4597,736.0352],[35.6514,-14.4673,725.4847],[35.6634,-14.4828,724.1633],[35.6719,-14.4856,717.2062],[35.6822,-14.4847,712.6248],[35.6865,-14.4899,736.123],[35.6892,-14.4863,729.0186],[35.6918,-14.486,730.8601],[35.6971,-14.4914,755.9849],[35.7042,-14.4938,775.2656],[35.7094,-14.4913,799.8361],[35.7117,-14.486,749.451],[35.7137,-14.4851,752.3838],[35.6835,-14.4496,707.6976],[35.6611,-14.4429,746.3385],[35.6492,-14.4441,753.8702]]]]}
,"properties": {"GID_3": "MWI.13.6.6_1","GID_0": "MWI","country": "Malawi","GID_1": "MWI.13_1","province": "Mangochi","NL_NAME_1": "NA","GID_2": "MWI.13.6_1","county": "SCMbwanaNyambi","NL_NAME_2": "NA","city": "n.a.(1603)","VARNAME_3": "NA","NL_NAME_3": "NA","TYPE_3": "Unknown","ENGTYPE_3": "Unknown","CC_3": "NA","HASC_3": "NA","name": "n.a.(1603).city","area_km2": 22.09008,"hist_schema_id": "Elevation0-9000","hist_area_km2": {"700": 6.22051,"725": 11.55824,"750": 4.06499,"775": 0.24634}}}