{"type": "Feature","bbox": [35.1927,-16.0351,35.2401,-16.0067],"geometry": {"type": "MultiPolygon","coordinates": [[[[35.1927,-16.0152,860.1614],[35.1938,-16.016,860.1614],[35.1987,-16.0138,843.9458],[35.2089,-16.0179,797.2368],[35.2049,-16.0299,781.5203],[35.2064,-16.0314,779.7733],[35.2092,-16.0316,771.3837],[35.2101,-16.0295,781.1307],[35.2146,-16.0286,783.2132],[35.215,-16.0302,770.9001],[35.2218,-16.0325,770.6142],[35.2251,-16.029,771.7069],[35.2267,-16.0318,754.3046],[35.2328,-16.0316,755.2487],[35.2357,-16.0351,745.1988],[35.2401,-16.0349,741.8574],[35.2364,-16.021,774.6375],[35.2193,-16.0229,796.19],[35.2184,-16.0126,763.7562],[35.2133,-16.0091,778.7916],[35.2096,-16.0093,781.8564],[35.2086,-16.0067,790.957],[35.2028,-16.0084,818.7755],[35.1985,-16.0069,842.4281],[35.1927,-16.0152,860.1614]]]]}
,"properties": {"GID_3": "MWI.27.8.28_1","GID_0": "MWI","country": "Malawi","GID_1": "MWI.27_1","province": "Thyolo","NL_NAME_1": "NA","GID_2": "MWI.27.8_1","county": "TAChimaliro","NL_NAME_2": "NA","city": "n.a.(2773)","VARNAME_3": "NA","NL_NAME_3": "NA","TYPE_3": "Unknown","ENGTYPE_3": "Unknown","CC_3": "NA","HASC_3": "NA","name": "n.a.(2773).city","area_km2": 6.480423,"hist_schema_id": "Elevation0-9000","hist_area_km2": {"750": 0.631719,"775": 2.995647,"800": 2.13977,"825": 0.427973,"850": 0.244555,"875": 0.040759}}}