{"type":"Feature","properties":{"GID_2":"MWI.4.4_1","GID_0":"MWI","country":"Malawi","GID_1":"MWI.4_1","province":"Chiradzulu","NL_NAME_1":"NA","county":"TALikoswe","VARNAME_2":"NA","NL_NAME_2":"NA","TYPE_2":"TraditionalAuthority","ENGTYPE_2":"TraditionalAuthority","CC_2":"NA","HASC_2":"NA","name":"T_A_Likoswe.county"},
"geometry":{"type": "MultiPolygon","coordinates": [[[[35.2088,-15.845,875.2596],[35.2118,-15.8355,914.1578],[35.2097,-15.8261,916.9586],[35.2164,-15.821,939.2407],[35.2115,-15.8134,1070.1384],[35.2086,-15.7975,928.6157],[35.2027,-15.7901,958.4255],[35.1994,-15.7816,940.8068],[35.1952,-15.7777,951.5456],[35.1928,-15.7718,935.716],[35.1928,-15.7674,923.3275],[35.1811,-15.76,923.1451],[35.1749,-15.7598,930.3894],[35.1536,-15.7478,992.8875],[35.1479,-15.7488,1004.4482],[35.1443,-15.7519,1015.7663],[35.1422,-15.7506,1013.5581],[35.1408,-15.7461,1034.5974],[35.1369,-15.7449,1039.8306],[35.1269,-15.7524,1067.3254],[35.1088,-15.7493,1132.3706],[35.1053,-15.7592,1122.1687],[35.1088,-15.7613,1134.7814],[35.1095,-15.7701,1127.3241],[35.1126,-15.779,1067.4878],[35.1087,-15.7872,1092.0459],[35.1146,-15.793,1038.9133],[35.1176,-15.7909,1047.7473],[35.124,-15.7975,1029.8248],[35.124,-15.8009,1020.4022],[35.122,-15.8171,1011.9534],[35.1152,-15.8225,1044.7111],[35.1083,-15.8388,1049.4469],[35.1075,-15.8469,1021.0784],[35.1031,-15.8544,1013.4623],[35.1028,-15.8581,991.7059],[35.1099,-15.8541,1005.1263],[35.1121,-15.8567,973.7302],[35.1158,-15.8544,994.1183],[35.1237,-15.8579,971.9354],[35.1287,-15.8584,950.0762],[35.1306,-15.8556,940.5234],[35.137,-15.853,949.8274],[35.1381,-15.8571,926.2218],[35.1459,-15.8593,906.9967],[35.1492,-15.8619,884.4767],[35.1516,-15.858,884.0839],[35.1552,-15.8579,895.0222],[35.158,-15.8554,883.8649],[35.1615,-15.8565,875.6514],[35.166,-15.8548,869.9212],[35.1685,-15.8558,878.2645],[35.1681,-15.8596,862.7754],[35.1752,-15.8585,870.304],[35.1778,-15.8627,855.3083],[35.1799,-15.8591,860.9755],[35.1857,-15.8595,848.385],[35.1857,-15.857,851.7253],[35.1877,-15.8569,854.0037],[35.1903,-15.8534,857.1785],[35.1986,-15.8544,844.1498],[35.2071,-15.8502,857.5884],[35.2088,-15.845,875.2596]]]]}}