{"type": "Feature","bbox": [34.1737,-11.3194,34.2471,-11.1757],"geometry": {"type": "MultiPolygon","coordinates": [[[[34.207,-11.2492,515.0501],[34.2,-11.2521,918.3135],[34.2094,-11.2585,585.6974],[34.2111,-11.2721,645.7121],[34.2087,-11.2754,641.9764],[34.1979,-11.2756,777.9456],[34.1882,-11.2783,781.663],[34.1891,-11.2824,671.4471],[34.1861,-11.2899,838.9769],[34.189,-11.2899,672.0223],[34.1851,-11.3006,795.7454],[34.1854,-11.3054,724.3279],[34.1874,-11.306,749.1057],[34.1872,-11.3082,726.3713],[34.1887,-11.3088,759.9121],[34.1964,-11.3072,1011.4178],[34.2079,-11.3075,959.9747],[34.213,-11.3155,1027.462],[34.2198,-11.3194,1072.3385],[34.2471,-11.312,485.1786],[34.2265,-11.3021,481.9517],[34.2228,-11.2913,593.5063],[34.223,-11.2876,494.3367],[34.22,-11.2849,563.3782],[34.2175,-11.2787,484.744],[34.2169,-11.2703,487.5687],[34.2189,-11.2622,475.9988],[34.2156,-11.2547,479.5608],[34.207,-11.2492,515.0501]]],
[[[34.2235,-11.2421,480.0392],[34.2197,-11.2434,479.0907],[34.2221,-11.2453,481.9755],[34.2294,-11.2384,497.9584],[34.2231,-11.2403,479.9234],[34.2235,-11.2421,480.0392]]],
[[[34.205,-11.1775,563.5929],[34.2044,-11.1757,641.284],[34.2026,-11.1764,614.466],[34.1942,-11.183,822.9009],[34.1786,-11.1893,782.1045],[34.1743,-11.2002,938.1849],[34.1737,-11.2117,1196.3557],[34.175,-11.2123,1186.8674],[34.178,-11.2077,1072.8394],[34.1801,-11.2072,1060.9697],[34.181399999999996,-11.2121,1284.7905],[34.1874,-11.2104,1055.1089],[34.2009,-11.2172,573.2139],[34.2058,-11.2218,511.4592],[34.2127,-11.221,476.6705],[34.2096,-11.2152,477.1123],[34.2074,-11.2044,474.8882],[34.2055,-11.2021,508.9182],[34.2035,-11.1895,663.4896],[34.2055,-11.1829,558.4561],[34.205,-11.1775,563.5929]]]]}
,"properties": {"GID_3": "MWI.19.9.3_1","GID_0": "MWI","country": "Malawi","GID_1": "MWI.19_1","province": "NkhataBay","NL_NAME_1": "NA","GID_2": "MWI.19.9_1","county": "TAMusisya","NL_NAME_2": "NA","city": "n.a.(178)","VARNAME_3": "NA","NL_NAME_3": "NA","TYPE_3": "Unknown","ENGTYPE_3": "Unknown","CC_3": "NA","HASC_3": "NA","name": "n.a.(178).city","area_km2": 31.69032,"hist_schema_id": "Elevation0-9000","hist_area_km2": {"475": 1.7051,"500": 1.24768,"525": 0.91496,"550": 1.24768,"575": 1.2061,"600": 1.2269,"625": 1.33086,"650": 1.24762,"675": 1.24769,"700": 1.18526,"725": 1.22684,"750": 1.24772,"775": 1.45563,"800": 1.51805,"825": 1.43487,"850": 1.22691,"875": 1.31003,"900": 1.08127,"925": 0.91491,"950": 1.35159,"975": 1.06041,"1000": 0.8317,"1025": 0.79011,"1050": 0.97727,"1075": 0.76933,"1100": 0.76932,"1125": 0.39507,"1150": 0.22873,"1175": 0.24953,"1200": 0.08319,"1225": 0.08319,"1250": 0.0416,"1275": 0.0208,"1300": 0.0416,"1325": 0.0208}}}