{"type":"Feature","properties":{"GID_3":"MWI.12.12.26_1","GID_0":"MWI","country":"Malawi","GID_1":"MWI.12_1","province":"Machinga","NL_NAME_1":"NA","GID_2":"MWI.12.12_1","county":"TAKawinga","NL_NAME_2":"NA","city":"n.a.(1911)","VARNAME_3":"NA","NL_NAME_3":"NA","TYPE_3":"Unknown","ENGTYPE_3":"Unknown","CC_3":"NA","HASC_3":"NA","name":"n.a.(1911).city"},
"geometry":{"type": "MultiPolygon","coordinates": [[[[35.5566,-14.9157,671.8751],[35.5651,-14.935,658.9873],[35.5672,-14.9297,666.9133],[35.569,-14.9295,669.9874],[35.5765,-14.9408,658.1389],[35.5783,-14.9416,658.9956],[35.5824,-14.9385,660.6501],[35.5871,-14.9423,657.6863],[35.5916,-14.9492,653.4393],[35.5956,-14.9504,651.8616],[35.6023,-14.9503,652.4634],[35.604,-14.9455,655.5802],[35.6075,-14.9461,645.792],[35.6066,-14.9367,646.6993],[35.5935,-14.9299,661.6918],[35.5904,-14.9263,660.4866],[35.5906,-14.9244,656.3521],[35.5863,-14.9223,657.4912],[35.5856,-14.92,658.8466],[35.5816,-14.9191,662.1506],[35.5807,-14.9145,665.8926],[35.5773,-14.9101,668.8365],[35.5723,-14.9102,673.3143],[35.5639,-14.92,672.8373],[35.5566,-14.9157,671.8751]]]]}}