{"type":"Feature","properties":{"GID_2":"MWI.6.7_1","GID_0":"MWI","country":"Malawi","GID_1":"MWI.6_1","province":"Dedza","NL_NAME_1":"NA","county":"TAKaphuka","VARNAME_2":"NA","NL_NAME_2":"NA","TYPE_2":"TraditionalAuthority","ENGTYPE_2":"TraditionalAuthority","CC_2":"NA","HASC_2":"NA","name":"T_A_Kaphuka.county"},
"geometry":{"type": "MultiPolygon","coordinates": [[[[34.2916,-14.3812,1510.5615],[34.2959,-14.3812,1504.9973],[34.2985,-14.3688,1520.5331],[34.2983,-14.3625,1528.7161],[34.2907,-14.3266,1613.1309],[34.288,-14.3221,1623.387],[34.2818,-14.3185,1588.7603],[34.2801,-14.3124,1573.1677],[34.2819,-14.3054,1559.9443],[34.2785,-14.2998,1579.8053],[34.2779,-14.2939,1571.2083],[34.2758,-14.2933,1574.3606],[34.2753,-14.2818,1583.1688],[34.2688,-14.255,1557.1465],[34.2708,-14.2419,1566.9276],[34.2681,-14.225,1546.1368],[34.2475,-14.2061,1442.2277],[34.2395,-14.1934,1414.6448],[34.2246,-14.1772,1343.6781],[34.2113,-14.173,1329.5371],[34.1981,-14.1648,1317.7316],[34.186,-14.1538,1287.6904],[34.1785,-14.1426,1255.5046],[34.1557,-14.1275,1207.7441],[34.1475,-14.1129,1254.2736],[34.1323,-14.0996,1192.0275],[34.1144,-14.074,1139.6836],[34.112,-14.075,1148.8096],[34.1106,-14.0827,1142.7979],[34.1057,-14.0851,1145.0283],[34.1005,-14.0855,1174.2471],[34.0982,-14.0885,1162.7178],[34.0982,-14.0936,1143.6682],[34.0949,-14.1016,1150.9487],[34.0975,-14.1056,1150.7653],[34.0901,-14.1141,1153.196],[34.092,-14.1194,1152.7622],[34.0891,-14.1235,1155.2322],[34.0896,-14.1271,1149.6312],[34.0872,-14.1364,1151.9677],[34.0766,-14.1383,1156.0551],[34.0647,-14.1342,1169.3589],[34.0623,-14.1352,1163.5767],[34.0579,-14.1429,1177.0438],[34.0601,-14.1443,1165.1226],[34.06,-14.1484,1158.636],[34.0577,-14.1522,1167.7303],[34.0592,-14.1561,1166.2913],[34.0535,-14.1616,1160.981],[34.0487,-14.1691,1165.6194],[34.0476,-14.1748,1161.3528],[34.0447,-14.1792,1162.6003],[34.046,-14.1847,1168.9395],[34.0374,-14.1869,1171.2441],[34.0301,-14.1911,1173.2717],[34.0289,-14.1944,1166.2605],[34.0242,-14.1969,1165.2782],[34.019,-14.1963,1164.1132],[34.0146,-14.1936,1176.296],[34.0127,-14.2005,1165.0935],[34.0091,-14.204,1171.9137],[34.0063,-14.2023,1177.7993],[34.0023,-14.2053,1166.3149],[33.9984,-14.1961,1176.3413],[33.9911,-14.1931,1167.7448],[33.9851,-14.1942,1177.1243],[33.9838,-14.1994,1168.28],[33.9801,-14.2015,1173.9261],[33.978,-14.205,1170.6495],[33.9729,-14.2046,1170.95],[33.9699,-14.2065,1172.0814],[33.9628,-14.207,1175.8273],[33.9556,-14.2046,1171.5837],[33.9532,-14.2054,1175.2007],[33.9812,-14.2254,1199.4808],[34.0228,-14.2613,1204.2002],[34.0357,-14.2668,1217.1372],[34.0532,-14.2803,1197.9606],[34.0684,-14.2968,1239.5647],[34.0832,-14.3042,1258.0298],[34.093,-14.3148,1251.6345],[34.1403,-14.3453,1285.0769],[34.1484,-14.3478,1318.5396],[34.16,-14.3544,1342.9435],[34.1778,-14.3681,1388.6693],[34.2201,-14.3809,1386.5793],[34.2283,-14.3852,1428.9567],[34.2389,-14.3872,1454.2554],[34.2682,-14.3872,1494.5718],[34.2916,-14.3812,1510.5615]]]]}}