{"type":"Feature","properties":{"GID_3":"MWI.11.8.21_1","GID_0":"MWI","country":"Malawi","GID_1":"MWI.11_1","province":"Lilongwe","NL_NAME_1":"NA","GID_2":"MWI.11.8_1","county":"TAChiseka","NL_NAME_2":"NA","city":"n.a.(1310)","VARNAME_3":"NA","NL_NAME_3":"NA","TYPE_3":"Unknown","ENGTYPE_3":"Unknown","CC_3":"NA","HASC_3":"NA","name":"n.a.(1310).city"},
"geometry":{"type": "MultiPolygon","coordinates": [[[[33.6892,-14.161,1078.9775],[33.6876,-14.1634,1079.2244],[33.6855,-14.1607,1087.7592],[33.6794,-14.1628,1098.2466],[33.6732,-14.1543,1109.1793],[33.6646,-14.1582,1094.728],[33.6609,-14.1582,1101.6265],[33.6547,-14.1665,1107.0527],[33.6456,-14.1703,1103.2561],[33.6461,-14.1752,1099.3702],[33.6419,-14.1763,1109.7744],[33.6414,-14.1777,1109.7744],[33.6377,-14.1777,1100.8762],[33.6354,-14.1834,1112.5049],[33.6411,-14.1846,1135.2568],[33.6461,-14.1825,1118.9792],[33.6482,-14.183,1113.4974],[33.6477,-14.1788,1111.3254],[33.6531,-14.1809,1119.9758],[33.6635,-14.1815,1130.5808],[33.6674,-14.1857,1122.7518],[33.6655,-14.1887,1124.0203],[33.6662,-14.1907,1119.8469],[33.674,-14.1976,1136.9301],[33.6746,-14.2018,1144.8054],[33.6798,-14.2046,1147.4802],[33.6849,-14.2,1144.2266],[33.6876,-14.1816,1124.6387],[33.7012,-14.1787,1096.9873],[33.6987,-14.1719,1103.4075],[33.6934,-14.1673,1084.7637],[33.6909,-14.1615,1093.3999],[33.6892,-14.161,1078.9775]]]]}}