{"type": "Feature","bbox": [35.3719,-15.0623,35.411,-14.9898],"geometry": {"type": "MultiPolygon","coordinates": [[[[35.3719,-15.0471,550.6404],[35.377,-15.0493,553.1338],[35.3918,-15.0462,565.597],[35.3913,-15.0488,566.8704],[35.3778,-15.056,555.2394],[35.3804,-15.059,551.7686],[35.3829,-15.0555,559.3755],[35.387,-15.0586,559.1926],[35.3919,-15.0585,564.3681],[35.3956,-15.0623,565.6864],[35.4037,-15.0528,590.6056],[35.411,-15.0342,571.8267],[35.4056,-15.0299,555.0581],[35.4025,-15.0118,535.4503],[35.4067,-14.9898,520.7628],[35.3948,-15.0101,537.7955],[35.3719,-15.0471,550.6404]]]]}
,"properties": {"GID_3": "MWI.12.13.23_1","GID_0": "MWI","country": "Malawi","GID_1": "MWI.12_1","province": "Machinga","NL_NAME_1": "NA","GID_2": "MWI.12.13_1","county": "TALiwonde","NL_NAME_2": "NA","city": "n.a.(1964)","VARNAME_3": "NA","NL_NAME_3": "NA","TYPE_3": "Unknown","ENGTYPE_3": "Unknown","CC_3": "NA","HASC_3": "NA","name": "n.a.(1964).city","area_km2": 13.7192,"hist_schema_id": "Elevation0-9000","hist_area_km2": {"525": 1.14684,"550": 8.49781,"575": 4.05407,"600": 0.02047}}}