{"type":"Feature","properties":{"GID_3":"MWI.15.8.4_1","GID_0":"MWI","country":"Malawi","GID_1":"MWI.15_1","province":"Mulanje","NL_NAME_1":"NA","GID_2":"MWI.15.8_1","county":"TANthiramanja","NL_NAME_2":"NA","city":"n.a.(2702)","VARNAME_3":"NA","NL_NAME_3":"NA","TYPE_3":"Unknown","ENGTYPE_3":"Unknown","CC_3":"NA","HASC_3":"NA","name":"n.a.(2702).city"},
"geometry":{"type": "MultiPolygon","coordinates": [[[[35.3792,-15.9856,726.2449],[35.3653,-15.9717,699.7565],[35.3614,-15.9645,688.1074],[35.3651,-15.962,693.2631],[35.3651,-15.9575,709.325],[35.3686,-15.9533,713.1676],[35.3682,-15.9487,714.3953],[35.3593,-15.9491,709.4288],[35.3526,-15.9454,699.403],[35.346,-15.9444,679.6912],[35.3433,-15.9454,678.7418],[35.3445,-15.9502,680.1365],[35.3538,-15.9533,696.0098],[35.3533,-15.9561,698.5853],[35.3506,-15.9583,696.2197],[35.3523,-15.9627,691.0339],[35.3465,-15.9626,685.047],[35.346,-15.968,690.5665],[35.3415,-15.975,702.9605],[35.3413,-15.9779,704.7183],[35.3499,-15.9818,713.9365],[35.3452,-15.9833,716.7468],[35.3456,-15.9869,716.1138],[35.3569,-15.9836,715.3582],[35.3751,-15.9868,726.6122],[35.3792,-15.9856,726.2449]]]]}}