{"type":"Feature","properties":{"GID_3":"MWI.9.15.17_1","GID_0":"MWI","country":"Malawi","GID_1":"MWI.9_1","province":"Kasungu","NL_NAME_1":"NA","GID_2":"MWI.9.15_1","county":"TASanthe","NL_NAME_2":"NA","city":"n.a.(655)","VARNAME_3":"NA","NL_NAME_3":"NA","TYPE_3":"Unknown","ENGTYPE_3":"Unknown","CC_3":"NA","HASC_3":"NA","name":"n.a.(655).city"},
"geometry":{"type": "MultiPolygon","coordinates": [[[[33.234,-13.4536,1098.0685],[33.2269,-13.4711,1100.311],[33.2147,-13.4897,1111.667],[33.2046,-13.5107,1122.067],[33.2011,-13.5137,1119.2683],[33.2185,-13.5248,1100.9374],[33.2365,-13.5417,1082.7754],[33.2437,-13.5397,1090.626],[33.2502,-13.5293,1117.2101],[33.2544,-13.5302,1100.4707],[33.2597,-13.5354,1090.032],[33.2775,-13.5273,1067.4469],[33.2813,-13.5216,1065.1445],[33.284,-13.5053,1058.1079],[33.2829,-13.5032,1062.1005],[33.2754,-13.5022,1063.0804],[33.2696,-13.4895,1076.4575],[33.2696,-13.4872,1077.765],[33.2718,-13.4855,1081.8164],[33.2696,-13.4795,1093.5895],[33.2598,-13.4806,1080.8101],[33.2486,-13.4744,1078.5945],[33.2436,-13.4654,1087.0712],[33.2435,-13.4605,1091.7726],[33.234,-13.4536,1098.0685]]]]}}