{"type":"Feature","properties":{"GID_3":"MWI.6.6.24_1","GID_0":"MWI","country":"Malawi","GID_1":"MWI.6_1","province":"Dedza","NL_NAME_1":"NA","GID_2":"MWI.6.6_1","county":"TAKachindamoto","NL_NAME_2":"NA","city":"n.a.(1509)","VARNAME_3":"NA","NL_NAME_3":"NA","TYPE_3":"Unknown","ENGTYPE_3":"Unknown","CC_3":"NA","HASC_3":"NA","name":"n.a.(1509).city"},
"geometry":{"type": "MultiPolygon","coordinates": [[[[34.6446,-14.363,524.7974],[34.6314,-14.357,514.1544],[34.6309,-14.3552,513.5936],[34.6219,-14.3535,513.3319],[34.6216,-14.3491,512.121],[34.6159,-14.3501,512.7817],[34.614,-14.3474,512.8099],[34.5987,-14.3464,512.6068],[34.5977,-14.3572,516.6526],[34.5943,-14.367,522.6515],[34.5933,-14.3806,528.0476],[34.6139,-14.39,529.8029],[34.6259,-14.3983,529.4527],[34.658,-14.374,524.2789],[34.647,-14.3671,525.9634],[34.6446,-14.363,524.7974]]]]}}