{"type":"Feature","properties":{"GID_3":"MWI.19.10.2_1","GID_0":"MWI","country":"Malawi","GID_1":"MWI.19_1","province":"NkhataBay","NL_NAME_1":"NA","GID_2":"MWI.19.10_1","county":"TATimbiri","NL_NAME_2":"NA","city":"n.a.(208)","VARNAME_3":"NA","NL_NAME_3":"NA","TYPE_3":"Unknown","ENGTYPE_3":"Unknown","CC_3":"NA","HASC_3":"NA","name":"n.a.(208).city"},
"geometry":{"type": "MultiPolygon","coordinates": [[[[34.1746,-11.4132,877.0452],[34.1491,-11.4079,1031.4429],[34.1482,-11.4098,1031.9573],[34.1512,-11.4128,1011.1123],[34.1639,-11.4146,881.1034],[34.1645,-11.4297,827.9529],[34.1716,-11.4446,787.8382],[34.1701,-11.4543,749.9798],[34.1737,-11.4644,684.9803],[34.1718,-11.4679,736.7774],[34.1766,-11.4755,639.567],[34.1927,-11.471,643.8585],[34.1978,-11.4715,614.5574],[34.2004,-11.4744,607.0251],[34.2066,-11.4725,603.6444],[34.2098,-11.4702,652.6815],[34.2106,-11.4666,662.7699],[34.2147,-11.4611,747.6925],[34.2193,-11.4594,788.4528],[34.2639,-11.4643,860.5944],[34.2664,-11.4711,792.1675],[34.271,-11.4713,639.2079],[34.2748,-11.4736,638.3467],[34.2788,-11.4723,576.3699],[34.2787,-11.4632,522.3035],[34.274,-11.4614,572.9963],[34.2737,-11.4578,499.6521],[34.271,-11.4547,559.3448],[34.2715,-11.4525,576.4107],[34.2742,-11.4518,552.1335],[34.2711,-11.4387,582.4782],[34.2711,-11.4314,514.8588],[34.2688,-11.4296,505.2553],[34.2631,-11.4319,666.0691],[34.1746,-11.4132,877.0452]]]]}}