{"type": "Feature","bbox": [35.4695,-15.9154,35.5013,-15.892],"geometry": {"type": "MultiPolygon","coordinates": [[[[35.5013,-15.8935,843.7329],[35.4899,-15.892,739.166],[35.4783,-15.8971,725.799],[35.4772,-15.9011,728.6712],[35.4695,-15.9026,722.8032],[35.4705,-15.9126,726.2095],[35.476,-15.9154,731.2939],[35.4833,-15.9113,746.6663],[35.4997,-15.913,911.7416],[35.5013,-15.8935,843.7329]]]]}
,"properties": {"GID_3": "MWI.15.7.21_1","GID_0": "MWI","country": "Malawi","GID_1": "MWI.15_1","province": "Mulanje","NL_NAME_1": "NA","GID_2": "MWI.15.7_1","county": "TANkanda","NL_NAME_2": "NA","city": "n.a.(2653)","VARNAME_3": "NA","NL_NAME_3": "NA","TYPE_3": "Unknown","ENGTYPE_3": "Unknown","CC_3": "NA","HASC_3": "NA","name": "n.a.(2653).city","area_km2": 6.157979,"hist_schema_id": "Elevation0-9000","hist_area_km2": {"725": 2.059445,"750": 2.120638,"775": 0.672897,"800": 0.305862,"825": 0.326249,"850": 0.203906,"875": 0.183516,"900": 0.101952,"925": 0.142732,"950": 0.040781}}}