{"type":"Feature","properties":{"GID_3":"MWI.11.9.3_1","GID_0":"MWI","country":"Malawi","GID_1":"MWI.11_1","province":"Lilongwe","NL_NAME_1":"NA","GID_2":"MWI.11.9_1","county":"TAChitukula","NL_NAME_2":"NA","city":"n.a.(862)","VARNAME_3":"NA","NL_NAME_3":"NA","TYPE_3":"Unknown","ENGTYPE_3":"Unknown","CC_3":"NA","HASC_3":"NA","name":"n.a.(862).city"},
"geometry":{"type": "MultiPolygon","coordinates": [[[[33.7572,-13.7063,1267.5061],[33.7482,-13.7111,1268.2281],[33.725,-13.7129,1272.8613],[33.7271,-13.721,1263.8834],[33.7193,-13.725,1252.9849],[33.7166,-13.7289,1230.308],[33.7213,-13.738,1208.9479],[33.7347,-13.7375,1255.8733],[33.7379,-13.7443,1249.9866],[33.7388,-13.7484,1245.8469],[33.7335,-13.7496,1248.2249],[33.7281,-13.7568,1237.4124],[33.7315,-13.761,1234.4939],[33.7361,-13.7736,1198.6062],[33.743,-13.7864,1176.1703],[33.7453,-13.7842,1183.4457],[33.7467,-13.7782,1194.1348],[33.7539,-13.7683,1209.6975],[33.7525,-13.7569,1225.9888],[33.758,-13.7524,1223.6211],[33.7649,-13.7369,1241.7826],[33.7623,-13.7279,1244.3601],[33.7631,-13.7188,1256.3759],[33.7578,-13.7105,1261.8436],[33.7572,-13.7063,1267.5061]]]]}}