{"type":"Feature","properties":{"ISO3166-1-Alpha-3":"MWI","country":"Malawi","fill":"#F00","id":"1913","name":"Ntchisi"},
"geometry":{"type": "Polygon","coordinates": [[[33.9792,-13.17196,977.0334],[33.97191,-13.16964,982.7668],[33.96245,-13.16323,998.7138],[33.95579,-13.15703,1137.0303],[33.95031,-13.15046,1109.3113],[33.95145,-13.13356,1105.1204],[33.95052,-13.12395,1120.9492],[33.93946,-13.10494,1173.0717],[33.93388,-13.09703,1220.9973],[33.92892,-13.0915,1209.5052],[33.92179,-13.07191,1128.8861],[33.92085,-13.02277,893.1938],[33.84825,-13.05776,1189.6907],[33.84045,-13.06437,1188.0088],[33.83083,-13.07414,1054.8197],[33.82897,-13.08158,1026.3772],[33.8237,-13.09238,1014.7993],[33.81735,-13.09791,1026.5787],[33.80789,-13.10333,1033.2653],[33.79301,-13.10938,1040.5513],[33.77967,-13.11966,1026.2169],[33.77358,-13.127,1035.7191],[33.76086,-13.14948,1032.0238],[33.74087,-13.17222,1047.8256],[33.7297,-13.18147,1055.4106],[33.72004,-13.18679,1070.1769],[33.71275,-13.18958,1049.7736],[33.70934,-13.1947,1054.6091],[33.70686,-13.20209,1038.944],[33.7033,-13.20617,1037.7404],[33.69849,-13.2085,1035.8662],[33.68175,-13.2117,1057.4178],[33.6648,-13.21723,1057.6553],[33.65007,-13.22576,1041.145],[33.6341,-13.23263,1045.1642],[33.61891,-13.23397,1037.8275],[33.62682,-13.26942,1065.272],[33.63178,-13.27376,1077.2008],[33.63937,-13.27929,1090.3671],[33.651,-13.28549,1119.5508],[33.66511,-13.29619,1115.1335],[33.69151,-13.32198,1147.0835],[33.70562,-13.34198,1176.2383],[33.71725,-13.36244,1200.8666],[33.73916,-13.41768,1246.3987],[33.74211,-13.43117,1273.3003],[33.74474,-13.47613,1227.8654],[33.74784,-13.49334,1236.631],[33.75342,-13.50104,1230.6489],[33.75869,-13.50491,1227.5767],[33.76583,-13.50574,1226.2859],[33.81766,-13.50662,1261.391],[33.87212,-13.48827,1337.2504],[33.88344,-13.4861,1350.9426],[33.899,-13.48636,1364.8562],[33.91465,-13.48956,1365.4333],[33.93977,-13.49871,1323.9849],[33.95408,-13.50166,1398.7126],[33.9823,-13.49933,1247.3529],[33.9978,-13.4998,1214.2985],[34.05475,-13.52052,933.8131],[34.06472,-13.52222,862.127],[34.07309,-13.52228,851.4521],[34.07991,-13.52072,841.3758],[34.10767,-13.50941,756.0676],[34.11671,-13.5046,735.8468],[34.13361,-13.48962,695.1137],[34.12493,-13.35732,708.5727],[34.10441,-13.28022,663.0743],[34.10549,-13.26518,626.9579],[34.10953,-13.25206,645.3284],[34.11356,-13.24296,640.3956],[34.11454,-13.2349,631.5055],[34.10611,-13.18255,647.0651],[34.10317,-13.17222,691.811],[34.09774,-13.16452,675.2017],[34.08643,-13.16276,803.8512],[34.07712,-13.1625,947.8193],[34.0686,-13.16137,982.5774],[34.06286,-13.15661,908.9745],[34.05893,-13.1469,823.7609],[34.05883,-13.13713,772.3284],[34.06048,-13.12829,735.153],[34.06297,-13.12008,696.7453],[34.06441,-13.11191,705.7126],[34.06224,-13.1068,714.9116],[34.05738,-13.10643,735.34],[34.01522,-13.11904,811.2886],[34.01134,-13.12163,830.518],[34.00901,-13.12561,812.63],[34.00219,-13.15103,952.2901],[33.99873,-13.15904,919.3825],[33.99408,-13.16478,896.6612],[33.9871,-13.17036,913.637],[33.9792,-13.17196,977.0334]]]}}