{"type": "Feature","bbox": [33.6979,-13.5349,34.1272,-13.013],"geometry": {"type": "MultiPolygon","coordinates": [[[[34.0488,-13.5323,882.3801],[34.0519,-13.5336,871.7955],[34.056,-13.5322,871.2329],[34.0628,-13.5349,821.7753],[34.0735,-13.5317,795.9382],[34.0766,-13.5336,799.1239],[34.0803,-13.5334,772.3812],[34.0968,-13.5232,746.6339],[34.1025,-13.5213,735.8301],[34.1052,-13.5146,726.9167],[34.1095,-13.5153,725.2229],[34.1119,-13.5128,732.9693],[34.1156,-13.5123,717.1978],[34.1165,-13.5081,717.2922],[34.1203,-13.5063,715.7762],[34.1204,-13.5035,727.6579],[34.1272,-13.5029,700.9851],[34.114,-13.4508,689.9668],[34.1132,-13.4331,718.1429],[34.1051,-13.3691,773.6375],[34.1056,-13.364,773.5505],[34.111,-13.3541,721.5807],[34.1161,-13.3525,717.6898],[34.1193,-13.348,692.7557],[34.1158,-13.3402,679.1453],[34.1034,-13.3436,707.8311],[34.1017,-13.3169,699.693],[34.0978,-13.3152,706.7423],[34.0953,-13.3012,704.6782],[34.0888,-13.298,700.838],[34.0846,-13.2856,696.7913],[34.0838,-13.2783,699.7718],[34.0872,-13.2705,691.1738],[34.1014,-13.2667,659.3906],[34.1025,-13.2624,648.5055],[34.1065,-13.2624,636.8868],[34.1076,-13.2587,620.6306],[34.0871,-13.1624,803.8512],[34.0756,-13.1643,921.4446],[34.0672,-13.1678,980.6945],[34.0649,-13.1696,923.2921],[34.0639,-13.1777,947.7637],[34.0567,-13.1778,856.8708],[34.0555,-13.173,869.4752],[34.0514,-13.172,798.2267],[34.0502,-13.1694,806.688],[34.052,-13.161,752.6169],[34.0498,-13.1593,750.1488],[34.0509,-13.1453,721.9565],[34.0576,-13.1231,726.3737],[34.064,-13.1193,709.9352],[34.0528,-13.1161,747.9269],[34.0476,-13.1191,747.9957],[34.0457,-13.1239,781.7676],[34.0404,-13.1221,820.4622],[34.0359,-13.1229,859.1781],[34.031,-13.1283,884.0458],[34.0275,-13.1292,919.1095],[34.0248,-13.1237,897.6567],[34.0179,-13.1262,865.0026],[34.0129,-13.1252,832.7036],[34.0138,-13.1185,811.2886],[34.0101,-13.1139,797.8859],[34.0056,-13.1177,854.4103],[34.0056,-13.122,836.1689],[33.9997,-13.1231,873.6946],[34.0,-13.1257,860.1583],[33.9943,-13.1286,854.2095],[33.9973,-13.1315,829.8264],[33.9962,-13.137,890.3057],[33.9911,-13.1444,932.4336],[33.9936,-13.1483,885.0288],[33.9938,-13.1519,891.363],[33.9873,-13.1586,918.4656],[33.9907,-13.1649,901.5883],[33.9876,-13.1689,923.6231],[33.9841,-13.1691,947.2175],[33.9834,-13.1716,944.1958],[33.98,-13.1719,977.0334],[33.9773,-13.1795,1016.7124],[33.9714,-13.1765,964.0125],[33.9702,-13.1718,982.9874],[33.9636,-13.1711,1042.6418],[33.9554,-13.1673,1149.981],[33.9458,-13.171,1198.2302],[33.948,-13.1616,1176.6777],[33.9475,-13.1573,1166.6252],[33.9555,-13.1508,1172.2214],[33.9583,-13.1458,1144.6553],[33.9577,-13.1263,1148.7905],[33.956,-13.1254,1128.4377],[33.9539,-13.1274,1142.8594],[33.9445,-13.1235,1150.3534],[33.9416,-13.1187,1153.6416],[33.9427,-13.1137,1161.8486],[33.9403,-13.109,1165.5253],[33.9345,-13.1085,1118.0807],[33.9315,-13.1064,1135.1772],[33.9173,-13.105,1063.4081],[33.9144,-13.0975,1059.3164],[33.9174,-13.09,1031.3258],[33.9162,-13.0734,1007.8387],[33.9142,-13.0677,957.6647],[33.9157,-13.0646,978.2117],[33.9128,-13.064,961.7844],[33.9116,-13.0605,1006.2131],[33.9086,-13.0588,909.7397],[33.9151,-13.0252,864.4982],[33.9185,-13.0197,868.8091],[33.9185,-13.0135,926.175],[33.916,-13.0157,870.1387],[33.9108,-13.013,953.6272],[33.9051,-13.0139,1031.9352],[33.8934,-13.0199,926.3075],[33.8879,-13.0328,959.7435],[33.8728,-13.0344,1064.6624],[33.8665,-13.0394,1042.7917],[33.865,-13.043,988.7383],[33.858,-13.0499,963.4758],[33.8508,-13.0473,1069.5247],[33.8423,-13.0466,1071.3901],[33.8331,-13.0521,1021.8287],[33.8194,-13.0574,1009.489],[33.8184,-13.0637,1015.1996],[33.8201,-13.0685,1008.6284],[33.8186,-13.0757,1017.9798],[33.8251,-13.0832,1007.906],[33.8184,-13.0915,1019.484],[33.8149,-13.0913,1017.2167],[33.8117,-13.0889,1036.9689],[33.8087,-13.0908,1034.782],[33.8079,-13.0945,1022.9318],[33.7983,-13.0912,1034.6984],[33.7882,-13.0935,1039.0077],[33.7747,-13.1113,1027.5238],[33.7654,-13.1117,1030.2729],[33.7587,-13.118,1031.4626],[33.7609,-13.1242,1026.2681],[33.7579,-13.1278,1025.0465],[33.7566,-13.1345,1017.0307],[33.76,-13.1471,1022.8817],[33.7498,-13.1534,1035.1179],[33.7443,-13.1519,1042.4351],[33.7415,-13.153,1043.7202],[33.7252,-13.1697,1031.8826],[33.7185,-13.1696,1034.2037],[33.7128,-13.1753,1035.0444],[33.7017,-13.178,1037.8795],[33.6982,-13.1861,1049.1058],[33.6979,-13.1912,1046.5737],[33.7009,-13.197,1024.6331],[33.7061,-13.1978,1038.1205],[33.708,-13.2,1037.3311],[33.7112,-13.2002,1052.2952],[33.7124,-13.2024,1042.8508],[33.7039,-13.2163,1064.5618],[33.7017,-13.2229,1064.6337],[33.7036,-13.2238,1057.1045],[33.7054,-13.2335,1064.0962],[33.7075,-13.233,1064.3318],[33.7092,-13.2355,1077.3707],[33.7104,-13.2421,1068.4663],[33.7092,-13.2515,1074.4933],[33.7057,-13.2585,1086.7821],[33.7083,-13.2676,1084.9758],[33.708,-13.2815,1103.5398],[33.7103,-13.2826,1097.2799],[33.7124,-13.2875,1101.9248],[33.7175,-13.2913,1110.5841],[33.7165,-13.2961,1110.3076],[33.7187,-13.2972,1108.0594],[33.7177,-13.3001,1111.1648],[33.7216,-13.3036,1119.1538],[33.7208,-13.3091,1118.822],[33.7226,-13.3135,1122.3003],[33.7189,-13.3175,1134.4272],[33.7212,-13.3282,1134.7161],[33.7262,-13.3327,1148.2288],[33.7315,-13.3455,1154.7643],[33.7369,-13.3506,1158.9297],[33.7429,-13.362,1169.6257],[33.7479,-13.3645,1177.1318],[33.7498,-13.369,1180.0879],[33.7552,-13.3747,1195.3308],[33.7616,-13.3789,1206.3289],[33.7647,-13.3854,1211.5272],[33.7748,-13.3946,1225.988],[33.7772,-13.4019,1235.8363],[33.7835,-13.4098,1250.9543],[33.7845,-13.418,1263.9762],[33.789,-13.4217,1286.1936],[33.7886,-13.4311,1294.0143],[33.7941,-13.4384,1318.5011],[33.7907,-13.4433,1297.8066],[33.7893,-13.4568,1282.4402],[33.8014,-13.4609,1302.8105],[33.8103,-13.4689,1280.5464],[33.8211,-13.4839,1297.8999],[33.8336,-13.5113,1262.5222],[33.8567,-13.5004,1298.5513],[33.8613,-13.5025,1308.163],[33.8744,-13.5036,1314.8876],[33.8823,-13.5018,1321.8733],[33.8937,-13.4942,1333.6194],[33.9175,-13.4843,1398.0975],[33.9216,-13.4791,1392.37],[33.9285,-13.4814,1404.3712],[33.9319,-13.4863,1367.8568],[33.9319,-13.4904,1354.0372],[33.9348,-13.4949,1348.3226],[33.9367,-13.4944,1344.1279],[33.9423,-13.4999,1309.9575],[33.9435,-13.5072,1299.3396],[33.9484,-13.5086,1271.9595],[33.95,-13.5113,1249.1689],[33.9565,-13.5144,1240.052],[33.9606,-13.5136,1234.4567],[33.9716,-13.506,1298.9523],[33.9789,-13.5087,1166.9224],[33.9899,-13.5018,1231.38],[34.0016,-13.4988,1099.7208],[34.0045,-13.4967,1111.5439],[34.0088,-13.5004,1096.1986],[34.0134,-13.5004,1080.9813],[34.0225,-13.4945,1037.4779],[34.0254,-13.4997,1078.152],[34.0219,-13.5023,1088.3605],[34.0221,-13.5037,1087.509],[34.0337,-13.5059,972.4518],[34.031,-13.5233,1027.3895],[34.0349,-13.5257,944.2535],[34.0392,-13.5252,954.8612],[34.0421,-13.5289,984.6411],[34.0463,-13.5279,907.5007],[34.0488,-13.5323,882.3801]]]]}
,"properties": {"GID_1": "MWI.23_1","GID_0": "MWI","country": "Malawi","province": "Ntchisi","VARNAME_1": "Nchisi","NL_NAME_1": "NA","TYPE_1": "District","ENGTYPE_1": "District","CC_1": "NA","HASC_1": "MW.NI","ISO_1": "MW-NI","name": "Ntchisi.province","area_km2": 1726.028,"hist_schema_id": "Elevation0-9000","hist_area_km2": {"625": 0.31,"650": 2.188,"675": 5.118,"700": 14.98,"725": 25.232,"750": 28.407,"775": 29.417,"800": 27.623,"825": 28.202,"850": 28.494,"875": 29.589,"900": 30.748,"925": 31.656,"950": 36.922,"975": 43.589,"1000": 57.399,"1025": 81.557,"1050": 98.981,"1075": 109.403,"1100": 104.273,"1125": 97.557,"1150": 80.668,"1175": 79.568,"1200": 72.134,"1225": 74.523,"1250": 74.23,"1275": 68.632,"1300": 65.404,"1325": 63.256,"1350": 56.324,"1375": 41.432,"1400": 31.78,"1425": 28.273,"1450": 23.118,"1475": 18.539,"1500": 14.58,"1525": 8.332,"1550": 5.073,"1575": 3.671,"1600": 2.475,"1625": 1.237,"1650": 0.578,"1675": 0.433,"1700": 0.124}}}