{"type":"Feature","properties":{"GID_3":"MWI.27.4.9_1","GID_0":"MWI","country":"Malawi","GID_1":"MWI.27_1","province":"Thyolo","NL_NAME_1":"NA","GID_2":"MWI.27.4_1","county":"SCMphuka","NL_NAME_2":"NA","city":"n.a.(2876)","VARNAME_3":"NA","NL_NAME_3":"NA","TYPE_3":"Unknown","ENGTYPE_3":"Unknown","CC_3":"NA","HASC_3":"NA","name":"n.a.(2876).city"},
"geometry":{"type": "MultiPolygon","coordinates": [[[[35.029,-16.0763,1135.2726],[35.0205,-16.0886,775.4734],[35.0164,-16.0902,675.3278],[35.0123,-16.0952,541.1075],[35.0082,-16.0958,451.917],[35.0122,-16.0998,505.0837],[35.0165,-16.1015,644.8522],[35.0173,-16.107,554.5828],[35.0212,-16.1108,486.7998],[35.0175,-16.1194,398.3788],[35.0259,-16.1198,412.8309],[35.0268,-16.1154,524.0159],[35.0307,-16.1128,686.8821],[35.0332,-16.1058,897.7427],[35.0406,-16.0966,1106.2054],[35.0477,-16.0918,1129.3279],[35.0454,-16.0874,1135.2764],[35.0399,-16.0886,1079.6666],[35.0334,-16.0834,1164.6528],[35.029,-16.0763,1135.2726]]]]}}