{"type":"Feature","properties":{"GID_3":"MWI.4.5.15_1","GID_0":"MWI","country":"Malawi","GID_1":"MWI.4_1","province":"Chiradzulu","NL_NAME_1":"NA","GID_2":"MWI.4.5_1","county":"TAMpama","NL_NAME_2":"NA","city":"n.a.(2498)","VARNAME_3":"NA","NL_NAME_3":"NA","TYPE_3":"Unknown","ENGTYPE_3":"Unknown","CC_3":"NA","HASC_3":"NA","name":"n.a.(2498).city"},
"geometry":{"type": "MultiPolygon","coordinates": [[[[35.2203,-15.7268,865.4804],[35.217,-15.7281,882.1445],[35.2134,-15.7332,873.6622],[35.2037,-15.7364,889.1901],[35.2059,-15.7405,885.8237],[35.2092,-15.7415,879.0295],[35.2072,-15.7446,883.4066],[35.2094,-15.7474,899.6945],[35.2071,-15.7512,910.325],[35.2022,-15.749,896.0504],[35.1987,-15.7494,896.2445],[35.1915,-15.7571,916.8918],[35.1896,-15.7571,923.6027],[35.1864,-15.7631,946.5299],[35.1928,-15.7674,923.3275],[35.1966,-15.7636,917.9833],[35.2027,-15.7681,960.4333],[35.2131,-15.7583,906.1271],[35.2172,-15.7506,892.8071],[35.2231,-15.7469,879.4384],[35.2289,-15.7362,862.312],[35.2288,-15.7344,864.4133],[35.2216,-15.7298,876.2448],[35.2203,-15.7268,865.4804]]]]}}