{"type": "Feature","bbox": [33.3364,-12.0084,33.4873,-11.9467],"geometry": {"type": "MultiPolygon","coordinates": [[[[33.3663,-11.9493,1181.6315],[33.3585,-11.9511,1183.9889],[33.3548,-11.9467,1184.9175],[33.3515,-11.9476,1187.6001],[33.3557,-11.9522,1183.2212],[33.3565,-11.9568,1182.1626],[33.3552,-11.9604,1181.4463],[33.3513,-11.9629,1181.5181],[33.346,-11.9608,1184.4927],[33.3457,-11.9626,1184.7458],[33.348,-11.9641,1184.0786],[33.3469,-11.9673,1181.2257],[33.3437,-11.9693,1182.402],[33.3364,-11.9808,1190.2684],[33.3391,-11.983,1185.5718],[33.3364,-11.9863,1184.744],[33.3376,-11.9889,1183.9104],[33.3375,-12.0011,1185.1613],[33.3737,-12.0084,1192.24],[33.4114,-12.0052,1228.798],[33.4318,-11.9962,1254.7382],[33.4533,-12.0002,1274.114],[33.4627,-12.0082,1285.21],[33.4674,-12.0064,1300.6169],[33.4749,-12.0079,1317.2847],[33.4873,-11.9977,1321.4569],[33.4835,-11.9844,1303.3717],[33.4768,-11.9789,1303.4636],[33.4611,-11.9803,1284.228],[33.4507,-11.979,1257.1907],[33.4423,-11.9847,1256.9153],[33.4379,-11.9809,1253.2506],[33.4224,-11.9735,1223.4807],[33.4236,-11.9578,1237.1315],[33.372,-11.9555,1184.2225],[33.3686,-11.9501,1183.1686],[33.3663,-11.9493,1181.6315]]]]}
,"properties": {"GID_3": "MWI.17.7.14_1","GID_0": "MWI","country": "Malawi","GID_1": "MWI.17_1","province": "Mzimba","NL_NAME_1": "NA","GID_2": "MWI.17.7_1","county": "TAM'Mbelwa","NL_NAME_2": "NA","city": "n.a.(289)","VARNAME_3": "NA","NL_NAME_3": "NA","TYPE_3": "Unknown","ENGTYPE_3": "Unknown","CC_3": "NA","HASC_3": "NA","name": "n.a.(289).city","area_km2": 65.64258,"hist_schema_id": "Elevation0-9000","hist_area_km2": {"1175": 12.83889,"1200": 27.16939,"1225": 8.856,"1250": 4.87385,"1275": 4.45903,"1300": 4.66638,"1325": 2.77904}}}