{"type":"Feature","properties":{"GID_3":"MWI.7.6.7_1","GID_0":"MWI","country":"Malawi","GID_1":"MWI.7_1","province":"Dowa","NL_NAME_1":"NA","GID_2":"MWI.7.6_1","county":"SCMponela","NL_NAME_2":"NA","city":"n.a.(752)","VARNAME_3":"NA","NL_NAME_3":"NA","TYPE_3":"Unknown","ENGTYPE_3":"Unknown","CC_3":"NA","HASC_3":"NA","name":"n.a.(752).city"},
"geometry":{"type": "MultiPolygon","coordinates": [[[[33.7523,-13.6109,1285.9398],[33.7548,-13.6123,1289.1593],[33.7566,-13.6165,1299.9711],[33.7553,-13.626,1307.79],[33.7462,-13.6364,1322.5548],[33.7606,-13.6396,1341.7695],[33.7628,-13.6398,1340.5214],[33.7626,-13.6351,1335.0774],[33.7686,-13.6354,1318.115],[33.7691,-13.6292,1312.1478],[33.7798,-13.6272,1334.026],[33.7887,-13.6216,1331.4257],[33.798,-13.6197,1345.0629],[33.7961,-13.6132,1325.3793],[33.7743,-13.6109,1299.6456],[33.7837,-13.5959,1264.3602],[33.7822,-13.5903,1275.8385],[33.7788,-13.5935,1284.2152],[33.7721,-13.596,1286.5457],[33.7583,-13.5925,1315.8463],[33.7596,-13.6043,1294.2762],[33.7523,-13.6109,1285.9398]]]]}}