{"type":"Feature","properties":{"GID_3":"MWI.21.11.3_1","GID_0":"MWI","country":"Malawi","GID_1":"MWI.21_1","province":"Nsanje","NL_NAME_1":"NA","GID_2":"MWI.21.11_1","county":"TATengani","NL_NAME_2":"NA","city":"n.a.(3089)","VARNAME_3":"NA","NL_NAME_3":"NA","TYPE_3":"Unknown","ENGTYPE_3":"Unknown","CC_3":"NA","HASC_3":"NA","name":"n.a.(3089).city"},
"geometry":{"type": "MultiPolygon","coordinates": [[[[35.2416,-16.7135,74.9153],[35.2853,-16.7154,42.0176],[35.2793,-16.7061,42.1424],[35.2613,-16.6922,42.0245],[35.2554,-16.6805,45.3014],[35.2417,-16.6804,45.3824],[35.2397,-16.6829,48.503],[35.2368,-16.6936,59.9025],[35.2324,-16.7004,70.0577],[35.2416,-16.7135,74.9153]]]]}}