{"type": "Feature","bbox": [35.7234,-15.6431,35.7618,-15.6083],"geometry": {"type": "MultiPolygon","coordinates": [[[[35.725,-15.6416,647.0529],[35.7317,-15.6431,647.6658],[35.7407,-15.6368,642.0721],[35.7545,-15.6379,636.2592],[35.7618,-15.6411,635.2541],[35.7594,-15.6293,636.5201],[35.7544,-15.6249,636.9402],[35.7542,-15.6222,637.7782],[35.7496,-15.6166,636.1046],[35.7497,-15.6147,635.4446],[35.7479,-15.6141,634.7677],[35.7484,-15.6117,637.0966],[35.7417,-15.6143,634.2654],[35.7381,-15.6133,634.1926],[35.7318,-15.6083,632.996],[35.7288,-15.6087,632.8492],[35.7277,-15.6123,632.5613],[35.7294,-15.6206,638.9778],[35.7234,-15.6265,641.8337],[35.725,-15.6322,643.1856],[35.7235,-15.6372,644.8199],[35.725,-15.6416,647.0529]]]]}
,"properties": {"GID_3": "MWI.24.2.17_1","GID_0": "MWI","country": "Malawi","GID_1": "MWI.24_1","province": "Phalombe","NL_NAME_1": "NA","GID_2": "MWI.24.2_1","county": "TAMkhumba","NL_NAME_2": "NA","city": "n.a.(2374)","VARNAME_3": "NA","NL_NAME_3": "NA","TYPE_3": "Unknown","ENGTYPE_3": "Unknown","CC_3": "NA","HASC_3": "NA","name": "n.a.(2374).city","area_km2": 9.780442,"hist_schema_id": "Elevation0-9000","hist_area_km2": {"625": 4.145053,"650": 5.512877,"675": 0.081674,"700": 0.020419,"725": 0.020419}}}