{"type":"Feature","properties":{"GID_3":"MWI.15.8.2_1","GID_0":"MWI","country":"Malawi","GID_1":"MWI.15_1","province":"Mulanje","NL_NAME_1":"NA","GID_2":"MWI.15.8_1","county":"TANthiramanja","NL_NAME_2":"NA","city":"n.a.(2690)","VARNAME_3":"NA","NL_NAME_3":"NA","TYPE_3":"Unknown","ENGTYPE_3":"Unknown","CC_3":"NA","HASC_3":"NA","name":"n.a.(2690).city"},
"geometry":{"type": "MultiPolygon","coordinates": [[[[35.3086,-15.9751,673.7805],[35.3056,-15.9836,668.1602],[35.3126,-15.9871,671.1155],[35.3187,-15.9792,696.2939],[35.3138,-15.9764,683.7994],[35.314,-15.974,682.6551],[35.319,-15.9715,682.0522],[35.3191,-15.9688,673.8097],[35.3263,-15.9604,679.3452],[35.3332,-15.9612,683.0893],[35.3371,-15.9579,676.4022],[35.3366,-15.9535,678.3281],[35.3445,-15.9502,680.1365],[35.3431,-15.9428,687.5096],[35.3251,-15.9333,706.924],[35.3239,-15.951,710.8503],[35.3145,-15.9629,687.9564],[35.3086,-15.9751,673.7805]]]]}}