{"type":"Feature","properties":{"GID_3":"MWI.28.6.9_1","GID_0":"MWI","country":"Malawi","GID_1":"MWI.28_1","province":"Zomba","NL_NAME_1":"NA","GID_2":"MWI.28.6_1","county":"TAMalemia","NL_NAME_2":"NA","city":"n.a.(2083)","VARNAME_3":"NA","NL_NAME_3":"NA","TYPE_3":"Unknown","ENGTYPE_3":"Unknown","CC_3":"NA","HASC_3":"NA","name":"n.a.(2083).city"},
"geometry":{"type": "MultiPolygon","coordinates": [[[[35.3679,-15.2792,842.9438],[35.3754,-15.2777,802.4204],[35.3785,-15.2796,801.7634],[35.3822,-15.2733,791.7536],[35.3861,-15.2721,778.4026],[35.3897,-15.2678,768.0159],[35.3961,-15.2665,753.371],[35.4016,-15.2701,742.1625],[35.407,-15.2705,719.2189],[35.4048,-15.2754,736.9432],[35.4064,-15.2782,739.8275],[35.405,-15.2816,740.9502],[35.4057,-15.2888,748.4123],[35.4073,-15.2897,748.5072],[35.4145,-15.2767,730.9561],[35.4205,-15.2557,710.3759],[35.414,-15.2544,692.0896],[35.4085,-15.2584,711.2266],[35.4044,-15.255,703.8774],[35.3885,-15.2594,760.7615],[35.3777,-15.2676,786.8557],[35.3758,-15.2708,782.1523],[35.3681,-15.2746,858.3483],[35.3679,-15.2792,842.9438]]]]}}