{"type":"Feature","properties":{"GID_3":"MWI.2.2.8_1","GID_0":"MWI","country":"Malawi","GID_1":"MWI.2_1","province":"Blantyre","NL_NAME_1":"NA","GID_2":"MWI.2.2_1","county":"TAChigaru","NL_NAME_2":"NA","city":"n.a.(2209)","VARNAME_3":"NA","NL_NAME_3":"NA","TYPE_3":"Unknown","ENGTYPE_3":"Unknown","CC_3":"NA","HASC_3":"NA","name":"n.a.(2209).city"},
"geometry":{"type": "MultiPolygon","coordinates": [[[[34.8638,-15.4459,395.3375],[34.8637,-15.4487,396.2509],[34.8665,-15.4522,392.0552],[34.8594,-15.468,383.5117],[34.8593,-15.4754,382.2949],[34.8513,-15.4837,392.9929],[34.8549,-15.4867,383.2198],[34.8612,-15.4988,395.0841],[34.863,-15.4988,406.8699],[34.8667,-15.4946,436.7308],[34.8748,-15.4994,435.7369],[34.881,-15.4975,449.1962],[34.8867,-15.5019,447.8224],[34.8902,-15.5075,439.3151],[34.894,-15.505,446.0701],[34.8957,-15.4996,458.4845],[34.9018,-15.4931,474.2332],[34.9045,-15.4801,519.7375],[34.9124,-15.469,543.4232],[34.9163,-15.4803,524.1254],[34.9115,-15.4845,506.5737],[34.9126,-15.4899,497.8398],[34.9106,-15.501,482.3206],[34.9148,-15.507,458.5471],[34.9159,-15.5046,466.9541],[34.9211,-15.5027,474.5922],[34.9274,-15.4943,483.9549],[34.9265,-15.4857,490.2935],[34.9306,-15.4799,503.5845],[34.9391,-15.4765,506.5836],[34.9398,-15.4733,502.7269],[34.9434,-15.4692,510.9366],[34.9421,-15.465,513.8175],[34.9371,-15.4643,517.508],[34.919,-15.4485,523.6342],[34.9136,-15.4596,549.8504],[34.9116,-15.4545,521.8809],[34.9071,-15.4511,513.0218],[34.9032,-15.4509,505.5647],[34.8931,-15.4546,499.796],[34.8638,-15.4459,395.3375]]]]}}