{"type": "Feature","bbox": [35.0676,-14.292,35.1036,-14.2415],"geometry": {"type": "MultiPolygon","coordinates": [[[[35.0827,-14.2415,477.246],[35.079,-14.2464,485.4077],[35.0737,-14.2472,487.9736],[35.0676,-14.257,493.5769],[35.0706,-14.2604,494.2276],[35.0706,-14.2721,502.7501],[35.0818,-14.2767,492.5056],[35.085,-14.2825,508.6623],[35.0829,-14.2841,501.2958],[35.0755,-14.2824,509.4256],[35.0699,-14.2897,517.5254],[35.0893,-14.292,497.344],[35.1004,-14.2852,483.9912],[35.1036,-14.279,479.5322],[35.0998,-14.2712,475.41],[35.0953,-14.2677,474.5],[35.0884,-14.2658,474.9414],[35.0858,-14.2619,478.5353],[35.086,-14.2573,474.5],[35.0841,-14.2553,486.2903],[35.0863,-14.2501,478.7031],[35.0827,-14.2415,477.246]]]]}
,"properties": {"GID_3": "MWI.13.13.13_1","GID_0": "MWI","country": "Malawi","GID_1": "MWI.13_1","province": "Mangochi","NL_NAME_1": "NA","GID_2": "MWI.13.13_1","county": "TANankumba","NL_NAME_2": "NA","city": "n.a.(1400)","VARNAME_3": "NA","NL_NAME_3": "NA","TYPE_3": "Unknown","ENGTYPE_3": "Unknown","CC_3": "NA","HASC_3": "NA","name": "n.a.(1400).city","area_km2": 10.705483,"hist_schema_id": "Elevation0-9000","hist_area_km2": {"475": 5.48638,"500": 5.034182,"525": 0.184921}}}