{"type":"Feature","properties":{"GID_3":"MWI.6.8.16_1","GID_0":"MWI","country":"Malawi","GID_1":"MWI.6_1","province":"Dedza","NL_NAME_1":"NA","GID_2":"MWI.6.8_1","county":"TAKasumbu","NL_NAME_2":"NA","city":"n.a.(1417)","VARNAME_3":"NA","NL_NAME_3":"NA","TYPE_3":"Unknown","ENGTYPE_3":"Unknown","CC_3":"NA","HASC_3":"NA","name":"n.a.(1417).city"},
"geometry":{"type": "MultiPolygon","coordinates": [[[[34.2758,-14.2933,1574.3606],[34.2779,-14.2939,1571.2083],[34.2785,-14.2998,1579.8053],[34.2819,-14.3054,1559.9443],[34.2801,-14.3124,1573.1677],[34.2818,-14.3185,1588.7603],[34.2901,-14.3248,1620.6989],[34.3043,-14.3044,1565.5452],[34.2992,-14.299,1543.3953],[34.2879,-14.2916,1530.0385],[34.292,-14.2838,1518.3013],[34.291,-14.2724,1509.5753],[34.2939,-14.2615,1505.5964],[34.2916,-14.2579,1507.295],[34.2848,-14.2656,1530.8506],[34.2724,-14.2684,1555.8862],[34.2754,-14.2826,1583.1688],[34.2758,-14.2933,1574.3606]]]]}}