{"type": "Feature","bbox": [33.6199,-11.7832,33.7177,-11.7002],"geometry": {"type": "MultiPolygon","coordinates": [[[[33.6209,-11.7551,1341.2368],[33.626,-11.7597,1327.7047],[33.6266,-11.7681,1357.9382],[33.6297,-11.7709,1345.3284],[33.6334,-11.7704,1363.7345],[33.6352,-11.7723,1354.6959],[33.6432,-11.7699,1388.8907],[33.6476,-11.7716,1401.5111],[33.6544,-11.7713,1401.3065],[33.6615,-11.774,1422.2628],[33.6638,-11.777,1420.9722],[33.6729,-11.7738,1442.2838],[33.6775,-11.769,1481.9438],[33.6895,-11.7653,1520.9369],[33.6888,-11.7697,1512.0316],[33.6914,-11.7776,1553.28],[33.6971,-11.7785,1547.0201],[33.7035,-11.7832,1522.5796],[33.7059,-11.781,1492.5219],[33.7064,-11.7718,1456.7979],[33.7125,-11.7658,1403.2384],[33.7111,-11.7593,1385.1934],[33.7174,-11.7603,1418.2438],[33.7176,-11.7547,1476.2897],[33.7123,-11.7538,1415.6165],[33.7101,-11.7497,1400.3822],[33.712,-11.7478,1405.6986],[33.7163,-11.7498,1425.7659],[33.7177,-11.7457,1497.4808],[33.7043,-11.7383,1374.4762],[33.7038,-11.7346,1420.6978],[33.7005,-11.7332,1381.4607],[33.6991,-11.7287,1498.6562],[33.6962,-11.7294,1372.6829],[33.6952,-11.7338,1368.8032],[33.6924,-11.7362,1389.6864],[33.6881,-11.7384,1403.6167],[33.6856,-11.7362,1411.3031],[33.6821,-11.7418,1439.1245],[33.6818,-11.7373,1440.3071],[33.673,-11.7316,1458.0913],[33.6692,-11.7249,1446.6714],[33.6512,-11.7142,1423.1226],[33.6454,-11.7002,1401.7717],[33.6394,-11.7179,1449.7063],[33.6298,-11.7175,1426.2667],[33.6214,-11.7264,1393.8091],[33.6231,-11.7345,1363.6184],[33.6199,-11.7498,1357.1376],[33.6214,-11.7518,1335.4426],[33.6209,-11.7551,1341.2368]]]]}
,"properties": {"GID_3": "MWI.17.4.7_1","GID_0": "MWI","country": "Malawi","GID_1": "MWI.17_1","province": "Mzimba","NL_NAME_1": "NA","GID_2": "MWI.17.4_1","county": "SCKampingoSibande","NL_NAME_2": "NA","city": "n.a.(250)","VARNAME_3": "NA","NL_NAME_3": "NA","TYPE_3": "Unknown","ENGTYPE_3": "Unknown","CC_3": "NA","HASC_3": "NA","name": "n.a.(250).city","area_km2": 51.48003,"hist_schema_id": "Elevation0-9000","hist_area_km2": {"1325": 0.53969,"1350": 2.34562,"1375": 6.60108,"1400": 8.94672,"1425": 11.14724,"1450": 10.91902,"1475": 5.31397,"1500": 2.80221,"1525": 1.78511,"1550": 0.93406,"1575": 0.12454,"1600": 0.02076}}}