{"type": "Feature","bbox": [35.4857,-15.4988,35.5203,-15.4676],"geometry": {"type": "MultiPolygon","coordinates": [[[[35.5094,-15.4676,663.2234],[35.5038,-15.47,662.9973],[35.4942,-15.4698,680.1505],[35.4857,-15.4738,709.2241],[35.4883,-15.4837,685.8879],[35.4925,-15.4832,668.7366],[35.4938,-15.4935,677.5959],[35.4936,-15.4952,679.0887],[35.4889,-15.4962,679.8882],[35.4883,-15.4988,683.076],[35.506,-15.497,673.5496],[35.5157,-15.4925,669.0771],[35.5161,-15.4869,666.6931],[35.5201,-15.4805,664.3231],[35.5188,-15.4764,657.9114],[35.5203,-15.4718,658.6621],[35.5174,-15.4682,657.5229],[35.5094,-15.4676,663.2234]]]]}
,"properties": {"GID_3": "MWI.28.8.26_1","GID_0": "MWI","country": "Malawi","GID_1": "MWI.28_1","province": "Zomba","NL_NAME_1": "NA","GID_2": "MWI.28.8_1","county": "TAMwambo","NL_NAME_2": "NA","city": "n.a.(2229)","VARNAME_3": "NA","NL_NAME_3": "NA","TYPE_3": "Unknown","ENGTYPE_3": "Unknown","CC_3": "NA","HASC_3": "NA","name": "n.a.(2229).city","area_km2": 9.133495,"hist_schema_id": "Elevation0-9000","hist_area_km2": {"650": 1.655127,"675": 7.171866,"700": 0.306502}}}