{"type":"Feature","properties":{"GID_3":"MWI.7.4.16_1","GID_0":"MWI","country":"Malawi","GID_1":"MWI.7_1","province":"Dowa","NL_NAME_1":"NA","GID_2":"MWI.7.4_1","county":"SCKayembe","NL_NAME_2":"NA","city":"n.a.(813)","VARNAME_3":"NA","NL_NAME_3":"NA","TYPE_3":"Unknown","ENGTYPE_3":"Unknown","CC_3":"NA","HASC_3":"NA","name":"n.a.(813).city"},
"geometry":{"type": "MultiPolygon","coordinates": [[[[33.6579,-13.6945,1294.0459],[33.6953,-13.689,1297.0577],[33.7004,-13.6877,1281.6785],[33.7012,-13.6849,1287.8026],[33.6984,-13.6796,1308.5065],[33.6855,-13.6697,1334.5822],[33.6711,-13.6711,1323.4387],[33.6591,-13.6634,1340.8118],[33.6456,-13.6578,1319.2338],[33.6408,-13.6582,1314.9944],[33.6341,-13.6619,1300.4312],[33.6309,-13.6651,1299.7639],[33.6351,-13.6687,1296.9084],[33.6396,-13.6767,1280.8143],[33.6389,-13.6811,1273.9543],[33.6484,-13.6838,1282.6527],[33.6528,-13.6903,1299.1892],[33.6569,-13.6923,1293.0189],[33.6579,-13.6945,1294.0459]]]]}}