{"type":"Feature","properties":{"GID_3":"MWI.22.7.1_1","GID_0":"MWI","country":"Malawi","GID_1":"MWI.22_1","province":"Ntcheu","NL_NAME_1":"NA","GID_2":"MWI.22.7_1","county":"TAMasasa","NL_NAME_2":"NA","city":"n.a.(1472)","VARNAME_3":"NA","NL_NAME_3":"NA","TYPE_3":"Unknown","ENGTYPE_3":"Unknown","CC_3":"NA","HASC_3":"NA","name":"n.a.(1472).city"},
"geometry":{"type": "MultiPolygon","coordinates": [[[[34.703,-14.3392,489.4418],[34.7043,-14.354,494.1337],[34.7122,-14.3657,496.0866],[34.7232,-14.3905,504.5002],[34.7161,-14.3998,509.835],[34.714,-14.4141,514.4475],[34.7095,-14.4207,516.6447],[34.714,-14.4283,517.2881],[34.7141,-14.4343,520.0393],[34.7113,-14.4567,526.6968],[34.7073,-14.4617,529.9254],[34.7142,-14.4632,528.1514],[34.73,-14.4633,529.4982],[34.734,-14.4617,526.6059],[34.7421,-14.4545,522.9787],[34.7584,-14.4513,522.6249],[34.7579,-14.4373,516.406],[34.7537,-14.4331,516.7481],[34.7558,-14.4155,511.5426],[34.7562,-14.3895,502.9199],[34.7494,-14.3798,498.9059],[34.7521,-14.3722,495.9561],[34.7502,-14.3642,494.6008],[34.75,-14.3534,491.2813],[34.743,-14.3428,488.1774],[34.74,-14.3256,485.3665],[34.7399,-14.3107,480.5612],[34.703,-14.3392,489.4418]]]]}}