{"type":"Feature","properties":{"GID_3":"MWI.2.9.19_1","GID_0":"MWI","country":"Malawi","GID_1":"MWI.2_1","province":"Blantyre","NL_NAME_1":"NA","GID_2":"MWI.2.9_1","county":"TASomba","NL_NAME_2":"NA","city":"n.a.(2681)","VARNAME_3":"NA","NL_NAME_3":"NA","TYPE_3":"Unknown","ENGTYPE_3":"Unknown","CC_3":"NA","HASC_3":"NA","name":"n.a.(2681).city"},
"geometry":{"type": "MultiPolygon","coordinates": [[[[34.9475,-15.9268,927.6439],[34.9473,-15.9346,994.8005],[34.9428,-15.9337,956.9997],[34.9356,-15.9357,853.0795],[34.9293,-15.9414,705.0818],[34.9356,-15.9502,653.8572],[34.938,-15.9514,637.2502],[34.9395,-15.9558,626.2746],[34.9367,-15.9584,616.0741],[34.9311,-15.9571,588.7738],[34.9202,-15.9616,489.7329],[34.9204,-15.9631,483.2454],[34.9249,-15.9631,492.6318],[34.9293,-15.9665,580.7867],[34.9366,-15.9679,616.3145],[34.9393,-15.9727,628.4086],[34.9384,-15.9781,678.2245],[34.9497,-15.9838,445.1689],[34.9517,-15.9773,405.8832],[34.9478,-15.9737,462.9311],[34.9498,-15.9718,479.6103],[34.9546,-15.9713,440.8459],[34.9534,-15.9641,477.9965],[34.9569,-15.9637,570.4716],[34.9634,-15.9584,551.4287],[34.962,-15.9446,694.9826],[34.9648,-15.9421,647.3138],[34.9637,-15.9394,696.6015],[34.9657,-15.9395,653.468],[34.9652,-15.9359,713.5745],[34.9686,-15.9362,686.7346],[34.9698,-15.9326,677.2858],[34.9663,-15.9212,809.8595],[34.9633,-15.9179,846.0344],[34.955,-15.9197,912.797],[34.9562,-15.9261,844.0611],[34.9475,-15.9268,927.6439]]]]}}