{"type": "Feature","bbox": [34.8856,-15.8171,34.9782,-15.7743],"geometry": {"type": "MultiPolygon","coordinates": [[[[34.9773,-15.7861,1030.5356],[34.9729,-15.7882,1025.8483],[34.9711,-15.7934,1004.1091],[34.9672,-15.7977,933.4716],[34.9617,-15.7961,866.5795],[34.9568,-15.7907,801.5758],[34.9558,-15.7805,774.6022],[34.9524,-15.7794,737.325],[34.9541,-15.7751,760.6038],[34.952,-15.7743,746.0389],[34.9478,-15.7763,724.6442],[34.948,-15.7816,710.8957],[34.9411,-15.7814,725.0647],[34.9361,-15.784,714.8057],[34.9262,-15.7822,636.8124],[34.9216,-15.7837,621.8219],[34.9187,-15.7894,602.7796],[34.9143,-15.7912,584.4119],[34.9074,-15.7912,573.0464],[34.9011,-15.7959,583.2117],[34.8965,-15.797,568.2509],[34.8902,-15.8032,526.9478],[34.8856,-15.8131,491.7184],[34.8952,-15.8153,655.3867],[34.9024,-15.8088,937.2003],[34.917,-15.8123,724.9507],[34.9363,-15.8079,730.4594],[34.9536,-15.8171,933.4901],[34.9697,-15.8012,950.2237],[34.9737,-15.795,987.2787],[34.9736,-15.7904,1032.5264],[34.9782,-15.7887,1095.2395],[34.9773,-15.7861,1030.5356]]]]}
,"properties": {"GID_3": "MWI.2.4.20_1","GID_0": "MWI","country": "Malawi","GID_1": "MWI.2_1","province": "Blantyre","NL_NAME_1": "NA","GID_2": "MWI.2.4_1","county": "TAKuntaja","NL_NAME_2": "NA","city": "n.a.(2545)","VARNAME_3": "NA","NL_NAME_3": "NA","TYPE_3": "Unknown","ENGTYPE_3": "Unknown","CC_3": "NA","HASC_3": "NA","name": "n.a.(2545).city","area_km2": 22.01296,"hist_schema_id": "Elevation0-9000","hist_area_km2": {"475": 0.0204,"500": 0.0612,"525": 0.2652,"550": 0.30601,"575": 0.40803,"600": 1.10168,"625": 1.40772,"650": 1.2241,"675": 1.71374,"700": 2.16258,"725": 2.30534,"750": 1.91772,"775": 1.79532,"800": 1.16287,"825": 1.04047,"850": 0.81604,"875": 0.83644,"900": 0.61202,"925": 1.26483,"950": 0.71402,"975": 0.40801,"1000": 0.26521,"1025": 0.10201,"1050": 0.0204,"1075": 0.0408,"1100": 0.0204,"1125": 0.0204}}}