{"type": "Feature","bbox": [34.1056,-14.3023,34.1667,-14.277],"geometry": {"type": "MultiPolygon","coordinates": [[[[34.1553,-14.283,1287.6333],[34.1524,-14.2839,1286.4761],[34.1438,-14.277,1273.4792],[34.1353,-14.2777,1259.2189],[34.1275,-14.2817,1244.7036],[34.1242,-14.2819,1238.3557],[34.1216,-14.2804,1245.2864],[34.1141,-14.2806,1222.207],[34.1103,-14.2771,1216.1562],[34.1084,-14.2824,1226.3647],[34.11,-14.2862,1228.6226],[34.1056,-14.2916,1237.1104],[34.1076,-14.2949,1226.5298],[34.113,-14.2856,1229.1836],[34.1212,-14.2904,1244.1625],[34.1299,-14.3008,1268.8225],[34.1434,-14.2993,1289.4631],[34.1459,-14.301,1286.9626],[34.1491,-14.299,1297.194],[34.156,-14.2988,1321.0255],[34.1557,-14.3014,1308.6926],[34.1613,-14.3023,1325.5305],[34.162,-14.2982,1331.8986],[34.1667,-14.2952,1308.792],[34.1553,-14.283,1287.6333]]]]}
,"properties": {"GID_3": "MWI.6.7.28_1","GID_0": "MWI","country": "Malawi","GID_1": "MWI.6_1","province": "Dedza","NL_NAME_1": "NA","GID_2": "MWI.6.7_1","county": "TAKaphuka","NL_NAME_2": "NA","city": "n.a.(1435)","VARNAME_3": "NA","NL_NAME_3": "NA","TYPE_3": "Unknown","ENGTYPE_3": "Unknown","CC_3": "NA","HASC_3": "NA","name": "n.a.(1435).city","area_km2": 10.45804,"hist_schema_id": "Elevation0-9000","hist_area_km2": {"1225": 1.29444,"1250": 2.260125,"1275": 3.739406,"1300": 2.054603,"1325": 1.109466}}}