{"type":"Feature","properties":{"GID_3":"MWI.15.6.7_1","GID_0":"MWI","country":"Malawi","GID_1":"MWI.15_1","province":"Mulanje","NL_NAME_1":"NA","GID_2":"MWI.15.6_1","county":"TAMabuka","NL_NAME_2":"NA","city":"n.a.(2796)","VARNAME_3":"NA","NL_NAME_3":"NA","TYPE_3":"Unknown","ENGTYPE_3":"Unknown","CC_3":"NA","HASC_3":"NA","name":"n.a.(2796).city"},
"geometry":{"type": "MultiPolygon","coordinates": [[[[35.5415,-16.0243,874.241],[35.528,-16.0411,666.3364],[35.5204,-16.0411,636.9466],[35.5115,-16.0475,611.8495],[35.5288,-16.0435,652.178],[35.5274,-16.0494,639.462],[35.5291,-16.0666,604.566],[35.535,-16.0594,619.5505],[35.5411,-16.0567,641.1203],[35.5414,-16.0514,649.6309],[35.5377,-16.0494,644.5203],[35.5391,-16.0445,652.7654],[35.5432,-16.047,646.4944],[35.5431,-16.0349,733.266],[35.5484,-16.0286,921.8126],[35.5415,-16.0243,874.241]]]]}}