{"type": "Feature","bbox": [34.3357,-14.1799,34.4021,-14.1262],"geometry": {"type": "MultiPolygon","coordinates": [[[[34.3837,-14.1334,1521.088],[34.377,-14.1378,1515.225],[34.3705,-14.1377,1405.6753],[34.3636,-14.1356,1406.6716],[34.3653,-14.1283,1454.457],[34.3576,-14.1262,1431.7759],[34.3474,-14.1274,1360.9104],[34.3357,-14.1322,1253.6628],[34.3377,-14.138,1184.0907],[34.345,-14.1477,1253.7512],[34.3594,-14.1581,1446.4336],[34.3568,-14.1634,1468.2301],[34.3572,-14.1669,1460.2101],[34.3527,-14.1751,1507.5745],[34.3529,-14.1786,1484.4473],[34.3637,-14.1799,1545.782],[34.3645,-14.1731,1459.9309],[34.3777,-14.1695,1440.1841],[34.3842,-14.171,1323.9607],[34.3837,-14.1668,1420.6993],[34.3798,-14.1624,1447.2859],[34.3815,-14.1585,1409.5994],[34.3838,-14.1559,1367.2498],[34.388,-14.1546,1329.8318],[34.3934,-14.1489,1303.785],[34.4021,-14.1452,1279.9357],[34.4009,-14.1425,1303.0259],[34.3902,-14.1409,1391.1598],[34.3837,-14.1334,1521.088]]]]}
,"properties": {"GID_3": "MWI.6.8.6_1","GID_0": "MWI","country": "Malawi","GID_1": "MWI.6_1","province": "Dedza","NL_NAME_1": "NA","GID_2": "MWI.6.8_1","county": "TAKasumbu","NL_NAME_2": "NA","city": "n.a.(1282)","VARNAME_3": "NA","NL_NAME_3": "NA","TYPE_3": "Unknown","ENGTYPE_3": "Unknown","CC_3": "NA","HASC_3": "NA","name": "n.a.(1282).city","area_km2": 19.63383,"hist_schema_id": "Elevation0-9000","hist_area_km2": {"1200": 0.14392,"1225": 0.3084,"1250": 0.43176,"1275": 0.88407,"1300": 1.48029,"1325": 1.35695,"1350": 1.6242,"1375": 1.78865,"1400": 1.95313,"1425": 2.15868,"1450": 1.68581,"1475": 2.03527,"1500": 1.72688,"1525": 1.23348,"1550": 0.55507,"1575": 0.22614,"1600": 0.04111}}}