{"type": "Feature","bbox": [34.0723,-13.6462,34.1208,-13.5884],"geometry": {"type": "MultiPolygon","coordinates": [[[[34.0723,-13.6326,1005.427],[34.0797,-13.6319,977.5183],[34.085,-13.6419,963.2533],[34.0913,-13.6462,935.901],[34.0979,-13.6393,912.1306],[34.1141,-13.6365,981.9434],[34.1151,-13.6351,1007.5947],[34.1123,-13.6299,947.7853],[34.1208,-13.6087,892.7797],[34.1185,-13.5884,832.0151],[34.107,-13.5897,858.1704],[34.1026,-13.5948,854.9113],[34.102,-13.5978,861.3241],[34.0929,-13.6042,877.7796],[34.0879,-13.611,883.1704],[34.0791,-13.6142,917.1387],[34.0779,-13.6216,940.1067],[34.0723,-13.6326,1005.427]]]]}
,"properties": {"GID_3": "MWI.7.7.2_1","GID_0": "MWI","country": "Malawi","GID_1": "MWI.7_1","province": "Dowa","NL_NAME_1": "NA","GID_2": "MWI.7.7_1","county": "TAChiwere","NL_NAME_2": "NA","city": "n.a.(749)","VARNAME_3": "NA","NL_NAME_3": "NA","TYPE_3": "Unknown","ENGTYPE_3": "Unknown","CC_3": "NA","HASC_3": "NA","name": "n.a.(749).city","area_km2": 18.54552,"hist_schema_id": "Elevation0-9000","hist_area_km2": {"800": 0.2679,"825": 2.22562,"850": 3.7917,"875": 3.31763,"900": 2.6169,"925": 2.16356,"950": 1.66902,"975": 2.06049,"1000": 0.35028,"1025": 0.06181,"1050": 0.0206}}}