{"type": "Feature","bbox": [35.776,-16.0297,35.8083,-15.984],"geometry": {"type": "MultiPolygon","coordinates": [[[[35.7826,-16.0297,760.7855],[35.7933,-16.0291,706.4182],[35.8013,-16.0262,682.4643],[35.8034,-16.0103,684.7307],[35.8063,-16.0033,673.701],[35.802,-15.9959,678.9019],[35.8083,-15.9915,671.6637],[35.8063,-15.9901,671.1762],[35.805,-15.984,673.218],[35.797,-15.9848,680.7173],[35.789,-15.9889,700.3972],[35.7871,-16.0002,726.1442],[35.782,-16.0003,756.6298],[35.7798,-16.0136,783.5558],[35.776,-16.0187,905.9384],[35.7826,-16.0297,760.7855]]]]}
,"properties": {"GID_3": "MWI.15.4.6_1","GID_0": "MWI","country": "Malawi","GID_1": "MWI.15_1","province": "Mulanje","NL_NAME_1": "NA","GID_2": "MWI.15.4_1","county": "SCLastonNjema","NL_NAME_2": "NA","city": "n.a.(2741)","VARNAME_3": "NA","NL_NAME_3": "NA","TYPE_3": "Unknown","ENGTYPE_3": "Unknown","CC_3": "NA","HASC_3": "NA","name": "n.a.(2741).city","area_km2": 10.842165,"hist_schema_id": "Elevation0-9000","hist_area_km2": {"675": 3.159032,"700": 4.09639,"725": 1.589591,"750": 1.141246,"775": 0.387192,"800": 0.305684,"825": 0.163031}}}