{"type": "Feature","bbox": [34.6191,-14.8195,34.6518,-14.7969],"geometry": {"type": "MultiPolygon","coordinates": [[[[34.6302,-14.81,1165.9791],[34.6352,-14.8138,1157.498],[34.6435,-14.8144,1137.7222],[34.6495,-14.8195,1115.3103],[34.651,-14.8189,1115.3103],[34.6504,-14.8157,1093.661],[34.6518,-14.8125,1096.7687],[34.6372,-14.807,1110.8809],[34.6263,-14.7988,1181.6431],[34.6199,-14.7969,1171.5073],[34.6191,-14.7998,1188.2634],[34.625,-14.8029,1184.6583],[34.6302,-14.81,1165.9791]]]]}
,"properties": {"GID_3": "MWI.22.1.2_1","GID_0": "MWI","country": "Malawi","GID_1": "MWI.22_1","province": "Ntcheu","NL_NAME_1": "NA","GID_2": "MWI.22.1_1","county": "NtcheuBoma","NL_NAME_2": "NA","city": "n.a.(1826)","VARNAME_3": "NA","NL_NAME_3": "NA","TYPE_3": "Unknown","ENGTYPE_3": "Unknown","CC_3": "NA","HASC_3": "NA","name": "n.a.(1826).city","area_km2": 2.398263,"hist_schema_id": "Elevation0-9000","hist_area_km2": {"1100": 0.184477,"1125": 0.717417,"1150": 0.840415,"1175": 0.532961,"1200": 0.122993}}}