{"type":"Feature","properties":{"GID_3":"MWI.26.4.1_1","GID_0":"MWI","country":"Malawi","GID_1":"MWI.26_1","province":"Salima","NL_NAME_1":"NA","GID_2":"MWI.26.4_1","county":"SCKambwiri","NL_NAME_2":"NA","city":"n.a.(1007)","VARNAME_3":"NA","NL_NAME_3":"NA","TYPE_3":"Unknown","ENGTYPE_3":"Unknown","CC_3":"NA","HASC_3":"NA","name":"n.a.(1007).city"},
"geometry":{"type": "MultiPolygon","coordinates": [[[[34.3862,-13.9521,602.501],[34.3905,-13.9519,601.1895],[34.3938,-13.9485,596.3654],[34.4002,-13.9486,595.6796],[34.4043,-13.9508,582.4401],[34.413,-13.9473,563.9639],[34.4216,-13.9377,551.8019],[34.4207,-13.9324,559.1105],[34.4256,-13.932,546.7285],[34.4247,-13.9275,544.3312],[34.426,-13.9246,542.5441],[34.4354,-13.9179,540.487],[34.4361,-13.9125,540.509],[34.4409,-13.9128,535.1422],[34.4423,-13.9104,529.5634],[34.4456,-13.91,525.8658],[34.4505,-13.917,518.8246],[34.4554,-13.9153,521.3691],[34.4622,-13.9188,513.081],[34.465,-13.9162,512.0144],[34.4742,-13.917,510.837],[34.4697,-13.9118,516.2457],[34.465,-13.9005,514.1042],[34.4708,-13.8943,508.9967],[34.4701,-13.8736,502.7738],[34.4528,-13.8754,516.4347],[34.4474,-13.8644,514.954],[34.4443,-13.8506,509.9973],[34.4394,-13.8519,514.5399],[34.435,-13.8556,521.6871],[34.4123,-13.8608,562.1882],[34.4061,-13.8715,574.0711],[34.4061,-13.8786,590.7319],[34.3915,-13.8918,651.1332],[34.3884,-13.9003,662.1185],[34.3781,-13.9138,703.9007],[34.3747,-13.9219,691.4658],[34.3652,-13.9317,675.4336],[34.364,-13.9356,686.3914],[34.3649,-13.9486,640.7291],[34.3729,-13.946,729.644],[34.3743,-13.9418,660.4592],[34.38,-13.9512,620.4361],[34.3862,-13.9521,602.501]]]]}}