{"type":"Feature","properties":{"GID_3":"MWI.21.6.5_1","GID_0":"MWI","country":"Malawi","GID_1":"MWI.21_1","province":"Nsanje","NL_NAME_1":"NA","GID_2":"MWI.21.6_1","county":"TAMalemia","NL_NAME_2":"NA","city":"n.a.(3106)","VARNAME_3":"NA","NL_NAME_3":"NA","TYPE_3":"Unknown","ENGTYPE_3":"Unknown","CC_3":"NA","HASC_3":"NA","name":"n.a.(3106).city"},
"geometry":{"type": "MultiPolygon","coordinates": [[[[35.2597,-16.9462,36.5602],[35.2386,-16.9467,38.7272],[35.2383,-16.9395,46.6371],[35.2305,-16.9428,48.4724],[35.2253,-16.9339,75.9021],[35.2175,-16.9372,78.3001],[35.2134,-16.9319,110.6819],[35.2094,-16.9303,180.1819],[35.1976,-16.958,148.5895],[35.1904,-16.9663,141.121],[35.2,-16.9671,86.8812],[35.204,-16.963,77.2447],[35.2165,-16.9583,60.3826],[35.23,-16.9596,40.3231],[35.2417,-16.9565,34.9231],[35.2671,-16.9664,36.0339],[35.2719,-16.966,36.8034],[35.279,-16.9691,36.8634],[35.2944,-16.9807,35.4368],[35.3023,-16.981,36.3926],[35.2978,-16.9725,36.7253],[35.2968,-16.9625,36.464],[35.2818,-16.9645,36.8803],[35.2784,-16.9599,36.5857],[35.2699,-16.9586,37.1328],[35.2702,-16.9537,37.0927],[35.2741,-16.9496,36.2686],[35.2725,-16.9475,37.2723],[35.266,-16.9458,37.2473],[35.2597,-16.9462,36.5602]]]]}}