{"type": "Feature","bbox": [33.8076,-9.7975,33.8569,-9.7577],"geometry": {"type": "MultiPolygon","coordinates": [[[[33.8175,-9.7676,537.0552],[33.8137,-9.7729,610.4632],[33.809,-9.7743,592.001],[33.8077,-9.7763,585.4639],[33.8093,-9.7859,600.7664],[33.8076,-9.7959,540.0769],[33.8092,-9.7975,508.653],[33.8217,-9.7927,502.3024],[33.8229,-9.7893,506.0384],[33.8266,-9.7864,500.8513],[33.8274,-9.7806,503.4542],[33.8307,-9.7778,498.9377],[33.836,-9.781,495.0385],[33.8442,-9.7796,489.0678],[33.8483,-9.7773,488.481],[33.8569,-9.7667,487.3906],[33.8526,-9.7632,490.2917],[33.8514,-9.7597,490.4497],[33.8459,-9.7577,494.2434],[33.8414,-9.76,498.0383],[33.8337,-9.7607,503.5162],[33.8295,-9.7637,505.3448],[33.8245,-9.7647,507.9845],[33.8226,-9.767,509.7481],[33.8175,-9.7676,537.0552]]]]}
,"properties": {"GID_3": "MWI.8.6.9_1","GID_0": "MWI","country": "Malawi","GID_1": "MWI.8_1","province": "Karonga","NL_NAME_1": "NA","GID_2": "MWI.8.6_1","county": "TAKilupula","NL_NAME_2": "NA","city": "n.a.(43)","VARNAME_3": "NA","NL_NAME_3": "NA","TYPE_3": "Unknown","ENGTYPE_3": "Unknown","CC_3": "NA","HASC_3": "NA","name": "n.a.(43).city","area_km2": 11.408335,"hist_schema_id": "Elevation0-9000","hist_area_km2": {"475": 0.062684,"500": 8.441384,"525": 1.3999,"550": 0.417879,"575": 0.835757,"600": 0.250731}}}