{"type":"Feature","properties":{"GID_3":"MWI.8.1.1_1","GID_0":"MWI","country":"Malawi","GID_1":"MWI.8_1","province":"Karonga","NL_NAME_1":"NA","GID_2":"MWI.8.1_1","county":"KarongaTown","NL_NAME_2":"NA","city":"n.a.(60)","VARNAME_3":"NA","NL_NAME_3":"NA","TYPE_3":"Unknown","ENGTYPE_3":"Unknown","CC_3":"NA","HASC_3":"NA","name":"n.a.(60).city"},
"geometry":{"type": "MultiPolygon","coordinates": [[[[33.9285,-9.9287,482.1211],[33.9332,-9.9297,481.3008],[33.9402,-9.9278,478.3219],[33.9448,-9.9292,477.0028],[33.9428,-9.9125,477.5329],[33.9447,-9.9028,475.9972],[33.9245,-9.9149,482.1408],[33.9274,-9.9227,482.058],[33.9296,-9.925,482.1934],[33.9285,-9.9287,482.1211]]]]}}