{"type":"Feature","properties":{"GID_3":"MWI.9.15.2_1","GID_0":"MWI","country":"Malawi","GID_1":"MWI.9_1","province":"Kasungu","NL_NAME_1":"NA","GID_2":"MWI.9.15_1","county":"TASanthe","NL_NAME_2":"NA","city":"n.a.(573)","VARNAME_3":"NA","NL_NAME_3":"NA","TYPE_3":"Unknown","ENGTYPE_3":"Unknown","CC_3":"NA","HASC_3":"NA","name":"n.a.(573).city"},
"geometry":{"type": "MultiPolygon","coordinates": [[[[33.1549,-13.3514,1043.6718],[33.1567,-13.3521,1043.6887],[33.1593,-13.3572,1043.7886],[33.1617,-13.3682,1047.5585],[33.1672,-13.3716,1052.5131],[33.1792,-13.3739,1059.7205],[33.1939,-13.3745,1050.0474],[33.223,-13.3707,1065.1583],[33.234,-13.3675,1049.9109],[33.2323,-13.3592,1048.4954],[33.2476,-13.3485,1062.8767],[33.249,-13.3506,1066.5403],[33.2596,-13.3548,1068.4718],[33.2856,-13.3551,1055.9153],[33.2872,-13.3501,1054.9731],[33.2843,-13.3412,1050.1783],[33.2908,-13.3292,1048.7969],[33.2705,-13.3299,1062.9009],[33.2412,-13.3142,1041.991],[33.2345,-13.3152,1042.9755],[33.2295,-13.3188,1042.1702],[33.2253,-13.3179,1043.8967],[33.2204,-13.3211,1042.6963],[33.215,-13.3215,1042.2412],[33.2042,-13.3276,1042.5865],[33.1979,-13.3275,1043.1987],[33.1945,-13.3387,1042.7424],[33.1899,-13.3389,1043.0614],[33.1897,-13.3431,1043.3055],[33.1868,-13.3456,1043.2617],[33.1767,-13.3486,1043.3999],[33.1694,-13.3486,1043.8436],[33.1663,-13.352,1043.809],[33.1549,-13.3514,1043.6718]]]]}}