{"type":"Feature","properties":{"GID_3":"MWI.8.6.2_1","GID_0":"MWI","country":"Malawi","GID_1":"MWI.8_1","province":"Karonga","NL_NAME_1":"NA","GID_2":"MWI.8.6_1","county":"TAKilupula","NL_NAME_2":"NA","city":"n.a.(31)","VARNAME_3":"NA","NL_NAME_3":"NA","TYPE_3":"Unknown","ENGTYPE_3":"Unknown","CC_3":"NA","HASC_3":"NA","name":"n.a.(31).city"},
"geometry":{"type": "MultiPolygon","coordinates": [[[[33.8669,-9.6952,484.4883],[33.8612,-9.7019,495.4737],[33.8692,-9.7105,485.7019],[33.87,-9.7193,486.3102],[33.8815,-9.7323,482.577],[33.8891,-9.7232,479.8246],[33.897,-9.7178,477.9204],[33.9007,-9.7129,477.2675],[33.9068,-9.7134,478.2332],[33.9117,-9.7109,478.5543],[33.9089,-9.7077,481.4241],[33.9071,-9.709,481.5057],[33.9077,-9.707,481.5599],[33.9044,-9.7083,478.1888],[33.9016,-9.7041,478.6465],[33.8921,-9.7015,480.4267],[33.8839,-9.7069,481.1524],[33.8838,-9.7048,481.7534],[33.8796,-9.7006,483.0499],[33.878,-9.6953,483.6812],[33.8739,-9.6938,484.2754],[33.8724,-9.6904,484.8474],[33.8669,-9.6952,484.4883]]]]}}