{"type":"Feature","properties":{"GID_3":"MWI.17.6.3_1","GID_0":"MWI","country":"Malawi","GID_1":"MWI.17_1","province":"Mzimba","NL_NAME_1":"NA","GID_2":"MWI.17.6_1","county":"TAChindi","NL_NAME_2":"NA","city":"n.a.(193)","VARNAME_3":"NA","NL_NAME_3":"NA","TYPE_3":"Unknown","ENGTYPE_3":"Unknown","CC_3":"NA","HASC_3":"NA","name":"n.a.(193).city"},
"geometry":{"type": "MultiPolygon","coordinates": [[[[33.3999,-11.3531,1100.8838],[33.3963,-11.3566,1098.0679],[33.3953,-11.3611,1099.8253],[33.3896,-11.3696,1095.7974],[33.3857,-11.37,1106.3164],[33.3824,-11.3793,1101.0792],[33.3901,-11.3879,1097.7635],[33.3814,-11.4036,1115.4427],[33.3847,-11.4056,1094.5652],[33.3833,-11.4116,1106.9739],[33.3866,-11.4175,1099.6235],[33.395,-11.4206,1124.1702],[33.4025,-11.4168,1139.8594],[33.412,-11.4174,1148.7473],[33.4192,-11.411,1169.2412],[33.4254,-11.41,1154.9585],[33.4296,-11.4049,1131.879],[33.4286,-11.3977,1129.7618],[33.448,-11.3922,1174.4564],[33.4597,-11.3747,1158.28],[33.4547,-11.3694,1155.528],[33.4545,-11.36,1147.635],[33.4568,-11.3557,1146.4247],[33.4528,-11.3517,1149.7323],[33.4417,-11.3494,1140.478],[33.442,-11.34,1129.0977],[33.4322,-11.3307,1106.166],[33.4255,-11.3306,1106.4857],[33.4202,-11.3267,1103.6826],[33.416,-11.3287,1111.9645],[33.4128,-11.3352,1090.7073],[33.4096,-11.3372,1104.8516],[33.3999,-11.3501,1109.7236],[33.3999,-11.3531,1100.8838]]]]}}