{"type":"Feature","properties":{"GID_3":"MWI.8.8.8_1","GID_0":"MWI","country":"Malawi","GID_1":"MWI.8_1","province":"Karonga","NL_NAME_1":"NA","GID_2":"MWI.8.8_1","county":"TAWasambo","NL_NAME_2":"NA","city":"n.a.(96)","VARNAME_3":"NA","NL_NAME_3":"NA","TYPE_3":"Unknown","ENGTYPE_3":"Unknown","CC_3":"NA","HASC_3":"NA","name":"n.a.(96).city"},
"geometry":{"type": "MultiPolygon","coordinates": [[[[34.1141,-10.4312,557.869],[34.1392,-10.4337,592.2099],[34.1395,-10.4303,605.8361],[34.1445,-10.4265,618.2818],[34.1523,-10.4304,586.4011],[34.1554,-10.4283,579.2531],[34.1575,-10.4297,565.5753],[34.1618,-10.4289,555.3611],[34.1638,-10.4326,543.5781],[34.185,-10.4365,509.9169],[34.1857,-10.4302,513.3365],[34.183,-10.428,516.6112],[34.1819,-10.423,524.8255],[34.1847,-10.4129,565.5385],[34.1882,-10.4104,570.5799],[34.195,-10.414,582.2025],[34.1978,-10.4175,554.4501],[34.2056,-10.4179,579.7305],[34.208,-10.3799,571.9081],[34.2098,-10.3736,558.4695],[34.1994,-10.3626,552.0392],[34.1944,-10.3522,539.0798],[34.1654,-10.363,566.3858],[34.1683,-10.3778,574.4797],[34.1613,-10.3783,580.0185],[34.1564,-10.387,583.8393],[34.1508,-10.3833,582.4894],[34.152,-10.3729,565.2416],[34.1511,-10.3721,548.3909],[34.1497,-10.3747,551.1454],[34.1469,-10.3749,545.5891],[34.1415,-10.3693,534.864],[34.135,-10.3724,531.4544],[34.131,-10.3655,526.5651],[34.1262,-10.3642,520.2086],[34.1251,-10.3592,517.6246],[34.1229,-10.36,519.223],[34.12,-10.376,527.0854],[34.1245,-10.3929,533.4017],[34.1241,-10.3984,537.5481],[34.1206,-10.4055,540.5517],[34.1228,-10.4099,543.1943],[34.1216,-10.4216,549.7386],[34.1196,-10.4268,553.5607],[34.1141,-10.4312,557.869]]]]}}