{"type": "Feature","bbox": [34.2541,-13.2199,34.3228,-13.1616],"geometry": {"type": "MultiPolygon","coordinates": [[[[34.2544,-13.1831,509.1023],[34.2596,-13.1865,507.9783],[34.2541,-13.1925,509.566],[34.2574,-13.2079,512.9319],[34.2655,-13.2164,500.1105],[34.2727,-13.2199,498.5294],[34.2797,-13.2196,496.3001],[34.284,-13.2144,493.9619],[34.2846,-13.2109,493.0175],[34.2824,-13.2071,493.1843],[34.2862,-13.1993,498.0201],[34.2912,-13.194,491.815],[34.2913,-13.1919,489.0594],[34.2976,-13.1903,484.4625],[34.3031,-13.1837,480.7774],[34.3183,-13.1832,479.6187],[34.3227,-13.1819,478.1844],[34.3228,-13.1791,477.3603],[34.3209,-13.1745,476.3316],[34.3131,-13.1704,475.9122],[34.3089,-13.1652,475.5996],[34.2947,-13.1652,481.3988],[34.289,-13.1616,484.2746],[34.2814,-13.1637,488.0627],[34.2747,-13.1691,494.6569],[34.2677,-13.1701,498.6125],[34.2621,-13.1805,504.6062],[34.2544,-13.1831,509.1023]]]]}
,"properties": {"GID_3": "MWI.20.9.5_1","GID_0": "MWI","country": "Malawi","GID_1": "MWI.20_1","province": "Nkhotakota","NL_NAME_1": "NA","GID_2": "MWI.20.9_1","county": "TAMwadzama","NL_NAME_2": "NA","city": "n.a.(516)","VARNAME_3": "NA","NL_NAME_3": "NA","TYPE_3": "Unknown","ENGTYPE_3": "Unknown","CC_3": "NA","HASC_3": "NA","name": "n.a.(516).city","area_km2": 24.64784,"hist_schema_id": "Elevation0-9000","hist_area_km2": {"475": 7.03965,"500": 17.4637,"525": 0.14449}}}