{"type":"Feature","properties":{"GID_3":"MWI.7.7.14_1","GID_0":"MWI","country":"Malawi","GID_1":"MWI.7_1","province":"Dowa","NL_NAME_1":"NA","GID_2":"MWI.7.7_1","county":"TAChiwere","NL_NAME_2":"NA","city":"n.a.(834)","VARNAME_3":"NA","NL_NAME_3":"NA","TYPE_3":"Unknown","ENGTYPE_3":"Unknown","CC_3":"NA","HASC_3":"NA","name":"n.a.(834).city"},
"geometry":{"type": "MultiPolygon","coordinates": [[[[34.182,-13.7361,857.404],[34.1943,-13.737,762.938],[34.2002,-13.7359,750.3516],[34.2024,-13.7336,740.6845],[34.2024,-13.7407,740.9862],[34.205,-13.7435,756.3889],[34.2166,-13.735,744.0906],[34.2266,-13.7217,695.7318],[34.2355,-13.7174,677.7845],[34.2383,-13.7131,670.6208],[34.2434,-13.7117,663.4485],[34.2508,-13.7014,639.5583],[34.252,-13.6972,640.0331],[34.2592,-13.6951,623.3685],[34.2623,-13.6909,618.2797],[34.263,-13.6866,611.8536],[34.2674,-13.684,610.6917],[34.2692,-13.6801,610.2485],[34.2523,-13.6853,629.6844],[34.2407,-13.6931,646.0727],[34.2374,-13.6927,652.6116],[34.2326,-13.698,664.8749],[34.2234,-13.6974,685.3489],[34.2161,-13.7012,705.6378],[34.2023,-13.703,729.9015],[34.1874,-13.6996,770.2082],[34.1841,-13.7008,768.1731],[34.1826,-13.7031,781.3077],[34.1855,-13.7094,773.0162],[34.2015,-13.7145,732.9232],[34.1997,-13.7166,727.5005],[34.1929,-13.717,759.7003],[34.1827,-13.7236,808.7869],[34.1806,-13.7286,828.8851],[34.182,-13.7361,857.404]]]]}}