{"type":"Feature","properties":{"GID_3":"MWI.1.2.24_1","GID_0":"MWI","country":"Malawi","GID_1":"MWI.1_1","province":"Balaka","NL_NAME_1":"NA","GID_2":"MWI.1.2_1","county":"TAKalembo","NL_NAME_2":"NA","city":"n.a.(1891)","VARNAME_3":"NA","NL_NAME_3":"NA","TYPE_3":"Unknown","ENGTYPE_3":"Unknown","CC_3":"NA","HASC_3":"NA","name":"n.a.(1891).city"},
"geometry":{"type": "MultiPolygon","coordinates": [[[[35.0751,-14.9067,643.3792],[35.0815,-14.9144,644.9404],[35.0827,-14.9205,624.9136],[35.0894,-14.9171,649.7189],[35.0927,-14.918,653.3325],[35.099,-14.9157,658.4051],[35.103,-14.9176,641.9091],[35.1068,-14.9155,639.1804],[35.1062,-14.9037,625.8531],[35.0929,-14.9009,639.6855],[35.1005,-14.8983,634.5444],[35.0964,-14.895,630.1898],[35.0937,-14.8889,606.7511],[35.0933,-14.8784,595.0604],[35.091,-14.8814,598.0403],[35.083,-14.8824,604.686],[35.0714,-14.8796,612.0616],[35.0673,-14.8916,629.9966],[35.0751,-14.9067,643.3792]]]]}}