{"type": "Feature","bbox": [33.2772,-11.4495,33.3899,-11.3476],"geometry": {"type": "MultiPolygon","coordinates": [[[[33.2983,-11.368,1187.4966],[33.2858,-11.3705,1144.446],[33.2805,-11.3733,1116.2979],[33.2772,-11.3771,1091.822],[33.2806,-11.4114,1112.4984],[33.2849,-11.4285,1133.194],[33.2833,-11.4362,1186.0365],[33.2987,-11.4319,1202.1155],[33.3145,-11.4363,1161.5835],[33.3195,-11.4295,1159.2136],[33.3277,-11.4271,1153.0376],[33.3365,-11.4365,1131.4529],[33.3465,-11.4327,1135.8877],[33.3461,-11.4486,1125.7334],[33.3504,-11.4495,1122.8357],[33.3573,-11.4471,1102.7334],[33.3596,-11.4483,1094.204],[33.3607,-11.4445,1094.6279],[33.359,-11.4355,1100.0386],[33.3612,-11.4298,1104.0719],[33.3653,-11.4277,1093.3735],[33.3657,-11.4205,1100.8916],[33.372,-11.4171,1102.8416],[33.3744,-11.4091,1103.4585],[33.379,-11.4066,1108.1444],[33.3833,-11.4015,1110.9633],[33.3862,-11.393,1102.0679],[33.3899,-11.3889,1093.1165],[33.3824,-11.3793,1101.0792],[33.3857,-11.37,1106.3164],[33.3814,-11.3703,1114.1431],[33.377,-11.3735,1109.5975],[33.3623,-11.3676,1141.4385],[33.3481,-11.3796,1144.4902],[33.3424,-11.3762,1154.3569],[33.3336,-11.3676,1171.1875],[33.3266,-11.3491,1204.0317],[33.3124,-11.3476,1217.8345],[33.3173,-11.3555,1226.6371],[33.3182,-11.3608,1249.3801],[33.3126,-11.3675,1207.8832],[33.3032,-11.3692,1192.1719],[33.2983,-11.368,1187.4966]]]]}
,"properties": {"GID_3": "MWI.17.6.5_1","GID_0": "MWI","country": "Malawi","GID_1": "MWI.17_1","province": "Mzimba","NL_NAME_1": "NA","GID_2": "MWI.17.6_1","county": "TAChindi","NL_NAME_2": "NA","city": "n.a.(196)","VARNAME_3": "NA","NL_NAME_3": "NA","TYPE_3": "Unknown","ENGTYPE_3": "Unknown","CC_3": "NA","HASC_3": "NA","name": "n.a.(196).city","area_km2": 79.35312,"hist_schema_id": "Elevation0-9000","hist_area_km2": {"1100": 6.25589,"1125": 20.26402,"1150": 28.24508,"1175": 18.49775,"1200": 4.51058,"1225": 1.20564,"1250": 0.16629,"1275": 0.08315,"1300": 0.10393,"1325": 0.02079}}}