{"type": "Feature","bbox": [35.4614,-15.7592,35.5174,-15.7255],"geometry": {"type": "MultiPolygon","coordinates": [[[[35.4614,-15.735,706.1974],[35.4666,-15.7449,711.6465],[35.4719,-15.7412,708.6684],[35.4751,-15.7412,708.8568],[35.4788,-15.743,713.0605],[35.4815,-15.7514,722.7151],[35.4897,-15.7508,715.739],[35.4944,-15.7591,728.428],[35.5086,-15.7592,721.476],[35.5123,-15.7586,718.3945],[35.5122,-15.7493,709.6099],[35.5174,-15.7279,705.389],[35.5091,-15.7266,701.2452],[35.5033,-15.7304,701.3863],[35.4932,-15.7316,701.9969],[35.489,-15.7378,704.0706],[35.4693,-15.7255,700.2737],[35.4614,-15.735,706.1974]]]]}
,"properties": {"GID_3": "MWI.15.7.2_1","GID_0": "MWI","country": "Malawi","GID_1": "MWI.15_1","province": "Mulanje","NL_NAME_1": "NA","GID_2": "MWI.15.7_1","county": "TANkanda","NL_NAME_2": "NA","city": "n.a.(2496)","VARNAME_3": "NA","NL_NAME_3": "NA","TYPE_3": "Unknown","ENGTYPE_3": "Unknown","CC_3": "NA","HASC_3": "NA","name": "n.a.(2496).city","area_km2": 12.652353,"hist_schema_id": "Elevation0-9000","hist_area_km2": {"700": 9.44862,"725": 3.203733}}}