{"type": "Feature","bbox": [33.7265,-13.4646,33.7941,-13.425],"geometry": {"type": "MultiPolygon","coordinates": [[[[33.7347,-13.425,1243.0024],[33.7322,-13.429,1243.4741],[33.7337,-13.4364,1271.4246],[33.7403,-13.4366,1274.2775],[33.7421,-13.4437,1261.303],[33.7297,-13.4573,1229.3193],[33.7265,-13.4646,1211.9213],[33.7374,-13.4613,1245.5511],[33.7397,-13.4569,1241.0493],[33.7455,-13.4528,1266.6466],[33.756,-13.4502,1298.075],[33.7625,-13.4496,1295.5122],[33.7716,-13.4568,1312.9487],[33.7789,-13.4555,1302.842],[33.7892,-13.4562,1284.6301],[33.7907,-13.4433,1297.8066],[33.7941,-13.4384,1318.5011],[33.789,-13.432,1301.8632],[33.7884,-13.4254,1279.7405],[33.7347,-13.425,1243.0024]]]]}
,"properties": {"GID_3": "MWI.7.8.2_1","GID_0": "MWI","country": "Malawi","GID_1": "MWI.7_1","province": "Dowa","NL_NAME_1": "NA","GID_2": "MWI.7.8_1","county": "TADzoole","NL_NAME_2": "NA","city": "n.a.(636)","VARNAME_3": "NA","NL_NAME_3": "NA","TYPE_3": "Unknown","ENGTYPE_3": "Unknown","CC_3": "NA","HASC_3": "NA","name": "n.a.(636).city","area_km2": 19.23988,"hist_schema_id": "Elevation0-9000","hist_area_km2": {"1225": 0.90728,"1250": 2.35083,"1275": 6.49589,"1300": 5.67094,"1325": 3.81494}}}