{"type": "Feature","bbox": [35.6442,-14.6843,35.7089,-14.5829],"geometry": {"type": "MultiPolygon","coordinates": [[[[35.7059,-14.5976,704.1207],[35.6974,-14.5964,705.6543],[35.6884,-14.5888,715.7109],[35.6865,-14.589,715.7109],[35.6844,-14.592,713.2078],[35.6785,-14.5887,723.4287],[35.6626,-14.5848,730.4096],[35.6588,-14.5872,732.3825],[35.6557,-14.5829,740.3234],[35.6487,-14.5869,737.6229],[35.6442,-14.5852,744.0753],[35.6455,-14.596,751.2245],[35.6543,-14.5916,746.1873],[35.6498,-14.5975,745.4355],[35.6505,-14.607,751.2945],[35.6536,-14.6129,777.4321],[35.6573,-14.6111,772.6345],[35.6589,-14.612,821.2076],[35.6607,-14.6187,873.35],[35.6667,-14.63,832.8062],[35.6669,-14.6386,940.4016],[35.6643,-14.6425,876.8309],[35.6666,-14.6473,799.5061],[35.6613,-14.6525,774.5535],[35.6638,-14.6608,803.941],[35.6628,-14.6634,747.7604],[35.6652,-14.6647,770.0964],[35.668,-14.6607,854.8749],[35.6715,-14.6615,802.9988],[35.6727,-14.6651,801.0916],[35.6715,-14.6726,749.5033],[35.6807,-14.6843,798.9684],[35.6842,-14.6836,865.666],[35.686,-14.6805,766.7661],[35.6792,-14.6766,803.6491],[35.6786,-14.6739,769.4021],[35.6915,-14.6691,770.9211],[35.6914,-14.6655,900.3922],[35.6962,-14.6593,908.5034],[35.695,-14.6481,865.9791],[35.7007,-14.6437,810.8732],[35.7021,-14.637,790.3884],[35.7064,-14.6333,798.1251],[35.7058,-14.6278,735.8438],[35.7079,-14.6261,735.2094],[35.703,-14.6229,745.7698],[35.7018,-14.6171,748.1453],[35.7089,-14.6016,724.7338],[35.7059,-14.5976,704.1207]]]]}
,"properties": {"GID_3": "MWI.12.14.3_1","GID_0": "MWI","country": "Malawi","GID_1": "MWI.12_1","province": "Machinga","NL_NAME_1": "NA","GID_2": "MWI.12.14_1","county": "TANyambi","NL_NAME_2": "NA","city": "n.a.(1687)","VARNAME_3": "NA","NL_NAME_3": "NA","TYPE_3": "Unknown","ENGTYPE_3": "Unknown","CC_3": "NA","HASC_3": "NA","name": "n.a.(1687).city","area_km2": 40.92797,"hist_schema_id": "Elevation0-9000","hist_area_km2": {"700": 1.62088,"725": 9.54065,"750": 7.79625,"775": 6.38006,"800": 3.40528,"825": 1.84622,"850": 2.07189,"875": 1.35389,"900": 1.55902,"925": 1.18976,"950": 1.08722,"975": 0.8205,"1000": 0.61537,"1025": 0.38973,"1050": 0.30768,"1075": 0.22564,"1100": 0.26666,"1125": 0.14358,"1150": 0.20512,"1175": 0.10256}}}