{"type":"Feature","properties":{"GID_3":"MWI.3.11.7_1","GID_0":"MWI","country":"Malawi","GID_1":"MWI.3_1","province":"Chikwawa","NL_NAME_1":"NA","GID_2":"MWI.3.11_1","county":"TANgabu","NL_NAME_2":"NA","city":"n.a.(3024)","VARNAME_3":"NA","NL_NAME_3":"NA","TYPE_3":"Unknown","ENGTYPE_3":"Unknown","CC_3":"NA","HASC_3":"NA","name":"n.a.(3024).city"},
"geometry":{"type": "MultiPolygon","coordinates": [[[[34.6699,-16.374,176.1962],[34.677,-16.3693,174.9421],[34.6763,-16.3667,172.9932],[34.6721,-16.364,171.4028],[34.6735,-16.36,171.0268],[34.6778,-16.3575,172.8102],[34.6838,-16.3571,170.2032],[34.6847,-16.3452,182.8552],[34.6915,-16.3259,170.2571],[34.6679,-16.3259,195.3252],[34.6177,-16.3208,246.5972],[34.6528,-16.3679,182.7834],[34.6699,-16.374,176.1962]]]]}}