{"type": "Feature","bbox": [35.376,-14.2331,35.4406,-14.1971],"geometry": {"type": "MultiPolygon","coordinates": [[[[35.3838,-14.2318,1065.9551],[35.3956,-14.2331,1073.2504],[35.4004,-14.2293,1058.9126],[35.4085,-14.2308,1053.7964],[35.4169,-14.2291,1028.3844],[35.4279,-14.2222,997.952],[35.4348,-14.2234,1019.7437],[35.4396,-14.2133,987.671],[35.4388,-14.2077,983.2174],[35.4406,-14.204,979.3999],[35.4286,-14.2008,1011.4373],[35.4229,-14.2097,1023.8157],[35.4072,-14.2136,1057.9924],[35.403,-14.2123,1075.146],[35.4012,-14.2053,1075.2903],[35.3847,-14.2043,1031.9325],[35.3813,-14.1971,1051.9792],[35.3784,-14.1971,1053.1501],[35.376,-14.203,1064.9713],[35.3838,-14.2318,1065.9551]]]]}
,"properties": {"GID_3": "MWI.13.10.14_1","GID_0": "MWI","country": "Malawi","GID_1": "MWI.13_1","province": "Mangochi","NL_NAME_1": "NA","GID_2": "MWI.13.10_1","county": "TAKatuli","NL_NAME_2": "NA","city": "n.a.(1355)","VARNAME_3": "NA","NL_NAME_3": "NA","TYPE_3": "Unknown","ENGTYPE_3": "Unknown","CC_3": "NA","HASC_3": "NA","name": "n.a.(1355).city","area_km2": 15.74349,"hist_schema_id": "Elevation0-9000","hist_area_km2": {"975": 0.55494,"1000": 2.75411,"1025": 3.28845,"1050": 6.84407,"1075": 2.30192}}}