{"type":"Feature","properties":{"GID_3":"MWI.27.9.9_1","GID_0":"MWI","country":"Malawi","GID_1":"MWI.27_1","province":"Thyolo","NL_NAME_1":"NA","GID_2":"MWI.27.9_1","county":"TAKapichi","NL_NAME_2":"NA","city":"n.a.(2902)","VARNAME_3":"NA","NL_NAME_3":"NA","TYPE_3":"Unknown","ENGTYPE_3":"Unknown","CC_3":"NA","HASC_3":"NA","name":"n.a.(2902).city"},
"geometry":{"type": "MultiPolygon","coordinates": [[[[35.2441,-16.0951,765.4335],[35.2454,-16.1056,754.2058],[35.2524,-16.1074,715.5867],[35.2531,-16.11,727.3984],[35.2504,-16.1104,726.733],[35.2504,-16.1122,733.3495],[35.2467,-16.1115,743.145],[35.2363,-16.118,724.2296],[35.2308,-16.1243,707.4912],[35.2313,-16.1269,672.7148],[35.2343,-16.1286,661.6141],[35.2413,-16.1226,683.6171],[35.2515,-16.1181,719.7235],[35.2533,-16.1243,694.1298],[35.2613,-16.1268,705.4124],[35.2626,-16.1233,698.8309],[35.2617,-16.1174,723.9459],[35.2648,-16.1076,705.9442],[35.2541,-16.1062,726.8291],[35.2576,-16.0973,734.1598],[35.2526,-16.0948,750.7436],[35.2441,-16.0951,765.4335]]]]}}