{"type":"Feature","properties":{"GID_3":"MWI.24.2.5_1","GID_0":"MWI","country":"Malawi","GID_1":"MWI.24_1","province":"Phalombe","NL_NAME_1":"NA","GID_2":"MWI.24.2_1","county":"TAMkhumba","NL_NAME_2":"NA","city":"n.a.(2287)","VARNAME_3":"NA","NL_NAME_3":"NA","TYPE_3":"Unknown","ENGTYPE_3":"Unknown","CC_3":"NA","HASC_3":"NA","name":"n.a.(2287).city"},
"geometry":{"type": "MultiPolygon","coordinates": [[[[35.6419,-15.5259,633.5991],[35.6402,-15.5267,633.8293],[35.6385,-15.5317,634.4667],[35.6314,-15.5341,635.0789],[35.6292,-15.5433,635.2045],[35.6182,-15.5389,638.0339],[35.6155,-15.5363,639.3624],[35.6123,-15.538,639.2139],[35.6087,-15.5349,640.6691],[35.6064,-15.5451,640.7132],[35.6098,-15.5462,640.4861],[35.6135,-15.5509,638.8043],[35.6152,-15.5501,639.3749],[35.6175,-15.5539,638.8866],[35.62,-15.554,639.6552],[35.6195,-15.5567,638.7524],[35.6226,-15.5565,638.0256],[35.6264,-15.5628,636.4623],[35.6302,-15.5603,636.136],[35.6304,-15.5639,635.9998],[35.6364,-15.5644,634.2057],[35.6368,-15.5624,634.4712],[35.6409,-15.5632,633.0727],[35.6421,-15.5618,632.7073],[35.6414,-15.5591,632.6909],[35.6442,-15.5593,632.6402],[35.645,-15.5609,632.2693],[35.6462,-15.5575,631.5911],[35.6487,-15.5584,631.7505],[35.6529,-15.5513,630.0553],[35.6512,-15.548,631.3092],[35.6452,-15.5474,632.46],[35.649,-15.5362,632.8962],[35.6452,-15.5311,633.2972],[35.6465,-15.5286,633.0735],[35.6419,-15.5259,633.5991]]]]}}