{"type": "Feature","bbox": [34.6718,-15.4383,34.7642,-15.3191],"geometry": {"type": "MultiPolygon","coordinates": [[[[34.7221,-15.4244,531.3579],[34.7324,-15.4137,663.3113],[34.7362,-15.4132,524.8792],[34.7453,-15.4172,467.9146],[34.7487,-15.414,464.2873],[34.7586,-15.384,490.7895],[34.76,-15.3753,615.7853],[34.7641,-15.3667,510.5504],[34.7624,-15.3604,533.179],[34.7642,-15.3545,501.1542],[34.7596,-15.3502,546.8837],[34.7611,-15.3345,498.5821],[34.7535,-15.3315,508.3049],[34.7498,-15.3323,538.0295],[34.7392,-15.33,643.1356],[34.7365,-15.3255,708.4581],[34.7124,-15.3233,823.7461],[34.7103,-15.3203,869.9166],[34.7051,-15.3191,944.7251],[34.7005,-15.3245,922.1492],[34.699,-15.3289,908.8624],[34.7007,-15.3361,893.757],[34.6993,-15.3426,857.6468],[34.7001,-15.3493,847.71],[34.6984,-15.3537,844.306],[34.6997,-15.358,824.5392],[34.6948,-15.3611,826.3849],[34.6958,-15.3665,810.1185],[34.6936,-15.3692,821.365],[34.6954,-15.3712,802.6458],[34.6959,-15.3822,797.3254],[34.6913,-15.38,816.5111],[34.6891,-15.3828,806.0846],[34.6862,-15.3808,815.1635],[34.6782,-15.3823,824.3581],[34.6718,-15.3886,859.5849],[34.6732,-15.3921,859.8932],[34.6871,-15.4012,765.7156],[34.6951,-15.402,686.9785],[34.6955,-15.4079,686.7948],[34.6917,-15.4287,657.2753],[34.6926,-15.4363,619.6018],[34.6944,-15.4383,575.3923],[34.7078,-15.4286,516.9726],[34.7195,-15.4232,515.9841],[34.7221,-15.4244,531.3579]]]]}
,"properties": {"GID_3": "MWI.18.4.3_1","GID_0": "MWI","country": "Malawi","GID_1": "MWI.18_1","province": "Neno","NL_NAME_1": "NA","GID_2": "MWI.18.4_1","county": "TANgozi","NL_NAME_2": "NA","city": "n.a.(2117)","VARNAME_3": "NA","NL_NAME_3": "NA","TYPE_3": "Unknown","ENGTYPE_3": "Unknown","CC_3": "NA","HASC_3": "NA","name": "n.a.(2117).city","area_km2": 75.02723,"hist_schema_id": "Elevation0-9000","hist_area_km2": {"400": 0.02044,"425": 0.16353,"450": 0.24529,"475": 0.67455,"500": 0.96083,"525": 1.4106,"550": 1.5537,"575": 2.55542,"600": 2.65758,"625": 3.10726,"650": 2.86189,"675": 4.2927,"700": 4.27227,"725": 4.92644,"750": 3.9453,"775": 5.82615,"800": 8.32034,"825": 6.25575,"850": 4.88623,"875": 3.65969,"900": 3.39403,"925": 3.33273,"950": 2.80109,"975": 1.92196,"1000": 0.71563,"1025": 0.18402,"1050": 0.08179}}}