{"type":"Feature","properties":{"GID_3":"MWI.2.9.11_1","GID_0":"MWI","country":"Malawi","GID_1":"MWI.2_1","province":"Blantyre","NL_NAME_1":"NA","GID_2":"MWI.2.9_1","county":"TASomba","NL_NAME_2":"NA","city":"n.a.(2636)","VARNAME_3":"NA","NL_NAME_3":"NA","TYPE_3":"Unknown","ENGTYPE_3":"Unknown","CC_3":"NA","HASC_3":"NA","name":"n.a.(2636).city"},
"geometry":{"type": "MultiPolygon","coordinates": [[[[35.0245,-15.8807,1028.3467],[35.0247,-15.8765,1048.0823],[35.0205,-15.8742,1083.8842],[35.0213,-15.8719,1090.4945],[35.0198,-15.8697,1096.1702],[35.017,-15.8745,1097.1157],[35.009,-15.88,1045.415],[35.0076,-15.8834,1028.7878],[34.9908,-15.8968,940.9609],[34.9914,-15.8997,867.8425],[35.0014,-15.9,968.4174],[35.0052,-15.9049,967.1919],[35.0084,-15.9039,964.1323],[35.0054,-15.9075,1012.2479],[35.0057,-15.9094,961.4978],[35.0071,-15.9124,893.1603],[35.0105,-15.912,926.9158],[35.0115,-15.9069,944.4522],[35.0144,-15.9055,938.1272],[35.0132,-15.9011,986.7388],[35.0174,-15.8951,959.0983],[35.0185,-15.8854,1005.8661],[35.0209,-15.8816,1030.7145],[35.0245,-15.8807,1028.3467]]]]}}