{"type":"Feature","properties":{"GID_3":"MWI.3.10.4_1","GID_0":"MWI","country":"Malawi","GID_1":"MWI.3_1","province":"Chikwawa","NL_NAME_1":"NA","GID_2":"MWI.3.10_1","county":"TAMaseya","NL_NAME_2":"NA","city":"n.a.(2890)","VARNAME_3":"NA","NL_NAME_3":"NA","TYPE_3":"Unknown","ENGTYPE_3":"Unknown","CC_3":"NA","HASC_3":"NA","name":"n.a.(2890).city"},
"geometry":{"type": "MultiPolygon","coordinates": [[[[34.8257,-16.1128,81.8903],[34.8301,-16.1165,82.4036],[34.84,-16.118,81.3528],[34.8421,-16.12,79.9444],[34.8534,-16.1161,76.3815],[34.856,-16.1131,76.0674],[34.8592,-16.1122,74.8844],[34.8659,-16.0883,73.2245],[34.86,-16.0903,72.5687],[34.8547,-16.0889,71.0],[34.8484,-16.0914,77.2133],[34.8436,-16.0881,77.1199],[34.8406,-16.0886,78.4933],[34.8355,-16.094,77.6097],[34.8278,-16.0976,76.3669],[34.8292,-16.1093,81.4933],[34.8257,-16.1128,81.8903]]]]}}