{"type":"Feature","properties":{"GID_3":"MWI.6.4.1_1","GID_0":"MWI","country":"Malawi","GID_1":"MWI.6_1","province":"Dedza","NL_NAME_1":"NA","GID_2":"MWI.6.4_1","county":"SCChilikumwendo","NL_NAME_2":"NA","city":"n.a.(1363)","VARNAME_3":"NA","NL_NAME_3":"NA","TYPE_3":"Unknown","ENGTYPE_3":"Unknown","CC_3":"NA","HASC_3":"NA","name":"n.a.(1363).city"},
"geometry":{"type": "MultiPolygon","coordinates": [[[[33.9898,-14.2332,1184.3241],[33.9812,-14.2254,1199.4808],[33.9532,-14.2054,1175.2007],[33.9495,-14.2121,1174.7542],[33.9556,-14.2202,1178.7848],[33.9511,-14.2283,1172.8917],[33.9461,-14.2327,1173.7861],[33.9456,-14.2528,1177.5533],[33.9485,-14.2585,1178.0374],[33.9468,-14.2646,1174.0786],[33.9648,-14.2642,1212.0802],[33.9724,-14.2576,1217.5939],[33.9649,-14.2445,1209.7761],[33.965,-14.2423,1208.5149],[33.9739,-14.2412,1197.9072],[33.9793,-14.2344,1194.2178],[33.9898,-14.2332,1184.3241]]]]}}