{"type": "Feature","bbox": [34.0666,-13.379,34.0975,-13.3406],"geometry": {"type": "MultiPolygon","coordinates": [[[[34.0787,-13.3423,764.0234],[34.0769,-13.347,785.6794],[34.0692,-13.3549,811.0887],[34.0705,-13.3622,788.3112],[34.0666,-13.3692,876.7599],[34.0727,-13.3676,803.8342],[34.0755,-13.3639,794.4985],[34.0819,-13.3618,776.1742],[34.0838,-13.3686,802.0363],[34.0832,-13.379,874.4791],[34.0951,-13.3697,800.5317],[34.0941,-13.3646,784.6995],[34.0975,-13.3574,777.8096],[34.0951,-13.3496,754.6763],[34.0956,-13.3458,752.3812],[34.0838,-13.3406,737.615],[34.0787,-13.3423,764.0234]]]]}
,"properties": {"GID_3": "MWI.23.6.4_1","GID_0": "MWI","country": "Malawi","GID_1": "MWI.23_1","province": "Ntchisi","NL_NAME_1": "NA","GID_2": "MWI.23.6_1","county": "TAKasakula","NL_NAME_2": "NA","city": "n.a.(586)","VARNAME_3": "NA","NL_NAME_3": "NA","TYPE_3": "Unknown","ENGTYPE_3": "Unknown","CC_3": "NA","HASC_3": "NA","name": "n.a.(586).city","area_km2": 7.488201,"hist_schema_id": "Elevation0-9000","hist_area_km2": {"725": 0.577629,"750": 1.959777,"775": 1.959723,"800": 2.104083,"825": 0.72197,"850": 0.165018}}}