{"type": "Feature","bbox": [33.5261,-11.9021,33.6145,-11.801],"geometry": {"type": "MultiPolygon","coordinates": [[[[33.5921,-11.8843,1308.4722],[33.5955,-11.8864,1300.8936],[33.5993,-11.886,1314.2017],[33.5989,-11.8759,1325.0692],[33.6105,-11.8441,1369.3909],[33.6144,-11.8376,1352.8669],[33.6145,-11.8358,1354.4893],[33.6069,-11.8289,1344.6831],[33.6045,-11.8197,1307.7859],[33.593,-11.8199,1290.8613],[33.5864,-11.8279,1289.9828],[33.5725,-11.8399,1262.0223],[33.5651,-11.8351,1269.9418],[33.5639,-11.8273,1259.781],[33.559,-11.8189,1259.9763],[33.5532,-11.8158,1252.3231],[33.5517,-11.8083,1255.3865],[33.5469,-11.8022,1258.0547],[33.5407,-11.801,1272.4336],[33.5366,-11.8028,1270.6348],[33.5283,-11.8014,1248.4995],[33.5261,-11.8055,1242.3544],[33.5377,-11.8139,1264.3687],[33.5417,-11.8203,1290.6102],[33.543,-11.8387,1318.3185],[33.5419,-11.8412,1331.9578],[33.5643,-11.842,1285.0513],[33.5598,-11.8467,1299.959],[33.5655,-11.8964,1366.9612],[33.5736,-11.9021,1317.8257],[33.578,-11.8877,1308.4016],[33.5814,-11.8819,1288.0553],[33.5843,-11.8794,1287.0034],[33.5921,-11.8843,1308.4722]]]]}
,"properties": {"GID_3": "MWI.17.7.3_1","GID_0": "MWI","country": "Malawi","GID_1": "MWI.17_1","province": "Mzimba","NL_NAME_1": "NA","GID_2": "MWI.17.7_1","county": "TAM'Mbelwa","NL_NAME_2": "NA","city": "n.a.(262)","VARNAME_3": "NA","NL_NAME_3": "NA","TYPE_3": "Unknown","ENGTYPE_3": "Unknown","CC_3": "NA","HASC_3": "NA","name": "n.a.(262).city","area_km2": 40.89916,"hist_schema_id": "Elevation0-9000","hist_area_km2": {"1225": 0.22829,"1250": 1.63952,"1275": 9.13048,"1300": 13.36333,"1325": 10.97656,"1350": 4.66869,"1375": 0.83004,"1400": 0.06225}}}