{"type": "Feature","bbox": [34.9584,-15.0482,35.3005,-14.7382],"geometry": {"type": "MultiPolygon","coordinates": [[[[35.1928,-15.0379,496.6355],[35.1947,-15.0417,494.3635],[35.2081,-15.0482,485.7321],[35.2227,-15.0472,473.9072],[35.2275,-15.0349,474.8086],[35.2275,-15.0292,475.2104],[35.2307,-15.0245,473.5],[35.2308,-15.0159,473.5],[35.235,-15.0062,473.8645],[35.2343,-15.0042,473.5],[35.2405,-14.9931,479.0628],[35.2512,-14.9837,476.4852],[35.2574,-14.9737,478.312],[35.2636,-14.9714,474.1899],[35.2684,-14.9716,473.5],[35.2717,-14.9684,474.6334],[35.2722,-14.9493,477.8991],[35.2828,-14.9348,474.3119],[35.2862,-14.92,475.5709],[35.29,-14.9127,474.1649],[35.2895,-14.8909,473.5],[35.2876,-14.8793,476.5229],[35.2966,-14.8776,474.9922],[35.3005,-14.8723,473.5],[35.2927,-14.8565,474.6166],[35.2906,-14.8419,475.8777],[35.2938,-14.831,473.5],[35.2921,-14.8141,473.5],[35.2896,-14.81,473.5],[35.2836,-14.8051,473.5],[35.2818,-14.8006,473.5],[35.2826,-14.7776,473.5],[35.249,-14.7915,483.3333],[35.2349,-14.7949,488.6882],[35.231,-14.7945,489.7435],[35.2215,-14.7886,489.5218],[35.1953,-14.7505,484.2962],[35.1838,-14.743,493.2007],[35.1794,-14.7382,493.0213],[35.1753,-14.7457,499.095],[35.1703,-14.749,504.513],[35.1616,-14.7592,516.6437],[35.1513,-14.7664,556.8124],[34.9711,-14.7746,704.8196],[34.9725,-14.7756,702.6605],[34.9721,-14.7809,701.6551],[34.9695,-14.7877,698.9896],[34.9741,-14.7951,690.6345],[34.9728,-14.8008,685.5592],[34.9674,-14.8045,685.929],[34.9624,-14.8142,675.992],[34.9618,-14.8249,667.5686],[34.9636,-14.8257,666.4605],[34.9611,-14.8295,665.2403],[34.9614,-14.8365,660.6379],[34.9584,-14.8472,653.939],[34.9641,-14.8666,645.7975],[34.9611,-14.8676,646.7802],[34.9752,-14.8732,639.522],[34.9825,-14.8605,655.2462],[34.9876,-14.8452,675.9207],[34.9998,-14.861,657.2692],[35.0048,-14.8635,658.1272],[35.009,-14.8688,664.2952],[35.0115,-14.8854,649.4749],[35.0151,-14.8899,652.4197],[35.0145,-14.9082,688.0112],[35.0326,-14.9189,660.3269],[35.0338,-14.9253,654.5885],[35.0435,-14.9247,653.5406],[35.0585,-14.9274,633.3714],[35.0671,-14.9356,630.3662],[35.0676,-14.9395,625.5258],[35.0737,-14.9502,613.345],[35.0809,-14.9519,609.1608],[35.1391,-14.9989,580.5285],[35.1377,-15.0048,606.7506],[35.1406,-15.0113,565.7316],[35.1637,-15.0213,525.0611],[35.1836,-15.0342,504.3353],[35.1841,-15.0377,501.4831],[35.1928,-15.0379,496.6355]]]]}
,"properties": {"GID_2": "MWI.1.2_1","GID_0": "MWI","country": "Malawi","GID_1": "MWI.1_1","province": "Balaka","NL_NAME_1": "NA","county": "TAKalembo","VARNAME_2": "NA","NL_NAME_2": "NA","TYPE_2": "TraditionalAuthority","ENGTYPE_2": "TraditionalAuthority","CC_2": "NA","HASC_2": "NA","name": "T_A_Kalembo.county","area_km2": 746.3841,"hist_schema_id": "Elevation0-9000","hist_area_km2": {"475": 97.5709,"500": 181.8358,"525": 78.436,"550": 23.1934,"575": 46.4687,"600": 72.0858,"625": 86.4573,"650": 79.2685,"675": 46.6298,"700": 25.459,"725": 8.8763,"750": 0.082,"775": 0.0205}}}