{"type": "Feature","bbox": [33.1898,-13.7705,33.2822,-13.7217],"geometry": {"type": "MultiPolygon","coordinates": [[[[33.2679,-13.7217,1046.3217],[33.262,-13.7275,1051.1318],[33.2564,-13.7299,1052.3192],[33.2307,-13.7309,1054.4797],[33.2265,-13.7338,1055.2336],[33.2185,-13.7353,1054.8104],[33.2136,-13.7397,1056.3829],[33.1951,-13.7477,1061.1642],[33.1924,-13.7474,1058.8945],[33.1898,-13.7683,1075.9357],[33.2173,-13.7705,1082.256],[33.2262,-13.7662,1080.1377],[33.2413,-13.7672,1072.8633],[33.2449,-13.7597,1079.8617],[33.2507,-13.7655,1069.7256],[33.2605,-13.768,1056.5254],[33.2647,-13.764099999999999,1061.2358],[33.2719,-13.7619,1057.6654],[33.2799,-13.7536,1055.3828],[33.2822,-13.7459,1053.5737],[33.2769,-13.7319,1049.0721],[33.2679,-13.7217,1046.3217]]]]}
,"properties": {"GID_3": "MWI.14.7.4_1","GID_0": "MWI","country": "Malawi","GID_1": "MWI.14_1","province": "Mchinji","NL_NAME_1": "NA","GID_2": "MWI.14.7_1","county": "TAZulu","NL_NAME_2": "NA","city": "n.a.(880)","VARNAME_3": "NA","NL_NAME_3": "NA","TYPE_3": "Unknown","ENGTYPE_3": "Unknown","CC_3": "NA","HASC_3": "NA","name": "n.a.(880).city","area_km2": 34.35184,"hist_schema_id": "Elevation0-9000","hist_area_km2": {"1050": 12.58384,"1075": 21.45911,"1100": 0.3089}}}