{"type":"Feature","properties":{"GID_3":"MWI.15.6.8_1","GID_0":"MWI","country":"Malawi","GID_1":"MWI.15_1","province":"Mulanje","NL_NAME_1":"NA","GID_2":"MWI.15.6_1","county":"TAMabuka","NL_NAME_2":"NA","city":"n.a.(2798)","VARNAME_3":"NA","NL_NAME_3":"NA","TYPE_3":"Unknown","ENGTYPE_3":"Unknown","CC_3":"NA","HASC_3":"NA","name":"n.a.(2798).city"},
"geometry":{"type": "MultiPolygon","coordinates": [[[[35.6121,-16.0398,681.0849],[35.6155,-16.0416,690.6092],[35.6221,-16.0415,770.3505],[35.629,-16.0359,1138.0881],[35.63,-16.0404,864.6056],[35.6341,-16.0441,763.9955],[35.6431,-16.0457,665.0203],[35.6447,-16.0408,750.1581],[35.6445,-16.0362,934.877],[35.6411,-16.0361,852.3527],[35.64,-16.0328,808.8414],[35.6322,-16.0258,943.3416],[35.6244,-16.0289,1016.9984],[35.6122,-16.0298,738.6679],[35.6121,-16.0398,681.0849]]]]}}