{"type": "Feature","bbox": [35.141,-17.0514,35.2573,-16.9994],"geometry": {"type": "MultiPolygon","coordinates": [[[[35.249,-17.0257,33.1151],[35.2471,-17.0184,33.771],[35.2403,-17.0114,34.6359],[35.2407,-17.0005,34.0791],[35.2391,-16.9996,34.7207],[35.2359,-17.0018,35.2495],[35.2312,-17.0025,39.8669],[35.2256,-17.0001,42.891],[35.2167,-16.9994,54.2428],[35.2132,-17.0038,54.0269],[35.2055,-17.0056,61.6319],[35.2041,-17.0099,64.3234],[35.1963,-17.0196,73.7588],[35.1856,-17.0244,91.3871],[35.179,-17.03,98.4537],[35.1694,-17.0283,113.4775],[35.1663,-17.0311,114.8516],[35.1667,-17.025,123.5506],[35.1652,-17.0244,129.5292],[35.1616,-17.0262,158.6498],[35.16,-17.0303,185.9741],[35.1552,-17.0282,172.1344],[35.1544,-17.0326,178.7292],[35.1497,-17.0322,188.7642],[35.1482,-17.0344,194.6821],[35.1454,-17.035,201.0414],[35.141,-17.0428,255.4966],[35.1422,-17.0441,327.9847],[35.1538,-17.0387,319.0305],[35.1577,-17.0438,243.3379],[35.1657,-17.0469,153.8643],[35.1797,-17.0416,96.5424],[35.1876,-17.041,77.9093],[35.2022,-17.0505,56.6919],[35.2106,-17.0514,48.1212],[35.216,-17.0424,49.5806],[35.2246,-17.0443,40.7012],[35.2269,-17.0431,39.4568],[35.2534,-17.05,33.9328],[35.2573,-17.0444,34.2859],[35.2497,-17.0334,32.667],[35.252,-17.0304,32.7221],[35.249,-17.0257,33.1151]]]]}
,"properties": {"GID_2": "MWI.21.5_1","GID_0": "MWI","country": "Malawi","GID_1": "MWI.21_1","province": "Nsanje","NL_NAME_1": "NA","county": "TAChimombo","VARNAME_2": "NA","NL_NAME_2": "NA","TYPE_2": "TraditionalAuthority","ENGTYPE_2": "TraditionalAuthority","CC_2": "NA","HASC_2": "NA","name": "T_A_Chimombo.county","area_km2": 35.57849,"hist_schema_id": "Elevation0-9000","hist_area_km2": {"25": 8.89965,"50": 12.81261,"75": 7.31842,"100": 1.64204,"125": 1.05413,"150": 0.89197,"175": 0.85142,"200": 0.52707,"225": 0.62842,"250": 0.52706,"275": 0.24326,"300": 0.12163,"325": 0.06081}}}