{"type":"Feature","properties":{"GID_3":"MWI.13.8.18_1","GID_0":"MWI","country":"Malawi","GID_1":"MWI.13_1","province":"Mangochi","NL_NAME_1":"NA","GID_2":"MWI.13.8_1","county":"TAChimwala","NL_NAME_2":"NA","city":"n.a.(1719)","VARNAME_3":"NA","NL_NAME_3":"NA","TYPE_3":"Unknown","ENGTYPE_3":"Unknown","CC_3":"NA","HASC_3":"NA","name":"n.a.(1719).city"},
"geometry":{"type": "MultiPolygon","coordinates": [[[[35.1864,-14.6416,473.5],[35.1754,-14.6468,573.4797],[35.1765,-14.6574,520.6768],[35.1746,-14.6628,530.7902],[35.1699,-14.6677,610.3043],[35.1712,-14.6689,560.6849],[35.1881,-14.668,478.9847],[35.1829,-14.6551,478.6599],[35.1864,-14.6416,473.5]]]]}}