{"type":"Feature","properties":{"GID_3":"MWI.9.16.23_1","GID_0":"MWI","country":"Malawi","GID_1":"MWI.9_1","province":"Kasungu","NL_NAME_1":"NA","GID_2":"MWI.9.16_1","county":"TAWimbe","NL_NAME_2":"NA","city":"n.a.(464)","VARNAME_3":"NA","NL_NAME_3":"NA","TYPE_3":"Unknown","ENGTYPE_3":"Unknown","CC_3":"NA","HASC_3":"NA","name":"n.a.(464).city"},
"geometry":{"type": "MultiPolygon","coordinates": [[[[33.7824,-13.0735,1028.8839],[33.7883,-13.0623,1056.0699],[33.7861,-13.0589,1068.5499],[33.7879,-13.0551,1064.5933],[33.7848,-13.0537,1072.1606],[33.7811,-13.0463,1052.936],[33.7746,-13.0434,1078.0068],[33.7728,-13.0396,1081.8535],[33.7658,-13.043,1078.7767],[33.7614,-13.0475,1074.7778],[33.7595,-13.0331,1081.6224],[33.7526,-13.0345,1092.2649],[33.7482,-13.0384,1109.6421],[33.7389,-13.0424,1090.3318],[33.7383,-13.0313,1103.8646],[33.747,-13.0124,1119.3284],[33.7501,-13.0085,1103.0504],[33.7576,-13.0045,1093.4781],[33.7532,-13.0037,1101.3362],[33.7392,-13.0102,1133.7672],[33.7328,-13.011,1142.7124],[33.7245,-13.0223,1136.7632],[33.7177,-13.0277,1125.1038],[33.7063,-13.0305,1166.2295],[33.7057,-13.0318,1163.1895],[33.7106,-13.0418,1148.8142],[33.7013,-13.0513,1135.8331],[33.6909,-13.0544,1157.1172],[33.686,-13.0488,1168.4058],[33.6811,-13.0522,1148.8455],[33.6754,-13.0441,1159.7045],[33.6723,-13.043,1157.9702],[33.6699,-13.044,1159.4141],[33.6689,-13.0463,1151.6968],[33.6729,-13.0549,1131.9443],[33.6615,-13.0739,1106.1581],[33.6703,-13.0785,1103.1381],[33.6692,-13.0898,1106.9459],[33.6714,-13.0935,1099.4113],[33.6744,-13.0941,1093.4961],[33.6828,-13.0904,1089.254],[33.6931,-13.0785,1090.0999],[33.6985,-13.0751,1092.1879],[33.7111,-13.0764,1080.2433],[33.7197,-13.0705,1079.918],[33.7288,-13.0676,1074.8245],[33.7361,-13.0579,1071.8812],[33.7484,-13.0587,1062.74],[33.7533,-13.0535,1053.3121],[33.7563,-13.0552,1049.7206],[33.7602,-13.0609,1054.5505],[33.7672,-13.064,1042.937],[33.7716,-13.0593,1040.9886],[33.7782,-13.0658,1036.6709],[33.7824,-13.0735,1028.8839]]]]}}