{"type": "Feature","bbox": [34.0748,-13.9328,34.1404,-13.8461],"geometry": {"type": "MultiPolygon","coordinates": [[[[34.1261,-13.9328,1249.0742],[34.1403,-13.9175,1219.4417],[34.1404,-13.9144,1236.2275],[34.1374,-13.911,1189.9666],[34.1384,-13.9007,1160.5034],[34.1367,-13.8932,1170.9084],[34.1306,-13.8836,1182.3398],[34.1218,-13.8839,1175.2986],[34.1188,-13.8789,1181.8799],[34.1093,-13.8768,1108.9541],[34.0969,-13.8658,1072.5504],[34.1159,-13.8536,1113.7175],[34.103,-13.8461,874.1349],[34.0938,-13.854,823.0242],[34.0873,-13.8496,833.6205],[34.082,-13.8505,866.5792],[34.0808,-13.8539,862.21],[34.0818,-13.8701,821.5841],[34.0748,-13.881,923.4946],[34.0797,-13.8819,951.6919],[34.0786,-13.8851,896.4907],[34.0858,-13.8839,1061.8136],[34.0877,-13.8862,1026.377],[34.0935,-13.8881,999.8185],[34.0953,-13.8914,1010.2141],[34.099,-13.8936,1033.4554],[34.1031,-13.9033,1054.7039],[34.1018,-13.9074,1107.9082],[34.1082,-13.9135,1108.1368],[34.106,-13.9215,1147.2192],[34.1097,-13.9239,1148.6543],[34.1117,-13.9285,1158.875],[34.1261,-13.9328,1249.0742]]]]}
,"properties": {"GID_3": "MWI.11.2.1_1","GID_0": "MWI","country": "Malawi","GID_1": "MWI.11_1","province": "Lilongwe","NL_NAME_1": "NA","GID_2": "MWI.11.2_1","county": "SCChitekwele","NL_NAME_2": "NA","city": "n.a.(1004)","VARNAME_3": "NA","NL_NAME_3": "NA","TYPE_3": "Unknown","ENGTYPE_3": "Unknown","CC_3": "NA","HASC_3": "NA","name": "n.a.(1004).city","area_km2": 30.42041,"hist_schema_id": "Elevation0-9000","hist_area_km2": {"775": 0.16469,"800": 0.39112,"825": 0.76164,"850": 0.51462,"875": 0.61754,"900": 0.69988,"925": 0.55579,"950": 0.67929,"975": 0.74103,"1000": 0.74104,"1025": 0.53518,"1050": 0.90565,"1075": 2.40817,"1100": 2.94331,"1125": 3.29315,"1150": 2.28455,"1175": 2.65505,"1200": 1.62591,"1225": 1.27601,"1250": 0.96728,"1275": 1.02901,"1300": 1.19365,"1325": 1.23481,"1350": 0.90552,"1375": 0.55566,"1400": 0.30869,"1425": 0.14406,"1450": 0.2058,"1475": 0.06174,"1500": 0.02058}}}