{"type": "Feature","bbox": [34.7181,-14.6219,34.7521,-14.5902],"geometry": {"type": "MultiPolygon","coordinates": [[[[34.7181,-14.5987,618.002],[34.7277,-14.6105,632.3051],[34.7471,-14.6219,636.6698],[34.7481,-14.6155,627.0978],[34.7521,-14.6131,621.762],[34.75,-14.6019,613.2307],[34.7361,-14.5964,612.5085],[34.7273,-14.5902,599.5916],[34.7213,-14.5931,607.877],[34.7181,-14.5987,618.002]]]]}
,"properties": {"GID_3": "MWI.22.3.15_1","GID_0": "MWI","country": "Malawi","GID_1": "MWI.22_1","province": "Ntcheu","NL_NAME_1": "NA","GID_2": "MWI.22.3_1","county": "SCGoodsonGanya","NL_NAME_2": "NA","city": "n.a.(1691)","VARNAME_3": "NA","NL_NAME_3": "NA","TYPE_3": "Unknown","ENGTYPE_3": "Unknown","CC_3": "NA","HASC_3": "NA","name": "n.a.(1691).city","area_km2": 6.668052,"hist_schema_id": "Elevation0-9000","hist_area_km2": {"600": 1.149007,"625": 5.49853,"650": 0.020516}}}