{"type": "Feature","bbox": [33.5167,-12.015,33.6571,-11.9128],"geometry": {"type": "MultiPolygon","coordinates": [[[[33.593,-11.9133,1348.1211],[33.5737,-11.9128,1322.5276],[33.5632,-11.9221,1357.6084],[33.5555,-11.9349,1402.6261],[33.5544,-11.9392,1384.5306],[33.5553,-11.9456,1393.1803],[33.5483,-11.9606,1352.892],[33.5386,-11.9753,1359.6365],[33.5255,-11.9905,1380.5582],[33.5167,-12.0055,1353.489],[33.5333,-12.015,1409.5475],[33.5589,-12.0083,1436.2061],[33.5817,-12.0082,1456.6075],[33.5944,-12.0123,1442.5948],[33.6003,-12.0087,1411.4696],[33.6049,-12.0123,1444.5603],[33.6107,-12.0136,1471.491],[33.6166,-12.0121,1466.3666],[33.6212,-12.0082,1516.6449],[33.6341,-12.0101,1561.1455],[33.6356,-12.0057,1500.814],[33.6552,-11.98,1407.0056],[33.6571,-11.9735,1373.1962],[33.6564,-11.9644,1363.5421],[33.6377,-11.9515,1332.1995],[33.6232,-11.9232,1317.2037],[33.6167,-11.9178,1314.3397],[33.6147,-11.9136,1309.1283],[33.606,-11.9198,1376.8792],[33.6012,-11.9175,1359.316],[33.5988,-11.9134,1351.3816],[33.593,-11.9133,1348.1211]]]]}
,"properties": {"GID_3": "MWI.17.11.4_1","GID_0": "MWI","country": "Malawi","GID_1": "MWI.17_1","province": "Mzimba","NL_NAME_1": "NA","GID_2": "MWI.17.11_1","county": "TAMzikubola","NL_NAME_2": "NA","city": "n.a.(286)","VARNAME_3": "NA","NL_NAME_3": "NA","TYPE_3": "Unknown","ENGTYPE_3": "Unknown","CC_3": "NA","HASC_3": "NA","name": "n.a.(286).city","area_km2": 111.85764,"hist_schema_id": "Elevation0-9000","hist_area_km2": {"1300": 0.12447,"1325": 4.41851,"1350": 14.18824,"1375": 25.82379,"1400": 31.65085,"1425": 20.61578,"1450": 9.66459,"1475": 3.48418,"1500": 1.55541,"1525": 0.22812,"1550": 0.04148,"1575": 0.06221}}}