{"type":"Feature","properties":{"GID_3":"MWI.11.11.9_1","GID_0":"MWI","country":"Malawi","GID_1":"MWI.11_1","province":"Lilongwe","NL_NAME_1":"NA","GID_2":"MWI.11.11_1","county":"TAKalolo","NL_NAME_2":"NA","city":"n.a.(1073)","VARNAME_3":"NA","NL_NAME_3":"NA","TYPE_3":"Unknown","ENGTYPE_3":"Unknown","CC_3":"NA","HASC_3":"NA","name":"n.a.(1073).city"},
"geometry":{"type": "MultiPolygon","coordinates": [[[[33.3428,-13.9207,1117.9014],[33.3402,-13.928,1110.4478],[33.3414,-13.9337,1120.1741],[33.3528,-13.9397,1132.6433],[33.3558,-13.9478,1126.1138],[33.3682,-13.9595,1123.5388],[33.3735,-13.9722,1144.1674],[33.3842,-13.9842,1146.9685],[33.3876,-13.9853,1149.0469],[33.3884,-13.9773,1158.3535],[33.3865,-13.9742,1158.9587],[33.3867,-13.9713,1160.0015],[33.3822,-13.9675,1153.9207],[33.3839,-13.9589,1148.3594],[33.3884,-13.9639,1154.0574],[33.3946,-13.9671,1166.2131],[33.4055,-13.9671,1166.1025],[33.4152,-13.964,1178.6638],[33.4205,-13.9665,1183.6995],[33.4191,-13.9625,1172.783],[33.4094,-13.9526,1168.693],[33.4143,-13.9518,1175.6799],[33.4227,-13.9451,1191.0933],[33.4229,-13.942,1194.5187],[33.4076,-13.9466,1174.6228],[33.3926,-13.946,1151.7443],[33.3873,-13.9476,1145.0981],[33.3841,-13.9512,1143.7612],[33.381,-13.9499,1137.6185],[33.3781,-13.9511,1141.2094],[33.375,-13.946,1140.6929],[33.3701,-13.9425,1138.3195],[33.3739,-13.9351,1136.6855],[33.3695,-13.9281,1140.2906],[33.3534,-13.922,1112.0714],[33.3428,-13.9207,1117.9014]]]]}}