{"type":"Feature","properties":{"GID_2":"MWI.21.10_1","GID_0":"MWI","country":"Malawi","GID_1":"MWI.21_1","province":"Nsanje","NL_NAME_1":"NA","county":"TANyachikadza","VARNAME_2":"NA","NL_NAME_2":"NA","TYPE_2":"TraditionalAuthority","ENGTYPE_2":"TraditionalAuthority","CC_2":"NA","HASC_2":"NA","name":"T_A_Nyachikadza.county"},
"geometry":{"type": "MultiPolygon","coordinates": [[[[35.2545,-17.0722,33.6998],[35.2541,-17.0733,33.6362],[35.2587,-17.0769,33.6727],[35.2626,-17.0901,33.0488],[35.2665,-17.0956,33.7063],[35.2717,-17.0987,33.2755],[35.2734,-17.1024,32.3599],[35.2732,-17.111,32.7387],[35.2692,-17.1163,32.182],[35.2655,-17.1258,32.4811],[35.297,-17.1262,34.0511],[35.2988,-17.1241,34.7999],[35.3068,-17.1242,35.3599],[35.3092,-17.1225,33.9062],[35.3101,-17.1209,35.5555],[35.3065,-17.1173,34.7622],[35.3059,-17.1145,35.8113],[35.3064,-17.1032,35.5731],[35.3031,-17.0957,35.1715],[35.3077,-17.0785,34.9851],[35.3065,-17.0675,34.6388],[35.3126,-17.0603,35.2623],[35.309,-17.0578,35.5827],[35.2973,-17.0609,34.9864],[35.2954,-17.0543,35.1863],[35.2972,-17.0506,35.9319],[35.296,-17.038,35.8157],[35.2926,-17.0318,34.8623],[35.2951,-17.0219,37.1002],[35.2943,-17.0114,35.9049],[35.2959,-17.0015,35.3233],[35.3046,-16.9817,36.0302],[35.2961,-16.9846,35.5678],[35.2646,-16.9827,35.6164],[35.2476,-16.9835,34.5563],[35.2482,-16.9898,34.6286],[35.2391,-16.9996,34.7207],[35.2409,-17.0014,34.2152],[35.2403,-17.0114,34.6359],[35.2471,-17.0184,33.771],[35.2486,-17.0248,33.1151],[35.2518,-17.0295,32.9793],[35.2497,-17.0334,32.667],[35.2573,-17.0444,34.2859],[35.2502,-17.0546,33.6933],[35.2561,-17.0679,33.7051],[35.2545,-17.0722,33.6998]]]]}}