{"type": "Feature","bbox": [33.4528,-13.2042,33.5888,-12.8461],"geometry": {"type": "MultiPolygon","coordinates": [[[[33.4614,-13.1326,1112.1196],[33.4568,-13.1437,1100.9268],[33.4573,-13.1644,1087.9924],[33.4537,-13.1759,1067.92],[33.4675,-13.1813,1062.3148],[33.4753,-13.1898,1060.2472],[33.4887,-13.1953,1057.7462],[33.4982,-13.2023,1057.8611],[33.5044,-13.1971,1072.8064],[33.5074,-13.1883,1087.0669],[33.513,-13.1804,1100.6998],[33.5175,-13.2001,1081.1777],[33.5195,-13.204,1074.8359],[33.5212,-13.2042,1072.2521],[33.5229,-13.1995,1076.6755],[33.523,-13.1851,1084.7114],[33.532,-13.1796,1100.9331],[33.5358,-13.1716,1107.5411],[33.5512,-13.1578,1087.465],[33.5397,-13.1511,1085.7747],[33.5406,-13.1454,1092.1069],[33.5378,-13.1383,1098.2157],[33.5484,-13.1275,1098.3451],[33.5505,-13.1143,1109.3162],[33.5473,-13.1061,1117.5887],[33.5268,-13.0896,1123.6566],[33.5097,-13.0712,1090.1631],[33.5147,-13.0691,1100.2103],[33.5194,-13.0709,1103.241],[33.5252,-13.0683,1092.5153],[33.5293,-13.0525,1076.5396],[33.536,-13.0373,1061.1047],[33.5381,-13.0356,1058.4354],[33.5503,-13.0329,1063.5081],[33.5484,-13.0239,1042.6533],[33.5399,-13.0133,1050.0463],[33.5411,-13.0019,1023.6355],[33.5382,-12.999,1029.099],[33.5376,-12.9839,1017.1697],[33.5274,-12.9768,1014.087],[33.5157,-12.9563,1005.797],[33.5211,-12.9524,1007.1679],[33.5213,-12.9481,1008.4349],[33.5241,-12.9461,986.4558],[33.5253,-12.9361,993.4501],[33.5352,-12.9281,989.2868],[33.5355,-12.9232,1001.172],[33.5555,-12.9108,990.876],[33.5582,-12.907,978.1344],[33.5601,-12.8977,991.0181],[33.5765,-12.8873,971.7996],[33.5844,-12.8725,964.16],[33.5888,-12.8673,946.6837],[33.5884,-12.8622,961.4673],[33.5716,-12.8617,950.8676],[33.5622,-12.8644,943.1749],[33.5582,-12.8608,949.6687],[33.5447,-12.8637,952.5405],[33.5295,-12.859,949.736],[33.5261,-12.8562,951.5092],[33.5218,-12.8489,954.326],[33.5138,-12.8474,954.8393],[33.5143,-12.8461,957.5563],[33.5073,-12.849,955.6147],[33.4986,-12.8649,958.9081],[33.4948,-12.8679,972.1158],[33.466,-12.8793,970.4506],[33.4528,-12.8813,969.0616],[33.4783,-12.9314,1044.9805],[33.4749,-12.9458,1039.2949],[33.4749,-12.9563,1038.9232],[33.4601,-12.9837,1043.7192],[33.4568,-13.0046,1062.0394],[33.4976,-13.0051,1025.725],[33.496,-13.0113,1021.6066],[33.4967,-13.0169,1027.5629],[33.5031,-13.0308,1039.5665],[33.4986,-13.0582,1065.9111],[33.4887,-13.0576,1049.0],[33.4824,-13.0616,1054.7822],[33.4713,-13.0619,1068.2856],[33.4711,-13.0673,1075.9318],[33.4695,-13.0701,1067.9131],[33.4593,-13.0745,1076.5913],[33.4556,-13.08,1086.5059],[33.4547,-13.1002,1108.5659],[33.4596,-13.1144,1114.3262],[33.4614,-13.1326,1112.1196]]]]}
,"properties": {"GID_2": "MWI.9.12_1","GID_0": "MWI","country": "Malawi","GID_1": "MWI.9_1","province": "Kasungu","NL_NAME_1": "NA","county": "TAKaomba","VARNAME_2": "NA","NL_NAME_2": "NA","TYPE_2": "TraditionalAuthority","ENGTYPE_2": "TraditionalAuthority","CC_2": "NA","HASC_2": "NA","name": "T_A_Kaomba.county","area_km2": 283.0827,"hist_schema_id": "Elevation0-9000","hist_area_km2": {"950": 8.8054,"975": 19.9043,"1000": 30.2763,"1025": 46.3479,"1050": 44.8532,"1075": 44.2128,"1100": 62.7481,"1125": 25.7695,"1150": 0.1239,"1175": 0.0413}}}