{"type": "Feature","bbox": [33.7356,-13.5324,33.7456,-13.5166],"geometry": {"type": "MultiPolygon","coordinates": [[[[33.7379,-13.5324,1216.9922],[33.7456,-13.5301,1207.2401],[33.7438,-13.5269,1204.3977],[33.7439,-13.5197,1188.9233],[33.7426,-13.5176,1192.9065],[33.7391,-13.5166,1184.4225],[33.739,-13.5232,1199.7958],[33.7356,-13.5291,1224.813],[33.7379,-13.5324,1216.9922]]]]}
,"properties": {"GID_3": "MWI.7.2.2_1","GID_0": "MWI","country": "Malawi","GID_1": "MWI.7_1","province": "Dowa","NL_NAME_1": "NA","GID_2": "MWI.7.2_1","county": "MponelaUrban","NL_NAME_2": "NA","city": "n.a.(696)","VARNAME_3": "NA","NL_NAME_3": "NA","TYPE_3": "Unknown","ENGTYPE_3": "Unknown","CC_3": "NA","HASC_3": "NA","name": "n.a.(696).city","area_km2": 1.0100943,"hist_schema_id": "Elevation0-9000","hist_area_km2": {"1175": 0.1649167,"1200": 0.6802669,"1225": 0.1649106}}}