{"type":"Feature","properties":{"GID_3":"MWI.13.7.3_1","GID_0":"MWI","country":"Malawi","GID_1":"MWI.13_1","province":"Mangochi","NL_NAME_1":"NA","GID_2":"MWI.13.7_1","county":"SCNamabvi","NL_NAME_2":"NA","city":"n.a.(1238)","VARNAME_3":"NA","NL_NAME_3":"NA","TYPE_3":"Unknown","ENGTYPE_3":"Unknown","CC_3":"NA","HASC_3":"NA","name":"n.a.(1238).city"},
"geometry":{"type": "MultiPolygon","coordinates": [[[[35.1825,-14.1252,476.4796],[35.1899,-14.1237,479.5412],[35.188,-14.1201,480.747],[35.1875,-14.1133,479.6862],[35.1913,-14.1119,483.727],[35.1992,-14.1122,488.8467],[35.2047,-14.0921,502.9788],[35.2019,-14.0891,502.7516],[35.1939,-14.0922,491.1241],[35.1748,-14.0922,474.5],[35.1792,-14.1075,474.9689],[35.1788,-14.1209,474.5],[35.1825,-14.1252,476.4796]]]]}}