{"type": "Feature","bbox": [34.3495,-14.2469,34.4873,-13.9806],"geometry": {"type": "MultiPolygon","coordinates": [[[[34.4407,-14.1981,917.8286],[34.4511,-14.1755,862.6421],[34.4526,-14.1537,907.119],[34.45,-14.1435,980.2156],[34.4503,-14.1385,1002.6083],[34.4685,-14.1284,693.4811],[34.4704,-14.1238,663.7562],[34.4732,-14.1213,650.7772],[34.4815,-14.1198,629.8519],[34.4873,-14.1139,582.8007],[34.487,-14.1126,545.3199],[34.4785,-14.0958,591.7225],[34.4683,-14.0924,573.3127],[34.4627,-14.0843,580.6129],[34.4549,-14.0777,575.1851],[34.4533,-14.0732,632.356],[34.4542,-14.0712,574.5177],[34.4517,-14.0666,658.8684],[34.4344,-14.0577,646.2693],[34.423,-14.0397,743.7892],[34.4122,-14.0273,730.452],[34.4045,-14.0209,699.8588],[34.3923,-14.0139,692.6016],[34.3887,-14.0078,721.4607],[34.3843,-13.9918,668.2619],[34.379,-13.9888,673.0917],[34.3731,-13.9806,692.704],[34.369,-13.9922,687.0494],[34.3664,-13.995,693.6671],[34.3661,-13.9994,728.4399],[34.3595,-14.0018,744.3066],[34.361,-14.0049,755.3162],[34.3568,-14.0083,804.8924],[34.356,-14.0142,760.7424],[34.3517,-14.0151,780.8548],[34.3537,-14.0184,778.8131],[34.3519,-14.0203,779.8578],[34.3528,-14.0245,798.0026],[34.3554,-14.0258,920.428],[34.3561,-14.0286,817.9498],[34.3536,-14.034,884.4734],[34.3541,-14.0452,860.9914],[34.3495,-14.048,880.1029],[34.3512,-14.0481,871.972],[34.3566,-14.0552,947.606],[34.3591,-14.0535,935.5647],[34.3604,-14.0553,937.5686],[34.3661,-14.0562,1095.703],[34.3702,-14.0621,974.9161],[34.3726,-14.0605,993.5513],[34.3759,-14.0619,1023.1605],[34.3804,-14.0532,1177.688],[34.3886,-14.0545,1309.2305],[34.4049,-14.0516,1311.5612],[34.4098,-14.0534,1312.4673],[34.4028,-14.0708,1164.9316],[34.3994,-14.0719,1084.3452],[34.3976,-14.0757,1150.1648],[34.4021,-14.0946,1469.1967],[34.3973,-14.0964,1447.7754],[34.3944,-14.1004,1416.1959],[34.381,-14.0962,1315.7509],[34.3762,-14.0966,1292.8939],[34.3768,-14.1006,1291.2886],[34.3794,-14.1033,1310.3322],[34.3885,-14.1085,1349.5266],[34.3869,-14.1185,1387.4719],[34.3914,-14.1269,1476.574],[34.3837,-14.1334,1521.088],[34.3902,-14.1409,1391.1598],[34.4009,-14.1425,1303.0259],[34.4021,-14.1452,1279.9357],[34.3934,-14.1489,1303.785],[34.388,-14.1546,1329.8318],[34.3838,-14.1559,1367.2498],[34.3799,-14.1611,1439.8325],[34.3801,-14.1631,1467.5601],[34.3837,-14.1668,1420.6993],[34.3851,-14.1711,1323.9607],[34.3966,-14.1687,1201.1063],[34.4132,-14.1609,1159.4043],[34.4105,-14.1671,1030.932],[34.3988,-14.1792,1419.3538],[34.3971,-14.1842,1472.986],[34.4042,-14.1888,1411.2725],[34.4111,-14.1872,1315.1072],[34.4185,-14.1883,1184.3024],[34.4247,-14.1942,1097.8538],[34.4259,-14.2009,1123.7412],[34.4186,-14.1996,1190.2609],[34.4119,-14.2013,1280.2097],[34.4064,-14.2074,1505.41],[34.4021,-14.2088,1638.5066],[34.4079,-14.216,1573.1465],[34.4222,-14.2236,1283.3931],[34.4147,-14.2445,1447.1407],[34.4161,-14.2469,1531.4335],[34.4207,-14.2441,1405.2219],[34.4263,-14.2454,1189.24],[34.4344,-14.2286,1039.4771],[34.4347,-14.209,959.8824],[34.4371,-14.202,973.2925],[34.4407,-14.1981,917.8286]]]]}
,"properties": {"GID_3": "MWI.6.8.1_1","GID_0": "MWI","country": "Malawi","GID_1": "MWI.6_1","province": "Dedza","NL_NAME_1": "NA","GID_2": "MWI.6.8_1","county": "TAKasumbu","NL_NAME_2": "NA","city": "n.a.(1121)","VARNAME_3": "NA","NL_NAME_3": "NA","TYPE_3": "Unknown","ENGTYPE_3": "Unknown","CC_3": "NA","HASC_3": "NA","name": "n.a.(1121).city","area_km2": 157.0588,"hist_schema_id": "Elevation0-9000","hist_area_km2": {"525": 0.0206,"550": 0.1645,"575": 0.3701,"600": 1.4189,"625": 2.4059,"650": 4.2978,"675": 4.4829,"700": 4.7298,"725": 3.8251,"750": 4.1749,"775": 4.1956,"800": 3.6813,"825": 3.7429,"850": 3.5167,"875": 3.9073,"900": 3.8867,"925": 4.3185,"950": 6.2311,"975": 7.424,"1000": 7.0332,"1025": 5.6756,"1050": 5.4699,"1075": 5.3464,"1100": 5.4696,"1125": 5.9218,"1150": 5.7776,"1175": 4.9757999999999996,"1200": 4.2354,"1225": 4.4822,"1250": 3.783,"1275": 5.0372,"1300": 4.5644,"1325": 3.4951,"1350": 2.9604,"1375": 2.9399,"1400": 3.8652,"1425": 2.6933,"1450": 2.1999,"1475": 2.2616,"1500": 1.2953,"1525": 0.5551,"1550": 0.1645,"1575": 0.0206,"1600": 0.0206,"1625": 0.0206}}}