{"type":"Feature","properties":{"GID_3":"MWI.1.2.1_1","GID_0":"MWI","country":"Malawi","GID_1":"MWI.1_1","province":"Balaka","NL_NAME_1":"NA","GID_2":"MWI.1.2_1","county":"TAKalembo","NL_NAME_2":"NA","city":"n.a.(1785)","VARNAME_3":"NA","NL_NAME_3":"NA","TYPE_3":"Unknown","ENGTYPE_3":"Unknown","CC_3":"NA","HASC_3":"NA","name":"n.a.(1785).city"},
"geometry":{"type": "MultiPolygon","coordinates": [[[[35.1778,-14.7895,498.1268],[35.2001,-14.7777,486.9277],[35.2078,-14.7698,482.708],[35.1953,-14.7505,484.2962],[35.1838,-14.743,493.2007],[35.1794,-14.7382,493.0213],[35.1761,-14.7448,497.2001],[35.1713,-14.7484,504.513],[35.1703,-14.7688,510.8793],[35.1676,-14.7714,514.3342],[35.1585,-14.7715,527.2998],[35.151,-14.7738,566.2234],[35.149,-14.7834,573.0374],[35.1565,-14.7808,524.3076],[35.1778,-14.7895,498.1268]]]]}}