{"type":"Feature","properties":{"GID_1":"MWI.4_1","GID_0":"MWI","country":"Malawi","province":"Chiradzulu","VARNAME_1":"NA","NL_NAME_1":"NA","TYPE_1":"District","ENGTYPE_1":"District","CC_1":"NA","HASC_1":"MW.CR","ISO_1":"MW-CR","name":"Chiradzulu.province"},
"geometry":{"type": "MultiPolygon","coordinates": [[[[35.3241,-15.9136,730.0173],[35.3025,-15.7371,786.5183],[35.3267,-15.681,776.7032],[35.3241,-15.68,770.1427],[35.3231,-15.6777,774.7736],[35.3183,-15.6768,781.902],[35.3158,-15.6728,785.0787],[35.3115,-15.6732,788.8398],[35.3093,-15.6688,785.4184],[35.3028,-15.6688,785.332],[35.2895,-15.6647,798.0861],[35.2851,-15.6657,808.1721],[35.2759,-15.6619,823.5643],[35.2738,-15.6576,826.0776],[35.272,-15.6582,823.1887],[35.2709,-15.6553,827.6248],[35.269,-15.6554,828.5736],[35.2665,-15.6527,832.9973],[35.2656,-15.6483,836.1405],[35.2517,-15.6375,849.0183],[35.2522,-15.6296,851.8252],[35.2474,-15.6238,856.3388],[35.2452,-15.6239,860.8872],[35.2467,-15.623,856.3388],[35.2441,-15.619,860.7192],[35.2455,-15.6166,860.3386],[35.2433,-15.6147,864.4402],[35.2409,-15.604,874.0229],[35.2394,-15.6029,880.9731],[35.241,-15.598,887.9541],[35.2384,-15.5988,886.0238],[35.2351,-15.597,883.624],[35.2366,-15.5928,890.5776],[35.2355,-15.5917,889.9985],[35.236,-15.5866,897.6401],[35.231,-15.5818,901.499],[35.2312,-15.5774,907.2084],[35.226,-15.5728,917.379],[35.2264,-15.5712,923.0552],[35.2239,-15.5716,914.1207],[35.2204,-15.5685,931.2993],[35.2173,-15.5719,919.7208],[35.2158,-15.5704,931.0344],[35.2095,-15.5715,932.7903],[35.1969,-15.5673,957.8843],[35.1876,-15.5622,967.8048],[35.1864,-15.5546,972.5634],[35.1893,-15.5479,985.9941],[35.1876,-15.5437,997.2919],[35.1847,-15.5426,993.7808],[35.1833,-15.5382,1000.4332],[35.1843,-15.5338,1024.3822],[35.1902,-15.5236,1026.0305],[35.1723,-15.5291,1043.9702],[35.167,-15.5269,1039.0371],[35.1574,-15.5469,963.8146],[35.1512,-15.5383,936.4622],[35.154,-15.5342,908.9579],[35.1548,-15.5287,893.9993],[35.1506,-15.5229,905.4941],[35.1479,-15.5256,876.6638],[35.1269,-15.5334,783.2814],[35.12,-15.5375,778.0739],[35.1214,-15.5459,773.22],[35.1155,-15.5534,760.0771],[35.1158,-15.5547,758.5775],[35.1218,-15.5554,789.8604],[35.1058,-15.5823,773.4586],[35.0962,-15.6207,813.8768],[35.1105,-15.6385,939.774],[35.119,-15.6444,946.4496],[35.1191,-15.6483,974.7416],[35.1132,-15.659,988.7246],[35.1132,-15.6639,990.1707],[35.111,-15.6656,995.9093],[35.1101,-15.6709,1008.3613],[35.1165,-15.6793,1083.5],[35.1218,-15.6833,1121.2518],[35.1237,-15.6873,1129.6431],[35.1202,-15.6936,1144.564],[35.1148,-15.6979,1151.1517],[35.1147,-15.7079,1141.8993],[35.1105,-15.7171,1136.99],[35.1249,-15.7354,1055.2936],[35.124,-15.7407,1066.3044],[35.1179,-15.7464,1087.129],[35.1088,-15.7493,1132.3706],[35.1053,-15.7592,1122.1687],[35.1088,-15.7613,1134.7814],[35.1095,-15.7701,1127.3241],[35.1124,-15.7761,1083.0944],[35.1123,-15.7815,1083.7632],[35.1087,-15.7872,1092.0459],[35.1146,-15.793,1038.9133],[35.1176,-15.7909,1047.7473],[35.124,-15.7975,1029.8248],[35.122,-15.8171,1011.9534],[35.1152,-15.8225,1044.7111],[35.1083,-15.8388,1049.4469],[35.1075,-15.8469,1021.0784],[35.1031,-15.8544,1013.4623],[35.1028,-15.8581,991.7059],[35.1099,-15.8541,1005.1263],[35.1121,-15.8567,973.7302],[35.1158,-15.8544,994.1183],[35.1237,-15.8579,971.9354],[35.1287,-15.8584,950.0762],[35.1306,-15.8556,940.5234],[35.137,-15.853,949.8274],[35.1381,-15.8571,926.2218],[35.1459,-15.8593,906.9967],[35.1492,-15.8619,884.4767],[35.1516,-15.858,884.0839],[35.1552,-15.8579,895.0222],[35.158,-15.8554,883.8649],[35.1615,-15.8565,875.6514],[35.166,-15.8548,869.9212],[35.1685,-15.8558,878.2645],[35.1681,-15.8596,862.7754],[35.1752,-15.8585,870.304],[35.1778,-15.8627,855.3083],[35.1799,-15.8591,860.9755],[35.1857,-15.8595,848.385],[35.1857,-15.857,851.7253],[35.1877,-15.8569,854.0037],[35.1903,-15.8534,857.1785],[35.1982,-15.8543,844.1498],[35.2004,-15.8604,831.6445],[35.1962,-15.8636,840.2178],[35.1971,-15.8652,824.3821],[35.1957,-15.8705,825.5175],[35.2043,-15.8758,809.3547],[35.2053,-15.8794,804.5491],[35.2032,-15.8835,797.21],[35.2051,-15.8886,791.0756],[35.2075,-15.8896,790.9263],[35.2088,-15.8872,795.6846],[35.2116,-15.8868,790.937],[35.2146,-15.8896,782.5338],[35.2195,-15.8884,780.9925],[35.2418,-15.8959,768.8496],[35.2422,-15.9021,760.8423],[35.2468,-15.9016,763.3442],[35.2508,-15.9067,753.6096],[35.2472,-15.9138,749.415],[35.2527,-15.9142,768.017],[35.2608,-15.9233,747.6857],[35.256,-15.9299,735.3718],[35.2597,-15.9362,726.9995],[35.2589,-15.9488,720.1089],[35.2614,-15.9543,716.7111],[35.2589,-15.9582,724.2341],[35.2591,-15.9618,713.3115],[35.2697,-15.9641,713.8523],[35.2669,-15.966,711.213],[35.2676,-15.9697,708.6882],[35.2777,-15.9771,702.5836],[35.2853,-15.9886,693.0416],[35.2909,-15.989,694.4913],[35.2904,-15.9953,683.5411],[35.2968,-15.9969,687.1061],[35.2948,-16.0007,682.7042],[35.2973,-16.0034,673.5255],[35.3038,-16.0011,666.7878],[35.3133,-15.9893,665.9603],[35.3126,-15.9871,671.1155],[35.3056,-15.9836,668.1602],[35.3058,-15.9808,669.9592],[35.3145,-15.9629,687.9564],[35.322,-15.9544,708.5536],[35.3248,-15.9483,705.7653],[35.3241,-15.9136,730.0173]]]]}}