{"type": "Feature","bbox": [34.9245,-15.9179,34.9536,-15.8969],"geometry": {"type": "MultiPolygon","coordinates": [[[[34.937,-15.8975,816.588],[34.9336,-15.8989,823.3956],[34.9327,-15.9038,804.4824],[34.9247,-15.9076,812.0851],[34.9245,-15.9114,717.7111],[34.9277,-15.9094,753.3889],[34.9356,-15.9107,863.8824],[34.9431,-15.9173,870.5066],[34.9461,-15.9179,896.1965],[34.9511,-15.9137,908.4994],[34.9536,-15.9077,867.6015],[34.9449,-15.8969,837.8615],[34.9425,-15.8987,835.8907],[34.937,-15.8975,816.588]]]]}
,"properties": {"GID_3": "MWI.2.9.15_1","GID_0": "MWI","country": "Malawi","GID_1": "MWI.2_1","province": "Blantyre","NL_NAME_1": "NA","GID_2": "MWI.2.9_1","county": "TASomba","NL_NAME_2": "NA","city": "n.a.(2656)","VARNAME_3": "NA","NL_NAME_3": "NA","TYPE_3": "Unknown","ENGTYPE_3": "Unknown","CC_3": "NA","HASC_3": "NA","name": "n.a.(2656).city","area_km2": 3.874162,"hist_schema_id": "Elevation0-9000","hist_area_km2": {"700": 0.06117,"725": 0.04078,"750": 0.061171,"775": 0.081561,"800": 0.509768,"825": 0.734066,"850": 0.978746,"875": 0.958326,"900": 0.448574}}}