{"type": "Feature","bbox": [33.2457,-9.6972,33.2849,-9.6881],"geometry": {"type": "MultiPolygon","coordinates": [[[[33.2766,-9.6968,1267.2593],[33.2849,-9.6972,1263.9786],[33.2848,-9.6881,1261.3291],[33.2459,-9.6886,1328.499],[33.2457,-9.6935,1320.761],[33.2559,-9.6967,1306.8395],[33.2766,-9.6968,1267.2593]]]]}
,"properties": {"GID_3": "MWI.5.1.1_1","GID_0": "MWI","country": "Malawi","GID_1": "MWI.5_1","province": "Chitipa","NL_NAME_1": "NA","GID_2": "MWI.5.1_1","county": "ChitipaBoma","NL_NAME_2": "NA","city": "n.a.(30)","VARNAME_3": "NA","NL_NAME_3": "NA","TYPE_3": "Unknown","ENGTYPE_3": "Unknown","CC_3": "NA","HASC_3": "NA","name": "n.a.(30).city","area_km2": 3.908217,"hist_schema_id": "Elevation0-9000","hist_area_km2": {"1250": 0.0418,"1275": 1.483866,"1300": 1.797362,"1325": 0.58519}}}