{"type":"Feature","properties":{"GID_3":"MWI.20.6.1_1","GID_0":"MWI","country":"Malawi","GID_1":"MWI.20_1","province":"Nkhotakota","NL_NAME_1":"NA","GID_2":"MWI.20.6_1","county":"SCMwansambo","NL_NAME_2":"NA","city":"n.a.(515)","VARNAME_3":"NA","NL_NAME_3":"NA","TYPE_3":"Unknown","ENGTYPE_3":"Unknown","CC_3":"NA","HASC_3":"NA","name":"n.a.(515).city"},
"geometry":{"type": "MultiPolygon","coordinates": [[[[34.0869,-13.1619,803.8512],[34.1076,-13.2587,620.6306],[34.1108,-13.2565,632.5726],[34.1277,-13.2537,609.0259],[34.1308,-13.2496,594.063],[34.1344,-13.2482,597.5328],[34.1398,-13.2488,596.0457],[34.1391,-13.2559,598.1975],[34.1544,-13.2566,606.0471],[34.1739,-13.247,582.8911],[34.1801,-13.24,575.8903],[34.1844,-13.2388,566.2832],[34.1453,-13.1671,579.8107],[34.1376,-13.1731,580.0859],[34.131,-13.1685,582.5573],[34.1305,-13.1658,592.3706],[34.1255,-13.1618,611.9794],[34.1181,-13.1607,618.769],[34.113,-13.1578,632.4633],[34.1021,-13.159,673.7196],[34.0975,-13.162,723.6783],[34.0869,-13.1619,803.8512]]]]}}