{"type":"Feature","properties":{"GID_2":"MWI.2.4_1","GID_0":"MWI","country":"Malawi","GID_1":"MWI.2_1","province":"Blantyre","NL_NAME_1":"NA","county":"TAKuntaja","VARNAME_2":"NA","NL_NAME_2":"NA","TYPE_2":"TraditionalAuthority","ENGTYPE_2":"TraditionalAuthority","CC_2":"NA","HASC_2":"NA","name":"T_A_Kuntaja.county"},
"geometry":{"type": "MultiPolygon","coordinates": [[[[34.9793,-15.7932,1006.2888],[34.9773,-15.7861,1030.5356],[34.9632,-15.7607,1124.7959],[34.9747,-15.7453,1227.3805],[34.9771,-15.7466,1175.22],[34.9798,-15.7547,955.4457],[34.9845,-15.7488,913.9863],[34.9826,-15.7455,945.4531],[34.9884,-15.7454,886.14],[34.9886,-15.7422,895.466],[34.9929,-15.7391,871.3016],[34.9963,-15.7313,852.27],[34.998,-15.7308,844.7094],[34.9929,-15.7253,828.2778],[34.9931,-15.7225,817.2734],[34.9909,-15.7213,817.416],[34.9976,-15.7172,818.7161],[34.997,-15.7153,810.2073],[34.9935,-15.7143,801.0161],[34.9922,-15.7098,804.2876],[34.9949,-15.7099,803.98],[34.9951,-15.7074,790.2916],[34.9931,-15.7068,786.6823],[34.9948,-15.706,788.1202],[34.994,-15.7038,784.7652],[34.9953,-15.7019,789.3023],[34.9869,-15.6954,760.8359],[34.9903,-15.6943,767.5455],[34.993,-15.6913,784.1285],[34.9927,-15.6834,798.6418],[34.9819,-15.6745,762.4233],[34.9763,-15.6671,761.8448],[34.9728,-15.6554,731.8115],[34.9748,-15.6465,699.7036],[34.9705,-15.6366,675.0902],[34.9746,-15.6318,668.3523],[34.974,-15.623,666.2833],[34.9795,-15.6181,649.879],[34.9784,-15.6167,657.3459],[34.9801,-15.613,648.9182],[34.9802,-15.6067,652.6475],[34.9843,-15.6023,641.0914],[34.9766,-15.5992,627.1663],[34.9755,-15.5933,625.217],[34.9766,-15.5868,614.6785],[34.9716,-15.5824,591.142],[34.9713,-15.5788,600.4352],[34.9686,-15.578,585.4495],[34.9668,-15.5717,582.5349],[34.9641,-15.5693,579.7983],[34.9641,-15.5649,573.5958],[34.9616,-15.5646,585.2769],[34.9619,-15.562,571.4634],[34.9509,-15.5551,548.8702],[34.9484,-15.5477,546.5548],[34.9467,-15.5483,540.0009],[34.946,-15.5517,535.6633],[34.9383,-15.5521,521.3101],[34.9382,-15.5497,520.4168],[34.9355,-15.5471,520.0682],[34.9241,-15.5449,496.4055],[34.9183,-15.5402,500.0768],[34.9193,-15.535,495.9501],[34.922,-15.5354,492.8904],[34.925,-15.5332,489.7293],[34.9254,-15.5286,482.8167],[34.92,-15.5283,475.2874],[34.921,-15.5256,478.2883],[34.9169,-15.5195,468.4111],[34.9104,-15.5164,460.2856],[34.9121,-15.5134,453.4532],[34.9086,-15.5088,455.3486],[34.9013,-15.5107,455.9287],[34.8946,-15.5096,445.4436],[34.8909,-15.5082,437.8491],[34.8828,-15.4983,435.1482],[34.8791,-15.4973,455.0155],[34.8748,-15.4994,435.7369],[34.8677,-15.4946,427.6958],[34.8659,-15.4949,436.7308],[34.863,-15.4988,406.8699],[34.8612,-15.4988,395.0841],[34.8549,-15.4867,383.2198],[34.8513,-15.4837,392.9929],[34.8381,-15.5,400.9614],[34.827,-15.5089,395.7642],[34.8223,-15.5233,375.2953],[34.8173,-15.5232,372.5175],[34.816,-15.5252,348.4528],[34.8191,-15.5277,325.3748],[34.8193,-15.5322,351.5759],[34.8232,-15.5322,339.0923],[34.8292,-15.5351,370.0602],[34.8298,-15.5405,394.5762],[34.8378,-15.5367,415.3066],[34.8442,-15.5357,429.7607],[34.8452,-15.541,435.5983],[34.8548,-15.5458,470.119],[34.8576,-15.5524,490.655],[34.8651,-15.5481,508.3556],[34.8682,-15.5505,502.4758],[34.8682,-15.555,509.2787],[34.8719,-15.5562,516.2231],[34.8757,-15.5605,521.0693],[34.88,-15.5676,525.5123],[34.876,-15.578,547.4878],[34.876,-15.6035,559.3149],[34.8777,-15.6059,561.5363],[34.8877,-15.6103,618.6805],[34.8951,-15.6235,646.6368],[34.9,-15.6285,664.1718],[34.9104,-15.651,686.801],[34.9114,-15.6613,712.7368],[34.9245,-15.675,713.4584],[34.9295,-15.684,691.6973],[34.9253,-15.6922,682.8187],[34.9214,-15.6924,676.7031],[34.919,-15.6945,688.0826],[34.9183,-15.702,676.6013],[34.914,-15.707,660.5789],[34.9066,-15.7108,658.6947],[34.9013,-15.7072,652.0154],[34.8942,-15.7108,634.8767],[34.8861,-15.7255,582.5966],[34.888,-15.7319,559.5793],[34.8846,-15.7334,558.6357],[34.8838,-15.7371,565.797],[34.8753,-15.7383,530.4207],[34.8721,-15.7446,513.8346],[34.8742,-15.7473,527.2477],[34.8688,-15.7494,526.0337],[34.8693,-15.7523,507.5316],[34.868,-15.7537,508.6379],[34.8655,-15.7552,515.5858],[34.862,-15.7519,513.9277],[34.8556,-15.7547,500.8823],[34.8547,-15.7633,472.5178],[34.8518,-15.7656,467.744],[34.8557,-15.7708,458.8381],[34.8543,-15.7735,461.5616],[34.855,-15.7775,474.4601],[34.8625,-15.7815,448.5225],[34.8563,-15.7851,451.7451],[34.8606,-15.7888,436.6868],[34.8583,-15.794,421.9407],[34.8607,-15.7967,414.3494],[34.8608,-15.8014,403.383],[34.8662,-15.8197,391.0872],[34.8734,-15.8289,388.0582],[34.8823,-15.8243,477.8552],[34.8849,-15.8253,442.5985],[34.8871,-15.8235,457.6223],[34.8884,-15.8208,474.4742],[34.8857,-15.8169,470.9724],[34.8856,-15.8131,491.7184],[34.8952,-15.8153,655.3867],[34.9024,-15.8088,937.2003],[34.917,-15.8123,724.9507],[34.9363,-15.8079,730.4594],[34.9544,-15.8176,956.6158],[34.9622,-15.8198,943.8388],[34.9654,-15.8231,840.0363],[34.9675,-15.8215,854.4762],[34.9714,-15.8106,884.6295],[34.9742,-15.813,891.8441],[34.977,-15.8126,922.5369],[34.9781,-15.8172,924.4529],[34.9813,-15.8183,894.4291],[34.9803,-15.8165,941.91],[34.9831,-15.8138,929.8645],[34.9793,-15.7932,1006.2888]]]]}}