{"type": "Feature","bbox": [32.9534,-13.5269,33.0154,-13.4581],"geometry": {"type": "MultiPolygon","coordinates": [[[[32.971,-13.4867,1074.9728],[32.9664,-13.495,1074.6047],[32.9662,-13.4996,1076.2418],[32.9534,-13.5095,1085.9781],[32.9586,-13.5119,1084.7964],[32.9651,-13.519,1089.2819],[32.9651,-13.5203,1091.2369],[32.9623,-13.5205,1091.7073],[32.9621,-13.523,1093.6635],[32.996,-13.5269,1098.739],[33.0146,-13.526,1109.1863],[33.0154,-13.5048,1102.731],[33.0109,-13.495,1128.1912],[33.0098,-13.488,1089.47],[33.0071,-13.4952,1096.1515],[33.0082,-13.4973,1105.292],[33.0018,-13.4999,1097.6484],[32.9959,-13.4986,1094.6035],[32.9921,-13.4925,1082.1957],[32.992,-13.4849,1078.8799],[32.9941,-13.4771,1084.4326],[33.0051,-13.4637,1074.6577],[32.9874,-13.4604,1065.8572],[32.9835,-13.4581,1066.7573],[32.9759,-13.4603,1068.2198],[32.9733,-13.4639,1067.5167],[32.971,-13.4867,1074.9728]]]]}
,"properties": {"GID_3": "MWI.14.5.9_1","GID_0": "MWI","country": "Malawi","GID_1": "MWI.14_1","province": "Mchinji","NL_NAME_1": "NA","GID_2": "MWI.14.5_1","county": "TAMkanda","NL_NAME_2": "NA","city": "n.a.(658)","VARNAME_3": "NA","NL_NAME_3": "NA","TYPE_3": "Unknown","ENGTYPE_3": "Unknown","CC_3": "NA","HASC_3": "NA","name": "n.a.(658).city","area_km2": 29.29601,"hist_schema_id": "Elevation0-9000","hist_area_km2": {"1075": 14.53544,"1100": 13.11132,"1125": 1.34002,"1150": 0.22677,"1175": 0.08246}}}