{"type": "Feature","bbox": [35.2092,-14.4865,35.2489,-14.4404],"geometry": {"type": "MultiPolygon","coordinates": [[[[35.2402,-14.4713,483.8164],[35.2388,-14.4669,481.7219],[35.2489,-14.4599,479.9096],[35.2451,-14.4553,480.3496],[35.2428,-14.4464,475.8329],[35.2364,-14.4404,474.0],[35.2298,-14.4414,475.8562],[35.2092,-14.4506,489.7412],[35.2127,-14.4635,494.6776],[35.2187,-14.4769,489.948],[35.2317,-14.4865,483.4557],[35.2402,-14.4845,483.4394],[35.2402,-14.4713,483.8164]]]]}
,"properties": {"GID_3": "MWI.13.12.22_1","GID_0": "MWI","country": "Malawi","GID_1": "MWI.13_1","province": "Mangochi","NL_NAME_1": "NA","GID_2": "MWI.13.12_1","county": "TAMponda","NL_NAME_2": "NA","city": "n.a.(1599)","VARNAME_3": "NA","NL_NAME_3": "NA","TYPE_3": "Unknown","ENGTYPE_3": "Unknown","CC_3": "NA","HASC_3": "NA","name": "n.a.(1599).city","area_km2": 13.40636,"hist_schema_id": "Elevation0-9000","hist_area_km2": {"475": 10.61423,"500": 2.79213}}}