{"type": "Feature","bbox": [33.7336,-12.2666,34.9579,-10.9255],"geometry": {"type": "MultiPolygon","coordinates": [[[[34.0191,-12.2346,477.4092],[34.0491,-12.2426,474.5],[34.1176,-12.2575,474.5],[34.1985,-12.2666,474.5],[34.2823,-12.2666,474.5],[34.3604,-12.2626,474.5],[34.4084,-12.2573,474.5],[34.4146,-12.1982,474.5],[34.4253,-12.1595,474.5],[34.4763,-12.037,474.5],[34.4928,-12.0006,474.5],[34.513,-11.9661,474.5],[34.5705,-11.8262,474.5],[34.5825,-11.8041,474.5],[34.5975,-11.766,474.5],[34.6341,-11.6621,474.5],[34.6428,-11.6094,474.5],[34.6426,-11.5825,474.5],[34.7036,-11.5808,474.5],[34.7152,-11.5792,474.5],[34.7395,-11.5799,474.5],[34.75,-11.5779,474.5],[34.8116,-11.5763,474.5],[34.8466,-11.5743,474.5],[34.8553,-11.5725,474.5],[34.883,-11.5744,474.5],[34.9579,-11.5713,474.5],[34.9542,-11.55,474.5],[34.9484,-11.5381,474.5],[34.947,-11.5296,474.5],[34.9489,-11.516,474.5],[34.9363,-11.4831,474.5],[34.9257,-11.4151,494.7801],[34.922,-11.402,474.5],[34.9102,-11.3778,479.1511],[34.8976,-11.3681,485.9983],[34.8906,-11.3656,484.3066],[34.8827,-11.3552,484.3769],[34.8335,-11.3316,482.0697],[34.8049,-11.3212,479.5431],[34.7958,-11.3214,539.5071],[34.7834,-11.3265,474.5],[34.7827,-11.3186,474.5],[34.7781,-11.312,474.5],[34.7756,-11.3028,474.5],[34.776,-11.2977,474.5],[34.7807,-11.2915,474.5],[34.7858,-11.2922,474.5],[34.7882,-11.2904,478.402],[34.7905,-11.2835,474.5],[34.7894,-11.2798,474.5],[34.785,-11.2724,474.5],[34.7773,-11.2646,474.5],[34.7631,-11.2597,474.5],[34.7603,-11.2434,474.5],[34.7505,-11.2321,474.5],[34.7471,-11.2245,474.5],[34.7375,-11.2125,474.5],[34.7307,-11.1907,480.9988],[34.7244,-11.182,482.6313],[34.7107,-11.1742,509.6819],[34.7037,-11.159,490.7171],[34.6979,-11.1507,498.0963],[34.6861,-11.1412,503.0094],[34.6623,-11.1311,495.3686],[34.646,-11.1262,486.3188],[34.6397,-11.1216,474.5],[34.6383,-11.1185,475.1867],[34.6332,-11.1177,474.5],[34.6334,-11.1136,474.5],[34.6283,-11.102,474.5],[34.633,-11.0947,474.5],[34.6312,-11.0894,474.5],[34.6373,-11.0805,477.5888],[34.6289,-11.0675,474.5],[34.6301,-11.0643,474.5],[34.6357,-11.069,474.5],[34.6382,-11.0683,489.2116],[34.6345,-11.0526,474.5],[34.6255,-11.0505,474.5],[34.6201,-11.0475,511.2982],[34.6108,-11.0493,474.5],[34.6071,-11.0433,474.5],[34.6027,-11.0307,474.5],[34.6011,-11.0077,474.5],[34.6042,-10.9895,474.5],[34.6087,-10.9806,474.5],[34.6152,-10.9741,474.5],[34.6213,-10.9608,474.5],[34.6365,-10.9468,474.5],[34.6402,-10.9404,474.5],[34.6434,-10.9255,474.5],[34.6132,-10.9268,474.5],[34.5956,-10.9316,474.5],[34.5366,-10.9255,474.5],[34.4459,-10.9266,474.5],[34.4101,-10.9302,474.5],[34.311,-10.9598,474.5],[34.2673,-10.9646,474.5],[34.2298,-10.9816,474.5],[34.2153,-10.9987,602.6287],[34.209,-10.9978,719.9183],[34.2007,-10.9941,886.3472],[34.1973,-10.9957,856.3124],[34.1917,-11.0043,1042.9589],[34.1922,-11.0112,1189.4878],[34.1816,-11.0382,1711.0007],[34.1774,-11.0426,1746.6019],[34.1758,-11.0478,1713.4915],[34.1712,-11.0521,1729.0277],[34.1659,-11.0532,1717.025],[34.1609,-11.052,1684.5361],[34.1523,-11.0597,1848.7181],[34.1409,-11.0598,1807.1544],[34.1369,-11.0626,1760.349],[34.1321,-11.0711,1796.6292],[34.1229,-11.0753,1810.1056],[34.1126,-11.0754,1867.7781],[34.1094,-11.0734,1741.25],[34.0972,-11.0756,1865.9116],[34.0907,-11.0717,1832.8237],[34.0885,-11.0754,1804.3141],[34.0749,-11.0794,1713.7115],[34.0682,-11.0867,1838.3904],[34.0592,-11.0911,1826.3251],[34.0485,-11.1046,1825.3555],[34.0506,-11.1088,1901.5587],[34.0506,-11.1134,1847.4607],[34.0528,-11.1164,1881.3705],[34.0526,-11.1251,1718.5416],[34.0509,-11.1335,1705.2335],[34.0478,-11.1381,1615.1188],[34.0475,-11.1437,1725.983],[34.0423,-11.1453,1701.022],[34.0413,-11.1479,1674.5059],[34.0427,-11.1534,1745.3342],[34.039,-11.1574,1657.4153],[34.0361,-11.1707,1612.0826],[34.0398,-11.1782,1647.2976],[34.0366,-11.18,1634.1016],[34.0268,-11.1806,1514.8945],[34.0251,-11.1854,1620.8142],[34.0179,-11.1878,1563.1868],[34.013,-11.1971,1510.5836],[34.0154,-11.203,1546.9774],[34.0059,-11.2107,1508.8618],[34.0061,-11.2135,1559.1448],[34.0093,-11.2152,1588.4309],[34.0106,-11.2218,1564.5266],[34.0133,-11.2243,1553.9619],[34.0089,-11.2311,1502.7157],[34.0137,-11.2381,1513.0801],[34.0098,-11.2437,1486.47],[34.0077,-11.251,1487.7762],[34.0042,-11.2541,1434.6346],[34.0077,-11.2707,1587.729],[34.0153,-11.2718,1660.8425],[34.0229,-11.2704,1523.139],[34.0288,-11.2748,1605.7141],[34.0405,-11.2796,1694.2806],[34.0406,-11.2898,1492.1649],[34.0369,-11.2948,1387.6835],[34.0397,-11.3005,1373.3284],[34.0359,-11.3047,1334.4227],[34.0327,-11.312,1366.2504],[34.0338,-11.3201,1322.1858],[34.0307,-11.3261,1319.2169],[34.0302,-11.3309,1319.149],[34.033,-11.3385,1360.1995],[34.0391,-11.3449,1369.5657],[34.0371,-11.35,1352.5343],[34.0443,-11.3679,1379.1411],[34.0441,-11.3728,1365.8716],[34.0416,-11.3769,1362.2335],[34.0429,-11.3861,1386.0502],[34.0485,-11.3925,1353.137],[34.0743,-11.3877,1333.4371],[34.0816,-11.3921,1392.6516],[34.0831,-11.3947,1392.1477],[34.0825,-11.401,1410.6133],[34.088,-11.405,1433.9558],[34.09,-11.4102,1419.2704],[34.0893,-11.415,1396.1038],[34.0829,-11.4231,1442.0017],[34.0829,-11.4256,1450.707],[34.0869,-11.4304,1480.1052],[34.0874,-11.4354,1471.3662],[34.0933,-11.441,1521.6254],[34.0981,-11.45,1444.3536],[34.0978,-11.4533,1445.6516],[34.0936,-11.4564,1429.3278],[34.092,-11.4635,1477.7504],[34.0882,-11.4671,1502.1838],[34.0777,-11.4683,1435.9102],[34.07,-11.4642,1299.9871],[34.0681,-11.4654,1311.7384],[34.0674,-11.4661,1311.7384],[34.0703,-11.4665,1315.1299],[34.071,-11.4683,1321.3264],[34.069,-11.4712,1321.6226],[34.0692,-11.4782,1280.3168],[34.0653,-11.4834,1238.002],[34.0645,-11.4884,1222.0442],[34.0561,-11.4929,1179.709],[34.0517,-11.5,1165.4452],[34.0462,-11.4998,1250.5168],[34.0413,-11.4952,1284.8718],[34.038,-11.4977,1273.8473],[34.0352,-11.4932,1239.496],[34.0223,-11.489,1176.4829],[34.0141,-11.4963,1178.1589],[34.0051,-11.4979,1185.545],[33.9883,-11.4974,1235.5272],[33.9717,-11.4912,1323.6423],[33.9669,-11.4915,1344.3519],[33.9689,-11.5044,1338.774],[33.9655,-11.5088,1330.5304],[33.9661,-11.5153,1326.7325],[33.9618,-11.5174,1324.7054],[33.9627,-11.529,1339.1254],[33.9567,-11.535,1345.6635],[33.9592,-11.5398,1349.7303],[33.9449,-11.5461,1358.6493],[33.939,-11.5519,1355.4149],[33.9363,-11.5574,1364.6667],[33.9326,-11.5596,1371.2767],[33.92,-11.5459,1384.5553],[33.9131,-11.5465,1413.1945],[33.9055,-11.5447,1398.1526],[33.9019,-11.5406,1409.6288],[33.8981,-11.5397,1479.2891],[33.8954,-11.5424,1476.1438],[33.8864,-11.5451,1544.2517],[33.8832,-11.5433,1497.6082],[33.8814,-11.54,1544.85],[33.8653,-11.5343,1577.3362],[33.8635,-11.5415,1540.8284],[33.8608,-11.5429,1528.5667],[33.8587,-11.5483,1616.8468],[33.8542,-11.5495,1612.778],[33.8508,-11.5561,1593.851],[33.8402,-11.5643,1574.1746],[33.841,-11.5679,1585.8164],[33.8392,-11.5732,1612.9637],[33.8296,-11.573,1680.6364],[33.8248,-11.58,1719.1528],[33.8187,-11.5803,1692.2284],[33.812,-11.5774,1718.2681],[33.7974,-11.5904,1679.5533],[33.7899,-11.59,1716.9072],[33.7867,-11.5922,1784.7961],[33.7827,-11.5975,1694.7678],[33.7889,-11.5999,1764.9392],[33.7904,-11.6031,1747.4751],[33.7795,-11.6079,1649.3196],[33.7694,-11.6205,1748.1218],[33.7743,-11.6368,1695.3765],[33.7628,-11.6359,1730.6396],[33.7566,-11.6406,1672.153],[33.7481,-11.6397,1648.6027],[33.7431,-11.6456,1685.7275],[33.7419,-11.6521,1697.198],[33.7362,-11.6571,1688.1771],[33.7361,-11.6612,1692.2172],[33.7336,-11.6652,1694.2368],[33.7352,-11.6689,1695.9199],[33.7407,-11.6704,1692.261],[33.7464,-11.6754,1711.1626],[33.7546,-11.6858,1721.4598],[33.7595,-11.6982,1690.7267],[33.7555,-11.7134,1634.2173],[33.7569,-11.7173,1667.0659],[33.7654,-11.7189,1646.6836],[33.7587,-11.7228,1635.6453],[33.7518,-11.7375,1623.2627],[33.7513,-11.745,1678.5033],[33.7579,-11.7504,1690.0916],[33.7591,-11.7561,1683.1923],[33.7686,-11.753,1688.8579],[33.7748,-11.7601,1668.6593],[33.7948,-11.7678,1762.9518],[33.7942,-11.7763,1728.1129],[33.7885,-11.7794,1708.1493],[33.7863,-11.7885,1708.4883],[33.7866,-11.7923,1717.158],[33.7912,-11.7994,1750.5078],[33.8163,-11.7996,1746.1056],[33.8456,-11.8133,1819.0604],[33.8457,-11.847,1824.7396],[33.824,-11.8844,1695.0996],[33.8215,-11.8856,1709.4082],[33.8049,-11.8859,1690.5511],[33.7919,-11.8845,1735.3914],[33.7834,-11.8886,1712.5315],[33.7781,-11.8934,1682.0205],[33.782,-11.9011,1672.717],[33.7885,-11.9042,1667.915],[33.7896,-11.909,1694.1733],[33.7938,-11.9135,1716.9202],[33.7924,-11.92,1756.8698],[33.7945,-11.9241,1745.2941],[33.792,-11.9284,1756.0734],[33.7924,-11.9332,1738.0891],[33.7979,-11.9439,1773.1135],[33.8039,-11.9493,1744.6287],[33.8056,-11.9529,1762.7146],[33.8017,-11.9648,1784.6661],[33.7954,-11.9716,1816.068],[33.7875,-11.9738,1793.6968],[33.787,-11.9773,1765.7327],[33.7937,-11.9809,1765.072],[33.7995,-11.9916,1722.6899],[33.8099,-11.9945,1726.9474],[33.8155,-12.0022,1754.6384],[33.8175,-12.0079,1734.3827],[33.8258,-12.0087,1788.903],[33.8342,-12.0056,1815.1577],[33.8381,-12.0057,1840.2622],[33.8413,-12.0083,1869.3279],[33.8413,-12.0135,1882.8187],[33.8453,-12.0175,1926.9863],[33.8443,-12.0213,1882.6538],[33.8341,-12.0246,1893.9316],[33.82,-12.0238,1714.7107],[33.8142,-12.0279,1754.0776],[33.8074,-12.0267,1808.3252],[33.8034,-12.0277,1805.1879],[33.7992,-12.0325,1726.0359],[33.7922,-12.0491,1762.272],[33.7839,-12.0534,1756.3201],[33.7768,-12.0624,1747.5089],[33.7833,-12.0987,1545.7338],[33.8026,-12.1315,1243.1042],[33.8071,-12.1504,1224.4639],[33.8243,-12.1675,1190.7444],[33.8261,-12.1656,1202.0996],[33.8344,-12.1671,1196.7798],[33.8396,-12.1648,1163.1561],[33.8455,-12.1666,1176.2533],[33.8547,-12.1628,1156.704],[33.8635,-12.1637,1125.0226],[33.8643,-12.1779,1213.7517],[33.8723,-12.1937,1044.2241],[33.8761,-12.1944,1060.847],[33.8813,-12.1879,1102.061],[33.8865,-12.1933,961.8031],[33.8909,-12.1901,985.9049],[33.8938,-12.1902,923.1411],[33.8999,-12.1955,961.2744],[33.9028,-12.2021,880.5058],[33.9068,-12.2041,842.1785],[33.9084,-12.2109,926.7726],[33.9141,-12.2086,955.9141],[33.9193,-12.2108,885.1779],[33.9244,-12.2087,962.8505],[33.9341,-12.2107,890.2414],[33.9389,-12.214,760.9153],[33.9429,-12.2127,849.5],[33.9529,-12.214,734.4383],[33.9627,-12.2239,595.7074],[33.9676,-12.2211,653.2372],[33.9714,-12.222,579.8303],[33.9721,-12.2233,561.7288],[33.9696,-12.2277,536.3925],[33.9763,-12.2307,516.811],[33.9803,-12.2305,495.6004],[33.9831,-12.224,491.1969],[33.9869,-12.2244,494.27],[33.9918,-12.2214,485.3248],[33.9971,-12.2236,490.5735],[34.0027,-12.2289,482.0807],[34.009,-12.228,480.9328],[34.014,-12.2327,479.2025],[34.0191,-12.2346,477.4092]]]]}
,"properties": {"GID_1": "MWI.19_1","GID_0": "MWI","country": "Malawi","province": "NkhataBay","VARNAME_1": "Chinteche","NL_NAME_1": "NA","TYPE_1": "District","ENGTYPE_1": "District","CC_1": "NA","HASC_1": "MW.NA","ISO_1": "MW-NB","name": "Nkhata_Bay.province","area_km2": 11454.399,"hist_schema_id": "Elevation0-9000","hist_area_km2": {"475": 7311.772,"500": 180.942,"525": 142.902,"550": 133.353,"575": 140.136,"600": 127.046,"625": 118.48,"650": 109.285,"675": 97.8,"700": 83.617,"725": 78.526,"750": 69.872,"775": 66.735,"800": 64.681,"825": 59.012,"850": 62.978,"875": 64.121,"900": 65.903,"925": 68.371,"950": 71.818,"975": 71.177,"1000": 73.169,"1025": 79.763,"1050": 81.94,"1075": 81.897,"1100": 78.245,"1125": 77.086,"1150": 72.545,"1175": 70.139,"1200": 69.989,"1225": 71.025,"1250": 82.382,"1275": 86.189,"1300": 101.341,"1325": 109.832,"1350": 107.947,"1375": 99.171,"1400": 86.294,"1425": 71.156,"1450": 61.014,"1475": 52.619,"1500": 47.466,"1525": 39.03,"1550": 38.402,"1575": 40.873,"1600": 45.106,"1625": 56.878,"1650": 71.658,"1675": 81.8,"1700": 67.449,"1725": 50.943,"1750": 38.072,"1775": 25.865,"1800": 18.124,"1825": 12.23,"1850": 6.769,"1875": 4.879,"1900": 3.261,"1925": 1.89,"1950": 0.728,"1975": 0.375,"2000": 0.27}}}