{"type": "Feature","bbox": [35.0277,-15.1429,35.0787,-15.0724],"geometry": {"type": "MultiPolygon","coordinates": [[[[35.0277,-15.095,550.6937],[35.0299,-15.1028,531.6448],[35.0339,-15.1068,528.9285],[35.0317,-15.111,536.9973],[35.0385,-15.1153,529.5754],[35.0402,-15.1204,530.2335],[35.0398,-15.1233,532.3037],[35.0342,-15.1271,524.4426],[35.0322,-15.1306,515.6656],[35.0344,-15.1395,513.8422],[35.0472,-15.1429,519.2852],[35.0543,-15.1422,531.1232],[35.0605,-15.1393,534.3435],[35.0567,-15.1349,534.5408],[35.0606,-15.1252,536.0856],[35.0787,-15.124,543.04],[35.0747,-15.1133,551.4781],[35.076,-15.1107,556.6942],[35.0753,-15.107,559.6658],[35.0714,-15.0966,572.3491],[35.0628,-15.091,584.398],[35.0714,-15.0762,592.1978],[35.0511,-15.0724,587.6743],[35.0405,-15.0838,564.9606],[35.0307,-15.0875,553.9859],[35.0277,-15.095,550.6937]]]]}
,"properties": {"GID_3": "MWI.1.3.33_1","GID_0": "MWI","country": "Malawi","GID_1": "MWI.1_1","province": "Balaka","NL_NAME_1": "NA","GID_2": "MWI.1.3_1","county": "TANsamala","NL_NAME_2": "NA","city": "n.a.(2006)","VARNAME_3": "NA","NL_NAME_3": "NA","TYPE_3": "Unknown","ENGTYPE_3": "Unknown","CC_3": "NA","HASC_3": "NA","name": "n.a.(2006).city","area_km2": 26.81499,"hist_schema_id": "Elevation0-9000","hist_area_km2": {"500": 0.02047,"525": 6.09926,"550": 14.94274,"575": 4.4423,"600": 1.31022}}}