{"type": "Feature","bbox": [35.2833,-15.7125,35.3267,-15.679],"geometry": {"type": "MultiPolygon","coordinates": [[[[35.2972,-15.6834,793.8855],[35.2967,-15.6864,801.557],[35.2845,-15.6845,815.5801],[35.2833,-15.6867,810.2228],[35.2963,-15.6949,795.8256],[35.3011,-15.6935,795.1839],[35.2929,-15.7001,802.6335],[35.2943,-15.7052,803.6013],[35.3023,-15.7095,797.3141],[35.3095,-15.7085,791.9501],[35.313,-15.7125,784.6714],[35.3267,-15.681,776.7032],[35.3241,-15.6791,773.4555],[35.3211,-15.679,778.8759],[35.3216,-15.6808,778.3912],[35.315,-15.6792,787.5702],[35.3126,-15.682,783.4911],[35.3064,-15.6818,789.1998],[35.3057,-15.683,789.801],[35.3046,-15.681,795.3978],[35.3033,-15.6829,794.3765],[35.3001,-15.6817,795.1101],[35.2972,-15.6834,793.8855]]]]}
,"properties": {"GID_3": "MWI.4.6.10_1","GID_0": "MWI","country": "Malawi","GID_1": "MWI.4_1","province": "Chiradzulu","NL_NAME_1": "NA","GID_2": "MWI.4.6_1","county": "TANchema","NL_NAME_2": "NA","city": "n.a.(2449)","VARNAME_3": "NA","NL_NAME_3": "NA","TYPE_3": "Unknown","ENGTYPE_3": "Unknown","CC_3": "NA","HASC_3": "NA","name": "n.a.(2449).city","area_km2": 9.06285,"hist_schema_id": "Elevation0-9000","hist_area_km2": {"775": 2.122857,"800": 6.899167,"825": 0.040825}}}