{"type": "Feature","bbox": [34.9163,-15.3569,35.0393,-15.3229],"geometry": {"type": "MultiPolygon","coordinates": [[[[34.9611,-15.3246,484.8065],[34.9163,-15.3253,521.6157],[34.9416,-15.3374,485.2426],[34.9416,-15.3405,477.9854],[34.9391,-15.3419,478.8336],[34.939,-15.3446,476.4962],[34.9347,-15.3496,478.8246],[34.9354,-15.3523,475.0583],[34.9339,-15.3533,474.5326],[34.9361,-15.3548,473.8076],[34.9361,-15.3569,470.8021],[34.9461,-15.3561,474.2451],[34.9519,-15.3497,468.7761],[34.9546,-15.349,468.5763],[34.9621,-15.3512,468.7742],[34.9681,-15.3488,469.063],[34.9764,-15.3531,468.0006],[34.9871,-15.3553,469.5692],[34.9908,-15.3523,469.0931],[34.9899,-15.3501,469.2884],[34.9925,-15.3431,470.4047],[35.003,-15.3382,470.1746],[35.0094,-15.3305,471.1837],[35.0172,-15.33,471.0087],[35.02,-15.3249,470.2252],[35.0318,-15.3287,470.8214],[35.0363,-15.3272,471.5975],[35.0393,-15.3229,470.8453],[34.9897,-15.3241,478.094],[34.9611,-15.3246,484.8065]]]]}
,"properties": {"GID_3": "MWI.18.5.1_1","GID_0": "MWI","country": "Malawi","GID_1": "MWI.18_1","province": "Neno","NL_NAME_1": "NA","GID_2": "MWI.18.5_1","county": "TASymon","NL_NAME_2": "NA","city": "n.a.(2118)","VARNAME_3": "NA","NL_NAME_3": "NA","TYPE_3": "Unknown","ENGTYPE_3": "Unknown","CC_3": "NA","HASC_3": "NA","name": "n.a.(2118).city","area_km2": 24.02544,"hist_schema_id": "Elevation0-9000","hist_area_km2": {"475": 19.71101,"500": 4.29398,"525": 0.02045}}}