{"type":"Feature","properties":{"GID_3":"MWI.6.7.23_1","GID_0":"MWI","country":"Malawi","GID_1":"MWI.6_1","province":"Dedza","NL_NAME_1":"NA","GID_2":"MWI.6.7_1","county":"TAKaphuka","NL_NAME_2":"NA","city":"n.a.(1388)","VARNAME_3":"NA","NL_NAME_3":"NA","TYPE_3":"Unknown","ENGTYPE_3":"Unknown","CC_3":"NA","HASC_3":"NA","name":"n.a.(1388).city"},
"geometry":{"type": "MultiPolygon","coordinates": [[[[33.9898,-14.2332,1184.3241],[34.0235,-14.2618,1204.2002],[34.0255,-14.2631,1195.5704],[34.0303,-14.2599,1199.4849],[34.0258,-14.2538,1200.0474],[34.0309,-14.2505,1190.3782],[34.0367,-14.2333,1188.854],[34.0278,-14.23,1208.1353],[34.006,-14.2312,1212.3573],[34.0025,-14.2283,1206.7583],[33.9982,-14.2276,1198.8475],[33.9888,-14.231,1181.343],[33.9898,-14.2332,1184.3241]]]]}}