{"type":"Feature","properties":{"GID_3":"MWI.20.7.15_1","GID_0":"MWI","country":"Malawi","GID_1":"MWI.20_1","province":"Nkhotakota","NL_NAME_1":"NA","GID_2":"MWI.20.7_1","county":"TAKanyenda","NL_NAME_2":"NA","city":"n.a.(355)","VARNAME_3":"NA","NL_NAME_3":"NA","TYPE_3":"Unknown","ENGTYPE_3":"Unknown","CC_3":"NA","HASC_3":"NA","name":"n.a.(355).city"},
"geometry":{"type": "MultiPolygon","coordinates": [[[[34.1973,-12.5254,476.4589],[34.1944,-12.5269,476.4947],[34.1884,-12.5214,477.1962],[34.184,-12.5241,478.3865],[34.1812,-12.5213,479.2291],[34.1776,-12.5272,479.6399],[34.1715,-12.5255,481.2793],[34.1658,-12.5259,480.9964],[34.1624,-12.5306,482.5352],[34.1602,-12.5288,482.9958],[34.1479,-12.532,486.2917],[34.1465,-12.5303,483.7766],[34.148,-12.5248,485.5236],[34.1433,-12.521,487.2512],[34.141,-12.5147,488.961],[34.1339,-12.5132,489.585],[34.131,-12.5089,490.9755],[34.1268,-12.5107,490.4701],[34.1257,-12.5089,489.8589],[34.1187,-12.5111,491.4961],[34.1167,-12.5104,488.7745],[34.1112,-12.514,492.7514],[34.1292,-12.5423,489.7527],[34.1349,-12.5618,501.6143],[34.1361,-12.5724,501.053],[34.1342,-12.5816,515.6914],[34.1389,-12.5928,520.999],[34.1432,-12.5975,510.0421],[34.1547,-12.6027,495.336],[34.1582,-12.6105,486.4894],[34.1617,-12.609,484.6745],[34.1672,-12.6098,480.8613],[34.1734,-12.6155,477.6011],[34.1696,-12.5957,478.6375],[34.1711,-12.5722,476.3527],[34.1775,-12.5568,476.0971],[34.1945,-12.532,477.1327],[34.1973,-12.5254,476.4589]]]]}}