{"type": "Feature","bbox": [34.6999,-15.5838,35.0393,-15.3229],"geometry": {"type": "MultiPolygon","coordinates": [[[[34.8655,-15.4559,387.4403],[34.8666,-15.4512,407.0992],[34.8635,-15.4477,394.7705],[34.8648,-15.4392,408.4358],[34.8714,-15.4393,402.1372],[34.8841,-15.4187,411.5623],[34.8816,-15.4138,438.3622],[34.8878,-15.403,424.1766],[34.8912,-15.3997,429.9924],[34.8939,-15.3926,447.0121],[34.8967,-15.3899,449.207],[34.9004,-15.3898,461.0956],[34.9029,-15.3864,464.5439],[34.9073,-15.3864,464.0493],[34.9111,-15.3834,461.1807],[34.92,-15.3709,465.2215],[34.9246,-15.3595,473.5322],[34.931,-15.3573,477.4476],[34.9461,-15.3561,474.2451],[34.9537,-15.349,470.903],[34.9621,-15.3512,468.7742],[34.9681,-15.3488,469.063],[34.9764,-15.3531,468.0006],[34.9871,-15.3553,469.5692],[34.9908,-15.3523,469.0931],[34.9899,-15.3501,469.2884],[34.9925,-15.3431,470.4047],[35.003,-15.3382,470.1746],[35.0094,-15.3305,471.1837],[35.0172,-15.33,471.0087],[35.02,-15.3249,470.2252],[35.0318,-15.3287,470.8214],[35.0363,-15.3272,471.5975],[35.0393,-15.3229,470.8453],[34.8949,-15.3261,547.2252],[34.81,-15.326,426.4907],[34.7984,-15.3328,417.6066],[34.7898,-15.3355,425.0308],[34.774,-15.3359,470.7433],[34.7671,-15.3338,472.4974],[34.7609,-15.3351,478.8475],[34.7596,-15.3502,546.8837],[34.7642,-15.3545,501.1542],[34.7624,-15.3604,533.179],[34.7641,-15.3667,510.5504],[34.76,-15.3753,615.7853],[34.7501,-15.4106,485.0091],[34.7482,-15.4149,455.9547],[34.7453,-15.4172,467.9146],[34.7362,-15.4132,524.8792],[34.7324,-15.4137,663.3113],[34.7221,-15.4244,531.3579],[34.7238,-15.4372,402.2722],[34.7162,-15.4524,530.7842],[34.7176,-15.4728,490.2075],[34.7258,-15.4947,373.3876],[34.7292,-15.5173,333.5985],[34.726,-15.5188,337.8402],[34.7121,-15.5163,398.3842],[34.7073,-15.5254,376.1147],[34.7043,-15.5357,366.8005],[34.6999,-15.5423,353.7254],[34.7019,-15.5574,369.2521],[34.7123,-15.5838,335.4672],[34.751,-15.5812,265.8374],[34.7793,-15.5565,304.0071],[34.7842,-15.5588,323.8885],[34.7878,-15.557,318.7528],[34.7929,-15.5487,332.3138],[34.8004,-15.5429,322.3826],[34.8082,-15.5335,323.6204],[34.8146,-15.531,321.7895],[34.8176,-15.5275,328.032],[34.8163,-15.5235,372.5175],[34.8223,-15.5233,375.2953],[34.8282,-15.5073,405.5502],[34.8381,-15.5,400.9614],[34.8513,-15.4837,392.9929],[34.858,-15.478,390.6534],[34.8596,-15.4745,381.3262],[34.8597,-15.467,385.9895],[34.8655,-15.4559,387.4403]]]]}
,"properties": {"GID_2": "MWI.18.5_1","GID_0": "MWI","country": "Malawi","GID_1": "MWI.18_1","province": "Neno","NL_NAME_1": "NA","county": "TASymon","VARNAME_2": "NA","NL_NAME_2": "NA","TYPE_2": "TraditionalAuthority","ENGTYPE_2": "TraditionalAuthority","CC_2": "NA","HASC_2": "NA","name": "T_A_Symon.county","area_km2": 415.8478,"hist_schema_id": "Elevation0-9000","hist_area_km2": {"250": 0.0204,"275": 2.5939,"300": 12.8486,"325": 27.3537,"350": 44.131,"375": 54.376,"400": 59.0446,"425": 62.6057,"450": 52.5709,"475": 58.0618,"500": 31.1184,"525": 9.1805,"550": 1.6971,"575": 0.1431,"600": 0.0818,"625": 0.0204}}}