{"type":"Feature","properties":{"GID_3":"MWI.23.5.20_1","GID_0":"MWI","country":"Malawi","GID_1":"MWI.23_1","province":"Ntchisi","NL_NAME_1":"NA","GID_2":"MWI.23.5_1","county":"TAKalumo","NL_NAME_2":"NA","city":"n.a.(640)","VARNAME_3":"NA","NL_NAME_3":"NA","TYPE_3":"Unknown","ENGTYPE_3":"Unknown","CC_3":"NA","HASC_3":"NA","name":"n.a.(640).city"},
"geometry":{"type": "MultiPolygon","coordinates": [[[[33.9216,-13.4791,1392.37],[33.9292,-13.464,1441.6189],[33.9314,-13.4498,1523.2627],[33.9337,-13.4457,1578.4961],[33.9174,-13.4447,1531.8462],[33.9061,-13.4409,1439.563],[33.8951,-13.4344,1376.9745],[33.8971,-13.449,1423.012],[33.8933,-13.4575,1459.3792],[33.895,-13.4599,1422.2219],[33.893,-13.4622,1421.8466],[33.8838,-13.4604,1437.1021],[33.8741,-13.4624,1436.5159],[33.8649,-13.4604,1422.2371],[33.859,-13.4665,1408.9476],[33.8568,-13.4716,1373.101],[33.8646,-13.4718,1377.4681],[33.8687,-13.4755,1356.1431],[33.8667,-13.4788,1350.3285],[33.8661,-13.4857,1330.5981],[33.858,-13.4935,1309.5243],[33.8567,-13.5004,1298.5513],[33.8643,-13.503,1304.7676],[33.8795,-13.5027,1319.0293],[33.8937,-13.4942,1333.6194],[33.9175,-13.4843,1398.0975],[33.9216,-13.4791,1392.37]]]]}}