{"type":"Feature","properties":{"GID_3":"MWI.21.11.4_1","GID_0":"MWI","country":"Malawi","GID_1":"MWI.21_1","province":"Nsanje","NL_NAME_1":"NA","GID_2":"MWI.21.11_1","county":"TATengani","NL_NAME_2":"NA","city":"n.a.(3090)","VARNAME_3":"NA","NL_NAME_3":"NA","TYPE_3":"Unknown","ENGTYPE_3":"Unknown","CC_3":"NA","HASC_3":"NA","name":"n.a.(3090).city"},
"geometry":{"type": "MultiPolygon","coordinates": [[[[35.1174,-16.8157,334.4355],[35.134,-16.8233,621.045],[35.1471,-16.8258,446.9461],[35.156,-16.8319,494.9184],[35.1596,-16.8406,548.8263],[35.1616,-16.8583,583.0337],[35.1689,-16.8604,563.8514],[35.1773,-16.8556,530.4136],[35.1876,-16.8607,518.374],[35.1963,-16.8573,510.3285],[35.2029,-16.857,436.2157],[35.2051,-16.8588,376.5569],[35.2136,-16.8581,315.6848],[35.2178,-16.854,349.2848],[35.2237,-16.853,247.2786],[35.2246,-16.8507,236.2176],[35.223,-16.8486,328.2751],[35.2258,-16.8448,230.9527],[35.2368,-16.8428,188.6891],[35.2373,-16.8353,188.3908],[35.2348,-16.8122,195.8318],[35.2281,-16.7836,131.4297],[35.235,-16.7809,119.7876],[35.2413,-16.7831,108.8324],[35.2464,-16.7809,98.1019],[35.2533,-16.7805,86.5215],[35.2554,-16.7776,86.0344],[35.2603,-16.7775,77.3505],[35.26,-16.7752,78.8208],[35.2665,-16.7759,68.8942],[35.2727,-16.7711,58.6454],[35.2849,-16.7689,46.9828],[35.2847,-16.7562,50.0879],[35.2862,-16.7546,49.2966],[35.2837,-16.751,44.4163],[35.2601,-16.7524,76.2781],[35.2555,-16.7324,66.9313],[35.2496,-16.7252,71.1589],[35.2416,-16.7272,80.0531],[35.2337,-16.7237,88.475],[35.2301,-16.725,90.3518],[35.2067,-16.7232,121.0703],[35.2057,-16.7247,120.979],[35.167,-16.6918,137.7458],[35.1603,-16.7014,163.9377],[35.1557,-16.7026,163.7467],[35.1382,-16.7154,255.0454],[35.1278,-16.7187,310.2004],[35.1115,-16.7188,323.6222],[35.1072,-16.7244,324.9003],[35.1034,-16.7267,275.5814],[35.1057,-16.7303,309.2377],[35.1028,-16.7503,312.8644],[35.1079,-16.7648,277.729],[35.109,-16.7808,287.4006],[35.1146,-16.7935,332.0658],[35.1174,-16.8157,334.4355]]]]}}