{"type": "Feature","bbox": [33.2576,-12.3451,33.6145,-11.7692],"geometry": {"type": "MultiPolygon","coordinates": [[[[33.3592,-12.3109,1246.2676],[33.3631,-12.3193,1248.9546],[33.3657,-12.3451,1262.5173],[33.4003,-12.3394,1269.7039],[33.4257,-12.3261,1296.2397],[33.4496,-12.3179,1315.0037],[33.4658,-12.3262,1323.6925],[33.4724,-12.3322,1319.9106],[33.488,-12.3375,1348.9303],[33.4973,-12.3386,1380.3064],[33.5129,-12.3355,1369.4705],[33.5202,-12.3376,1387.3534],[33.5258,-12.3324,1403.5144],[33.515,-12.2953,1366.5981],[33.509,-12.2478,1322.3517],[33.4909,-12.2574,1317.7115],[33.4833,-12.2693,1301.6641],[33.474,-12.2704,1286.8553],[33.4695,-12.2674,1289.8488],[33.462,-12.2704,1280.442],[33.4547,-12.2631,1270.1611],[33.4534,-12.2551,1274.9897],[33.4419,-12.2478,1281.7185],[33.4344,-12.2462,1278.0156],[33.4292,-12.2478,1275.2119],[33.4192,-12.243,1262.5278],[33.4175,-12.2399,1265.9062],[33.4156,-12.2399,1261.7124],[33.4123,-12.2433,1246.986],[33.4059,-12.2442,1249.9379],[33.3979,-12.2377,1244.0955],[33.3918,-12.2369,1233.0771],[33.3882,-12.2381,1234.4897],[33.3853,-12.2319,1230.7573],[33.3856,-12.2275,1229.9359],[33.3795,-12.2216,1233.6471],[33.3805,-12.2181,1226.7856],[33.3788,-12.2137,1235.8635],[33.374,-12.2174,1227.5842],[33.365,-12.2174,1229.7544],[33.3619,-12.2148,1223.3521],[33.3623,-12.2114,1230.9424],[33.3586,-12.2112,1230.1516],[33.3523,-12.207,1223.4635],[33.3509,-12.2018,1222.9553],[33.3524,-12.1974,1222.4917],[33.3478,-12.1904,1218.5228],[33.3462,-12.1842,1225.4569],[33.3501,-12.1835,1221.4474],[33.3537,-12.1805,1215.21],[33.352,-12.1726,1215.7955],[33.3562,-12.168,1215.0488],[33.3578,-12.1596,1214.7329],[33.3612,-12.1582,1212.9869],[33.3627,-12.1549,1218.2826],[33.3658,-12.153,1210.3026],[33.3654,-12.1485,1211.939],[33.3707,-12.1408,1216.1144],[33.3743,-12.1387,1216.7012],[33.3796,-12.1401,1211.7559],[33.3813,-12.1359,1223.6614],[33.3853,-12.137,1210.1582],[33.3876,-12.1341,1210.8276],[33.3891,-12.1298,1207.5392],[33.3881,-12.1236,1210.9419],[33.392,-12.1213,1209.1586],[33.3948,-12.1157,1211.8207],[33.3901,-12.1109,1204.2855],[33.3892,-12.1073,1213.3219],[33.3857,-12.1065,1204.3148],[33.3844,-12.0992,1198.9055],[33.3814,-12.0944,1203.4221],[33.3872,-12.0893,1204.2085],[33.387,-12.0857,1207.5549],[33.393,-12.0816,1208.1047],[33.4005,-12.0812,1216.192],[33.4138,-12.0751,1224.0762],[33.4316,-12.0722,1243.4426],[33.4342,-12.0684,1253.657],[33.4384,-12.0667,1260.74],[33.4453,-12.0721,1252.3059],[33.4528,-12.073,1264.7448],[33.4555,-12.0675,1288.0385],[33.4592,-12.0674,1274.5801],[33.4646,-12.0647,1274.7563],[33.465,-12.0629,1297.3949],[33.4748,-12.0593,1292.9871],[33.4772,-12.0541,1310.8042],[33.489,-12.0527,1301.2255],[33.4941,-12.0447,1321.696],[33.5022,-12.0433,1324.8202],[33.5114,-12.017,1365.6351],[33.5191,-12.0008,1381.4738],[33.5271,-11.9884,1376.124],[33.5429,-11.9694,1353.2039],[33.5533,-11.9507,1378.6378],[33.5553,-11.9456,1393.1803],[33.5547,-11.9371,1398.15],[33.5585,-11.9286,1386.5316],[33.5654,-11.9196,1350.1461],[33.5737,-11.9128,1322.5276],[33.5723,-11.9035,1324.8447],[33.5744,-11.9009,1327.566],[33.5745,-11.8971,1333.8424],[33.5797,-11.8841,1298.8096],[33.5843,-11.8794,1287.0034],[33.5946,-11.8861,1302.7037],[33.5993,-11.886,1314.2017],[33.5989,-11.8759,1325.0692],[33.6105,-11.8441,1369.3909],[33.6144,-11.8376,1352.8669],[33.6145,-11.8358,1354.4893],[33.6069,-11.8289,1344.6831],[33.6045,-11.8197,1307.7859],[33.593,-11.8199,1290.8613],[33.5864,-11.8279,1289.9828],[33.5725,-11.8399,1262.0223],[33.5651,-11.8351,1269.9418],[33.5639,-11.8273,1259.781],[33.559,-11.8189,1259.9763],[33.5532,-11.8158,1252.3231],[33.5517,-11.8083,1255.3865],[33.5469,-11.8022,1258.0547],[33.5407,-11.801,1272.4336],[33.5366,-11.8028,1270.6348],[33.5292,-11.8011,1256.5664],[33.5242,-11.8087,1241.0173],[33.5208,-11.8062,1253.6208],[33.5124,-11.8068,1238.8662],[33.5097,-11.8076,1247.8123],[33.5088,-11.8102,1270.1799],[33.5022,-11.8128,1230.2329],[33.499,-11.8109,1248.1824],[33.4957,-11.8142,1247.7999],[33.4956,-11.8167,1239.4447],[33.4879,-11.8224,1236.2783],[33.4823,-11.8229,1238.2993],[33.4745,-11.828,1219.0774],[33.4686,-11.8278,1231.3967],[33.4653,-11.8293,1217.2212],[33.4605,-11.8264,1203.5183],[33.4573,-11.8277,1199.3423],[33.4527,-11.8259,1200.3494],[33.4532,-11.8176,1193.7102],[33.4479,-11.8139,1210.6536],[33.4432,-11.814,1193.0015],[33.4412,-11.8075,1191.5702],[33.4346,-11.8041,1195.7524],[33.4329,-11.7993,1184.9001],[33.4218,-11.7903,1197.4845],[33.4142,-11.7942,1176.2039],[33.4103,-11.7895,1173.583],[33.4043,-11.792,1173.6155],[33.4015,-11.7887,1172.5148],[33.4021,-11.7913,1172.7009],[33.3987,-11.7924,1172.7644],[33.3949,-11.7832,1173.4268],[33.3915,-11.7803,1177.8223],[33.3878,-11.7839,1176.5262],[33.3835,-11.7825,1167.0367],[33.3798,-11.7835,1163.4459],[33.3703,-11.7893,1166.7268],[33.3697,-11.7916,1164.2563],[33.363,-11.7931,1159.8127],[33.3543,-11.7782,1155.3826],[33.3508,-11.7773,1166.8816],[33.3466,-11.7787,1154.9915],[33.3467,-11.7759,1160.9137],[33.3411,-11.7731,1156.1082],[33.3394,-11.7739,1152.1157],[33.3372,-11.7692,1149.9313],[33.3267,-11.7731,1171.6672],[33.3212,-11.777,1166.6617],[33.3262,-11.7803,1171.0183],[33.3308,-11.7887,1175.4724],[33.3335,-11.7989,1176.6605],[33.3337,-11.8076,1175.7437],[33.3244,-11.8307,1175.3894],[33.3073,-11.8524,1185.7523],[33.3046,-11.8584,1190.2771],[33.3033,-11.8665,1195.3826],[33.3054,-11.8726,1194.0322],[33.3163,-11.8804,1193.5974],[33.3188,-11.8844,1198.9203],[33.3235,-11.9062,1203.3143],[33.3229,-11.9184,1204.2756],[33.3183,-11.937,1203.7261],[33.3102,-11.9484,1193.6682],[33.3117,-11.9615,1184.5817],[33.3064,-11.9764,1187.9523],[33.3095,-11.9882,1194.1182],[33.3058,-12.0044,1208.0815],[33.3008,-12.0157,1202.2439],[33.2917,-12.024,1205.1517],[33.2804,-12.0529,1209.3114],[33.272,-12.0631,1220.9316],[33.272,-12.0818,1227.1152],[33.2673,-12.0992,1229.4696],[33.2576,-12.1225,1225.3369],[33.2604,-12.1241,1227.9385],[33.2613,-12.1422,1223.9204],[33.2651,-12.1494,1224.8071],[33.285,-12.1603,1209.5171],[33.2933,-12.1624,1220.6987],[33.3052,-12.1614,1243.4294],[33.3094,-12.1663,1254.1102],[33.309,-12.1852,1248.2177],[33.3118,-12.2014,1244.2345],[33.3093,-12.2453,1246.4451],[33.3216,-12.2557,1242.6166],[33.3277,-12.2565,1245.4814],[33.3312,-12.2655,1248.2439],[33.3333,-12.2823,1251.4904],[33.3425,-12.2933,1251.9708],[33.3513,-12.299,1247.8103],[33.3592,-12.3109,1246.2676]]]]}
,"properties": {"GID_2": "MWI.17.7_1","GID_0": "MWI","country": "Malawi","GID_1": "MWI.17_1","province": "Mzimba","NL_NAME_1": "NA","county": "TAM'Mbelwa","VARNAME_2": "NA","NL_NAME_2": "NA","TYPE_2": "TraditionalAuthority","ENGTYPE_2": "TraditionalAuthority","CC_2": "NA","HASC_2": "NA","name": "T_A_M'Mbelwa.county","area_km2": 1145.4352,"hist_schema_id": "Elevation0-9000","hist_area_km2": {"1150": 3.7567,"1175": 132.5825,"1200": 291.2944,"1225": 175.4728,"1250": 158.4268,"1275": 118.8053,"1300": 98.8659,"1325": 82.8236,"1350": 51.8461,"1375": 27.1024,"1400": 4.2723,"1425": 0.1036,"1450": 0.0829}}}