{"type":"Feature","properties":{"GID_3":"MWI.3.5.2_1","GID_0":"MWI","country":"Malawi","GID_1":"MWI.3_1","province":"Chikwawa","NL_NAME_1":"NA","GID_2":"MWI.3.5_1","county":"TAChapananga","NL_NAME_2":"NA","city":"n.a.(2507)","VARNAME_3":"NA","NL_NAME_3":"NA","TYPE_3":"Unknown","ENGTYPE_3":"Unknown","CC_3":"NA","HASC_3":"NA","name":"n.a.(2507).city"},
"geometry":{"type": "MultiPolygon","coordinates": [[[[34.3342,-15.779,567.082],[34.3259,-15.7753,542.8562],[34.3181,-15.776,540.1077],[34.3209,-15.7794,541.0737],[34.3144,-15.7859,533.968],[34.3087,-15.7883,542.8324],[34.3158,-15.7953,526.7597],[34.3256,-15.7973,580.733],[34.3449,-15.7913,552.4737],[34.356,-15.7907,518.2333],[34.3598,-15.7886,506.3413],[34.3616,-15.7921,499.9718],[34.372,-15.7973,497.4102],[34.3738,-15.7949,499.3737],[34.3764,-15.7952,499.3387],[34.3886,-15.7884,523.675],[34.3926,-15.7927,548.3695],[34.3948,-15.8007,548.1934],[34.3979,-15.8043,570.0908],[34.3981,-15.797,589.1033],[34.4019,-15.7956,588.7686],[34.4072,-15.7966,584.481],[34.4141,-15.7837,579.9376],[34.4101,-15.7767,613.4246],[34.3995,-15.7681,630.7404],[34.4031,-15.7604,624.7416],[34.3535,-15.74,795.3117],[34.3539,-15.7478,818.5909],[34.3388,-15.762,575.9937],[34.3433,-15.7625,573.3024],[34.3465,-15.7663,560.5975],[34.3503,-15.7666,568.2317],[34.3553,-15.771,549.0745],[34.3531,-15.7733,537.5836],[34.348,-15.772,568.5957],[34.3436,-15.7754,561.7418],[34.3342,-15.779,567.082]]]]}}