{"type": "Feature","bbox": [33.6016,-13.3995,33.6662,-13.333],"geometry": {"type": "MultiPolygon","coordinates": [[[[33.607,-13.3401,1074.1691],[33.6026,-13.3495,1073.8025],[33.6016,-13.3632,1076.8857],[33.6036,-13.3742,1082.3794],[33.6082,-13.3814,1088.8191],[33.6068,-13.3824,1084.3871],[33.6067,-13.3868,1085.53],[33.6109,-13.3907,1087.4038],[33.6129,-13.3995,1091.2983],[33.6267,-13.3975,1116.9911],[33.643,-13.3907,1147.3083],[33.6454,-13.3853,1147.9061],[33.6491,-13.3822,1141.7866],[33.6614,-13.3805,1159.6533],[33.6658,-13.3781,1170.6412],[33.6639,-13.3695,1153.8812],[33.6662,-13.3436,1144.8284],[33.6654,-13.3363,1131.9861],[33.6526,-13.333,1125.3577],[33.6371,-13.339,1113.5071],[33.6142,-13.3415,1090.625],[33.607,-13.3401,1074.1691]]]]}
,"properties": {"GID_3": "MWI.7.3.12_1","GID_0": "MWI","country": "Malawi","GID_1": "MWI.7_1","province": "Dowa","NL_NAME_1": "NA","GID_2": "MWI.7.3_1","county": "SCChakhaza","NL_NAME_2": "NA","city": "n.a.(579)","VARNAME_3": "NA","NL_NAME_3": "NA","TYPE_3": "Unknown","ENGTYPE_3": "Unknown","CC_3": "NA","HASC_3": "NA","name": "n.a.(579).city","area_km2": 38.34755,"hist_schema_id": "Elevation0-9000","hist_area_km2": {"1075": 2.70234,"1100": 10.045959999999999,"1125": 17.32746,"1150": 8.25116,"1175": 0.02063}}}