{"type": "Feature","bbox": [35.7645,-15.652,35.8364,-15.6068],"geometry": {"type": "MultiPolygon","coordinates": [[[[35.8039,-15.6073,742.3916],[35.7985,-15.6093,735.088],[35.7925,-15.6092,713.0182],[35.789,-15.6137,724.379],[35.7875,-15.6234,739.5164],[35.7918,-15.6275,712.1252],[35.7923,-15.6324,664.529],[35.773,-15.6261,690.7861],[35.7645,-15.6314,634.5],[35.7671,-15.6337,634.6961],[35.7686,-15.6393,634.5],[35.7778,-15.6472,634.5],[35.7877,-15.652,634.5],[35.8097,-15.6472,634.5],[35.8282,-15.6394,635.0978],[35.8315,-15.6374,634.5],[35.8324,-15.634,634.5],[35.8356,-15.6329,634.6852],[35.8364,-15.6108,645.9591],[35.8172,-15.6107,711.2771],[35.8106,-15.6068,786.7822],[35.8039,-15.6073,742.3916]]]]}
,"properties": {"GID_3": "MWI.24.3.10_1","GID_0": "MWI","country": "Malawi","GID_1": "MWI.24_1","province": "Phalombe","NL_NAME_1": "NA","GID_2": "MWI.24.3_1","county": "TANazombe","NL_NAME_2": "NA","city": "n.a.(2371)","VARNAME_3": "NA","NL_NAME_3": "NA","TYPE_3": "Unknown","ENGTYPE_3": "Unknown","CC_3": "NA","HASC_3": "NA","name": "n.a.(2371).city","area_km2": 24.48148,"hist_schema_id": "Elevation0-9000","hist_area_km2": {"625": 7.55436,"650": 8.28978,"675": 1.89895,"700": 0.73508,"725": 0.63299,"750": 0.69426,"775": 0.79637,"800": 0.77594,"825": 0.51049,"850": 0.46965,"875": 0.24504,"900": 0.42881,"925": 0.28587,"950": 0.26545,"975": 0.34713,"1000": 0.24503,"1025": 0.16335,"1050": 0.1021,"1075": 0.04084}}}