{"type":"Feature","properties":{"GID_3":"MWI.15.5.14_1","GID_0":"MWI","country":"Malawi","GID_1":"MWI.15_1","province":"Mulanje","NL_NAME_1":"NA","GID_2":"MWI.15.5_1","county":"TAChikumbu","NL_NAME_2":"NA","city":"n.a.(2806)","VARNAME_3":"NA","NL_NAME_3":"NA","TYPE_3":"Unknown","ENGTYPE_3":"Unknown","CC_3":"NA","HASC_3":"NA","name":"n.a.(2806).city"},
"geometry":{"type": "MultiPolygon","coordinates": [[[[35.4066,-16.0295,675.4263],[35.3975,-16.0401,653.046],[35.3989,-16.0477,643.9669],[35.4053,-16.051,637.1135],[35.4076,-16.0492,642.9032],[35.4179,-16.0486,634.5543],[35.4326,-16.0507,617.8772],[35.4417,-16.0489,602.047],[35.4416,-16.0466,609.5083],[35.4338,-16.0397,614.2806],[35.4309,-16.0341,631.1604],[35.4284,-16.0339,629.6583],[35.4253,-16.0312,629.6237],[35.4205,-16.0311,646.4598],[35.42,-16.0397,656.6084],[35.4088,-16.0337,672.375],[35.4066,-16.0295,675.4263]]]]}}