{"type":"Feature","properties":{"GID_3":"MWI.12.12.11_1","GID_0":"MWI","country":"Malawi","GID_1":"MWI.12_1","province":"Machinga","NL_NAME_1":"NA","GID_2":"MWI.12.12_1","county":"TAKawinga","NL_NAME_2":"NA","city":"n.a.(1852)","VARNAME_3":"NA","NL_NAME_3":"NA","TYPE_3":"Unknown","ENGTYPE_3":"Unknown","CC_3":"NA","HASC_3":"NA","name":"n.a.(1852).city"},
"geometry":{"type": "MultiPolygon","coordinates": [[[[35.662,-14.8296,686.8381],[35.6557,-14.828,691.7177],[35.6476,-14.8283,697.6522],[35.6215,-14.8376,684.8652],[35.6172,-14.8503,679.4071],[35.6184,-14.857,675.3031],[35.6202,-14.8578,678.9591],[35.6256,-14.8559,676.0815],[35.6389,-14.8563,677.4503],[35.6452,-14.858,679.2432],[35.6579,-14.8572,678.0485],[35.6637,-14.8632,674.366],[35.6662,-14.8703,672.7042],[35.6696,-14.872,671.0144],[35.675,-14.872,670.632],[35.668,-14.8602,676.4211],[35.6636,-14.8478,680.7393],[35.662,-14.8296,686.8381]]]]}}