{"type": "Feature","bbox": [33.3615,-14.605,33.8853,-14.0814],"geometry": {"type": "MultiPolygon","coordinates": [[[[33.6974,-14.4303,1213.8822],[33.6975,-14.4245,1215.8264],[33.6945,-14.4212,1211.704],[33.6972,-14.4124,1219.0004],[33.699,-14.4119,1214.7515],[33.7023,-14.4154,1210.0936],[33.707,-14.4141,1207.7902],[33.7073,-14.4054,1211.2035],[33.7104,-14.4023,1205.7987],[33.7153,-14.3907,1206.2937],[33.7185,-14.3869,1219.2839],[33.722,-14.3871,1210.5381],[33.7244,-14.383,1219.0266],[33.7274,-14.3818,1213.877],[33.7308,-14.3834,1215.9114],[33.7311,-14.3882,1203.0706],[33.7409,-14.3852,1212.8071],[33.7486,-14.3852,1211.803],[33.7527,-14.3826,1216.5422],[33.764,-14.3798,1206.0413],[33.7707,-14.3745,1211.7892],[33.777,-14.3732,1203.1447],[33.7848,-14.3597,1200.4995],[33.7909,-14.3555,1207.2805],[33.7999,-14.3621,1196.5076],[33.8033,-14.3614,1193.8586],[33.8039,-14.3602,1201.3792],[33.8014,-14.358,1199.2915],[33.8039,-14.3538,1207.1672],[33.8016,-14.3525,1196.1456],[33.801,-14.3483,1200.2556],[33.8039,-14.3461,1192.6862],[33.8043,-14.3426,1199.1001],[33.8078,-14.3405,1193.7101],[33.8079,-14.3369,1197.1486],[33.8134,-14.3338,1200.4347],[33.8205,-14.3324,1196.2114],[33.8253,-14.3258,1194.408],[33.8274,-14.3254,1189.7178],[33.828,-14.322,1203.2112],[33.8318,-14.32,1190.928],[33.8383,-14.3118,1197.0964],[33.8453,-14.3124,1196.9287],[33.8533,-14.3206,1195.4393],[33.8621,-14.323,1191.3137],[33.8791,-14.3192,1193.6541],[33.8853,-14.3139,1190.4008],[33.8762,-14.3007,1218.192],[33.869,-14.2994,1231.4222],[33.867,-14.2975,1230.2936],[33.8641,-14.2908,1219.0995],[33.8666,-14.2779,1199.2122],[33.8652,-14.2754,1189.3224],[33.8406,-14.2538,1187.2748],[33.8404,-14.2501,1182.7366],[33.8497,-14.2252,1143.2324],[33.8472,-14.2223,1138.5459],[33.8441,-14.212,1135.7844],[33.8412,-14.211,1126.9199],[33.8366,-14.2137,1143.9293],[33.8233,-14.2162,1160.2122],[33.812,-14.2273,1164.8336],[33.8023,-14.2312,1181.8429],[33.7988,-14.2378,1178.8561],[33.7836,-14.2389,1198.5182],[33.7791,-14.2339,1191.8923],[33.7749,-14.222,1190.5468],[33.7654,-14.2219,1174.4686],[33.7475,-14.211,1157.3308],[33.7447,-14.2084,1153.0933],[33.7414,-14.2,1139.6586],[33.7375,-14.1956,1133.1384],[33.737,-14.19,1128.0112],[33.7382,-14.1881,1128.5309],[33.7463,-14.1919,1137.1604],[33.7512,-14.1965,1142.9543],[33.7616,-14.201,1160.6937],[33.7733,-14.193,1184.197],[33.7639,-14.1775,1168.493],[33.7585,-14.1585,1152.0662],[33.7605,-14.1556,1143.2422],[33.7706,-14.1488,1135.3844],[33.7659,-14.1376,1148.9272],[33.7754,-14.1305,1143.5388],[33.7751,-14.1222,1144.9838],[33.767,-14.1013,1156.1335],[33.7659,-14.0945,1142.8657],[33.7439,-14.0895,1126.6674],[33.7315,-14.0909,1100.9314],[33.7237,-14.0878,1093.0879],[33.7138,-14.0874,1076.0105],[33.7086,-14.0854,1073.4578],[33.7093,-14.0881,1060.0917],[33.7062,-14.0931,1078.0574],[33.7049,-14.1023,1065.4558],[33.6993,-14.1067,1083.5767],[33.6791,-14.0896,1100.1766],[33.6673,-14.0971,1111.3459],[33.6354,-14.1074,1136.3503],[33.6276,-14.1156,1150.2764],[33.6231,-14.1232,1155.698],[33.6175,-14.1245,1140.9998],[33.6146,-14.1202,1132.095],[33.6117,-14.1011,1109.87],[33.5988,-14.0814,1092.6392],[33.5689,-14.0939,1104.8132],[33.5455,-14.1149,1104.1423],[33.5408,-14.1164,1104.7833],[33.5091,-14.1154,1119.4576],[33.4986,-14.1164,1117.3247],[33.4929,-14.1247,1117.8181],[33.4833,-14.1287,1126.7428],[33.4769,-14.1346,1124.1709],[33.4732,-14.135,1130.062],[33.4679,-14.1387,1130.9346],[33.4556,-14.137,1140.5333],[33.4451,-14.1328,1155.2509],[33.4311,-14.1418,1154.6879],[33.4244,-14.1383,1160.1794],[33.4206,-14.1341,1166.9376],[33.4163,-14.134,1169.5486],[33.4116,-14.1363,1172.7832],[33.4073,-14.136,1181.6171],[33.3936,-14.1402,1193.2662],[33.3867,-14.1466,1201.4333],[33.384,-14.1681,1239.0747],[33.3813,-14.174,1250.4459],[33.3803,-14.1917,1302.6826],[33.3773,-14.2077,1471.8047],[33.3766,-14.2092,1481.2515],[33.373,-14.2066,1440.2671],[33.3628,-14.2081,1354.1963],[33.3631,-14.2119,1390.0759],[33.3615,-14.2136,1380.7449],[33.3649,-14.2118,1391.1613],[33.3748,-14.211,1484.2496],[33.3792,-14.2158,1446.6738],[33.3794,-14.2245,1408.7531],[33.3819,-14.2342,1480.6542],[33.3967,-14.2499,1487.985],[33.4055,-14.2702,1525.0098],[33.4142,-14.2802,1550.8076],[33.4191,-14.2898,1583.2495],[33.4195,-14.297,1593.265],[33.4241,-14.308,1595.6306],[33.4384,-14.3279,1599.1814],[33.4468,-14.3454,1550.8754],[33.4483,-14.3615,1504.189],[33.4642,-14.3777,1537.1379],[33.4743,-14.3975,1544.311],[33.4806,-14.4035,1517.876],[33.5149,-14.4191,1409.9124],[33.5246,-14.4203,1445.5251],[33.5368,-14.4273,1582.2173],[33.5448,-14.4356,1649.9652],[33.5539,-14.4517,1651.7493],[33.5572,-14.4545,1613.3779],[33.5649,-14.4711,1652.6101],[33.5731,-14.478,1616.6896],[33.5861,-14.4795,1605.1063],[33.5957,-14.4846,1674.441],[33.6131,-14.5012,1576.5581],[33.6189,-14.5081,1460.9041],[33.6299,-14.5316,1421.1682],[33.6298,-14.5436,1389.4578],[33.6274,-14.555,1348.1666],[33.6314,-14.5633,1353.808],[33.6377,-14.5705,1359.028],[33.6449,-14.5832,1351.311],[33.6805,-14.605,1333.281],[33.6907,-14.5917,1385.9097],[33.7047,-14.581,1347.4835],[33.707,-14.5764,1331.1035],[33.7132,-14.5718,1356.5366],[33.7024,-14.5472,1330.6484],[33.6915,-14.5437,1283.2258],[33.6803,-14.5069,1246.5281],[33.6847,-14.488,1237.3257],[33.695,-14.4632,1230.3584],[33.6974,-14.4303,1213.8822]]]]}
,"properties": {"GID_2": "MWI.11.8_1","GID_0": "MWI","country": "Malawi","GID_1": "MWI.11_1","province": "Lilongwe","NL_NAME_1": "NA","county": "TAChiseka","VARNAME_2": "NA","NL_NAME_2": "NA","TYPE_2": "TraditionalAuthority","ENGTYPE_2": "TraditionalAuthority","CC_2": "NA","HASC_2": "NA","name": "T_A_Chiseka.county","area_km2": 1595.012,"hist_schema_id": "Elevation0-9000","hist_area_km2": {"1050": 0.308,"1075": 11.185,"1100": 59.703,"1125": 163.606,"1150": 280.145,"1175": 277.729,"1200": 186.427,"1225": 201.142,"1250": 65.33,"1275": 42.589,"1300": 40.471,"1325": 38.662,"1350": 30.332,"1375": 25.45,"1400": 24.936,"1425": 23.519,"1450": 21.26,"1475": 20.109,"1500": 18.341,"1525": 17.108,"1550": 14.417,"1575": 12.24,"1600": 10.7,"1625": 6.839,"1650": 2.115,"1675": 0.329,"1700": 0.021}}}