{"type": "Feature","bbox": [33.7104,-13.6805,33.7651,-13.6491],"geometry": {"type": "MultiPolygon","coordinates": [[[[33.7291,-13.6563,1379.2375],[33.7257,-13.6581,1367.1968],[33.7104,-13.6607,1338.1245],[33.7149,-13.6704,1338.5483],[33.7172,-13.6805,1310.5287],[33.7618,-13.6695,1317.5005],[33.7648,-13.6671,1317.7117],[33.7639,-13.6587,1341.5844],[33.7651,-13.6498,1343.0933],[33.7638,-13.6491,1346.9956],[33.7518,-13.65,1363.347],[33.7346,-13.656,1361.4331],[33.7291,-13.6563,1379.2375]]]]}
,"properties": {"GID_3": "MWI.7.8.19_1","GID_0": "MWI","country": "Malawi","GID_1": "MWI.7_1","province": "Dowa","NL_NAME_1": "NA","GID_2": "MWI.7.8_1","county": "TADzoole","NL_NAME_2": "NA","city": "n.a.(798)","VARNAME_3": "NA","NL_NAME_3": "NA","TYPE_3": "Unknown","ENGTYPE_3": "Unknown","CC_3": "NA","HASC_3": "NA","name": "n.a.(798).city","area_km2": 12.567286,"hist_schema_id": "Elevation0-9000","hist_area_km2": {"1300": 0.185408,"1325": 2.513402,"1350": 4.635461,"1375": 4.944585,"1400": 0.28843}}}