{"type": "Feature","bbox": [35.6982,-16.0755,35.7181,-16.0665],"geometry": {"type": "MultiPolygon","coordinates": [[[[35.7035,-16.0755,661.7639],[35.7096,-16.072,655.8911],[35.7181,-16.0726,669.8301],[35.7161,-16.0672,669.763],[35.7053,-16.0665,650.3696],[35.699,-16.0684,648.2015],[35.6982,-16.0706,648.1357],[35.7035,-16.0755,661.7639]]]]}
,"properties": {"GID_3": "MWI.15.4.15_1","GID_0": "MWI","country": "Malawi","GID_1": "MWI.15_1","province": "Mulanje","NL_NAME_1": "NA","GID_2": "MWI.15.4_1","county": "SCLastonNjema","NL_NAME_2": "NA","city": "n.a.(2861)","VARNAME_3": "NA","NL_NAME_3": "NA","TYPE_3": "Unknown","ENGTYPE_3": "Unknown","CC_3": "NA","HASC_3": "NA","name": "n.a.(2861).city","area_km2": 1.2427954,"hist_schema_id": "Elevation0-9000","hist_area_km2": {"650": 0.9371904,"675": 0.305605}}}