{"type":"Feature","properties":{"GID_3":"MWI.13.6.12_1","GID_0":"MWI","country":"Malawi","GID_1":"MWI.13_1","province":"Mangochi","NL_NAME_1":"NA","GID_2":"MWI.13.6_1","county":"SCMbwanaNyambi","NL_NAME_2":"NA","city":"n.a.(1643)","VARNAME_3":"NA","NL_NAME_3":"NA","TYPE_3":"Unknown","ENGTYPE_3":"Unknown","CC_3":"NA","HASC_3":"NA","name":"n.a.(1643).city"},
"geometry":{"type": "MultiPolygon","coordinates": [[[[35.554,-14.5236,917.5135],[35.5611,-14.5287,873.8389],[35.5609,-14.5339,871.2513],[35.5637,-14.5362,866.6035],[35.5614,-14.5377,869.6264],[35.5689,-14.5481,907.4559],[35.5738,-14.54,892.3655],[35.5834,-14.5387,906.5696],[35.5888,-14.5363,923.4105],[35.5907,-14.5319,898.4702],[35.5888,-14.5286,878.0513],[35.5859,-14.528,873.4042],[35.5785,-14.5304,866.0115],[35.5749,-14.5279,855.0482],[35.5761,-14.5224,850.2762],[35.5745,-14.5194,846.7958],[35.575,-14.514,850.1442],[35.5802,-14.5102,839.8635],[35.583,-14.4981,836.6436],[35.5808,-14.4979,841.8445],[35.5734,-14.5022,853.6114],[35.5644,-14.5018,878.3732],[35.5612,-14.5056,897.9588],[35.5584,-14.5177,1000.3456],[35.5541,-14.5187,955.5908],[35.554,-14.5236,917.5135]]]]}}