{"type":"Feature","properties":{"GID_3":"MWI.8.7.14_1","GID_0":"MWI","country":"Malawi","GID_1":"MWI.8_1","province":"Karonga","NL_NAME_1":"NA","GID_2":"MWI.8.7_1","county":"TAKyungu","NL_NAME_2":"NA","city":"n.a.(79)","VARNAME_3":"NA","NL_NAME_3":"NA","TYPE_3":"Unknown","ENGTYPE_3":"Unknown","CC_3":"NA","HASC_3":"NA","name":"n.a.(79).city"},
"geometry":{"type": "MultiPolygon","coordinates": [[[[34.0014,-10.0862,479.4975],[33.9942,-10.0861,484.9586],[33.9917,-10.0891,483.3001],[33.9776,-10.0924,517.9582],[33.9711,-10.0918,528.8669],[33.9742,-10.0969,541.7815],[33.9742,-10.1033,550.9418],[33.9931,-10.1175,521.0157],[34.0018,-10.132,533.2349],[34.0033,-10.1375,551.3574],[33.9989,-10.1365,561.5018],[33.9968,-10.1395,581.4016],[33.997,-10.143,557.1433],[34.003,-10.147,558.9831],[34.0064,-10.1419,524.3519],[34.0132,-10.1536,518.704],[34.017,-10.1559,507.6558],[34.0207,-10.1533,500.561],[34.0307,-10.1525,482.8428],[34.0341,-10.1499,477.6283],[34.0324,-10.1454,475.6218],[34.0355,-10.1423,474.5],[34.0298,-10.1361,475.6744],[34.0264,-10.1352,480.2743],[34.0247,-10.1278,474.5],[34.0208,-10.1266,478.7511],[34.0111,-10.119,476.5315],[34.004,-10.1078,474.5],[33.998,-10.1026,475.5383],[33.9983,-10.0962,478.8816],[34.0014,-10.0862,479.4975]]]]}}