{"type": "Feature","bbox": [34.9299,-13.6931,35.0179,-13.5809],"geometry": {"type": "MultiPolygon","coordinates": [[[[34.9545,-13.5921,568.9446],[34.9536,-13.5957,563.4412],[34.9469,-13.5995,558.7537],[34.9326,-13.6156,546.3785],[34.9323,-13.6339,533.6301],[34.9333,-13.6367,533.3918],[34.9383,-13.6406,524.8605],[34.9384,-13.6519,518.1619],[34.9412,-13.6591,523.0887],[34.9417,-13.6681,529.732],[34.9374,-13.6738,525.9286],[34.935,-13.6813,527.5664],[34.9299,-13.6858,530.5507],[34.9336,-13.6931,525.5988],[34.9449,-13.6907,517.6318],[34.9538,-13.6775,521.7211],[34.9665,-13.6764,508.6233],[34.9726,-13.679,505.3893],[34.9771,-13.677,504.3885],[34.9794,-13.6739,505.5466],[34.9792,-13.6665,512.1829],[34.9825,-13.6617,511.7363],[34.985,-13.6606,513.1445],[34.9886,-13.6533,521.223],[34.9962,-13.647,519.1777],[35.0069,-13.6448,531.0537],[35.0114,-13.6375,533.0035],[35.0179,-13.6312,543.195],[34.9638,-13.5809,572.1866],[34.9586,-13.5843,568.5775],[34.9545,-13.5921,568.9446]]]]}
,"properties": {"GID_3": "MWI.13.11.6_1","GID_0": "MWI","country": "Malawi","GID_1": "MWI.13_1","province": "Mangochi","NL_NAME_1": "NA","GID_2": "MWI.13.11_1","county": "TAMakanjila","NL_NAME_2": "NA","city": "n.a.(743)","VARNAME_3": "NA","NL_NAME_3": "NA","TYPE_3": "Unknown","ENGTYPE_3": "Unknown","CC_3": "NA","HASC_3": "NA","name": "n.a.(743).city","area_km2": 61.69033,"hist_schema_id": "Elevation0-9000","hist_area_km2": {"500": 1.15367,"525": 27.52565,"550": 23.98494,"575": 8.92305,"600": 0.10303}}}