{"type":"Feature","properties":{"GID_3":"MWI.17.6.19_1","GID_0":"MWI","country":"Malawi","GID_1":"MWI.17_1","province":"Mzimba","NL_NAME_1":"NA","GID_2":"MWI.17.6_1","county":"TAChindi","NL_NAME_2":"NA","city":"n.a.(233)","VARNAME_3":"NA","NL_NAME_3":"NA","TYPE_3":"Unknown","ENGTYPE_3":"Unknown","CC_3":"NA","HASC_3":"NA","name":"n.a.(233).city"},
"geometry":{"type": "MultiPolygon","coordinates": [[[[33.3293,-11.591,1116.9969],[33.3363,-11.6021,1117.2993],[33.3367,-11.6091,1118.0754],[33.3354,-11.6114,1118.5017],[33.3382,-11.6145,1119.3623],[33.3378,-11.6182,1120.86],[33.34,-11.6247,1120.9636],[33.3371,-11.6271,1120.7522],[33.336,-11.6353,1121.8588],[33.3184,-11.6346,1141.3942],[33.3166,-11.6133,1148.1208],[33.3108,-11.5951,1142.6035],[33.3067,-11.5912,1132.7524],[33.2935,-11.5871,1131.7113],[33.2895,-11.5782,1187.0094],[33.2865,-11.5759,1146.4415],[33.2818,-11.576,1152.0298],[33.2781,-11.5812,1164.0034],[33.2835,-11.5833,1151.175],[33.2889,-11.5952,1132.0121],[33.2925,-11.5985,1125.5505],[33.3004,-11.6005,1127.4836],[33.3048,-11.6058,1132.3604],[33.3079,-11.6265,1126.8049],[33.3077,-11.6399,1137.3657],[33.299,-11.6769,1139.0049],[33.3023,-11.7112,1153.4596],[33.2988,-11.7331,1157.4703],[33.3116,-11.7598,1159.3042],[33.3092,-11.7763,1149.0859],[33.3114,-11.7822,1155.0023],[33.3203,-11.7949,1158.426],[33.3226,-11.8033,1164.1108],[33.3226,-11.8116,1161.6284],[33.3207,-11.8254,1164.394],[33.2941,-11.8567,1182.0282],[33.2915,-11.8648,1183.3376],[33.2942,-11.8803,1176.8134],[33.3019,-11.8921,1183.2462],[33.3108,-11.92,1178.7241],[33.3078,-11.9343,1186.5535],[33.2974,-11.9521,1179.4895],[33.2982,-11.9628,1167.8098],[33.2932,-11.9842,1171.5731],[33.2947,-12.0068,1184.9519],[33.2836,-12.0261,1190.692],[33.2728,-12.0339,1187.8538],[33.2671,-12.0514,1203.0161],[33.2605,-12.0603,1210.7333],[33.2563,-12.0739,1200.5803],[33.2549,-12.089,1201.5291],[33.2455,-12.1108,1195.6212],[33.2418,-12.1308,1199.214],[33.2471,-12.1525,1220.2809],[33.249,-12.1568,1222.6479],[33.2532,-12.1606,1207.8158],[33.2583,-12.1626,1197.8942],[33.2852,-12.1632,1212.5142],[33.2922,-12.166,1219.111],[33.2917,-12.1717,1223.0719],[33.2856,-12.1865,1218.2207],[33.2889,-12.2056,1192.6333],[33.286,-12.238,1215.4446],[33.2894,-12.2452,1227.6262],[33.3088,-12.2683,1225.1989],[33.3259,-12.2972,1224.4387],[33.3346,-12.3061,1238.1036],[33.3419,-12.3239,1218.1726],[33.3439,-12.341,1227.3638],[33.3474,-12.3444,1231.5582],[33.3529,-12.3466,1240.2261],[33.3657,-12.3451,1262.5173],[33.3631,-12.3193,1248.9546],[33.3513,-12.299,1247.8103],[33.3425,-12.2933,1251.9708],[33.3333,-12.2823,1251.4904],[33.3312,-12.2655,1248.2439],[33.3277,-12.2565,1245.4814],[33.3216,-12.2557,1242.6166],[33.3093,-12.2453,1246.4451],[33.3118,-12.2014,1244.2345],[33.309,-12.1852,1248.2177],[33.3094,-12.1663,1254.1102],[33.3052,-12.1614,1243.4294],[33.2933,-12.1624,1220.6987],[33.285,-12.1603,1209.5171],[33.2651,-12.1494,1224.8071],[33.2613,-12.1422,1223.9204],[33.2604,-12.1241,1227.9385],[33.2576,-12.1225,1225.3369],[33.2673,-12.0992,1229.4696],[33.272,-12.0818,1227.1152],[33.272,-12.0631,1220.9316],[33.2804,-12.0529,1209.3114],[33.2917,-12.024,1205.1517],[33.3008,-12.0157,1202.2439],[33.3058,-12.0044,1208.0815],[33.3095,-11.9882,1194.1182],[33.3064,-11.9764,1187.9523],[33.3117,-11.9615,1184.5817],[33.3102,-11.9484,1193.6682],[33.3183,-11.937,1203.7261],[33.3229,-11.9184,1204.2756],[33.3235,-11.9062,1203.3143],[33.3188,-11.8844,1198.9203],[33.3163,-11.8804,1193.5974],[33.3054,-11.8726,1194.0322],[33.3033,-11.8665,1195.3826],[33.3046,-11.8584,1190.2771],[33.3073,-11.8524,1185.7523],[33.3244,-11.8307,1175.3894],[33.3337,-11.8076,1175.7437],[33.3335,-11.7989,1176.6605],[33.3308,-11.7887,1175.4724],[33.3262,-11.7803,1171.0183],[33.3215,-11.7779,1166.6617],[33.3204,-11.7709,1174.3911],[33.318,-11.7669,1174.7753],[33.3232,-11.7579,1174.1517],[33.3232,-11.755,1176.4307],[33.3181,-11.7461,1171.7899],[33.3138,-11.7286,1164.5941],[33.3284,-11.7128,1153.9032],[33.3317,-11.7013,1144.7478],[33.3373,-11.6943,1141.1941],[33.3408,-11.6937,1134.8694],[33.3421,-11.6907,1134.7529],[33.341,-11.6882,1134.0447],[33.3324,-11.6825,1138.2896],[33.3367,-11.6795,1135.4856],[33.3368,-11.6721,1131.8142],[33.34,-11.6667,1131.425],[33.3548,-11.6686,1139.1655],[33.3652,-11.6603,1156.3577],[33.4006,-11.6671,1210.561],[33.4018,-11.6522,1213.0146],[33.3911,-11.6501,1189.739],[33.3734,-11.6499,1159.1676],[33.3669,-11.6465,1154.4578],[33.3897,-11.6158,1182.1614],[33.4081,-11.6264,1215.4],[33.4155,-11.6289,1195.522],[33.4175,-11.6189,1187.3909],[33.4171,-11.608,1188.6255],[33.4474,-11.6075,1225.777],[33.4476,-11.6063,1229.7009],[33.4438,-11.5812,1202.2844],[33.4368,-11.5795,1193.8053],[33.428,-11.5797,1184.5483],[33.4245,-11.5784,1178.2775],[33.4139,-11.5851,1179.5532],[33.3919,-11.5852,1181.4139],[33.3723,-11.5748,1157.7012],[33.3293,-11.591,1116.9969]]]]}}