{"type":"Feature","properties":{"GID_3":"MWI.15.5.2_1","GID_0":"MWI","country":"Malawi","GID_1":"MWI.15_1","province":"Mulanje","NL_NAME_1":"NA","GID_2":"MWI.15.5_1","county":"TAChikumbu","NL_NAME_2":"NA","city":"n.a.(2730)","VARNAME_3":"NA","NL_NAME_3":"NA","TYPE_3":"Unknown","ENGTYPE_3":"Unknown","CC_3":"NA","HASC_3":"NA","name":"n.a.(2730).city"},
"geometry":{"type": "MultiPolygon","coordinates": [[[[35.4069,-15.9688,708.4619],[35.4007,-15.9831,734.9823],[35.3792,-15.9856,726.2449],[35.3905,-15.9987,728.0457],[35.4016,-15.9924,713.3868],[35.4053,-15.9932,693.8527],[35.4065,-15.9957,689.3736],[35.4131,-15.9971,680.6652],[35.415,-15.9998,666.6111],[35.4151,-15.9938,689.5131],[35.41,-15.984,727.5127],[35.418,-15.9835,722.6366],[35.4181,-15.9792,720.0914],[35.4145,-15.9773,717.8265],[35.4069,-15.9688,708.4619]]]]}}