{"type": "Feature","bbox": [34.9603,-16.5545,35.0225,-16.522],"geometry": {"type": "MultiPolygon","coordinates": [[[[34.9603,-16.5321,100.6005],[34.9868,-16.5441,94.9865],[34.9882,-16.5484,94.9512],[34.9977,-16.5545,90.472],[35.0043,-16.5484,88.7655],[35.0084,-16.5466,85.0209],[35.0048,-16.541,85.9712],[35.0122,-16.5371,76.9113],[35.0103,-16.5326,79.279],[35.0151,-16.5301,75.5065],[35.0135,-16.5272,74.9174],[35.0225,-16.5255,73.2353],[35.0119,-16.5226,71.3683],[35.0028,-16.5306,79.7843],[34.9942,-16.5341,85.9472],[34.9744,-16.5264,91.9221],[34.9698,-16.522,89.556],[34.9603,-16.5321,100.6005]]]]}
,"properties": {"GID_3": "MWI.3.11.31_1","GID_0": "MWI","country": "Malawi","GID_1": "MWI.3_1","province": "Chikwawa","NL_NAME_1": "NA","GID_2": "MWI.3.11_1","county": "TANgabu","NL_NAME_2": "NA","city": "n.a.(3071)","VARNAME_3": "NA","NL_NAME_3": "NA","TYPE_3": "Unknown","ENGTYPE_3": "Unknown","CC_3": "NA","HASC_3": "NA","name": "n.a.(3071).city","area_km2": 9.00408,"hist_schema_id": "Elevation0-9000","hist_area_km2": {"75": 2.906548,"100": 6.097532}}}