{"type":"Feature","properties":{"GID_3":"MWI.7.8.1_1","GID_0":"MWI","country":"Malawi","GID_1":"MWI.7_1","province":"Dowa","NL_NAME_1":"NA","GID_2":"MWI.7.8_1","county":"TADzoole","NL_NAME_2":"NA","city":"n.a.(632)","VARNAME_3":"NA","NL_NAME_3":"NA","TYPE_3":"Unknown","ENGTYPE_3":"Unknown","CC_3":"NA","HASC_3":"NA","name":"n.a.(632).city"},
"geometry":{"type": "MultiPolygon","coordinates": [[[[33.6755,-13.4383,1176.8909],[33.6727,-13.4443,1168.0161],[33.671,-13.4665,1164.2351],[33.6693,-13.4709,1152.9614],[33.6727,-13.4749,1147.2805],[33.6787,-13.4763,1155.5107],[33.6809,-13.4801,1145.3057],[33.6917,-13.4766,1164.1365],[33.6924,-13.4667,1186.8298],[33.6942,-13.4642,1195.7666],[33.7081,-13.461,1233.6647],[33.7104,-13.4482,1226.0698],[33.7211,-13.4459,1260.3776],[33.7321,-13.4405,1280.1448],[33.7342,-13.4377,1271.4246],[33.7322,-13.429,1243.4741],[33.7347,-13.425,1243.0024],[33.7077,-13.423,1237.5347],[33.7013,-13.4297,1208.0184],[33.6905,-13.4302,1199.4259],[33.6838,-13.4324,1193.3845],[33.6769,-13.436,1183.1248],[33.6755,-13.4383,1176.8909]]]]}}