{"type": "Feature","bbox": [34.6677,-14.8456,34.7218,-14.7858],"geometry": {"type": "MultiPolygon","coordinates": [[[[34.6938,-14.7938,963.0114],[34.6847,-14.7958,969.0414],[34.6717,-14.7954,1006.2761],[34.6677,-14.7989,1014.8135],[34.6727,-14.8013,1007.1486],[34.6697,-14.8068,1014.0577],[34.6826,-14.8104,999.8318],[34.6899,-14.8156,982.5786],[34.6845,-14.8258,990.5707],[34.6918,-14.833,983.5812],[34.6992,-14.8312,972.4942],[34.6959,-14.841,989.8521],[34.7041,-14.8413,963.9224],[34.7124,-14.8456,951.3447],[34.7134,-14.8415,957.6714],[34.719,-14.8365,939.9401],[34.7163,-14.834,945.4406],[34.7151,-14.8287,942.9381],[34.7207,-14.8276,924.7356],[34.7218,-14.8258,921.8181],[34.7178,-14.8024,953.5524],[34.7187,-14.7989,963.6207],[34.7203,-14.7983,959.6688],[34.7187,-14.7976,971.1044],[34.7185,-14.7937,980.5519],[34.7153,-14.7876,1005.9347],[34.7127,-14.7858,995.6708],[34.7003,-14.7874,970.7168],[34.6987,-14.7908,961.9722],[34.7002,-14.8008,951.0598],[34.6946,-14.7963,953.9884],[34.6938,-14.7938,963.0114]]]]}
,"properties": {"GID_3": "MWI.22.6.7_1","GID_0": "MWI","country": "Malawi","GID_1": "MWI.22_1","province": "Ntcheu","NL_NAME_1": "NA","GID_2": "MWI.22.6_1","county": "TAKwataine","NL_NAME_2": "NA","city": "n.a.(1818)","VARNAME_3": "NA","NL_NAME_3": "NA","TYPE_3": "Unknown","ENGTYPE_3": "Unknown","CC_3": "NA","HASC_3": "NA","name": "n.a.(1818).city","area_km2": 20.92801,"hist_schema_id": "Elevation0-9000","hist_area_km2": {"925": 1.02484,"950": 7.17408,"975": 8.52696,"1000": 3.97663,"1025": 0.22549}}}