{"type": "Feature","bbox": [35.4406,-15.0488,35.4943,-15.0077],"geometry": {"type": "MultiPolygon","coordinates": [[[[35.4816,-15.0077,692.2034],[35.4683,-15.0247,709.3195],[35.4574,-15.025,752.9824],[35.4516,-15.0306,742.1558],[35.4406,-15.0371,730.1411],[35.4605,-15.0488,691.2727],[35.4767,-15.0464,670.8929],[35.4819,-15.0485,666.5175],[35.4821,-15.044,672.8517],[35.4853,-15.0383,663.564],[35.4943,-15.0375,655.2463],[35.4892,-15.0333,661.142],[35.4943,-15.0207,671.0324],[35.4875,-15.0115,681.0394],[35.4816,-15.0077,692.2034]]]]}
,"properties": {"GID_3": "MWI.12.8.6_1","GID_0": "MWI","country": "Malawi","GID_1": "MWI.12_1","province": "Machinga","NL_NAME_1": "NA","GID_2": "MWI.12.8_1","county": "SCMlomba","NL_NAME_2": "NA","city": "n.a.(1975)","VARNAME_3": "NA","NL_NAME_3": "NA","TYPE_3": "Unknown","ENGTYPE_3": "Unknown","CC_3": "NA","HASC_3": "NA","name": "n.a.(1975).city","area_km2": 13.51463,"hist_schema_id": "Elevation0-9000","hist_area_km2": {"650": 0.14333,"675": 4.93489,"700": 5.32397,"725": 2.21146,"750": 0.86002,"775": 0.04095}}}