{"type": "Feature","bbox": [33.9221,-14.1943,33.958,-14.1602],"geometry": {"type": "MultiPolygon","coordinates": [[[[33.9221,-14.1681,1142.3751],[33.924,-14.1769,1152.9696],[33.934,-14.1784,1207.1699],[33.9318,-14.1805,1193.924],[33.9368,-14.1832,1213.0483],[33.9319,-14.1908,1199.8633],[33.9415,-14.1943,1203.2385],[33.958,-14.192,1193.3418],[33.9525,-14.1822,1203.094],[33.9515,-14.1751,1211.4004],[33.9488,-14.1707,1213.233],[33.9484,-14.1686,1212.9746],[33.9519,-14.163,1211.8927],[33.951,-14.1602,1214.1011],[33.9409,-14.1609,1193.6095],[33.936,-14.1625,1181.1409],[33.929,-14.1677,1162.9014],[33.9221,-14.1681,1142.3751]]]]}
,"properties": {"GID_3": "MWI.11.13.14_1","GID_0": "MWI","country": "Malawi","GID_1": "MWI.11_1","province": "Lilongwe","NL_NAME_1": "NA","GID_2": "MWI.11.13_1","county": "TAKalumbu","NL_NAME_2": "NA","city": "n.a.(1315)","VARNAME_3": "NA","NL_NAME_3": "NA","TYPE_3": "Unknown","ENGTYPE_3": "Unknown","CC_3": "NA","HASC_3": "NA","name": "n.a.(1315).city","area_km2": 8.366476,"hist_schema_id": "Elevation0-9000","hist_area_km2": {"1150": 0.883949,"1175": 1.418452,"1200": 5.344609,"1225": 0.719466}}}