{"type":"Feature","properties":{"GID_3":"MWI.6.3.3_1","GID_0":"MWI","country":"Malawi","GID_1":"MWI.6_1","province":"Dedza","NL_NAME_1":"NA","GID_2":"MWI.6.3_1","county":"SCChauma","NL_NAME_2":"NA","city":"n.a.(1200)","VARNAME_3":"NA","NL_NAME_3":"NA","TYPE_3":"Unknown","ENGTYPE_3":"Unknown","CC_3":"NA","HASC_3":"NA","name":"n.a.(1200).city"},
"geometry":{"type": "MultiPolygon","coordinates": [[[[34.1312,-14.0599,1116.0328],[34.1308,-14.0637,1127.7205],[34.12,-14.0662,1143.1173],[34.1142,-14.073,1145.7704],[34.1318,-14.099,1188.8573],[34.1379,-14.0956,1210.0289],[34.1425,-14.0965,1230.906],[34.1435,-14.0788,1190.0437],[34.1465,-14.077,1194.9863],[34.1499,-14.078,1181.3979],[34.1506,-14.0762,1176.1609],[34.1488,-14.0656,1160.4353],[34.1392,-14.0671,1148.8494],[34.1334,-14.0605,1107.7305],[34.1312,-14.0599,1116.0328]]]]}}