{"type": "Feature","bbox": [33.7426,-13.6671,34.1166,-13.4791],"geometry": {"type": "MultiPolygon","coordinates": [[[[33.8683,-13.6587,1457.0189],[33.8815,-13.6555,1426.8303],[33.8918,-13.6564,1369.6744],[33.8937,-13.6585,1367.7853],[33.8944,-13.6645,1393.3838],[33.8962,-13.6655,1403.6562],[33.9053,-13.6575,1382.3024],[33.9151,-13.6586,1391.2355],[33.9212,-13.6524,1354.9165],[33.9216,-13.6404,1312.6277],[33.9249,-13.6382,1306.0493],[33.9382,-13.6382,1318.8835],[33.9356,-13.6245,1252.27],[33.9362,-13.6189,1251.1096],[33.9388,-13.6183,1260.2542],[33.9459,-13.622,1230.9087],[33.9478,-13.6184,1233.2284],[33.9549,-13.6208,1211.8174],[33.96,-13.6109,1223.5369],[33.965,-13.6077,1175.9572],[33.9646,-13.606,1164.186],[33.9612,-13.6055,1193.5979],[33.9623,-13.6007,1156.5571],[33.9712,-13.602,1158.4314],[33.9696,-13.5972,1140.957],[33.9708,-13.596,1145.8771],[33.9812,-13.5949,1106.5608],[33.9891,-13.598,1072.9055],[33.9963,-13.5978,1073.1619],[34.0071,-13.6029,1043.0619],[34.0099,-13.6028,1034.5803],[34.0123,-13.6055,1025.0957],[34.0195,-13.6043,1028.274],[34.0225,-13.6077,1009.1055],[34.0253,-13.6067,1000.2658],[34.0302,-13.6082,1002.914],[34.0322,-13.6135,975.7323],[34.0354,-13.6124,993.3417],[34.0372,-13.6157,968.5584],[34.0408,-13.6175,966.8052],[34.0514,-13.617,936.2975],[34.0548,-13.6137,936.9899],[34.0606,-13.6145,926.54],[34.0661,-13.6085,926.7025],[34.0712,-13.6116,892.1712],[34.0737,-13.6068,895.1202],[34.077,-13.6087,890.1576],[34.0789,-13.5984,899.2755],[34.0763,-13.5944,887.9362],[34.0771,-13.5925,892.4788],[34.084,-13.5932,845.907],[34.0902,-13.5909,826.2891],[34.0919,-13.5872,826.912],[34.0975,-13.591,812.9067],[34.1051,-13.5857,800.2192],[34.1053,-13.5796,807.4009],[34.1025,-13.5771,781.0245],[34.1051,-13.5743,791.2367],[34.1043,-13.5637,763.5196],[34.106,-13.5638,763.5196],[34.1119,-13.5694,749.3533],[34.115,-13.5692,745.1991],[34.1166,-13.5668,778.1731],[34.1165,-13.531,774.6412],[34.1117,-13.513,739.5999],[34.1095,-13.5153,725.2229],[34.1052,-13.5146,726.9167],[34.1025,-13.5213,735.8301],[34.0968,-13.5232,746.6339],[34.0803,-13.5334,772.3812],[34.0766,-13.5336,799.1239],[34.0735,-13.5317,795.9382],[34.0642,-13.5349,824.3893],[34.0588,-13.5343,833.3741],[34.056,-13.5322,871.2329],[34.0504,-13.5335,905.995],[34.0463,-13.5279,907.5007],[34.0421,-13.5289,984.6411],[34.0392,-13.5252,954.8612],[34.0349,-13.5257,944.2535],[34.031,-13.5233,1027.3895],[34.0337,-13.5059,972.4518],[34.0221,-13.5037,1087.509],[34.0219,-13.5023,1088.3605],[34.0254,-13.4997,1078.152],[34.0225,-13.4945,1037.4779],[34.0134,-13.5004,1080.9813],[34.0088,-13.5004,1096.1986],[34.0045,-13.4967,1111.5439],[34.0016,-13.4988,1099.7208],[33.9899,-13.5018,1231.38],[33.9789,-13.5087,1166.9224],[33.9716,-13.506,1298.9523],[33.9606,-13.5136,1234.4567],[33.9565,-13.5144,1240.052],[33.95,-13.5113,1249.1689],[33.9484,-13.5086,1271.9595],[33.9435,-13.5072,1299.3396],[33.9423,-13.4999,1309.9575],[33.9367,-13.4944,1344.1279],[33.9348,-13.4949,1348.3226],[33.9319,-13.4904,1354.0372],[33.9319,-13.4863,1367.8568],[33.9285,-13.4814,1404.3712],[33.9216,-13.4791,1392.37],[33.9175,-13.4843,1398.0975],[33.8937,-13.4942,1333.6194],[33.8832,-13.5014,1321.8733],[33.8776,-13.5033,1313.0671],[33.8643,-13.503,1304.7676],[33.8567,-13.5004,1298.5513],[33.8336,-13.5113,1262.5222],[33.8323,-13.5076,1285.7852],[33.8235,-13.5128,1273.209],[33.8103,-13.5155,1256.5416],[33.7892,-13.5116,1241.501],[33.7816,-13.5136,1229.7334],[33.7687,-13.5139,1215.1128],[33.7596,-13.5199,1207.8235],[33.7426,-13.5176,1192.9065],[33.7447,-13.529,1203.6935],[33.7526,-13.5396,1233.6698],[33.7617,-13.5415,1235.6257],[33.7641,-13.5398,1233.2565],[33.7656,-13.5334,1225.0117],[33.7628,-13.5258,1198.8062],[33.7647,-13.5202,1199.6995],[33.7742,-13.5258,1215.7559],[33.7737,-13.5326,1206.8831],[33.7772,-13.5409,1224.4785],[33.7818,-13.5462,1227.2957],[33.7996,-13.551,1258.085],[33.8133,-13.5505,1273.6401],[33.8164,-13.5534,1277.717],[33.818,-13.5588,1279.7827],[33.8234,-13.567,1286.6183],[33.8299,-13.5689,1293.0806],[33.8388,-13.5664,1312.573],[33.8441,-13.5699,1321.4445],[33.844,-13.576599999999999,1352.3832],[33.8406,-13.5816,1378.323],[33.8383,-13.5843,1361.4391],[33.8283,-13.5894,1334.202],[33.8291,-13.5963,1364.3584],[33.8261,-13.6005,1383.5895],[33.8086,-13.6064,1336.7773],[33.8021,-13.6158,1344.8479],[33.8013,-13.6231,1360.1444],[33.7965,-13.6309,1364.0463],[33.7947,-13.6378,1368.0737],[33.7956,-13.642,1402.3108],[33.802,-13.649,1450.7716],[33.7972,-13.655,1379.4691],[33.7977,-13.6613,1358.0457],[33.816,-13.6671,1374.7332],[33.8364,-13.6627,1347.48],[33.8514,-13.6641,1441.1543],[33.8583,-13.6575,1456.7057],[33.8644,-13.6594,1469.3948],[33.8683,-13.6587,1457.0189]]]]}
,"properties": {"GID_2": "MWI.7.9_1","GID_0": "MWI","country": "Malawi","GID_1": "MWI.7_1","province": "Dowa","NL_NAME_1": "NA","county": "TAMsakambewa","VARNAME_2": "NA","NL_NAME_2": "NA","TYPE_2": "TraditionalAuthority","ENGTYPE_2": "TraditionalAuthority","CC_2": "NA","HASC_2": "NA","name": "T_A_Msakambewa.county","area_km2": 445.4116,"hist_schema_id": "Elevation0-9000","hist_area_km2": {"725": 0.6597,"750": 3.1538,"775": 5.4417,"800": 7.6675,"825": 7.8735,"850": 5.5237,"875": 5.2558,"900": 4.0808,"925": 3.6479,"950": 3.3181,"975": 4.699,"1000": 7.7701,"1025": 7.8939,"1050": 9.007,"1075": 7.8944,"1100": 5.6477,"1125": 4.7819,"1150": 5.5857,"1175": 6.3482,"1200": 10.945,"1225": 15.4595,"1250": 17.5822,"1275": 19.0452,"1300": 21.2707,"1325": 25.5781,"1350": 36.2535,"1375": 40.2712,"1400": 40.1471,"1425": 34.1285,"1450": 27.162,"1475": 19.8671,"1500": 12.5516,"1525": 9.0272,"1550": 4.9257,"1575": 3.215,"1600": 1.3809,"1625": 0.3092,"1650": 0.0412}}}