{"type":"Feature","properties":{"GID_2":"MWI.1.1_1","GID_0":"MWI","country":"Malawi","GID_1":"MWI.1_1","province":"Balaka","NL_NAME_1":"NA","county":"BalakaTown","VARNAME_2":"NA","NL_NAME_2":"NA","TYPE_2":"Town","ENGTYPE_2":"Town","CC_2":"NA","HASC_2":"NA","name":"Balaka_Town.county"},
"geometry":{"type": "MultiPolygon","coordinates": [[[[34.9668,-14.9746,622.5938],[34.9425,-14.973,655.615],[34.9394,-14.9931,643.5742],[34.9774,-15.0001,608.997],[34.9807,-14.9821,608.9625],[34.9769,-14.9768,614.4863],[34.9668,-14.9746,622.5938]]]]}}