{"type": "Feature","bbox": [33.8334,-13.6641,33.8907,-13.5939],"geometry": {"type": "MultiPolygon","coordinates": [[[[33.8721,-13.6582,1458.8032],[33.878,-13.6488,1416.912],[33.8879,-13.6436,1387.3839],[33.8873,-13.6421,1380.3383],[33.8753,-13.6386,1410.7233],[33.8653,-13.6407,1406.5034],[33.8647,-13.6339,1424.6371],[33.8663,-13.6274,1428.5126],[33.875,-13.6248,1411.8811],[33.8728,-13.622,1413.1003],[33.8778,-13.6128,1381.3746],[33.8907,-13.5975,1359.9395],[33.8841,-13.5941,1370.7539],[33.8829,-13.5953,1366.1732],[33.8795,-13.5939,1373.5212],[33.8681,-13.5958,1389.0854],[33.8604,-13.5954,1408.4052],[33.8561,-13.6008,1403.5387],[33.8542,-13.6101,1424.1072],[33.834,-13.6305,1466.1711],[33.8334,-13.6478,1395.0587],[33.8372,-13.652,1416.8899],[33.8409,-13.652,1433.1176],[33.8437,-13.6543,1406.2771],[33.8409,-13.6628,1354.2875],[33.8514,-13.6641,1441.1543],[33.8542,-13.6626,1455.7316],[33.8573,-13.6577,1456.7057],[33.8644,-13.6594,1469.3948],[33.8721,-13.6582,1458.8032]]]]}
,"properties": {"GID_3": "MWI.7.9.15_1","GID_0": "MWI","country": "Malawi","GID_1": "MWI.7_1","province": "Dowa","NL_NAME_1": "NA","GID_2": "MWI.7.9_1","county": "TAMsakambewa","NL_NAME_2": "NA","city": "n.a.(754)","VARNAME_3": "NA","NL_NAME_3": "NA","TYPE_3": "Unknown","ENGTYPE_3": "Unknown","CC_3": "NA","HASC_3": "NA","name": "n.a.(754).city","area_km2": 26.41574,"hist_schema_id": "Elevation0-9000","hist_area_km2": {"1350": 0.43274,"1375": 2.12249,"1400": 4.59515,"1425": 7.54145,"1450": 8.13877,"1475": 3.3173,"1500": 0.24724,"1525": 0.0206}}}