{"type":"Feature","properties":{"GID_3":"MWI.21.7.7_1","GID_0":"MWI","country":"Malawi","GID_1":"MWI.21_1","province":"Nsanje","NL_NAME_1":"NA","GID_2":"MWI.21.7_1","county":"TAMlolo","NL_NAME_2":"NA","city":"n.a.(3037)","VARNAME_3":"NA","NL_NAME_3":"NA","TYPE_3":"Unknown","ENGTYPE_3":"Unknown","CC_3":"NA","HASC_3":"NA","name":"n.a.(3037).city"},
"geometry":{"type": "MultiPolygon","coordinates": [[[[35.1398,-16.4256,59.7961],[35.1427,-16.422,60.7514],[35.1522,-16.4194,69.4977],[35.156,-16.4143,72.604],[35.1557,-16.4116,74.767],[35.1621,-16.4107,75.3396],[35.1643,-16.4047,120.5705],[35.1639,-16.401,165.1751],[35.1606,-16.3992,132.8554],[35.1441,-16.381,170.5965],[35.1436,-16.3927,78.9313],[35.1327,-16.4018,55.7975],[35.1455,-16.403199999999998,68.5109],[35.1481,-16.4069,68.7259],[35.1408,-16.4112,60.0369],[35.1383,-16.4217,58.456],[35.1398,-16.4256,59.7961]]]]}}