{"type":"Feature","properties":{"GID_3":"MWI.11.8.26_1","GID_0":"MWI","country":"Malawi","GID_1":"MWI.11_1","province":"Lilongwe","NL_NAME_1":"NA","GID_2":"MWI.11.8_1","county":"TAChiseka","NL_NAME_2":"NA","city":"n.a.(1336)","VARNAME_3":"NA","NL_NAME_3":"NA","TYPE_3":"Unknown","ENGTYPE_3":"Unknown","CC_3":"NA","HASC_3":"NA","name":"n.a.(1336).city"},
"geometry":{"type": "MultiPolygon","coordinates": [[[[33.4585,-14.1896,1194.3667],[33.4662,-14.2087,1189.412],[33.4673,-14.2204,1200.3811],[33.4652,-14.2297,1194.0731],[33.4673,-14.2314,1181.6255],[33.4752,-14.2301,1177.0922],[33.48,-14.2338,1161.9119],[33.4837,-14.2278,1165.114],[33.4947,-14.2255,1159.1333],[33.502,-14.2207,1149.2537],[33.502,-14.2187,1157.7971],[33.5173,-14.211,1138.0679],[33.5211,-14.2058,1143.9744],[33.5208,-14.2043,1152.5387],[33.5182,-14.2037,1150.8009],[33.5199,-14.1867,1158.8367],[33.5089,-14.1845,1172.8881],[33.5044,-14.1781,1171.8326],[33.4981,-14.1819,1179.2587],[33.4963,-14.1867,1187.2019],[33.4805,-14.1958,1177.3693],[33.4792,-14.1961,1177.3693],[33.4786,-14.1896,1183.1273],[33.484,-14.1851,1197.8638],[33.4727,-14.1806,1192.6466],[33.4585,-14.1896,1194.3667]]]]}}