{"type": "Feature","bbox": [35.0446,-16.2771,35.0839,-16.2585],"geometry": {"type": "MultiPolygon","coordinates": [[[[35.0566,-16.2631,88.2125],[35.0446,-16.2706,75.6154],[35.0515,-16.2726,85.4785],[35.0544,-16.2752,85.2689],[35.0584,-16.2732,89.7085],[35.0583,-16.2771,88.3093],[35.0714,-16.277,110.1854],[35.0839,-16.269,182.1158],[35.0791,-16.2633,245.6234],[35.0711,-16.2587,217.7398],[35.0686,-16.2585,202.7937],[35.0631,-16.2632,112.3738],[35.0566,-16.2631,88.2125]]]]}
,"properties": {"GID_3": "MWI.3.9.15_1","GID_0": "MWI","country": "Malawi","GID_1": "MWI.3_1","province": "Chikwawa","NL_NAME_1": "NA","GID_2": "MWI.3.9_1","county": "TAMakhwira","NL_NAME_2": "NA","city": "n.a.(2994)","VARNAME_3": "NA","NL_NAME_3": "NA","TYPE_3": "Unknown","ENGTYPE_3": "Unknown","CC_3": "NA","HASC_3": "NA","name": "n.a.(2994).city","area_km2": 5.006896,"hist_schema_id": "Elevation0-9000","hist_area_km2": {"75": 0.610594,"100": 2.055657,"125": 1.302609,"150": 0.529193,"175": 0.244244,"200": 0.162831,"225": 0.061061,"250": 0.040707}}}