{"type":"Feature","properties":{"GID_3":"MWI.12.13.6_1","GID_0":"MWI","country":"Malawi","GID_1":"MWI.12_1","province":"Machinga","NL_NAME_1":"NA","GID_2":"MWI.12.13_1","county":"TALiwonde","NL_NAME_2":"NA","city":"n.a.(1840)","VARNAME_3":"NA","NL_NAME_3":"NA","TYPE_3":"Unknown","ENGTYPE_3":"Unknown","CC_3":"NA","HASC_3":"NA","name":"n.a.(1840).city"},
"geometry":{"type": "MultiPolygon","coordinates": [[[[35.5329,-14.8233,758.0839],[35.5236,-14.8213,763.2393],[35.5173,-14.8181,772.3021],[35.5157,-14.8155,763.6888],[35.5089,-14.8155,717.3082],[35.5097,-14.8183,713.5438],[35.5052,-14.8244,678.3777],[35.4964,-14.8287,650.4114],[35.4978,-14.8368,657.9905],[35.4845,-14.8433,602.2847],[35.4783,-14.8431,584.4202],[35.4822,-14.8617,612.5347],[35.4966,-14.8647,637.5355],[35.4977,-14.8675,629.4592],[35.4969,-14.8744,621.3992],[35.5042,-14.8713,641.9271],[35.5184,-14.8616,731.0565],[35.5219,-14.8582,752.803],[35.5225,-14.8543,751.8308],[35.5279,-14.8546,759.1257],[35.5329,-14.8233,758.0839]]]]}}