{"type": "Feature","bbox": [35.0402,-16.6026,35.1372,-16.5103],"geometry": {"type": "MultiPolygon","coordinates": [[[[35.1031,-16.5672,55.6018],[35.0979,-16.5658,57.7971],[35.0961,-16.5691,60.6014],[35.0921,-16.5716,63.3413],[35.0679,-16.5709,66.2144],[35.0639,-16.5733,68.0587],[35.0591,-16.5827,70.9974],[35.0405,-16.5863,86.2568],[35.0402,-16.5889,94.3456],[35.0498,-16.5907,82.1327],[35.0653,-16.6022,77.7147],[35.0707,-16.6004,75.5556],[35.0756,-16.5967,80.0441],[35.0882,-16.6026,84.7881],[35.0979,-16.597,73.7143],[35.1069,-16.6,66.7943],[35.1155,-16.5957,59.924],[35.118,-16.5889,58.5901],[35.1099,-16.5869,62.2598],[35.1004,-16.578,63.9342],[35.1031,-16.5672,55.6018]]],
[[[35.0946,-16.5456,54.8245],[35.0927,-16.5494,56.4778],[35.0935,-16.555,59.0983],[35.1055,-16.5583,54.5562],[35.1177,-16.5527,51.2256],[35.12,-16.5543,50.3578],[35.1282,-16.5524,47.5837],[35.1372,-16.5471,47.6003],[35.1346,-16.5441,47.4501],[35.1248,-16.5401,48.5672],[35.1161,-16.5327,47.6335],[35.1156,-16.5243,49.0535],[35.1107,-16.5158,46.3603],[35.1025,-16.5103,48.3579],[35.0968,-16.5276,47.5],[35.0946,-16.5456,54.8245]]]]}
,"properties": {"GID_3": "MWI.21.4.2_1","GID_0": "MWI","country": "Malawi","GID_1": "MWI.21_1","province": "Nsanje","NL_NAME_1": "NA","GID_2": "MWI.21.4_1","county": "SCMbenje","NL_NAME_2": "NA","city": "n.a.(3068)","VARNAME_3": "NA","NL_NAME_3": "NA","TYPE_3": "Unknown","ENGTYPE_3": "Unknown","CC_3": "NA","HASC_3": "NA","name": "n.a.(3068).city","area_km2": 30.82853,"hist_schema_id": "Elevation0-9000","hist_area_km2": {"50": 14.00363,"75": 16.54044,"100": 0.28446}}}