{"type":"Feature","properties":{"GID_3":"MWI.13.5.11_1","GID_0":"MWI","country":"Malawi","GID_1":"MWI.13_1","province":"Mangochi","NL_NAME_1":"NA","GID_2":"MWI.13.5_1","county":"SCChowe","NL_NAME_2":"NA","city":"n.a.(1587)","VARNAME_3":"NA","NL_NAME_3":"NA","TYPE_3":"Unknown","ENGTYPE_3":"Unknown","CC_3":"NA","HASC_3":"NA","name":"n.a.(1587).city"},
"geometry":{"type": "MultiPolygon","coordinates": [[[[35.3779,-14.4241,920.7438],[35.3716,-14.4349,828.4567],[35.3651,-14.434,761.6602],[35.3627,-14.4367,654.1382],[35.4087,-14.4477,671.5743],[35.4177,-14.4374,796.4524],[35.4171,-14.4317,810.5531],[35.4192,-14.4305,780.3743],[35.4181,-14.428,847.4857],[35.4046,-14.4258,849.9146],[35.3934,-14.4267,861.2357],[35.3852,-14.4228,934.0083],[35.3779,-14.4241,920.7438]]]]}}