{"type":"Feature","properties":{"GID_3":"MWI.3.5.8_1","GID_0":"MWI","country":"Malawi","GID_1":"MWI.3_1","province":"Chikwawa","NL_NAME_1":"NA","GID_2":"MWI.3.5_1","county":"TAChapananga","NL_NAME_2":"NA","city":"n.a.(2581)","VARNAME_3":"NA","NL_NAME_3":"NA","TYPE_3":"Unknown","ENGTYPE_3":"Unknown","CC_3":"NA","HASC_3":"NA","name":"n.a.(2581).city"},
"geometry":{"type": "MultiPolygon","coordinates": [[[[34.3964,-15.821,543.0919],[34.3897,-15.8213,511.6575],[34.3891,-15.8181,506.3412],[34.3855,-15.8165,513.926],[34.3836,-15.8198,504.3083],[34.3777,-15.8183,506.8808],[34.3749,-15.822,490.0359],[34.3716,-15.8234,485.337],[34.3696,-15.8234,481.6755],[34.367,-15.8209,491.7272],[34.3669,-15.8338,505.9799],[34.3644,-15.8339,501.4842],[34.3599,-15.8387,487.2949],[34.3397,-15.8415,336.1486],[34.3425,-15.8476,320.2628],[34.3396,-15.851,332.3617],[34.3453,-15.8546,345.4786],[34.3443,-15.8615,282.1621],[34.3481,-15.8668,277.4921],[34.3518,-15.8668,320.5541],[34.3616,-15.8758,286.6975],[34.357,-15.8782,283.6931],[34.3574,-15.8799,264.8219],[34.3609,-15.8799,272.3234],[34.3626,-15.8816,260.3597],[34.3648,-15.8784,289.1339],[34.3732,-15.8781,289.8873],[34.373,-15.8736,309.0623],[34.3759,-15.8641,415.603],[34.3908,-15.8626,422.2142],[34.3919,-15.86,424.4215],[34.3904,-15.8572,438.1281],[34.3926,-15.8494,459.8486],[34.3979,-15.8466,465.8048],[34.3971,-15.8418,476.7952],[34.4092,-15.8381,501.0324],[34.4122,-15.8326,632.8901],[34.4181,-15.828,563.8629],[34.4062,-15.8194,552.623],[34.3997,-15.8194,530.8007],[34.3964,-15.821,543.0919]]]]}}