{"type":"Feature","properties":{"GID_3":"MWI.15.6.12_1","GID_0":"MWI","country":"Malawi","GID_1":"MWI.15_1","province":"Mulanje","NL_NAME_1":"NA","GID_2":"MWI.15.6_1","county":"TAMabuka","NL_NAME_2":"NA","city":"n.a.(2820)","VARNAME_3":"NA","NL_NAME_3":"NA","TYPE_3":"Unknown","ENGTYPE_3":"Unknown","CC_3":"NA","HASC_3":"NA","name":"n.a.(2820).city"},
"geometry":{"type": "MultiPolygon","coordinates": [[[[35.6605,-16.0406,638.6971],[35.6539,-16.0396,683.3212],[35.6494,-16.0412,703.0833],[35.6445,-16.0362,934.877],[35.6444,-16.0426,721.4081],[35.6416,-16.0492,670.4194],[35.643,-16.0518,663.8796],[35.6476,-16.0508,668.1016],[35.645,-16.0548,675.8748],[35.6484,-16.0592,671.2468],[35.6516,-16.0588,674.3994],[35.6571,-16.0637,646.5789],[35.6614,-16.0706,640.3815],[35.6713,-16.0754,618.9028],[35.6651,-16.0614,619.7806],[35.665,-16.0577,620.3083],[35.6622,-16.0563,621.1609],[35.6668,-16.048,624.7181],[35.6644,-16.0431,633.6025],[35.6605,-16.0406,638.6971]]]]}}