{"type":"Feature","properties":{"GID_3":"MWI.13.5.21_1","GID_0":"MWI","country":"Malawi","GID_1":"MWI.13_1","province":"Mangochi","NL_NAME_1":"NA","GID_2":"MWI.13.5_1","county":"SCChowe","NL_NAME_2":"NA","city":"n.a.(1676)","VARNAME_3":"NA","NL_NAME_3":"NA","TYPE_3":"Unknown","ENGTYPE_3":"Unknown","CC_3":"NA","HASC_3":"NA","name":"n.a.(1676).city"},
"geometry":{"type": "MultiPolygon","coordinates": [[[[35.3222,-14.5731,486.7638],[35.3234,-14.5753,486.9933],[35.327,-14.5744,488.759],[35.3278,-14.5781,487.8567],[35.324,-14.5802,486.2026],[35.3271,-14.5854,484.7886],[35.3349,-14.5893,488.2312],[35.3438,-14.5911,491.1951],[35.3492,-14.5889,494.4965],[35.356,-14.5822,501.7805],[35.3711,-14.5812,518.5947],[35.368,-14.5709,515.9315],[35.3652,-14.5675,508.5724],[35.3687,-14.5643,510.1461],[35.3735,-14.5633,512.086],[35.3695,-14.5591,511.5442],[35.3628,-14.5617,508.989],[35.3596,-14.5654,506.0435],[35.3543,-14.5675,504.4032],[35.3496,-14.567,503.4865],[35.3471,-14.5697,499.8193],[35.3391,-14.5657,499.5216],[35.3365,-14.562,497.89],[35.3313,-14.5634,495.2763],[35.3236,-14.5619,489.9927],[35.3195,-14.5657,486.5925],[35.3222,-14.5731,486.7638]]]]}}