{"type":"Feature","properties":{"GID_3":"MWI.13.5.15_1","GID_0":"MWI","country":"Malawi","GID_1":"MWI.13_1","province":"Mangochi","NL_NAME_1":"NA","GID_2":"MWI.13.5_1","county":"SCChowe","NL_NAME_2":"NA","city":"n.a.(1620)","VARNAME_3":"NA","NL_NAME_3":"NA","TYPE_3":"Unknown","ENGTYPE_3":"Unknown","CC_3":"NA","HASC_3":"NA","name":"n.a.(1620).city"},
"geometry":{"type": "MultiPolygon","coordinates": [[[[35.3316,-14.4863,533.0721],[35.3324,-14.4954,549.8779],[35.343,-14.5046,573.8466],[35.3425,-14.5092,584.5655],[35.3596,-14.5148,519.6526],[35.3681,-14.5142,535.8202],[35.3708,-14.5107,535.786],[35.3757,-14.5103,537.4481],[35.3787,-14.507,539.282],[35.3812,-14.4966,551.9879],[35.3848,-14.4945,590.0627],[35.3788,-14.4853,570.0458],[35.3746,-14.4739,621.7687],[35.3676,-14.4765,551.088],[35.3493,-14.4699,525.2107],[35.3399,-14.4708,517.1248],[35.3362,-14.4663,513.2371],[35.3318,-14.4675,514.481],[35.3298,-14.4722,521.4071],[35.3336,-14.4764,524.0015],[35.3353,-14.4818,547.1268],[35.3316,-14.4863,533.0721]]]]}}