{"type": "Feature","bbox": [33.7172,-14.2723,33.7734,-14.2378],"geometry": {"type": "MultiPolygon","coordinates": [[[[33.7172,-14.2378,1124.7024],[33.7179,-14.2425,1127.6056],[33.7215,-14.2477,1140.9203],[33.7205,-14.2495,1127.4014],[33.7214,-14.2556,1131.8215],[33.7248,-14.256,1139.7775],[33.7267,-14.2581,1141.9008],[33.7289,-14.2617,1138.3258],[33.7297,-14.2679,1143.6283],[33.7346,-14.2691,1156.9552],[33.7363,-14.2713,1149.8271],[33.7462,-14.2723,1167.1095],[33.7552,-14.2661,1184.0315],[33.7596,-14.2651,1182.5161],[33.7629,-14.2663,1183.3118],[33.766,-14.2627,1201.8676],[33.7695,-14.2635,1213.999],[33.7734,-14.2617,1224.4491],[33.7734,-14.2567,1223.9398],[33.7705,-14.2537,1220.2488],[33.7551,-14.2507,1197.6736],[33.7366,-14.2423,1163.755],[33.7326,-14.2452,1150.7103],[33.7237,-14.2395,1144.8475],[33.7172,-14.2378,1124.7024]]]]}
,"properties": {"GID_3": "MWI.11.8.42_1","GID_0": "MWI","country": "Malawi","GID_1": "MWI.11_1","province": "Lilongwe","NL_NAME_1": "NA","GID_2": "MWI.11.8_1","county": "TAChiseka","NL_NAME_2": "NA","city": "n.a.(1398)","VARNAME_3": "NA","NL_NAME_3": "NA","TYPE_3": "Unknown","ENGTYPE_3": "Unknown","CC_3": "NA","HASC_3": "NA","name": "n.a.(1398).city","area_km2": 11.959665,"hist_schema_id": "Elevation0-9000","hist_area_km2": {"1125": 0.554858,"1150": 3.205717,"1175": 4.623536,"1200": 2.835785,"1225": 0.73977}}}