{"type":"Feature","properties":{"GID_3":"MWI.11.8.25_1","GID_0":"MWI","country":"Malawi","GID_1":"MWI.11_1","province":"Lilongwe","NL_NAME_1":"NA","GID_2":"MWI.11.8_1","county":"TAChiseka","NL_NAME_2":"NA","city":"n.a.(1327)","VARNAME_3":"NA","NL_NAME_3":"NA","TYPE_3":"Unknown","ENGTYPE_3":"Unknown","CC_3":"NA","HASC_3":"NA","name":"n.a.(1327).city"},
"geometry":{"type": "MultiPolygon","coordinates": [[[[33.7512,-14.1965,1142.9543],[33.7561,-14.1931,1158.3505],[33.7549,-14.1863,1167.0952],[33.7579,-14.1842,1162.3973],[33.7528,-14.1805,1165.8878],[33.7424,-14.1791,1145.4222],[33.7352,-14.1803,1131.3992],[33.7308,-14.1776,1115.0679],[33.7294,-14.1743,1115.7754],[33.726,-14.1719,1120.8588],[33.7236,-14.1754,1112.354],[33.7184,-14.1778,1124.1677],[33.7116,-14.1703,1132.332],[33.709,-14.1752,1120.1726],[33.6998,-14.1745,1101.6539],[33.7049,-14.1987,1099.0088],[33.7155,-14.2015,1124.6985],[33.7251,-14.1922,1146.3763],[33.7263,-14.1959,1150.7761],[33.7371,-14.1929,1129.6472],[33.7382,-14.1881,1128.5309],[33.7463,-14.1919,1137.1604],[33.7512,-14.1965,1142.9543]]]]}}