{"type": "Feature","bbox": [34.1029,-14.0662,34.1406,-14.0148],"geometry": {"type": "MultiPolygon","coordinates": [[[[34.1406,-14.0315,1070.5768],[34.1351,-14.0291,1093.0345],[34.1349,-14.0261,1130.9369],[34.1237,-14.0185,1145.3696],[34.1136,-14.0148,1164.8445],[34.1084,-14.0167,1173.2617],[34.1063,-14.0236,1207.9446],[34.1029,-14.0267,1230.8467],[34.105,-14.0288,1219.1038],[34.1141,-14.0272,1161.6699],[34.1191,-14.0304,1132.2515],[34.1172,-14.0406,1161.5579],[34.1119,-14.0518,1167.8196],[34.1116,-14.0568,1154.8027],[34.1176,-14.0617,1141.8978],[34.12,-14.0662,1143.1173],[34.1313,-14.0632,1127.7205],[34.1315,-14.0488,1129.8928],[34.1342,-14.0449,1113.2161],[34.1345,-14.0407,1105.0859],[34.1406,-14.0315,1070.5768]]]]}
,"properties": {"GID_3": "MWI.11.16.14_1","GID_0": "MWI","country": "Malawi","GID_1": "MWI.11_1","province": "Lilongwe","NL_NAME_1": "NA","GID_2": "MWI.11.16_1","county": "TAMazengera","NL_NAME_2": "NA","city": "n.a.(1148)","VARNAME_3": "NA","NL_NAME_3": "NA","TYPE_3": "Unknown","ENGTYPE_3": "Unknown","CC_3": "NA","HASC_3": "NA","name": "n.a.(1148).city","area_km2": 11.148356,"hist_schema_id": "Elevation0-9000","hist_area_km2": {"1075": 0.226265,"1100": 1.193016,"1125": 3.537843,"1150": 4.360531,"1175": 1.357595,"1200": 0.390827,"1225": 0.08228}}}