{"type": "Feature","bbox": [34.7141,-14.9887,34.7891,-14.9343],"geometry": {"type": "MultiPolygon","coordinates": [[[[34.7343,-14.9516,855.3029],[34.7355,-14.9564,862.6111],[34.7337,-14.9612,869.8701],[34.7289,-14.9629,886.1442],[34.7278,-14.9659,881.7799],[34.7155,-14.9745,946.5547],[34.7141,-14.978,963.827],[34.7199,-14.9815,927.515],[34.7285,-14.98,900.6958],[34.7359,-14.9816,907.8348],[34.7407,-14.9839,894.4547],[34.7451,-14.9887,886.4651],[34.7462,-14.9853,898.3558],[34.7439,-14.9748,897.9448],[34.7516,-14.9725,885.6609],[34.7554,-14.969,901.2596],[34.7741,-14.9678,884.3978],[34.7828,-14.9725,867.2578],[34.7866,-14.9602,864.4708],[34.7875,-14.9471,829.0959],[34.7891,-14.943,812.656],[34.7862,-14.9416,817.8354],[34.7845,-14.9377,817.4624],[34.7811,-14.9379,813.4829],[34.7773,-14.9343,820.7161],[34.772,-14.9356,821.6575],[34.7702,-14.9345,824.7064],[34.7655,-14.9407,835.1005],[34.7573,-14.942,838.0273],[34.7504,-14.9469,847.6178],[34.7466,-14.9453,856.0264],[34.7425,-14.9463,850.8528],[34.7388,-14.9502,854.7399],[34.7343,-14.9516,855.3029]]]]}
,"properties": {"GID_3": "MWI.22.10.1_1","GID_0": "MWI","country": "Malawi","GID_1": "MWI.22_1","province": "Ntcheu","NL_NAME_1": "NA","GID_2": "MWI.22.10_1","county": "TAPhambala","NL_NAME_2": "NA","city": "n.a.(1925)","VARNAME_3": "NA","NL_NAME_3": "NA","TYPE_3": "Unknown","ENGTYPE_3": "Unknown","CC_3": "NA","HASC_3": "NA","name": "n.a.(1925).city","area_km2": 22.2657,"hist_schema_id": "Elevation0-9000","hist_area_km2": {"800": 0.06146,"825": 2.49918,"850": 6.00194,"875": 7.25117,"900": 5.57122,"925": 0.63494,"950": 0.24578}}}