{"type":"Feature","properties":{"GID_3":"MWI.20.7.8_1","GID_0":"MWI","country":"Malawi","GID_1":"MWI.20_1","province":"Nkhotakota","NL_NAME_1":"NA","GID_2":"MWI.20.7_1","county":"TAKanyenda","NL_NAME_2":"NA","city":"n.a.(341)","VARNAME_3":"NA","NL_NAME_3":"NA","TYPE_3":"Unknown","ENGTYPE_3":"Unknown","CC_3":"NA","HASC_3":"NA","name":"n.a.(341).city"},
"geometry":{"type": "MultiPolygon","coordinates": [[[[34.1757,-12.4496,476.7792],[34.1682,-12.466,479.5643],[34.1591,-12.4673,479.5726],[34.1202,-12.4964,488.3825],[34.1196,-12.5026,488.5825],[34.125,-12.5043,490.9168],[34.1293,-12.5007,488.9929],[34.1357,-12.4985,487.9218],[34.1379,-12.4986,488.1793],[34.1371,-12.5014,487.312],[34.1388,-12.5016,487.312],[34.1443,-12.4997,486.8883],[34.1419,-12.4959,486.7355],[34.1427,-12.4949,486.7355],[34.1705,-12.4884,481.9537],[34.1825,-12.4835,477.2595],[34.1789,-12.4736,479.0644],[34.1757,-12.4496,476.7792]]]]}}