{"type": "Feature","bbox": [34.8071,-14.2847,34.9138,-14.2118],"geometry": {"type": "MultiPolygon","coordinates": [[[[34.8085,-14.2512,474.5],[34.833,-14.2519,529.4564],[34.8403,-14.2591,530.1448],[34.8626,-14.2618,652.161],[34.8608,-14.2751,633.3342],[34.8685,-14.2847,623.8852],[34.8691,-14.277,616.7327],[34.8806,-14.2742,594.1157],[34.8857,-14.2712,572.827],[34.8955,-14.273,564.9993],[34.9034,-14.2773,559.6393],[34.9125,-14.2787,559.6986],[34.9113,-14.2762,558.046],[34.9138,-14.2661,550.5977],[34.9078,-14.2614,548.3906],[34.9086,-14.2588,550.3606],[34.9113,-14.2574,547.0649],[34.9061,-14.2557,545.7067],[34.9045,-14.2523,543.965],[34.9065,-14.2505,543.1869],[34.9091,-14.253,545.2719],[34.9108,-14.2525,542.8072],[34.9098,-14.2398,538.6846],[34.9058,-14.2372,532.7815],[34.904,-14.2329,532.9226],[34.8995,-14.2311,529.7075],[34.8993,-14.2284,532.2105],[34.8916,-14.2268,530.5884],[34.8908,-14.2201,524.717],[34.889,-14.2202,526.5826],[34.8878,-14.2165,523.3469],[34.8815,-14.2118,524.2797],[34.8675,-14.2157,515.9972],[34.8721,-14.2177,520.1344],[34.8722,-14.2193,521.3128],[34.8641,-14.2271,528.2239],[34.8601,-14.2338,525.6475],[34.8562,-14.235,522.8108],[34.8551,-14.2371,530.9451],[34.8477,-14.2338,516.9147],[34.8432,-14.2356,515.9654],[34.8375,-14.2409,506.3735],[34.8311,-14.2364,497.8948],[34.8223,-14.238,503.8108],[34.8172,-14.234,483.0117],[34.8092,-14.2363,476.1892],[34.8096,-14.2418,475.0755],[34.8071,-14.2498,474.5],[34.8085,-14.2512,474.5]]]]}
,"properties": {"GID_3": "MWI.13.13.11_1","GID_0": "MWI","country": "Malawi","GID_1": "MWI.13_1","province": "Mangochi","NL_NAME_1": "NA","GID_2": "MWI.13.13_1","county": "TANankumba","NL_NAME_2": "NA","city": "n.a.(1374)","VARNAME_3": "NA","NL_NAME_3": "NA","TYPE_3": "Unknown","ENGTYPE_3": "Unknown","CC_3": "NA","HASC_3": "NA","name": "n.a.(1374).city","area_km2": 42.82617,"hist_schema_id": "Elevation0-9000","hist_area_km2": {"475": 2.1989,"500": 2.09614,"525": 6.69982,"550": 13.33687,"575": 4.788,"600": 3.10296,"625": 3.51391,"650": 3.10292,"675": 2.17826,"700": 1.02749,"725": 0.34936,"750": 0.22605,"775": 0.0411,"800": 0.10275,"825": 0.0411,"875": 0.02055}}}