{"type": "Feature","bbox": [33.7186,-14.3882,33.7869,-14.3354],"geometry": {"type": "MultiPolygon","coordinates": [[[[33.7869,-14.3583,1196.8983],[33.7784,-14.3522,1207.9698],[33.772,-14.35,1209.9465],[33.7609,-14.3492,1213.3551],[33.7553,-14.3504,1212.365],[33.7406,-14.3354,1235.2568],[33.7381,-14.3398,1234.0317],[33.7238,-14.3433,1223.1882],[33.7255,-14.3479,1227.5635],[33.7366,-14.3594,1215.4561],[33.7386,-14.3663,1226.8761],[33.7231,-14.3722,1228.8943],[33.7186,-14.3754,1231.6721],[33.7244,-14.383,1219.0266],[33.7276,-14.3818,1216.4048],[33.7307,-14.3833,1215.9114],[33.7308,-14.3882,1203.0706],[33.7409,-14.3852,1212.8071],[33.7486,-14.3852,1211.803],[33.7527,-14.3826,1216.5422],[33.764,-14.3798,1206.0413],[33.7713,-14.3742,1211.7892],[33.777,-14.3732,1203.1447],[33.7848,-14.3597,1200.4995],[33.7869,-14.3583,1196.8983]]]]}
,"properties": {"GID_3": "MWI.11.8.58_1","GID_0": "MWI","country": "Malawi","GID_1": "MWI.11_1","province": "Lilongwe","NL_NAME_1": "NA","GID_2": "MWI.11.8_1","county": "TAChiseka","NL_NAME_2": "NA","city": "n.a.(1494)","VARNAME_3": "NA","NL_NAME_3": "NA","TYPE_3": "Unknown","ENGTYPE_3": "Unknown","CC_3": "NA","HASC_3": "NA","name": "n.a.(1494).city","area_km2": 22.16205,"hist_schema_id": "Elevation0-9000","hist_area_km2": {"1200": 3.57393,"1225": 18.58812}}}