{"type":"Feature","properties":{"GID_3":"MWI.8.8.6_1","GID_0":"MWI","country":"Malawi","GID_1":"MWI.8_1","province":"Karonga","NL_NAME_1":"NA","GID_2":"MWI.8.8_1","county":"TAWasambo","NL_NAME_2":"NA","city":"n.a.(92)","VARNAME_3":"NA","NL_NAME_3":"NA","TYPE_3":"Unknown","ENGTYPE_3":"Unknown","CC_3":"NA","HASC_3":"NA","name":"n.a.(92).city"},
"geometry":{"type": "MultiPolygon","coordinates": [[[[34.1154,-10.3196,501.269],[34.1186,-10.3306,504.6345],[34.1242,-10.3375,508.9077],[34.1192,-10.3515,514.5774],[34.1204,-10.3566,517.713],[34.1229,-10.36,519.223],[34.1251,-10.3592,517.6246],[34.1262,-10.3642,520.2086],[34.131,-10.3655,526.5651],[34.135,-10.3724,531.4544],[34.1415,-10.3693,534.864],[34.1469,-10.3749,545.5891],[34.1497,-10.3747,551.1454],[34.1511,-10.3721,548.3909],[34.152,-10.3729,565.2416],[34.1508,-10.3833,582.4894],[34.1555,-10.3868,583.8393],[34.1613,-10.3783,580.0185],[34.1683,-10.3778,574.4797],[34.1654,-10.363,566.3858],[34.1944,-10.3522,539.0798],[34.1922,-10.3465,534.3548],[34.1768,-10.331,516.4202],[34.1696,-10.3265,523.0737],[34.1679,-10.3226,510.2867],[34.1583,-10.3188,501.8533],[34.1508,-10.3101,489.5155],[34.1332,-10.3125,495.7616],[34.1255,-10.3086,497.8986],[34.117,-10.3159,500.6817],[34.1154,-10.3196,501.269]]]]}}