{"type": "Feature","bbox": [33.3783,-14.0601,33.4297,-14.0163],"geometry": {"type": "MultiPolygon","coordinates": [[[[33.3783,-14.0163,1134.2065],[33.3828,-14.0288,1135.9379],[33.39,-14.0302,1152.3208],[33.3918,-14.0398,1161.2316],[33.4003,-14.0514,1183.5629],[33.4218,-14.0594,1187.4784],[33.428,-14.0601,1194.9163],[33.428,-14.0562,1194.048],[33.425,-14.0534,1189.8345],[33.4297,-14.0403,1190.4884],[33.4276,-14.0375,1181.6133],[33.4288,-14.0338,1184.3269],[33.4179,-14.0212,1180.4675],[33.4157,-14.0193,1173.4716],[33.4074,-14.0204,1165.3871],[33.3783,-14.0163,1134.2065]]]]}
,"properties": {"GID_3": "MWI.11.11.23_1","GID_0": "MWI","country": "Malawi","GID_1": "MWI.11_1","province": "Lilongwe","NL_NAME_1": "NA","GID_2": "MWI.11.11_1","county": "TAKalolo","NL_NAME_2": "NA","city": "n.a.(1154)","VARNAME_3": "NA","NL_NAME_3": "NA","TYPE_3": "Unknown","ENGTYPE_3": "Unknown","CC_3": "NA","HASC_3": "NA","name": "n.a.(1154).city","area_km2": 15.48859,"hist_schema_id": "Elevation0-9000","hist_area_km2": {"1125": 0.22628,"1150": 4.0111,"1175": 9.37943,"1200": 1.87178}}}