{"type":"Feature","properties":{"GID_2":"MWI.19.3_1","GID_0":"MWI","country":"Malawi","GID_1":"MWI.19_1","province":"NkhataBay","NL_NAME_1":"NA","county":"SCMalanda","VARNAME_2":"NA","NL_NAME_2":"NA","TYPE_2":"Sub-chief","ENGTYPE_2":"Sub-chief","CC_2":"NA","HASC_2":"NA","name":"S_C_Malanda.county"},
"geometry":{"type": "MultiPolygon","coordinates": [[[[34.1742,-11.82,487.0539],[34.1902,-11.8064,488.3111],[34.204,-11.8006,475.6801],[34.2078,-11.7966,476.4059],[34.2033,-11.7952,476.4127],[34.1971,-11.7861,483.5694],[34.1961,-11.7777,493.4124],[34.1985,-11.7584,481.5694],[34.1935,-11.7518,481.8445],[34.1925,-11.7457,484.1272],[34.1871,-11.7397,492.1992],[34.1813,-11.7217,489.2045],[34.1795,-11.7206,489.2896],[34.1632,-11.7231,492.6824],[34.1479,-11.7381,504.9924],[34.1191,-11.7532,564.1642],[34.1012,-11.7854,645.5536],[34.0879,-11.7988,695.0475],[34.082,-11.7993,837.1455],[34.0728,-11.7951,856.2394],[34.0689,-11.7978,829.1071],[34.0626,-11.8169,807.0843],[34.0644,-11.8295,877.5131],[34.0625,-11.8382,856.1918],[34.0631,-11.8508,891.1272],[34.0678,-11.8561,916.6942],[34.0669,-11.8636,941.2945],[34.0719,-11.8653,827.6026],[34.0819,-11.8602,718.1316],[34.0964,-11.8604,571.5162],[34.1199,-11.8746,648.8246],[34.1304,-11.8724,548.8384],[34.131,-11.8779,520.7003],[34.1366,-11.8751,522.0883],[34.1401,-11.8807,512.2208],[34.1455,-11.8826,509.111],[34.1501,-11.8947,503.1076],[34.1653,-11.9001,481.0366],[34.1644,-11.8867,484.9404],[34.1677,-11.8789,488.8796],[34.1665,-11.8727,489.6615],[34.1717,-11.8664,488.8534],[34.1709,-11.8589,491.7754],[34.1768,-11.8525,481.2632],[34.175,-11.8484,481.2634],[34.1756,-11.8446,481.7716],[34.1737,-11.8429,489.5391],[34.175,-11.8374,477.1953],[34.1726,-11.833,486.1083],[34.1759,-11.8269,482.4808],[34.1742,-11.82,487.0539]]]]}}