{"type": "Feature","bbox": [35.2126,-17.1261,35.274,-17.0866],"geometry": {"type": "MultiPolygon","coordinates": [[[[35.214,-17.1261,52.7538],[35.2655,-17.1258,32.4811],[35.2692,-17.1163,32.182],[35.2732,-17.111,32.7387],[35.274,-17.1062,33.4012],[35.2728,-17.1004,33.1949],[35.2665,-17.0956,33.7063],[35.2608,-17.0866,32.9662],[35.2402,-17.1021,32.6909],[35.2434,-17.1172,32.7455],[35.2126,-17.1148,56.0227],[35.214,-17.1261,52.7538]]]]}
,"properties": {"GID_3": "MWI.21.8.6_1","GID_0": "MWI","country": "Malawi","GID_1": "MWI.21_1","province": "Nsanje","NL_NAME_1": "NA","GID_2": "MWI.21.8_1","county": "TANdamera","NL_NAME_2": "NA","city": "n.a.(3122)","VARNAME_3": "NA","NL_NAME_3": "NA","TYPE_3": "Unknown","ENGTYPE_3": "Unknown","CC_3": "NA","HASC_3": "NA","name": "n.a.(3122).city","area_km2": 14.48849,"hist_schema_id": "Elevation0-9000","hist_area_km2": {"25": 12.60406,"50": 1.88442}}}