{"type":"Feature","properties":{"GID_3":"MWI.14.7.1_1","GID_0":"MWI","country":"Malawi","GID_1":"MWI.14_1","province":"Mchinji","NL_NAME_1":"NA","GID_2":"MWI.14.7_1","county":"TAZulu","NL_NAME_2":"NA","city":"n.a.(1009)","VARNAME_3":"NA","NL_NAME_3":"NA","TYPE_3":"Unknown","ENGTYPE_3":"Unknown","CC_3":"NA","HASC_3":"NA","name":"n.a.(1009).city"},
"geometry":{"type": "MultiPolygon","coordinates": [[[[33.1343,-13.8938,1061.2003],[33.1263,-13.8906,1068.3159],[33.105,-13.8894,1083.3093],[33.0981,-13.9,1093.6187],[33.0929,-13.9035,1076.6028],[33.0925,-13.9075,1072.8157],[33.1026,-13.9099,1074.707],[33.1087,-13.9166,1073.473],[33.1101,-13.9221,1063.1534],[33.1173,-13.928,1065.9651],[33.1273,-13.9288,1062.8599],[33.1333,-13.9244,1063.814],[33.1361,-13.9191,1064.7046],[33.1341,-13.9057,1062.8071],[33.1343,-13.8938,1061.2003]]],
[[[33.1676,-13.8622,1061.2346],[33.1528,-13.8552,1061.3497],[33.1347,-13.8536,1069.161],[33.117,-13.8556,1086.5933],[33.1242,-13.8617,1086.8096],[33.1174,-13.87,1097.4238],[33.1378,-13.888,1060.0288],[33.148,-13.881,1060.3218],[33.1573,-13.8803,1060.5519],[33.1628,-13.8779,1061.3916],[33.1676,-13.8622,1061.2346]]]]}}