{"type":"Feature","properties":{"GID_3":"MWI.27.10.14_1","GID_0":"MWI","country":"Malawi","GID_1":"MWI.27_1","province":"Thyolo","NL_NAME_1":"NA","GID_2":"MWI.27.10_1","county":"TANchilamwela","NL_NAME_2":"NA","city":"n.a.(2878)","VARNAME_3":"NA","NL_NAME_3":"NA","TYPE_3":"Unknown","ENGTYPE_3":"Unknown","CC_3":"NA","HASC_3":"NA","name":"n.a.(2878).city"},
"geometry":{"type": "MultiPolygon","coordinates": [[[[35.166,-16.0797,844.5562],[35.1578,-16.0862,860.7029],[35.1519,-16.0838,885.5337],[35.1522,-16.0873,884.4919],[35.1553,-16.0907,888.5575],[35.1468,-16.0945,871.2274],[35.1423,-16.101,851.3026],[35.1395,-16.1015,835.5721],[35.1414,-16.104,845.7222],[35.1383,-16.1076,833.4867],[35.132,-16.1096,809.9178],[35.1297,-16.1216,792.5223],[35.1424,-16.1209,831.3911],[35.1459,-16.1257,775.4661],[35.1536,-16.1203,810.7518],[35.1626,-16.1198,809.783],[35.1691,-16.1173,806.6216],[35.1657,-16.103,850.8954],[35.1707,-16.0964,829.9648],[35.1773,-16.0913,794.4443],[35.1731,-16.0843,835.0934],[35.166,-16.0797,844.5562]]]]}}