{"type": "Feature","bbox": [33.497,-13.5241,33.578,-13.4613],"geometry": {"type": "MultiPolygon","coordinates": [[[[33.497,-13.4613,1076.5305],[33.4972,-13.4649,1068.8646],[33.5031,-13.4738,1073.5809],[33.5068,-13.4835,1077.0474],[33.5106,-13.4857,1089.144],[33.5171,-13.5002,1087.3148],[33.523,-13.5067,1093.1555],[33.5259,-13.5128,1101.3601],[33.526,-13.5171,1098.7606],[33.534,-13.5241,1109.8149],[33.5382,-13.5235,1114.293],[33.5435,-13.5183,1127.041],[33.5536,-13.5206,1140.2957],[33.5605,-13.5186,1160.7517],[33.5606,-13.508,1151.8433],[33.5654,-13.4965,1153.3772],[33.5703,-13.5016,1150.7709],[33.575,-13.5027,1145.8821],[33.5744,-13.4911,1142.7164],[33.578,-13.4815,1136.9858],[33.5775,-13.4794,1135.0353],[33.5711,-13.4782,1142.6846],[33.57,-13.4815,1147.4426],[33.5596,-13.4822,1152.9797],[33.5542,-13.4779,1133.9077],[33.5566,-13.4688,1137.9327],[33.5405,-13.4678,1116.5197],[33.533,-13.4686,1110.4261],[33.5229,-13.4756,1096.533],[33.5184,-13.4761,1089.4398],[33.5083,-13.4668,1083.1588],[33.497,-13.4613,1076.5305]]]]}
,"properties": {"GID_3": "MWI.7.3.29_1","GID_0": "MWI","country": "Malawi","GID_1": "MWI.7_1","province": "Dowa","NL_NAME_1": "NA","GID_2": "MWI.7.3_1","county": "SCChakhaza","NL_NAME_2": "NA","city": "n.a.(661)","VARNAME_3": "NA","NL_NAME_3": "NA","TYPE_3": "Unknown","ENGTYPE_3": "Unknown","CC_3": "NA","HASC_3": "NA","name": "n.a.(661).city","area_km2": 31.23483,"hist_schema_id": "Elevation0-9000","hist_area_km2": {"1075": 2.04126,"1100": 10.8653,"1125": 11.00931,"1150": 7.31896}}}