{"type":"Feature","properties":{"GID_3":"MWI.17.12.6_1","GID_0":"MWI","country":"Malawi","GID_1":"MWI.17_1","province":"Mzimba","NL_NAME_1":"NA","GID_2":"MWI.17.12_1","county":"TAMzukuzuku","NL_NAME_2":"NA","city":"n.a.(312)","VARNAME_3":"NA","NL_NAME_3":"NA","TYPE_3":"Unknown","ENGTYPE_3":"Unknown","CC_3":"NA","HASC_3":"NA","name":"n.a.(312).city"},
"geometry":{"type": "MultiPolygon","coordinates": [[[[33.4547,-12.2631,1270.1611],[33.462,-12.2704,1280.442],[33.4695,-12.2674,1289.8488],[33.474,-12.2704,1286.8553],[33.4824,-12.2696,1297.2101],[33.4856,-12.2674,1300.7919],[33.4909,-12.2574,1317.7115],[33.509,-12.2478,1322.3517],[33.5042,-12.22,1354.0188],[33.4969,-12.2245,1352.7913],[33.4925,-12.2178,1350.7794],[33.4746,-12.2114,1311.1733],[33.4626,-12.2007,1315.3541],[33.464,-12.2111,1334.0159],[33.4576,-12.2162,1323.4852],[33.4297,-12.2135,1280.573],[33.4287,-12.2314,1274.9277],[33.4159,-12.2281,1265.8666],[33.3976,-12.237,1244.0955],[33.4059,-12.2442,1249.9379],[33.4123,-12.2433,1246.986],[33.4165,-12.2398,1261.7124],[33.4192,-12.243,1262.5278],[33.4292,-12.2478,1275.2119],[33.4344,-12.2462,1278.0156],[33.4419,-12.2478,1281.7185],[33.4534,-12.2551,1274.9897],[33.4547,-12.2631,1270.1611]]]]}}