{"type":"Feature","properties":{"GID_3":"MWI.2.9.2_1","GID_0":"MWI","country":"Malawi","GID_1":"MWI.2_1","province":"Blantyre","NL_NAME_1":"NA","GID_2":"MWI.2.9_1","county":"TASomba","NL_NAME_2":"NA","city":"n.a.(2575)","VARNAME_3":"NA","NL_NAME_3":"NA","TYPE_3":"Unknown","ENGTYPE_3":"Unknown","CC_3":"NA","HASC_3":"NA","name":"n.a.(2575).city"},
"geometry":{"type": "MultiPolygon","coordinates": [[[[34.9654,-15.8231,840.0363],[34.9622,-15.8198,943.8388],[34.9544,-15.8176,956.6158],[34.9377,-15.8087,741.2472],[34.9354,-15.8121,678.3534],[34.9305,-15.8146,675.4485],[34.9267,-15.8278,612.923],[34.9236,-15.8301,576.1448],[34.9355,-15.8391,753.1249],[34.9491,-15.8397,806.106],[34.9538,-15.8366,868.5543],[34.9538,-15.8311,864.6002],[34.9677,-15.8309,862.4941],[34.9696,-15.8267,841.7766],[34.9755,-15.8239,855.6428],[34.9717,-15.8208,855.8908],[34.9678,-15.8243,834.3218],[34.9654,-15.8231,840.0363]]]]}}