{"type":"Feature","properties":{"ISO3166-1-Alpha-3":"MWI","country":"Malawi","fill":"#F0F","id":"1923","name":"Mulanje"},
"geometry":{"type": "Polygon","coordinates": [[[35.49848,-15.69253,684.4688],[35.49755,-15.69207,684.4688],[35.49678,-15.69088,686.963],[35.4974,-15.68586,691.4182],[35.49957,-15.68002,684.0395],[35.51073,-15.66096,676.2707],[35.5129,-15.65801,675.1862],[35.51368,-15.65724,675.2397],[35.51445,-15.65631,675.2397],[35.51569,-15.65413,673.6341],[35.51714,-15.65212,674.8915],[35.52241,-15.64246,671.0739],[35.52319,-15.64194,671.0739],[35.52505,-15.64137,669.9091],[35.52567,-15.64091,669.9518],[35.52644,-15.63998,669.8921],[35.52722,-15.63889,669.9498],[35.52877,-15.63636,669.6859],[35.52939,-15.63563,668.7454],[35.53016,-15.63388,669.5677],[35.53311,-15.6237,666.4105],[35.53528,-15.61879,666.0617],[35.53481,-15.61688,666.0618],[35.53404,-15.61517,665.3921],[35.5266,-15.6067,662.099],[35.50236,-15.6237,679.6334],[35.49492,-15.63005,683.5895],[35.46526,-15.66344,700.058],[35.45751,-15.66597,702.4799],[35.44495,-15.66798,704.8887],[35.40304,-15.66948,720.2946],[35.39033,-15.6717,737.7404],[35.37684,-15.67827,744.2484],[35.36831,-15.68152,752.4064],[35.34066,-15.68344,763.5334],[35.32144,-15.74002,772.2426],[35.32067,-15.77676,759.8027],[35.33477,-15.94275,693.4537],[35.33384,-15.95701,687.5338],[35.32857,-15.96843,690.8196],[35.32377,-15.97298,687.0453],[35.31043,-16.00533,681.0938],[35.32253,-16.09674,567.6052],[35.31865,-16.12537,567.8462],[35.31012,-16.134,564.1667],[35.30454,-16.1385,512.3107],[35.29865,-16.14547,462.6113],[35.29214,-16.15519,450.8733],[35.28496,-16.1726,479.7794],[35.2831,-16.18351,480.2004],[35.28465,-16.19224,418.9552],[35.28821,-16.19736,414.5408],[35.29896,-16.20852,393.7149],[35.29916,-16.20872,393.7149],[35.30496,-16.20206,536.3715],[35.37462,-16.14098,531.3551],[35.39343,-16.12858,527.6343],[35.41606,-16.12289,532.3659],[35.4358,-16.12392,553.4318],[35.45637,-16.1294,569.3543],[35.4729,-16.14015,586.2491],[35.48014,-16.15689,596.5737],[35.48872,-16.16465,590.0632],[35.50205,-16.17085,580.4097],[35.51456,-16.17136,584.851],[35.52107,-16.16216,574.6016],[35.52406,-16.14666,617.5291],[35.52902,-16.14077,615.169],[35.55321,-16.13839,595.259],[35.6486,-16.11059,608.7652],[35.65894,-16.11007,631.2586],[35.67785,-16.11349,645.7982],[35.68705,-16.11266,632.5795],[35.69759,-16.10749,632.1561],[35.77004,-16.05881,651.6005],[35.78513,-16.04228,707.7211],[35.79464,-16.02067,702.6967],[35.79568,-16.00497,691.1658],[35.79009,-15.97448,692.9278],[35.78968,-15.95866,702.6713],[35.79659,-15.9332,694.2184],[35.79624,-15.93334,694.2184],[35.79562,-15.9336,694.2184],[35.79485,-15.9335,698.1437],[35.79407,-15.93319,698.1437],[35.79252,-15.93221,700.1362],[35.79128,-15.93164,701.5295],[35.78896,-15.93164,703.4383],[35.78772,-15.93159,703.4383],[35.78632,-15.93097,708.6408],[35.78136,-15.92807,714.7965],[35.7795,-15.92761,719.7847],[35.7778,-15.92781,721.9197],[35.77656,-15.92843,726.8251],[35.77547,-15.92864,726.8251],[35.77299,-15.92833,730.1662],[35.77175,-15.92843,733.6746],[35.76989,-15.929,737.3734],[35.76648,-15.9305,757.3844],[35.76431,-15.93097,765.1072],[35.76291,-15.93179,760.1371],[35.76214,-15.93267,768.7396],[35.7609,-15.93376,768.027],[35.75625,-15.93639,810.7357],[35.75516,-15.93675,810.7357],[35.75346,-15.93717,822.9452],[35.75253,-15.93748,822.9452],[35.75175,-15.9381,839.8203],[35.74881,-15.93877,849.4341],[35.74741,-15.93939,874.6543],[35.74627,-15.94027,875.639],[35.74524,-15.94166,893.9628],[35.7441,-15.94264,893.9628],[35.74286,-15.94352,922.149],[35.74152,-15.94414,1054.6077],[35.74023,-15.94435,1054.6077],[35.73883,-15.94435,1030.9728],[35.73449,-15.94337,1046.5122],[35.73108,-15.94197,1169.8975],[35.72938,-15.94078,1274.0397],[35.72069,-15.93391,1368.229],[35.71403,-15.93055,1508.5176],[35.69635,-15.91696,1961.9664],[35.68126,-15.90239,2101.0173],[35.66964,-15.89438,2220.4026],[35.6653,-15.89329,2246.6455],[35.64018,-15.90156,2091.178],[35.6006,-15.93551,2265.3081],[35.59564,-15.92931,2090.6201],[35.56659,-15.8519,728.637],[35.56458,-15.84802,724.4989],[35.56318,-15.84663,723.1276],[35.56194,-15.84622,752.995],[35.56117,-15.84622,752.995],[35.56039,-15.84632,723.0885],[35.55884,-15.84647,723.0885],[35.55667,-15.84746,734.6286],[35.55621,-15.84746,734.6286],[35.55574,-15.8473,734.6286],[35.55435,-15.84678,728.1212],[35.55342,-15.84684,728.1212],[35.55249,-15.84632,720.3582],[35.55156,-15.84554,720.1522],[35.55063,-15.84337,721.8038],[35.54923,-15.84146,720.043],[35.54861,-15.84084,720.2054],[35.54799,-15.83955,719.7004],[35.54675,-15.83846,719.7004],[35.54443,-15.83557,718.6465],[35.54365,-15.83526,717.8293],[35.54287,-15.83542,717.8293],[35.54225,-15.83583,717.8472],[35.54163,-15.83567,717.8472],[35.54086,-15.83511,717.8472],[35.53993,-15.83428,716.7949],[35.539,-15.83371,716.7949],[35.53822,-15.83309,717.9999],[35.53729,-15.83257,716.6445],[35.53512,-15.83087,715.1823],[35.53357,-15.82994,714.3695],[35.53202,-15.82839,714.3566],[35.53032,-15.82529,713.22],[35.52458,-15.80942,708.1984],[35.52096,-15.79046,704.649],[35.51445,-15.69832,689.694],[35.51368,-15.69754,691.4982],[35.51306,-15.69677,687.854],[35.51228,-15.6961,689.9957],[35.51027,-15.69486,687.8571],[35.50918,-15.69413,689.0157],[35.50841,-15.69367,689.0157],[35.50515,-15.693,686.5284],[35.50422,-15.69269,686.4102],[35.50345,-15.69253,686.4102],[35.50004,-15.69238,685.9305],[35.49941,-15.69243,685.9305],[35.49848,-15.69253,684.4688]]]}}