{"type":"Feature","properties":{"GID_3":"MWI.9.15.12_1","GID_0":"MWI","country":"Malawi","GID_1":"MWI.9_1","province":"Kasungu","NL_NAME_1":"NA","GID_2":"MWI.9.15_1","county":"TASanthe","NL_NAME_2":"NA","city":"n.a.(634)","VARNAME_3":"NA","NL_NAME_3":"NA","TYPE_3":"Unknown","ENGTYPE_3":"Unknown","CC_3":"NA","HASC_3":"NA","name":"n.a.(634).city"},
"geometry":{"type": "MultiPolygon","coordinates": [[[[33.2889,-13.4306,1103.3802],[33.2869,-13.4395,1099.6106],[33.2808,-13.4405,1096.0332],[33.2757,-13.4438,1100.4982],[33.2697,-13.4573,1097.6028],[33.2811,-13.4647,1086.3435],[33.2962,-13.4826,1067.7526],[33.3072,-13.4814,1066.9468],[33.3206,-13.4755,1071.6672],[33.325,-13.4663,1076.2085],[33.3331,-13.4607,1072.8922],[33.3398,-13.4586,1070.8655],[33.3492,-13.4499,1070.5848],[33.3681,-13.4454,1120.5804],[33.3668,-13.4358,1101.7069],[33.3302,-13.437,1087.0907],[33.3162,-13.4314,1086.6473],[33.3026,-13.4295,1097.9034],[33.3033,-13.4261,1090.4792],[33.3003,-13.4242,1090.4155],[33.2982,-13.4298,1098.4877],[33.2889,-13.4306,1103.3802]]]]}}