{"type": "Feature","bbox": [34.7462,-15.4412,34.8283,-15.3808],"geometry": {"type": "MultiPolygon","coordinates": [[[[34.7462,-15.4166,460.6577],[34.7496,-15.4181,431.7941],[34.7623,-15.4162,392.0853],[34.7741,-15.4203,363.1218],[34.7749,-15.424,355.154],[34.7783,-15.4255,355.7756],[34.7787,-15.4273,353.6259],[34.7714,-15.4322,352.2234],[34.7688,-15.4372,348.5314],[34.7745,-15.436,355.1888],[34.7792,-15.4369,371.5464],[34.7854,-15.4412,375.618],[34.7882,-15.4409,379.3327],[34.7918,-15.4344,387.3691],[34.8013,-15.4312,400.1628],[34.8094,-15.4302,417.4377],[34.8258,-15.4338,452.0794],[34.8283,-15.431,444.3116],[34.8256,-15.4201,423.9109],[34.8197,-15.4155,413.8326],[34.8168,-15.4168,406.2271],[34.8107,-15.4129,398.0417],[34.8125,-15.4007,386.7735],[34.8195,-15.3914,400.7816],[34.818,-15.3845,403.2547],[34.819,-15.3829,407.3898],[34.8137,-15.3829,389.283],[34.812,-15.3808,396.567],[34.8101,-15.3828,390.9036],[34.8105,-15.3856,380.5218],[34.8046,-15.3903,380.8393],[34.8016,-15.3959,380.9722],[34.7921,-15.3901,399.4492],[34.7895,-15.3925,395.8871],[34.7761,-15.3943,385.0299],[34.7746,-15.3964,387.0075],[34.7757,-15.4011,380.5357],[34.7691,-15.4031,370.6095],[34.7637,-15.394,382.6436],[34.7569,-15.3926,420.8865],[34.7561,-15.3911,540.6864],[34.7501,-15.4106,485.0091],[34.7462,-15.4166,460.6577]]]]}
,"properties": {"GID_3": "MWI.18.5.7_1","GID_0": "MWI","country": "Malawi","GID_1": "MWI.18_1","province": "Neno","NL_NAME_1": "NA","GID_2": "MWI.18.5_1","county": "TASymon","NL_NAME_2": "NA","city": "n.a.(2155)","VARNAME_3": "NA","NL_NAME_3": "NA","TYPE_3": "Unknown","ENGTYPE_3": "Unknown","CC_3": "NA","HASC_3": "NA","name": "n.a.(2155).city","area_km2": 28.92221,"hist_schema_id": "Elevation0-9000","hist_area_km2": {"350": 2.22782,"375": 12.2229,"400": 10.44498,"425": 2.73882,"450": 1.1446,"475": 0.12264,"500": 0.02044}}}