{"type": "Feature","bbox": [33.6939,-13.6028,33.7341,-13.5491],"geometry": {"type": "MultiPolygon","coordinates": [[[[33.704,-13.5596,1214.9819],[33.7067,-13.5701,1228.5841],[33.6939,-13.5841,1255.4851],[33.7059,-13.5904,1300.646],[33.714,-13.6028,1507.6156],[33.729,-13.5953,1294.3798],[33.734,-13.5892,1305.1892],[33.7303,-13.586,1276.6423],[33.7304,-13.5802,1269.1719],[33.7239,-13.5675,1237.6407],[33.7316,-13.5676,1254.6345],[33.7341,-13.5645,1258.4188],[33.7241,-13.552,1226.2384],[33.7178,-13.5491,1216.8961],[33.7134,-13.5505,1212.5021],[33.704,-13.5596,1214.9819]]]]}
,"properties": {"GID_3": "MWI.7.8.12_1","GID_0": "MWI","country": "Malawi","GID_1": "MWI.7_1","province": "Dowa","NL_NAME_1": "NA","GID_2": "MWI.7.8_1","county": "TADzoole","NL_NAME_2": "NA","city": "n.a.(723)","VARNAME_3": "NA","NL_NAME_3": "NA","TYPE_3": "Unknown","ENGTYPE_3": "Unknown","CC_3": "NA","HASC_3": "NA","name": "n.a.(723).city","area_km2": 14.59174,"hist_schema_id": "Elevation0-9000","hist_area_km2": {"1200": 0.14428,"1225": 4.49322,"1250": 3.85407,"1275": 2.61736,"1300": 1.64869,"1325": 0.84494,"1350": 0.37095,"1375": 0.26791,"1400": 0.12365,"1425": 0.04122,"1450": 0.04122,"1475": 0.08243,"1500": 0.04122,"1525": 0.02061}}}