{"type": "Feature","bbox": [34.7859,-14.7435,34.8666,-14.6956],"geometry": {"type": "MultiPolygon","coordinates": [[[[34.7903,-14.6972,651.1824],[34.7874,-14.7001,663.6513],[34.7908,-14.7065,665.1675],[34.7934,-14.7183,671.3265],[34.7859,-14.728,786.2562],[34.8535,-14.7435,665.0131],[34.8405,-14.7339,650.8847],[34.8338,-14.7264,645.1471],[34.8332,-14.7235,644.4954],[34.8461,-14.7132,663.6708],[34.8561,-14.7158,679.4327],[34.8666,-14.7102,692.4335],[34.8508,-14.7045,664.7614],[34.8415,-14.6956,656.4254],[34.8373,-14.7024,653.8527],[34.8304,-14.6993,646.2415],[34.8211,-14.7001,635.6919],[34.8048,-14.6966,624.7605],[34.793,-14.6999,655.2568],[34.7903,-14.6972,651.1824]]]]}
,"properties": {"GID_3": "MWI.22.3.28_1","GID_0": "MWI","country": "Malawi","GID_1": "MWI.22_1","province": "Ntcheu","NL_NAME_1": "NA","GID_2": "MWI.22.3_1","county": "SCGoodsonGanya","NL_NAME_2": "NA","city": "n.a.(1752)","VARNAME_3": "NA","NL_NAME_3": "NA","TYPE_3": "Unknown","ENGTYPE_3": "Unknown","CC_3": "NA","HASC_3": "NA","name": "n.a.(1752).city","area_km2": 24.21841,"hist_schema_id": "Elevation0-9000","hist_area_km2": {"625": 5.39346,"650": 13.90337,"675": 4.40894,"700": 0.51265}}}