{"type":"Feature","properties":{"GID_3":"MWI.9.5.2_1","GID_0":"MWI","country":"Malawi","GID_1":"MWI.9_1","province":"Kasungu","NL_NAME_1":"NA","GID_2":"MWI.9.5_1","county":"SCKawamba","NL_NAME_2":"NA","city":"n.a.(513)","VARNAME_3":"NA","NL_NAME_3":"NA","TYPE_3":"Unknown","ENGTYPE_3":"Unknown","CC_3":"NA","HASC_3":"NA","name":"n.a.(513).city"},
"geometry":{"type": "MultiPolygon","coordinates": [[[[33.3266,-13.234,1056.3094],[33.3377,-13.2384,1054.5331],[33.3465,-13.2443,1057.0331],[33.3517,-13.253,1051.3627],[33.3715,-13.2708,1050.6057],[33.3769,-13.2732,1048.6183],[33.3801,-13.2635,1058.7635],[33.3857,-13.2545,1065.2318],[33.3875,-13.2473,1071.03],[33.3833,-13.2226,1091.3848],[33.3778,-13.2124,1103.8489],[33.3789,-13.2002,1102.3293],[33.3804,-13.1987,1102.224],[33.3857,-13.2009,1099.7224],[33.3939,-13.2004,1096.4121],[33.4162,-13.1859,1086.5867],[33.4135,-13.1846,1083.6936],[33.4095,-13.1777,1090.666],[33.4002,-13.1728,1090.5422],[33.3942,-13.1664,1093.5868],[33.3791,-13.1642,1099.8728],[33.3699,-13.1592,1108.3459],[33.3636,-13.1524,1123.8308],[33.354,-13.1534,1124.1956],[33.3531,-13.1589,1113.1807],[33.3488,-13.1654,1099.97],[33.3445,-13.1683,1094.2449],[33.3327,-13.1715,1085.7616],[33.3226,-13.1818,1074.9243],[33.3221,-13.1836,1073.5446],[33.3262,-13.1849,1074.2242],[33.3459,-13.1837,1092.7932],[33.3522,-13.1817,1101.3667],[33.3538,-13.1842,1100.714],[33.3495,-13.1933,1096.3262],[33.3399,-13.2006,1085.0232],[33.3374,-13.2042,1083.1089],[33.3338,-13.2155,1070.8165],[33.3243,-13.229,1057.153],[33.3266,-13.234,1056.3094]]]]}}