{"type":"Feature","properties":{"GID_3":"MWI.2.3.10_1","GID_0":"MWI","country":"Malawi","GID_1":"MWI.2_1","province":"Blantyre","NL_NAME_1":"NA","GID_2":"MWI.2.3_1","county":"TAKapeni","NL_NAME_2":"NA","city":"n.a.(2366)","VARNAME_3":"NA","NL_NAME_3":"NA","TYPE_3":"Unknown","ENGTYPE_3":"Unknown","CC_3":"NA","HASC_3":"NA","name":"n.a.(2366).city"},
"geometry":{"type": "MultiPolygon","coordinates": [[[[34.9843,-15.6023,641.0914],[34.9802,-15.6067,652.6475],[34.9801,-15.613,648.9182],[34.9784,-15.6167,657.3459],[34.9795,-15.6181,649.879],[34.9753,-15.6226,666.3961],[34.9773,-15.6269,665.4992],[34.9834,-15.6363,712.8865],[34.9926,-15.6451,741.9323],[34.9981,-15.6465,743.0719],[35.0015,-15.6495,747.5389],[35.0096,-15.6486,726.4493],[35.009,-15.6418,714.2915],[35.0074,-15.641,715.0562],[35.0054,-15.6334,700.8357],[35.0027,-15.6285,688.6176],[34.9977,-15.6244,691.988],[35.0032,-15.6187,712.8587],[35.0061,-15.6107,690.4691],[34.9993,-15.6068,672.7999],[34.9979,-15.6036,665.2098],[34.9938,-15.6021,652.0641],[34.9886,-15.6037,640.2082],[34.9843,-15.6023,641.0914]]]]}}