{"type": "Feature","bbox": [35.0757,-14.8812,35.1513,-14.8056],"geometry": {"type": "MultiPolygon","coordinates": [[[[35.0767,-14.8239,626.9911],[35.0757,-14.8373,596.9695],[35.08,-14.8448,584.2446],[35.0766,-14.8484,599.4174],[35.0781,-14.8504,596.3008],[35.0845,-14.8529,592.7183],[35.0858,-14.856,589.7053],[35.0887,-14.8567,596.6513],[35.092,-14.8567,585.4061],[35.1026,-14.8517,590.7026],[35.1023,-14.8561,586.6375],[35.104,-14.8585,573.3121],[35.1091,-14.8574,578.4503],[35.1102,-14.8616,571.5715],[35.1126,-14.8636,570.2882],[35.1204,-14.8625,569.0003],[35.1226,-14.8685,559.1747],[35.1254,-14.8694,566.6281],[35.129,-14.8682,558.3623],[35.1296,-14.8716,555.6433],[35.1354,-14.878,552.6458],[35.1417,-14.8812,553.1699],[35.1499,-14.8661,574.4583],[35.1487,-14.8561,564.7682],[35.1513,-14.8414,584.5204],[35.1497,-14.835,563.5532],[35.1445,-14.8328,588.5559],[35.1402,-14.826,607.6058],[35.1291,-14.8152,622.2109],[35.1155,-14.8056,602.9636],[35.1105,-14.8058,614.3192],[35.1061,-14.8087,616.1219],[35.1025,-14.8214,616.5303],[35.0923,-14.8211,635.7248],[35.0767,-14.8239,626.9911]]]]}
,"properties": {"GID_3": "MWI.1.2.10_1","GID_0": "MWI","country": "Malawi","GID_1": "MWI.1_1","province": "Balaka","NL_NAME_1": "NA","GID_2": "MWI.1.2_1","county": "TAKalembo","NL_NAME_2": "NA","city": "n.a.(1832)","VARNAME_3": "NA","NL_NAME_3": "NA","TYPE_3": "Unknown","ENGTYPE_3": "Unknown","CC_3": "NA","HASC_3": "NA","name": "n.a.(1832).city","area_km2": 39.18623,"hist_schema_id": "Elevation0-9000","hist_area_km2": {"525": 0.04099,"550": 1.63945,"575": 12.03,"600": 18.3841,"625": 6.43581,"650": 0.65588}}}