{"type": "Feature","bbox": [35.4141,-15.3937,35.4754,-15.3596],"geometry": {"type": "MultiPolygon","coordinates": [[[[35.4366,-15.3596,712.335],[35.4335,-15.3644,719.2338],[35.4267,-15.3643,741.3705],[35.4141,-15.3697,753.6734],[35.4249,-15.3748,732.8944],[35.432,-15.3718,715.859],[35.4283,-15.383,737.3663],[35.434,-15.3837,734.3322],[35.4317,-15.3936,735.0549],[35.4415,-15.3937,718.395],[35.4537,-15.3837,704.9277],[35.4577,-15.3763,691.0413],[35.4675,-15.3792,681.1674],[35.4716,-15.3755,685.4511],[35.4743,-15.3756,682.8656],[35.4754,-15.373,674.9998],[35.466,-15.3618,691.6663],[35.4576,-15.3626,694.5762],[35.4453,-15.3607,706.6262],[35.4409,-15.3623,708.1767],[35.4366,-15.3596,712.335]]]]}
,"properties": {"GID_3": "MWI.28.5.20_1","GID_0": "MWI","country": "Malawi","GID_1": "MWI.28_1","province": "Zomba","NL_NAME_1": "NA","GID_2": "MWI.28.5_1","county": "TAKuntumanji","NL_NAME_2": "NA","city": "n.a.(2144)","VARNAME_3": "NA","NL_NAME_3": "NA","TYPE_3": "Unknown","ENGTYPE_3": "Unknown","CC_3": "NA","HASC_3": "NA","name": "n.a.(2144).city","area_km2": 12.572749,"hist_schema_id": "Elevation0-9000","hist_area_km2": {"675": 0.71553,"700": 5.519792,"725": 5.560558,"750": 0.776869}}}