{"type": "Feature","bbox": [35.1414,-16.981,35.3023,-16.8369],"geometry": {"type": "MultiPolygon","coordinates": [[[[35.2614,-16.9463,36.3325],[35.2386,-16.9467,38.7272],[35.2369,-16.9298,54.3397],[35.2411,-16.9211,68.1349],[35.2404,-16.9159,69.3357],[35.2383,-16.914,71.443],[35.2382,-16.9075,82.1073],[35.25,-16.9026,71.3195],[35.2719,-16.9028,37.9995],[35.2728,-16.9051,37.8958],[35.271,-16.9121,37.7987],[35.2737,-16.9153,37.3971],[35.2837,-16.9021,38.4202],[35.2847,-16.898,38.3661],[35.2778,-16.8944,38.6491],[35.2734,-16.894,39.1147],[35.2727,-16.8913,37.3313],[35.2831,-16.8851,37.4928],[35.2865,-16.8744,38.3996],[35.2948,-16.8684,38.1708],[35.3014,-16.8582,39.4962],[35.2958,-16.862,39.0707],[35.2879,-16.8599,45.9566],[35.2784,-16.8529,68.1527],[35.2707,-16.843,89.3403],[35.2692,-16.8387,94.4197],[35.2624,-16.8369,114.1162],[35.2495,-16.841,137.4625],[35.2466,-16.8403,141.1347],[35.2306,-16.8448,235.0356],[35.2258,-16.8448,230.9527],[35.223,-16.8486,328.2751],[35.2246,-16.8507,236.2176],[35.2237,-16.853,247.2786],[35.2178,-16.854,349.2848],[35.2127,-16.8584,330.2725],[35.1963,-16.8573,510.3285],[35.1876,-16.8607,518.374],[35.1773,-16.8556,530.4136],[35.1689,-16.8604,563.8514],[35.1616,-16.8583,583.0337],[35.1607,-16.8598,586.6345],[35.1568,-16.8601,592.1589],[35.1515,-16.8675,546.5402],[35.1502,-16.8748,547.6197],[35.1532,-16.8775,562.4675],[35.1527,-16.8865,564.5542],[35.1674,-16.9185,696.7014],[35.1681,-16.931,747.803],[35.1723,-16.9353,891.86],[35.1697,-16.938,866.5151],[35.166,-16.9385,831.7248],[35.1632,-16.9418,761.4835],[35.1558,-16.9388,693.345],[35.1501,-16.9409,547.4746],[35.142,-16.9572,579.2339],[35.1434,-16.9591,626.3346],[35.1414,-16.9617,716.6702],[35.1463,-16.9613,598.905],[35.1494,-16.9593,591.8631],[35.15,-16.9529,521.566],[35.1535,-16.9496,513.2418],[35.1612,-16.9505,478.0153],[35.1736,-16.959,270.2253],[35.18,-16.9596,240.6809],[35.1904,-16.9663,141.121],[35.1968,-16.9677,97.4362],[35.2008,-16.9667,83.8444],[35.204,-16.963,77.2447],[35.2165,-16.9583,60.3826],[35.23,-16.9596,40.3231],[35.2417,-16.9565,34.9231],[35.2671,-16.9664,36.0339],[35.2719,-16.966,36.8034],[35.279,-16.9691,36.8634],[35.2944,-16.9807,35.4368],[35.3023,-16.981,36.3926],[35.2978,-16.9725,36.7253],[35.2968,-16.9625,36.464],[35.2818,-16.9645,36.8803],[35.2784,-16.9599,36.5857],[35.2699,-16.9586,37.1328],[35.2702,-16.9537,37.0927],[35.2741,-16.9496,36.2686],[35.2732,-16.9481,36.7123],[35.266,-16.9458,37.2473],[35.2614,-16.9463,36.3325]]]]}
,"properties": {"GID_2": "MWI.21.6_1","GID_0": "MWI","country": "Malawi","GID_1": "MWI.21_1","province": "Nsanje","NL_NAME_1": "NA","county": "TAMalemia","VARNAME_2": "NA","NL_NAME_2": "NA","TYPE_2": "TraditionalAuthority","ENGTYPE_2": "TraditionalAuthority","CC_2": "NA","HASC_2": "NA","name": "T_A_Malemia.county","area_km2": 143.9717,"hist_schema_id": "Elevation0-9000","hist_area_km2": {"25": 10.5458,"50": 17.0809,"75": 12.8207,"100": 9.3728,"125": 4.8692,"150": 4.6461,"175": 4.0171,"200": 3.3881,"225": 3.3273,"250": 3.0633,"275": 3.043,"300": 3.7531,"325": 4.1386,"350": 4.3212,"375": 4.869,"400": 4.5443,"425": 3.4691,"450": 4.0777,"475": 4.5849,"500": 4.8689,"525": 5.3963,"550": 5.031,"575": 3.9964,"600": 2.9617,"625": 2.2313,"650": 1.643,"675": 1.6633,"700": 1.4401,"725": 1.0345,"750": 0.8925,"775": 0.6288,"800": 0.6288,"825": 0.5071,"850": 0.4259,"875": 0.3448,"900": 0.2028,"925": 0.142}}}