{"type":"Feature","properties":{"GID_3":"MWI.12.6.3_1","GID_0":"MWI","country":"Malawi","GID_1":"MWI.12_1","province":"Machinga","NL_NAME_1":"NA","GID_2":"MWI.12.6_1","county":"SCChikweo","NL_NAME_2":"NA","city":"n.a.(1782)","VARNAME_3":"NA","NL_NAME_3":"NA","TYPE_3":"Unknown","ENGTYPE_3":"Unknown","CC_3":"NA","HASC_3":"NA","name":"n.a.(1782).city"},
"geometry":{"type": "MultiPolygon","coordinates": [[[[35.6869,-14.7354,838.1241],[35.678,-14.741,859.2579],[35.6652,-14.7348,771.5315],[35.6568,-14.7509,753.0081],[35.6564,-14.7557,745.3373],[35.6594,-14.7671,727.0344],[35.6732,-14.7774,703.9377],[35.6748,-14.7778,701.9325],[35.6891,-14.7681,699.3414],[35.7026,-14.7549,703.7548],[35.7023,-14.7503,714.433],[35.6957,-14.7427,754.9025],[35.6931,-14.7361,840.3559],[35.6869,-14.7354,838.1241]]]]}}