{"type":"Feature","properties":{"GID_3":"MWI.14.5.8_1","GID_0":"MWI","country":"Malawi","GID_1":"MWI.14_1","province":"Mchinji","NL_NAME_1":"NA","GID_2":"MWI.14.5_1","county":"TAMkanda","NL_NAME_2":"NA","city":"n.a.(644)","VARNAME_3":"NA","NL_NAME_3":"NA","TYPE_3":"Unknown","ENGTYPE_3":"Unknown","CC_3":"NA","HASC_3":"NA","name":"n.a.(644).city"},
"geometry":{"type": "MultiPolygon","coordinates": [[[[32.9364,-13.4386,1095.9031],[32.9291,-13.449,1086.2463],[32.9226,-13.4538,1091.3811],[32.9195,-13.4619,1088.1826],[32.9032,-13.478,1093.9829],[32.9187,-13.4803,1094.9651],[32.9226,-13.4893,1102.6475],[32.9108,-13.4919,1111.2723],[32.9067,-13.495,1109.7111],[32.9079,-13.4982,1110.0983],[32.9065,-13.5046,1113.7665],[32.9083,-13.5094,1114.0234],[32.9202,-13.5082,1112.3766],[32.9278,-13.5042,1107.8722],[32.9353,-13.5084,1108.0682],[32.9507,-13.5128,1085.0258],[32.9662,-13.4996,1076.2418],[32.9664,-13.495,1074.6047],[32.971,-13.4867,1074.9728],[32.9576,-13.4862,1079.3137],[32.9445,-13.4808,1084.8591],[32.9489,-13.47,1079.6821],[32.9541,-13.4401,1089.9902],[32.9467,-13.4388,1092.8369],[32.9382,-13.4397,1094.6948],[32.9364,-13.4386,1095.9031]]]]}}