{"type": "Feature","bbox": [33.3364,-12.9641,33.4176,-12.8946],"geometry": {"type": "MultiPolygon","coordinates": [[[[33.3506,-12.9166,992.1863],[33.3594,-12.9406,1012.9537],[33.359,-12.9529,980.7896],[33.367,-12.9641,1013.9256],[33.3883,-12.9547,992.6282],[33.4162,-12.9538,1047.3987],[33.4176,-12.9424,1027.0344],[33.4104,-12.9388,1027.4802],[33.4037,-12.9307,1008.5465],[33.3944,-12.9299,983.4402],[33.3947,-12.9243,976.4946],[33.3922,-12.9207,971.613],[33.3925,-12.9099,970.478],[33.3836,-12.909,986.5018],[33.3775,-12.9136,973.6401],[33.3686,-12.9061,978.8266],[33.355,-12.9039,977.751],[33.3538,-12.9005,986.1542],[33.3546,-12.895,980.929],[33.3364,-12.8946,984.6845],[33.3506,-12.9166,992.1863]]]]}
,"properties": {"GID_3": "MWI.9.14.2_1","GID_0": "MWI","country": "Malawi","GID_1": "MWI.9_1","province": "Kasungu","NL_NAME_1": "NA","GID_2": "MWI.9.14_1","county": "TAMwase","NL_NAME_2": "NA","city": "n.a.(430)","VARNAME_3": "NA","NL_NAME_3": "NA","TYPE_3": "Unknown","ENGTYPE_3": "Unknown","CC_3": "NA","HASC_3": "NA","name": "n.a.(430).city","area_km2": 30.79004,"hist_schema_id": "Elevation0-9000","hist_area_km2": {"975": 9.75384,"1000": 15.6016,"1025": 4.93869,"1050": 0.49591}}}