{"type": "Feature","bbox": [34.8613,-16.2631,34.8751,-16.2496],"geometry": {"type": "MultiPolygon","coordinates": [[[[34.8631,-16.2501,73.4113],[34.8613,-16.2528,72.5256],[34.8684,-16.2625,72.8912],[34.8712,-16.2614,70.6942],[34.8725,-16.2631,70.4569],[34.8751,-16.2616,71.7436],[34.8671,-16.2496,73.3346],[34.8631,-16.2501,73.4113]]]]}
,"properties": {"GID_3": "MWI.3.8.10_1","GID_0": "MWI","country": "Malawi","GID_1": "MWI.3_1","province": "Chikwawa","NL_NAME_1": "NA","GID_2": "MWI.3.8_1","county": "TALundu","NL_NAME_2": "NA","city": "n.a.(2987)","VARNAME_3": "NA","NL_NAME_3": "NA","TYPE_3": "Unknown","ENGTYPE_3": "Unknown","CC_3": "NA","HASC_3": "NA","name": "n.a.(2987).city","area_km2": 1.0787903,"hist_schema_id": "Elevation0-9000","hist_area_km2": {"75": 1.0787903}}}