{"type": "Feature","bbox": [35.5398,-15.5218,35.6207,-15.4717],"geometry": {"type": "MultiPolygon","coordinates": [[[[35.5637,-15.4773,636.6168],[35.5635,-15.4839,638.5575],[35.5569,-15.4836,642.6323],[35.5537,-15.4855,645.0863],[35.5472,-15.4835,649.5059],[35.5398,-15.4872,653.3572],[35.541,-15.4908,651.6346],[35.5462,-15.4949,651.7811],[35.5462,-15.4993,652.433],[35.55,-15.5048,650.8639],[35.5643,-15.5052,641.249],[35.5652,-15.5007,639.8521],[35.5714,-15.5078,640.8973],[35.5741,-15.5216,643.8983],[35.5831,-15.5218,642.3103],[35.5954,-15.5137,639.9224],[35.6054,-15.4995,636.1793],[35.6114,-15.4962,633.5427],[35.6081,-15.4934,633.8418],[35.6207,-15.4748,628.9351],[35.616,-15.4737,630.3257],[35.6127,-15.4782,630.9733],[35.6054,-15.4794,631.2442],[35.5934,-15.4717,631.3602],[35.5637,-15.4773,636.6168]]]]}
,"properties": {"GID_3": "MWI.28.8.27_1","GID_0": "MWI","country": "Malawi","GID_1": "MWI.28_1","province": "Zomba","NL_NAME_1": "NA","GID_2": "MWI.28.8_1","county": "TAMwambo","NL_NAME_2": "NA","city": "n.a.(2235)","VARNAME_3": "NA","NL_NAME_3": "NA","TYPE_3": "Unknown","ENGTYPE_3": "Unknown","CC_3": "NA","HASC_3": "NA","name": "n.a.(2235).city","area_km2": 25.76438,"hist_schema_id": "Elevation0-9000","hist_area_km2": {"625": 12.81115,"650": 12.95323}}}