{"type":"Feature","properties":{"GID_3":"MWI.11.11.18_1","GID_0":"MWI","country":"Malawi","GID_1":"MWI.11_1","province":"Lilongwe","NL_NAME_1":"NA","GID_2":"MWI.11.11_1","county":"TAKalolo","NL_NAME_2":"NA","city":"n.a.(1123)","VARNAME_3":"NA","NL_NAME_3":"NA","TYPE_3":"Unknown","ENGTYPE_3":"Unknown","CC_3":"NA","HASC_3":"NA","name":"n.a.(1123).city"},
"geometry":{"type": "MultiPolygon","coordinates": [[[[33.3842,-13.9842,1146.9685],[33.3903,-14.0149,1137.9187],[33.3924,-14.0185,1150.5327],[33.4082,-14.0205,1165.3871],[33.415,-14.0195,1173.4716],[33.4196,-14.0171,1182.2002],[33.4087,-14.0017,1179.6901],[33.4092,-13.9982,1181.3213],[33.4117,-13.9955,1178.6797],[33.4003,-13.9925,1170.5304],[33.3842,-13.9842,1146.9685]]]]}}