{"type": "Feature","bbox": [33.985,-14.4815,34.0495,-14.4326],"geometry": {"type": "MultiPolygon","coordinates": [[[[34.0255,-14.4683,1325.0828],[34.0252,-14.481,1304.4788],[34.0357,-14.4815,1328.658],[34.0366,-14.4785,1338.4941],[34.0441,-14.4771,1327.3955],[34.0495,-14.4729,1325.9619],[34.0447,-14.4672,1335.1418],[34.0393,-14.4648,1327.2532],[34.0351,-14.4657,1323.3018],[34.0299,-14.4698,1331.214],[34.0255,-14.4683,1325.0828]]],
[[[34.0114,-14.4326,1295.1907],[34.0093,-14.4399,1298.5824],[34.0054,-14.4425,1295.7833],[33.9989,-14.4433,1277.4644],[33.9899,-14.4404,1255.5464],[33.985,-14.4408,1254.6852],[33.9886,-14.4573,1247.5925],[34.0097,-14.4592,1302.4493],[34.0117,-14.4556,1308.0369],[34.0236,-14.456,1314.7285],[34.017,-14.4396,1289.6381],[34.0114,-14.4326,1295.1907]]]]}
,"properties": {"GID_3": "MWI.6.9.40_1","GID_0": "MWI","country": "Malawi","GID_1": "MWI.6_1","province": "Dedza","NL_NAME_1": "NA","GID_2": "MWI.6.9_1","county": "TAPemba","NL_NAME_2": "NA","city": "n.a.(1618)","VARNAME_3": "NA","NL_NAME_3": "NA","TYPE_3": "Unknown","ENGTYPE_3": "Unknown","CC_3": "NA","HASC_3": "NA","name": "n.a.(1618).city","area_km2": 10.080667,"hist_schema_id": "Elevation0-9000","hist_area_km2": {"1250": 1.026578,"1275": 2.299525,"1300": 3.736731,"1325": 2.545661,"1350": 0.472171}}}