{"type":"Feature","properties":{"GID_3":"MWI.24.2.46_1","GID_0":"MWI","country":"Malawi","GID_1":"MWI.24_1","province":"Phalombe","NL_NAME_1":"NA","GID_2":"MWI.24.2_1","county":"TAMkhumba","NL_NAME_2":"NA","city":"n.a.(2512)","VARNAME_3":"NA","NL_NAME_3":"NA","TYPE_3":"Unknown","ENGTYPE_3":"Unknown","CC_3":"NA","HASC_3":"NA","name":"n.a.(2512).city"},
"geometry":{"type": "MultiPolygon","coordinates": [[[[35.7124,-15.8507,1039.26],[35.7183,-15.8463,946.8216],[35.7154,-15.8414,965.4684],[35.7155,-15.8064,1837.724],[35.7257,-15.7716,1126.3986],[35.7257,-15.7541,821.7412],[35.7297,-15.7489,765.1263],[35.7346,-15.7475,755.0538],[35.731,-15.7455,744.7726],[35.7253,-15.7495,777.027],[35.7166,-15.748,773.0771],[35.7022,-15.7483,786.0051],[35.6981,-15.7504,775.4979],[35.6937,-15.7572,800.3674],[35.6858,-15.7593,790.5122],[35.6706,-15.7669,828.289],[35.6686,-15.7764,839.5204],[35.6695,-15.7815,824.5479],[35.665,-15.7944,811.3802],[35.6566,-15.8016,795.8884],[35.6586,-15.8066,817.3773],[35.6625,-15.8091,843.3801],[35.6586,-15.8165,812.2783],[35.66,-15.822,844.0056],[35.657,-15.8245,852.8834],[35.6589,-15.8308,914.2781],[35.6678,-15.8302,946.2002],[35.6785,-15.8321,1049.6498],[35.679,-15.8417,1112.5326],[35.6852,-15.8445,1119.403],[35.6831,-15.8489,1198.5785],[35.6863,-15.8511,1214.3707],[35.6915,-15.8521,1244.453],[35.6941,-15.8479,1174.8287],[35.6987,-15.8483,1157.1331],[35.7027,-15.8526,1128.2151],[35.7065,-15.8536,1116.3274],[35.7124,-15.8507,1039.26]]]]}}