{"type":"Feature","properties":{"GID_3":"MWI.15.6.1_1","GID_0":"MWI","country":"Malawi","GID_1":"MWI.15_1","province":"Mulanje","NL_NAME_1":"NA","GID_2":"MWI.15.6_1","county":"TAMabuka","NL_NAME_2":"NA","city":"n.a.(2697)","VARNAME_3":"NA","NL_NAME_3":"NA","TYPE_3":"Unknown","ENGTYPE_3":"Unknown","CC_3":"NA","HASC_3":"NA","name":"n.a.(2697).city"},
"geometry":{"type": "MultiPolygon","coordinates": [[[[35.4832,-15.9947,634.1166],[35.4868,-15.9941,638.4939],[35.4886,-15.9972,644.5295],[35.4922,-15.9972,661.6305],[35.4941,-16.0018,649.8082],[35.5166,-16.018,762.6572],[35.519,-16.0166,831.3771],[35.5208,-16.0174,857.9529],[35.5225,-16.0213,781.3655],[35.5181,-16.0275,671.377],[35.5194,-16.0324,646.3058],[35.5272,-16.0381,665.5145],[35.5299,-16.0393,692.8658],[35.5415,-16.0243,874.241],[35.5321,-16.0233,842.4135],[35.5241,-16.0137,1084.7118],[35.5182,-16.0129,938.8106],[35.5156,-16.0081,889.4605],[35.5032,-15.9969,771.3054],[35.5034,-15.9954,812.1607],[35.5124,-15.9912,1159.9207],[35.5129,-15.9819,1363.1125],[35.5144,-15.9786,1601.2565],[35.5128,-15.9763,1377.3062],[35.5124,-15.9697,1227.1115],[35.5091,-15.9663,1095.9711],[35.5092,-15.9526,1020.3958],[35.5048,-15.9512,877.3824],[35.5032,-15.9402,806.5635],[35.4866,-15.9415,711.8496],[35.4736,-15.9578,689.6813],[35.4746,-15.9591,676.7355],[35.484,-15.9597,672.0918],[35.4826,-15.9618,677.278],[35.4835,-15.9653,668.077],[35.4788,-15.9741,655.8914],[35.4829,-15.9767,644.3428],[35.4758,-15.9813,638.6962],[35.4743,-15.9923,645.9977],[35.4836,-15.9884,651.3206],[35.4832,-15.9947,634.1166]]]]}}