{"type": "Feature","bbox": [35.0641,-15.353,35.1336,-15.3012],"geometry": {"type": "MultiPolygon","coordinates": [[[[35.0641,-15.3135,471.1926],[35.0813,-15.3218,476.0485],[35.0857,-15.3279,482.5452],[35.097,-15.3321,490.4835],[35.1027,-15.3362,496.7821],[35.0955,-15.3485,494.4412],[35.097,-15.3496,496.573],[35.1099,-15.353,503.6089],[35.1147,-15.3499,508.0309],[35.1245,-15.3519,516.7982],[35.1322,-15.3509,531.0797],[35.1336,-15.3412,575.2155],[35.1104,-15.3395,504.6623],[35.114,-15.3292,499.9347],[35.0779,-15.3071,472.1996],[35.0737,-15.3085,472.0047],[35.0738,-15.3014,471.2938],[35.071,-15.3012,473.594],[35.0681,-15.3037,472.9261],[35.0641,-15.3135,471.1926]]]]}
,"properties": {"GID_3": "MWI.28.7.13_1","GID_0": "MWI","country": "Malawi","GID_1": "MWI.28_1","province": "Zomba","NL_NAME_1": "NA","GID_2": "MWI.28.7_1","county": "TAMlumbe","NL_NAME_2": "NA","city": "n.a.(2104)","VARNAME_3": "NA","NL_NAME_3": "NA","TYPE_3": "Unknown","ENGTYPE_3": "Unknown","CC_3": "NA","HASC_3": "NA","name": "n.a.(2104).city","area_km2": 12.391333,"hist_schema_id": "Elevation0-9000","hist_area_km2": {"475": 5.071385,"500": 6.15452,"525": 1.165428}}}