{"type":"Feature","properties":{"GID_3":"MWI.20.8.9_1","GID_0":"MWI","country":"Malawi","GID_1":"MWI.20_1","province":"Nkhotakota","NL_NAME_1":"NA","GID_2":"MWI.20.8_1","county":"TAMalengaChanzi","NL_NAME_2":"NA","city":"n.a.(466)","VARNAME_3":"NA","NL_NAME_3":"NA","TYPE_3":"Unknown","ENGTYPE_3":"Unknown","CC_3":"NA","HASC_3":"NA","name":"n.a.(466).city"},
"geometry":{"type": "MultiPolygon","coordinates": [[[[34.2313,-13.079,504.5375],[34.2454,-13.0761,496.6421],[34.264,-13.0759,487.7421],[34.2764,-13.0814,485.2645],[34.2856,-13.0772,482.18],[34.3003,-13.0761,524.699],[34.2944,-13.0518,538.6017],[34.2968,-13.035,558.9154],[34.2924,-13.0365,537.125],[34.2825,-13.0331,496.4516],[34.2779,-13.0298,491.6941],[34.2764,-13.0341,491.1673],[34.2713,-13.0336,496.4789],[34.263,-13.0293,519.4551],[34.262,-13.0253,515.1797],[34.2647,-13.0184,522.473],[34.2614,-13.0102,523.9775],[34.2628,-13.0054,519.8945],[34.2582,-13.0073,520.2007],[34.257,-13.0106,512.7963],[34.2621,-13.0212,514.3367],[34.2529,-13.0298,515.6491],[34.2409,-13.0283,523.5779],[34.2316,-13.0337,531.3535],[34.22,-13.0328,553.2561],[34.2151,-13.0365,560.149],[34.2364,-13.0738,510.1506],[34.2313,-13.079,504.5375]]]]}}