{"type":"Feature","properties":{"GID_3":"MWI.18.3.1_1","GID_0":"MWI","country":"Malawi","GID_1":"MWI.18_1","province":"Neno","NL_NAME_1":"NA","GID_2":"MWI.18.3_1","county":"TAMlauli","NL_NAME_2":"NA","city":"n.a.(2197)","VARNAME_3":"NA","NL_NAME_3":"NA","TYPE_3":"Unknown","ENGTYPE_3":"Unknown","CC_3":"NA","HASC_3":"NA","name":"n.a.(2197).city"},
"geometry":{"type": "MultiPolygon","coordinates": [[[[34.635,-15.4981,581.9844],[34.6666,-15.4887,742.341],[34.6712,-15.4958,696.9133],[34.6601,-15.518,651.048],[34.6688,-15.5196,659.4634],[34.6621,-15.5282,674.417],[34.6627,-15.5386,612.0126],[34.6561,-15.5467,620.7784],[34.6562,-15.5514,538.6043],[34.6513,-15.5655,476.2528],[34.661,-15.5609,531.1061],[34.6797,-15.5599,433.4341],[34.69,-15.5677,370.4283],[34.6938,-15.5726,360.489],[34.7005,-15.5743,352.5682],[34.7123,-15.5838,335.4672],[34.7019,-15.5574,369.2521],[34.6998,-15.5432,359.1297],[34.7043,-15.5357,366.8005],[34.7113,-15.517,398.3842],[34.7139,-15.5158,408.641],[34.726,-15.5188,337.8402],[34.7292,-15.5173,333.5985],[34.7258,-15.4947,373.3876],[34.7188,-15.4767,526.8708],[34.7165,-15.4661,620.6718],[34.7164,-15.4515,530.7842],[34.724,-15.4362,407.7059],[34.7214,-15.4236,531.3579],[34.7195,-15.4232,515.9841],[34.707,-15.4291,516.9726],[34.6892,-15.4421,582.3087],[34.6685,-15.446,731.8239],[34.6663,-15.449,670.693],[34.6465,-15.4578,711.5527],[34.6493,-15.4642,712.764],[34.6576,-15.4708,760.2179],[34.6545,-15.4728,751.6101],[34.6502,-15.4832,697.4578],[34.6358,-15.491,628.3687],[34.635,-15.4981,581.9844]]]]}}