{"type":"Feature","properties":{"GID_3":"MWI.15.6.40_1","GID_0":"MWI","country":"Malawi","GID_1":"MWI.15_1","province":"Mulanje","NL_NAME_1":"NA","GID_2":"MWI.15.6_1","county":"TAMabuka","NL_NAME_2":"NA","city":"n.a.(2909)","VARNAME_3":"NA","NL_NAME_3":"NA","TYPE_3":"Unknown","ENGTYPE_3":"Unknown","CC_3":"NA","HASC_3":"NA","name":"n.a.(2909).city"},
"geometry":{"type": "MultiPolygon","coordinates": [[[[35.4851,-16.1196,553.5344],[35.4855,-16.1236,556.1262],[35.4938,-16.1236,566.5966],[35.5026,-16.1198,574.9251],[35.5104,-16.1232,592.6178],[35.5289,-16.1184,603.1468],[35.5282,-16.1141,615.0852],[35.5362,-16.1092,613.3248],[35.5244,-16.109,608.9976],[35.5202,-16.1065,610.1966],[35.5059,-16.1062,604.8873],[35.5021,-16.1072,593.9611],[35.5008,-16.1117,597.9832],[35.4932,-16.1153,577.1712],[35.4847,-16.117,566.5673],[35.4851,-16.1196,553.5344]]]]}}