{"type": "Feature","bbox": [33.8122,-13.0569,33.8929,-12.9284],"geometry": {"type": "MultiPolygon","coordinates": [[[[33.8209,-12.9312,1195.9554],[33.8181,-12.9399,1208.0271],[33.8129,-12.9438,1221.4708],[33.8154,-12.9466,1208.6241],[33.8167,-12.9568,1177.6624],[33.8134,-12.9663,1149.5551],[33.8128,-12.9746,1136.7944],[33.8158,-12.9769,1136.8326],[33.8199,-12.9861,1112.365],[33.8235,-12.9884,1125.76],[33.8186,-12.9956,1099.3669],[33.8234,-13.0052,1069.4712],[33.8199,-13.0099,1060.949],[33.8197,-13.0272,1042.48],[33.8122,-13.0357,1032.8401],[33.817,-13.0412,1039.7795],[33.8178,-13.0513,1011.0759],[33.8201,-13.0569,1015.4659],[33.8331,-13.0521,1021.8287],[33.8391,-13.048,1013.6138],[33.8347,-13.0402,1084.0083],[33.8345,-13.037,1117.5294],[33.8419,-13.0316,1283.0564],[33.849,-13.02,1291.8345],[33.8554,-13.0163,1236.1466],[33.8743,-13.0115,1120.0149],[33.8804,-12.9916,1067.3525],[33.8825,-12.9891,1061.8491],[33.882,-12.9767,1097.4543],[33.8853,-12.9666,1072.2136],[33.8848,-12.9629,1082.9088],[33.8879,-12.9575,1130.1541],[33.8913,-12.9562,1059.1661],[33.8929,-12.9508,1028.623],[33.8917,-12.9494,1089.2286],[33.884,-12.949,1087.2018],[33.8713,-12.9523,1183.9513],[33.8625,-12.9602,1196.8524],[33.8573,-12.9629,1213.3314],[33.8566,-12.9667,1221.1676],[33.8547,-12.9677,1226.4513],[33.8392,-12.9651,1222.6238],[33.8372,-12.9641,1200.7996],[33.8365,-12.9601,1200.8411],[33.8503,-12.9537,1181.2219],[33.8523,-12.9493,1168.8307],[33.8527,-12.9392,1168.4796],[33.8592,-12.9315,1139.7444],[33.8519,-12.9292,1165.8439],[33.8369,-12.9305,1178.3225],[33.8331,-12.9284,1176.7798],[33.8269,-12.9312,1175.2864],[33.8209,-12.9312,1195.9554]]]]}
,"properties": {"GID_3": "MWI.9.13.6_1","GID_0": "MWI","country": "Malawi","GID_1": "MWI.9_1","province": "Kasungu","NL_NAME_1": "NA","GID_2": "MWI.9.13_1","county": "TAKapelula","NL_NAME_2": "NA","city": "n.a.(445)","VARNAME_3": "NA","NL_NAME_3": "NA","TYPE_3": "Unknown","ENGTYPE_3": "Unknown","CC_3": "NA","HASC_3": "NA","name": "n.a.(445).city","area_km2": 65.67825,"hist_schema_id": "Elevation0-9000","hist_area_km2": {"1025": 1.03278,"1050": 1.87975,"1075": 3.16069,"1100": 5.57788,"1125": 8.61488,"1150": 10.66056,"1175": 13.28508,"1200": 11.73583,"1225": 5.72306,"1250": 1.96259,"1275": 1.26015,"1300": 0.68172,"1325": 0.10329}}}