{"type": "Feature","bbox": [33.7426,-13.551,33.8129,-13.5117],"geometry": {"type": "MultiPolygon","coordinates": [[[[33.7456,-13.5301,1207.2401],[33.7526,-13.5396,1233.6698],[33.7625,-13.5414,1237.3258],[33.7657,-13.5342,1225.0117],[33.7628,-13.5258,1198.8062],[33.7647,-13.5202,1199.6995],[33.7658,-13.5206,1199.6995],[33.7742,-13.5258,1215.7559],[33.7737,-13.5326,1206.8831],[33.7772,-13.5409,1224.4785],[33.7818,-13.5462,1227.2957],[33.7996,-13.551,1258.085],[33.8025,-13.5508,1259.0911],[33.8009,-13.5468,1266.9463],[33.8013,-13.5394,1269.5673],[33.8105,-13.5443,1286.4646],[33.8094,-13.5424,1287.6674],[33.8129,-13.5338,1274.7234],[33.8064,-13.5259,1260.3982],[33.8043,-13.5144,1243.0918],[33.7908,-13.5117,1241.501],[33.7687,-13.5139,1215.1128],[33.7596,-13.5199,1207.8235],[33.7426,-13.5176,1192.9065],[33.7441,-13.5211,1192.2863],[33.7438,-13.5269,1204.3977],[33.7456,-13.5301,1207.2401]]]]}
,"properties": {"GID_3": "MWI.7.9.7_1","GID_0": "MWI","country": "Malawi","GID_1": "MWI.7_1","province": "Dowa","NL_NAME_1": "NA","GID_2": "MWI.7.9_1","county": "TAMsakambewa","NL_NAME_2": "NA","city": "n.a.(690)","VARNAME_3": "NA","NL_NAME_3": "NA","TYPE_3": "Unknown","ENGTYPE_3": "Unknown","CC_3": "NA","HASC_3": "NA","name": "n.a.(690).city","area_km2": 18.94415,"hist_schema_id": "Elevation0-9000","hist_area_km2": {"1175": 0.10307,"1200": 3.25707,"1225": 7.23556,"1250": 5.85424,"1275": 2.45297,"1300": 0.04123}}}