{"type": "Feature","bbox": [33.7278,-9.8447,33.8755,-9.7647],"geometry": {"type": "MultiPolygon","coordinates": [[[[33.7424,-9.8057,788.246],[33.7676,-9.8323,783.8983],[33.7804,-9.8385,718.5179],[33.7901,-9.838,725.5856],[33.7946,-9.8425,695.7024],[33.7985,-9.841,701.2941],[33.8008,-9.8447,675.3465],[33.803,-9.844,671.6122],[33.8053,-9.8398,718.9636],[33.8125,-9.8404,651.7513],[33.8202,-9.844,553.653],[33.8225,-9.8396,614.3367],[33.822,-9.8359,659.2949],[33.8282,-9.8333,508.3473],[33.8306,-9.8258,497.6946],[33.8368,-9.8209,491.5323],[33.8452,-9.8222,489.5003],[33.856,-9.8202,487.2678],[33.8609,-9.8223,488.1116],[33.8655,-9.8219,486.4586],[33.8712,-9.8256,484.9136],[33.8755,-9.8244,483.2346],[33.875,-9.8196,484.0879],[33.8685,-9.8171,485.7761],[33.8592,-9.8173,486.6297],[33.8568,-9.8146,489.1083],[33.8506,-9.8162,490.2777],[33.8419,-9.8127,492.7657],[33.8376,-9.807,492.4904],[33.8376,-9.8015,496.8268],[33.8329,-9.806,492.5],[33.8294,-9.8022,494.558],[33.8221,-9.8011,495.8976],[33.8185,-9.7985,500.0515],[33.8141,-9.8005,499.4395],[33.808,-9.7966,508.653],[33.8093,-9.7859,600.7664],[33.8077,-9.7763,585.4639],[33.809,-9.7743,592.001],[33.8137,-9.7729,610.4632],[33.8175,-9.7676,537.0552],[33.8119,-9.7647,620.632],[33.8072,-9.7672,646.6131],[33.804,-9.7655,683.4082],[33.7978,-9.7675,646.2874],[33.791,-9.7647,700.8296],[33.7836,-9.7673,724.1178],[33.7778,-9.7669,736.0443],[33.7762,-9.7677,748.4501],[33.777,-9.775,775.0439],[33.7692,-9.7738,802.4373],[33.75,-9.7764,809.7293],[33.7283,-9.7728,851.2605],[33.7278,-9.7756,840.7645],[33.7364,-9.7779,835.0336],[33.7517,-9.7865,761.4474],[33.749,-9.7899,805.9896],[33.749,-9.8033,771.783],[33.7424,-9.8057,788.246]]]]}
,"properties": {"GID_3": "MWI.8.6.10_1","GID_0": "MWI","country": "Malawi","GID_1": "MWI.8_1","province": "Karonga","NL_NAME_1": "NA","GID_2": "MWI.8.6_1","county": "TAKilupula","NL_NAME_2": "NA","city": "n.a.(44)","VARNAME_3": "NA","NL_NAME_3": "NA","TYPE_3": "Unknown","ENGTYPE_3": "Unknown","CC_3": "NA","HASC_3": "NA","name": "n.a.(44).city","area_km2": 63.36688,"hist_schema_id": "Elevation0-9000","hist_area_km2": {"475": 1.08636,"500": 7.75091,"525": 2.2981,"550": 1.12817,"575": 0.94016,"600": 1.90125,"625": 2.48627,"650": 2.88317,"675": 3.40545,"700": 5.78716,"725": 8.75392,"750": 9.318,"775": 7.37511,"800": 5.05609,"825": 2.92512,"850": 0.27163}}}