{"type": "Feature","bbox": [34.5834,-15.2694,34.6716,-15.2045],"geometry": {"type": "MultiPolygon","coordinates": [[[[34.649,-15.26,1191.11],[34.6503,-15.2562,1200.1621],[34.6716,-15.2411,1133.1238],[34.668,-15.239,1180.778],[34.6655,-15.2323,1212.2715],[34.6581,-15.231,1226.076],[34.6563,-15.2267,1233.4452],[34.6477,-15.2281,1281.1925],[34.6422,-15.2267,1369.3588],[34.6359,-15.2227,1450.5913],[34.6243,-15.2228,1546.2084],[34.618899999999996,-15.2209,1503.4088],[34.6072,-15.2128,1549.0923],[34.6017,-15.2119,1518.498],[34.5922,-15.2045,1551.6736],[34.5834,-15.2084,1584.3008],[34.5886,-15.2107,1566.3267],[34.5926,-15.2252,1598.2404],[34.6006,-15.2353,1585.7819],[34.6011,-15.2426,1547.3174],[34.5992,-15.2514,1458.2524],[34.6041,-15.2672,1409.9762],[34.6035,-15.2692,1419.9517],[34.61,-15.2694,1319.078],[34.6237,-15.2627,1216.8735],[34.6231,-15.2567,1291.186],[34.627,-15.2571,1223.668],[34.6323,-15.255,1253.7107],[34.6455,-15.2574,1189.7874],[34.649,-15.26,1191.11]]]]}
,"properties": {"GID_3": "MWI.18.2.1_1","GID_0": "MWI","country": "Malawi","GID_1": "MWI.18_1","province": "Neno","NL_NAME_1": "NA","GID_2": "MWI.18.2_1","county": "TADambe","NL_NAME_2": "NA","city": "n.a.(2061)","VARNAME_3": "NA","NL_NAME_3": "NA","TYPE_3": "Unknown","ENGTYPE_3": "Unknown","CC_3": "NA","HASC_3": "NA","name": "n.a.(2061).city","area_km2": 30.99192,"hist_schema_id": "Elevation0-9000","hist_area_km2": {"1100": 0.08183,"1125": 0.20456,"1150": 0.28638,"1175": 0.6546,"1200": 1.20691,"1225": 1.80015,"1250": 3.06841,"1275": 3.08888,"1300": 2.39335,"1325": 1.65691,"1350": 1.616,"1375": 1.16598,"1400": 0.83872,"1425": 1.06373,"1450": 0.69553,"1475": 1.06379,"1500": 1.75939,"1525": 2.76184,"1550": 2.65955,"1575": 2.00486,"1600": 0.81828,"1625": 0.10228}}}