{"type": "Feature","bbox": [33.3867,-11.1984,33.6487,-11.0968],"geometry": {"type": "MultiPolygon","coordinates": [[[[33.6487,-11.1498,1082.6816],[33.5772,-11.1175,1164.2632],[33.5239,-11.1001,1170.9808],[33.4963,-11.0968,1183.9072],[33.4663,-11.1017,1151.6008],[33.4368,-11.1135,1095.0793],[33.3867,-11.1439,1102.15],[33.3921,-11.1431,1101.0343],[33.4031,-11.148,1097.5946],[33.4054,-11.1512,1097.8074],[33.4058,-11.1572,1104.6796],[33.4179,-11.1569,1101.4932],[33.4224,-11.1583,1094.9277],[33.4358,-11.1692,1089.8242],[33.4448,-11.1835,1101.4484],[33.4699,-11.1984,1090.6365],[33.4736,-11.1945,1088.8486],[33.4781,-11.1929,1095.3899],[33.485,-11.1954,1090.3889],[33.4887,-11.193,1091.7534],[33.4892,-11.1894,1099.8737],[33.494,-11.1829,1095.6777],[33.5004,-11.1799,1090.7488],[33.5083,-11.172,1090.6396],[33.5125,-11.172,1088.3499],[33.5159,-11.1663,1095.5583],[33.5199,-11.1648,1091.9375],[33.5235,-11.1658,1090.7535],[33.5354,-11.1595,1086.1094],[33.5455,-11.1609,1081.309],[33.5605,-11.1588,1096.7665],[33.5653,-11.1542,1091.1581],[33.5698,-11.1548,1081.0605],[33.5716,-11.1529,1088.1276],[33.5749,-11.1549,1080.9893],[33.5846,-11.1518,1084.2561],[33.5877,-11.1581,1088.0203],[33.5943,-11.1588,1086.3457],[33.625,-11.1536,1083.6354],[33.6432,-11.1537,1088.1714],[33.6487,-11.1498,1082.6816]]]]}
,"properties": {"GID_3": "MWI.17.13.1_1","GID_0": "MWI","country": "Malawi","GID_1": "MWI.17_1","province": "Mzimba","NL_NAME_1": "NA","GID_2": "MWI.17.13_1","county": "VwazaMarshGameReserve-Mzimb","NL_NAME_2": "NA","city": "n.a.(160)","VARNAME_3": "NA","NL_NAME_3": "NA","TYPE_3": "Unknown","ENGTYPE_3": "Unknown","CC_3": "NA","HASC_3": "NA","name": "n.a.(160).city","area_km2": 153.5859,"hist_schema_id": "Elevation0-9000","hist_area_km2": {"1075": 10.9207,"1100": 46.4712,"1125": 43.9971,"1150": 33.2443,"1175": 8.6961,"1200": 4.7018,"1225": 2.6422,"1250": 1.3523,"1275": 0.8322,"1300": 0.5409,"1325": 0.1664,"1350": 0.0208}}}