{"type": "Feature","bbox": [33.5707,-10.2728,33.7629,-10.0594],"geometry": {"type": "MultiPolygon","coordinates": [[[[33.7446,-10.1996,958.195],[33.7444,-10.1956,955.5361],[33.7495,-10.1881,955.4613],[33.7475,-10.1859,967.2938],[33.7509,-10.1725,929.3296],[33.7498,-10.1669,952.1985],[33.7523,-10.1675,920.2037],[33.7545,-10.1658,922.0381],[33.7518,-10.1632,931.6735],[33.7629,-10.1607,1050.306],[33.7408,-10.1278,925.6749],[33.7458,-10.1245,900.0968],[33.7405,-10.1141,892.096],[33.7369,-10.1149,894.913],[33.7277,-10.111,897.0997],[33.7259,-10.1054,923.6846],[33.727,-10.0998,943.0044],[33.725,-10.0872,896.0358],[33.723,-10.0833,895.5187],[33.7256,-10.0811,862.2505],[33.7252,-10.0775,830.3541],[33.7211,-10.0754,869.3644],[33.7191,-10.0705,872.2731],[33.7204,-10.0683,843.821],[33.7156,-10.0599,808.7386],[33.7114,-10.0594,866.5146],[33.7075,-10.0634,929.8644],[33.7009,-10.061,1056.7539],[33.69,-10.0654,1110.2745],[33.675,-10.0656,1222.0298],[33.6716,-10.0628,1274.3358],[33.6669,-10.0636,1351.197],[33.6483,-10.072,1863.6606],[33.6213,-10.0625,1598.5284],[33.6201,-10.0669,1570.502],[33.6211,-10.0685,1617.5292],[33.618,-10.0798,1659.3989],[33.6295,-10.0885,1756.7524],[33.6316,-10.0928,1770.1866],[33.6354,-10.0957,1789.8359],[33.6364,-10.0994,1745.1223],[33.6319,-10.1059,1704.4996],[33.6331,-10.1219,1626.6558],[33.6365,-10.1325,1652.6062],[33.5707,-10.2242,1634.823],[33.5717,-10.2254,1604.2102],[33.5755,-10.228,1587.0914],[33.581,-10.2266,1572.5847],[33.585,-10.2308,1538.4325],[33.5895,-10.2308,1634.8584],[33.5981,-10.2357,1643.7632],[33.6041,-10.2331,1584.0815],[33.6163,-10.2345,1536.0751],[33.6155,-10.231,1571.6613],[33.6227,-10.2307,1579.8723],[33.6352,-10.2397,1338.011],[33.6414,-10.2421,1308.3884],[33.6456,-10.2548,1277.204],[33.6497,-10.2609,1256.8462],[33.6477,-10.268,1267.6675],[33.6579,-10.2728,1262.8604],[33.6565,-10.2651,1260.3446],[33.6591,-10.259,1291.5493],[33.6577,-10.2545,1318.0703],[33.6596,-10.2483,1340.2812],[33.6583,-10.2325,1326.3828],[33.6731,-10.2356,1313.8103],[33.6771,-10.2337,1296.1818],[33.7293,-10.236,1054.0779],[33.734,-10.2291,984.2056],[33.7336,-10.2256,1046.5569],[33.7401,-10.2172,988.2144],[33.7388,-10.2078,997.498],[33.7446,-10.1996,958.195]]]]}
,"properties": {"GID_3": "MWI.5.7.1_1","GID_0": "MWI","country": "Malawi","GID_1": "MWI.5_1","province": "Chitipa","NL_NAME_1": "NA","GID_2": "MWI.5.7_1","county": "TANthalire","NL_NAME_2": "NA","city": "n.a.(77)","VARNAME_3": "NA","NL_NAME_3": "NA","TYPE_3": "Unknown","ENGTYPE_3": "Unknown","CC_3": "NA","HASC_3": "NA","name": "n.a.(77).city","area_km2": 268.3214,"hist_schema_id": "Elevation0-9000","hist_area_km2": {"800": 0.0418,"825": 0.1461,"850": 0.3966,"875": 0.8141,"900": 1.6698,"925": 4.2161,"950": 3.4438,"975": 4.8212,"1000": 5.468,"1025": 5.2175,"1050": 4.4035,"1075": 4.8001,"1100": 5.1341,"1125": 5.9272,"1150": 6.3028,"1175": 6.9498,"1200": 8.8907,"1225": 8.8071,"1250": 10.1426,"1275": 11.5823,"1300": 14.3575,"1325": 17.1953,"1350": 14.8369,"1375": 10.2881,"1400": 9.3493,"1425": 7.2418,"1450": 6.741,"1475": 7.9725,"1500": 8.3065,"1525": 6.8454,"1550": 6.8037,"1575": 7.6176,"1600": 6.9497,"1625": 6.9497,"1650": 7.0958,"1675": 6.428,"1700": 5.4472,"1725": 4.9878,"1750": 4.1739,"1775": 3.1929,"1800": 2.5042,"1825": 1.5234,"1850": 0.5844,"1875": 0.4801,"1900": 0.3549,"1925": 0.0835,"1950": 0.3757,"1975": 0.2296,"2000": 0.167,"2025": 0.0626}}}