{"type": "Feature","bbox": [34.1477,-12.7773,34.2218,-12.7171],"geometry": {"type": "MultiPolygon","coordinates": [[[[34.2097,-12.7608,481.9836],[34.2218,-12.752,476.7385],[34.2148,-12.7441,494.6268],[34.2094,-12.7311,491.3046],[34.2042,-12.7265,498.014],[34.1925,-12.7342,500.5272],[34.1884,-12.7341,497.4846],[34.1808,-12.7234,507.1766],[34.1683,-12.7171,524.801],[34.1671,-12.7267,511.4588],[34.172,-12.7341,506.1222],[34.1699,-12.7359,504.3229],[34.165,-12.7343,507.9099],[34.1613,-12.7294,513.5051],[34.1477,-12.7292,541.1368],[34.1514,-12.7482,564.8997],[34.1544,-12.7514,533.9583],[34.161,-12.7506,526.1866],[34.1653,-12.7537,518.2224],[34.1709,-12.7549,516.7346],[34.173,-12.7586,508.5721],[34.1729,-12.7629,537.1999],[34.1758,-12.767,539.9319],[34.1754,-12.7713,543.1686],[34.1831,-12.777,500.1248],[34.1875,-12.7773,499.2823],[34.1891,-12.7746,485.6031],[34.1836,-12.7638,483.1089],[34.1841,-12.7549,487.9255],[34.1875,-12.7502,488.1806],[34.1994,-12.7596,482.9925],[34.2039,-12.7605,484.5894],[34.2069,-12.7579,486.375],[34.2097,-12.7608,481.9836]]]]}
,"properties": {"GID_3": "MWI.20.7.24_1","GID_0": "MWI","country": "Malawi","GID_1": "MWI.20_1","province": "Nkhotakota","NL_NAME_1": "NA","GID_2": "MWI.20.7_1","county": "TAKanyenda","NL_NAME_2": "NA","city": "n.a.(394)","VARNAME_3": "NA","NL_NAME_3": "NA","TYPE_3": "Unknown","ENGTYPE_3": "Unknown","CC_3": "NA","HASC_3": "NA","name": "n.a.(394).city","area_km2": 23.38891,"hist_schema_id": "Elevation0-9000","hist_area_km2": {"475": 1.59227,"500": 16.19235,"525": 5.10797,"550": 0.35156,"575": 0.12408,"600": 0.02068}}}