{"type": "Feature","bbox": [35.4989,-14.6669,35.5308,-14.6123],"geometry": {"type": "MultiPolygon","coordinates": [[[[35.5067,-14.6669,833.7865],[35.5128,-14.6637,919.5357],[35.5157,-14.665,878.2843],[35.5182,-14.6639,865.5897],[35.5288,-14.6522,860.4187],[35.5308,-14.6518,859.5682],[35.5258,-14.6424,892.9156],[35.5169,-14.6345,884.5519],[35.519,-14.6295,883.9993],[35.5226,-14.6263,869.6196],[35.521,-14.6238,873.9879],[35.5221,-14.6192,900.879],[35.5211,-14.6177,892.4426],[35.5173,-14.6182,882.1096],[35.5096,-14.6123,899.4653],[35.5061,-14.6136,908.1381],[35.5043,-14.6188,919.233],[35.4999,-14.6195,894.6983],[35.4989,-14.6244,876.2351],[35.5067,-14.6669,833.7865]]]]}
,"properties": {"GID_3": "MWI.13.6.21_1","GID_0": "MWI","country": "Malawi","GID_1": "MWI.13_1","province": "Mangochi","NL_NAME_1": "NA","GID_2": "MWI.13.6_1","county": "SCMbwanaNyambi","NL_NAME_2": "NA","city": "n.a.(1701)","VARNAME_3": "NA","NL_NAME_3": "NA","TYPE_3": "Unknown","ENGTYPE_3": "Unknown","CC_3": "NA","HASC_3": "NA","name": "n.a.(1701).city","area_km2": 12.123678,"hist_schema_id": "Elevation0-9000","hist_area_km2": {"850": 0.082049,"875": 2.194969,"900": 5.641381,"925": 3.610408,"950": 0.594871}}}