{"type":"Feature","properties":{"GID_3":"MWI.11.4.7_1","GID_0":"MWI","country":"Malawi","GID_1":"MWI.11_1","province":"Lilongwe","NL_NAME_1":"NA","GID_2":"MWI.11.4_1","county":"SCNjewa","NL_NAME_2":"NA","city":"n.a.(1096)","VARNAME_3":"NA","NL_NAME_3":"NA","TYPE_3":"Unknown","ENGTYPE_3":"Unknown","CC_3":"NA","HASC_3":"NA","name":"n.a.(1096).city"},
"geometry":{"type": "MultiPolygon","coordinates": [[[[33.7114,-13.9588,1114.6003],[33.6972,-13.9565,1123.035],[33.6843,-13.9575,1130.0624],[33.6821,-13.9591,1135.4611],[33.6777,-13.9515,1123.6786],[33.6725,-13.9548,1123.3175],[33.6569,-13.9579,1137.5011],[33.6445,-13.9721,1141.0385],[33.6601,-13.9821,1122.0056],[33.6661,-13.984,1117.7371],[33.6739,-13.9845,1115.6232],[33.6846,-13.9822,1105.1726],[33.6912,-13.9843,1104.9749],[33.7031,-13.9747,1109.6716],[33.7125,-13.9733,1115.3208],[33.7114,-13.9588,1114.6003]]]]}}