{"type":"Feature","properties":{"GID_3":"MWI.26.10.9_1","GID_0":"MWI","country":"Malawi","GID_1":"MWI.26_1","province":"Salima","NL_NAME_1":"NA","GID_2":"MWI.26.10_1","county":"TANdindi","NL_NAME_2":"NA","city":"n.a.(1112)","VARNAME_3":"NA","NL_NAME_3":"NA","TYPE_3":"Unknown","ENGTYPE_3":"Unknown","CC_3":"NA","HASC_3":"NA","name":"n.a.(1112).city"},
"geometry":{"type": "MultiPolygon","coordinates": [[[[34.4534,-14.0723,658.0687],[34.4587,-14.0705,560.522],[34.4565,-14.067,562.9487],[34.4416,-14.0527,596.5854],[34.4238,-14.0275,652.3449],[34.4125,-14.0183,656.4557],[34.4174,-14.0122,627.0405],[34.4221,-14.0013,599.231],[34.4277,-13.9973,590.8199],[34.4392,-13.9978,581.1892],[34.4522,-14.0053,565.0831],[34.4727,-14.0131,529.9247],[34.4793,-14.0148,525.1364],[34.4829,-14.0139,518.022],[34.4871,-14.0087,507.7587],[34.4858,-14.0037,512.1451],[34.4902,-14.0022,506.6916],[34.501,-14.003,495.1664],[34.4997,-13.9805,495.3202],[34.4971,-13.9746,497.8464],[34.49,-13.9728,506.6946],[34.4783,-13.9782,524.8057],[34.4693,-13.9848,539.1151],[34.464,-13.992,547.6799],[34.4565,-13.9896,555.8289],[34.4491,-13.9848,556.515],[34.4342,-13.9717,562.1249],[34.4322,-13.9723,566.0731],[34.4308,-13.9765,567.2945],[34.4244,-13.979,577.7645],[34.4207,-13.9752,587.9279],[34.4096,-13.9777,607.9726],[34.4056,-13.974,604.6209],[34.4034,-13.9738,606.1257],[34.4005,-13.978,611.4061],[34.3883,-13.9819,633.8742],[34.3852,-13.9852,645.6604],[34.3784,-13.9881,673.0917],[34.3847,-13.9925,668.2619],[34.3887,-14.0078,721.4607],[34.3923,-14.0139,692.6016],[34.4117,-14.0268,730.452],[34.423,-14.0397,743.7892],[34.4344,-14.0577,646.2693],[34.4505,-14.0656,609.7725],[34.4527,-14.0678,627.7034],[34.4534,-14.0723,658.0687]]]]}}