{"type": "Feature","bbox": [33.013,-13.6456,33.312,-13.4044],"geometry": {"type": "MultiPolygon","coordinates": [[[[33.2034,-13.5149,1119.519],[33.1888,-13.5086,1096.7711],[33.177,-13.4978,1083.368],[33.179,-13.48,1071.6364],[33.1773,-13.4662,1065.7709],[33.1695,-13.4547,1060.1985],[33.1683,-13.4484,1057.244],[33.1625,-13.4399,1053.7732],[33.1475,-13.4044,1045.2889],[33.1445,-13.4071,1047.33],[33.1423,-13.4133,1045.4705],[33.1366,-13.4167,1045.9146],[33.1337,-13.4207,1046.066],[33.1292,-13.4433,1047.7736],[33.1091,-13.4598,1048.5345],[33.1016,-13.4608,1048.3059],[33.097,-13.4656,1049.0142],[33.096,-13.4772,1050.7081],[33.0927,-13.4851,1049.5006],[33.0849,-13.4914,1051.9939],[33.0707,-13.4931,1053.2562],[33.0676,-13.4955,1053.3484],[33.0589,-13.4978,1055.234],[33.0565,-13.5013,1053.9209],[33.0587,-13.5058,1054.7617],[33.0563,-13.5126,1053.4908],[33.052,-13.5156,1055.8951],[33.0456,-13.5172,1056.5946],[33.0373,-13.5274,1056.8914],[33.0342,-13.534,1057.1339],[33.0327,-13.5476,1059.2224],[33.0253,-13.558,1060.8225],[33.0204,-13.5742,1062.9902],[33.0221,-13.6043,1069.4352],[33.0185,-13.6171,1075.3699],[33.013,-13.6252,1081.3381],[33.0175,-13.6456,1088.4099],[33.0751,-13.6416,1131.1985],[33.0862,-13.639099999999999,1126.2458],[33.2277,-13.6269,1085.0596],[33.244,-13.6241,1085.6007],[33.312,-13.6179,1054.9148],[33.3019,-13.6089,1067.7336],[33.2974,-13.6026,1074.7673],[33.2931,-13.5856,1064.2538],[33.2908,-13.582,1059.6875],[33.2848,-13.5784,1056.4181],[33.2667,-13.5796,1064.5996],[33.2539,-13.5756,1066.2006],[33.2506,-13.5715,1063.9933],[33.2535,-13.561,1071.2014],[33.2512,-13.5557,1074.0854],[33.2453,-13.5524,1075.868],[33.241,-13.5458,1082.5251],[33.2255,-13.5304,1094.1621],[33.2034,-13.5149,1119.519]]]]}
,"properties": {"GID_2": "MWI.14.2_1","GID_0": "MWI","country": "Malawi","GID_1": "MWI.14_1","province": "Mchinji","NL_NAME_1": "NA","county": "SCDambe","VARNAME_2": "NA","NL_NAME_2": "NA","TYPE_2": "Sub-chief","ENGTYPE_2": "Sub-chief","CC_2": "NA","HASC_2": "NA","name": "S_C_Dambe.county","area_km2": 425.5806,"hist_schema_id": "Elevation0-9000","hist_area_km2": {"1050": 59.8916,"1075": 208.8312,"1100": 129.0126,"1125": 26.5671,"1150": 1.278}}}