{"type": "Feature","bbox": [34.0228,-14.0594,34.0598,-14.0308],"geometry": {"type": "MultiPolygon","coordinates": [[[[34.0501,-14.0331,1198.583],[34.0505,-14.0354,1204.1819],[34.039,-14.0308,1184.8422],[34.0231,-14.032,1174.2715],[34.0228,-14.04,1189.813],[34.0247,-14.0431,1175.1473],[34.0275,-14.0441,1181.2517],[34.0461,-14.0423,1187.3765],[34.0476,-14.0437,1202.0409],[34.0486,-14.0562,1238.9803],[34.0542,-14.0568,1260.9916],[34.0557,-14.0594,1259.6531],[34.059,-14.0509,1238.7546],[34.0598,-14.0377,1206.8386],[34.0544,-14.0331,1218.8854],[34.0501,-14.0331,1198.583]]]]}
,"properties": {"GID_3": "MWI.11.16.19_1","GID_0": "MWI","country": "Malawi","GID_1": "MWI.11_1","province": "Lilongwe","NL_NAME_1": "NA","GID_2": "MWI.11.16_1","county": "TAMazengera","NL_NAME_2": "NA","city": "n.a.(1169)","VARNAME_3": "NA","NL_NAME_3": "NA","TYPE_3": "Unknown","ENGTYPE_3": "Unknown","CC_3": "NA","HASC_3": "NA","name": "n.a.(1169).city","area_km2": 6.108909,"hist_schema_id": "Elevation0-9000","hist_area_km2": {"1150": 0.534802,"1175": 1.974622,"1200": 1.316411,"1225": 1.439797,"1250": 0.843278}}}