{"type": "Feature","bbox": [35.2082,-15.71,35.2519,-15.6656],"geometry": {"type": "MultiPolygon","coordinates": [[[[35.2202,-15.6718,896.5021],[35.2286,-15.6833,882.3427],[35.2193,-15.6859,912.1418],[35.2082,-15.6998,1070.8602],[35.2116,-15.7075,982.1755],[35.2165,-15.7042,1051.4984],[35.2215,-15.7084,890.3988],[35.2286,-15.71,861.7814],[35.2355,-15.7048,851.3538],[35.2382,-15.7,853.3541],[35.2411,-15.6998,847.058],[35.2423,-15.6962,869.3582],[35.2413,-15.6952,857.6859],[35.2492,-15.6881,864.2609],[35.2498,-15.6857,855.7659],[35.2519,-15.6857,855.5273],[35.24,-15.6773,859.6434],[35.23,-15.6656,876.7472],[35.2254,-15.6661,889.8618],[35.2202,-15.6718,896.5021]]]]}
,"properties": {"GID_3": "MWI.4.3.4_1","GID_0": "MWI","country": "Malawi","GID_1": "MWI.4_1","province": "Chiradzulu","NL_NAME_1": "NA","GID_2": "MWI.4.3_1","county": "TAKadewere","NL_NAME_2": "NA","city": "n.a.(2434)","VARNAME_3": "NA","NL_NAME_3": "NA","TYPE_3": "Unknown","ENGTYPE_3": "Unknown","CC_3": "NA","HASC_3": "NA","name": "n.a.(2434).city","area_km2": 11.30835,"hist_schema_id": "Elevation0-9000","hist_area_km2": {"850": 1.041002,"875": 5.388918,"900": 2.531125,"925": 0.571525,"950": 0.428638,"975": 0.306172,"1000": 0.244937,"1025": 0.224524,"1050": 0.346988,"1075": 0.224522}}}