{"type":"Feature","properties":{"GID_3":"MWI.15.7.3_1","GID_0":"MWI","country":"Malawi","GID_1":"MWI.15_1","province":"Mulanje","NL_NAME_1":"NA","GID_2":"MWI.15.7_1","county":"TANkanda","NL_NAME_2":"NA","city":"n.a.(2502)","VARNAME_3":"NA","NL_NAME_3":"NA","TYPE_3":"Unknown","ENGTYPE_3":"Unknown","CC_3":"NA","HASC_3":"NA","name":"n.a.(2502).city"},
"geometry":{"type": "MultiPolygon","coordinates": [[[[35.4323,-15.7548,714.4415],[35.4485,-15.7662,711.5973],[35.4627,-15.7692,711.1726],[35.4819,-15.7676,724.7939],[35.489,-15.7643,735.0496],[35.4944,-15.7591,728.428],[35.4897,-15.7508,715.739],[35.4815,-15.7514,722.7151],[35.4788,-15.743,713.0605],[35.4719,-15.7412,708.6684],[35.4675,-15.7451,711.6465],[35.4658,-15.7444,708.8625],[35.4614,-15.735,706.1974],[35.442,-15.7455,712.2515],[35.4323,-15.7548,714.4415]]]]}}