{"type": "Feature","bbox": [35.1602,-16.0803,35.2219,-16.0477],"geometry": {"type": "MultiPolygon","coordinates": [[[[35.1602,-16.0649,894.1542],[35.1691,-16.0753,846.8085],[35.1897,-16.0777,837.7866],[35.1962,-16.0766,834.2846],[35.2059,-16.0803,829.2518],[35.2041,-16.0614,776.8289],[35.21,-16.0636,765.5691],[35.2166,-16.0601,759.0265],[35.2175,-16.0575,768.9439],[35.2219,-16.0566,751.2735],[35.2219,-16.0548,764.4294],[35.2134,-16.048,797.3632],[35.2081,-16.0495,822.6965],[35.1966,-16.0477,836.7723],[35.1808,-16.0495,845.5685],[35.1775,-16.0514,861.9133],[35.1716,-16.0492,851.5642],[35.1665,-16.0573,869.1425],[35.1694,-16.0603,878.9034],[35.1602,-16.0649,894.1542]]]]}
,"properties": {"GID_3": "MWI.27.10.7_1","GID_0": "MWI","country": "Malawi","GID_1": "MWI.27_1","province": "Thyolo","NL_NAME_1": "NA","GID_2": "MWI.27.10_1","county": "TANchilamwela","NL_NAME_2": "NA","city": "n.a.(2833)","VARNAME_3": "NA","NL_NAME_3": "NA","TYPE_3": "Unknown","ENGTYPE_3": "Unknown","CC_3": "NA","HASC_3": "NA","name": "n.a.(2833).city","area_km2": 14.85302,"hist_schema_id": "Elevation0-9000","hist_area_km2": {"750": 0.12225,"775": 1.36511,"800": 2.77093,"825": 4.58422,"850": 4.60468,"875": 1.38546,"900": 0.02037}}}