{"type":"Feature","properties":{"GID_3":"MWI.22.3.14_1","GID_0":"MWI","country":"Malawi","GID_1":"MWI.22_1","province":"Ntcheu","NL_NAME_1":"NA","GID_2":"MWI.22.3_1","county":"SCGoodsonGanya","NL_NAME_2":"NA","city":"n.a.(1690)","VARNAME_3":"NA","NL_NAME_3":"NA","TYPE_3":"Unknown","ENGTYPE_3":"Unknown","CC_3":"NA","HASC_3":"NA","name":"n.a.(1690).city"},
"geometry":{"type": "MultiPolygon","coordinates": [[[[34.6025,-14.6098,883.5255],[34.6042,-14.618,886.956],[34.6084,-14.612,893.9232],[34.6176,-14.6113,916.9721],[34.6261,-14.6019,923.6302],[34.6347,-14.5996,870.7495],[34.6336,-14.5935,939.8632],[34.6225,-14.5978,945.0237],[34.6172,-14.5949,944.4296],[34.6159,-14.5912,975.171],[34.6112,-14.5898,973.1078],[34.6092,-14.5927,914.6582],[34.6136,-14.6013,915.3282],[34.6123,-14.6039,912.2393],[34.6025,-14.6098,883.5255]]]]}}