{"type": "Feature","bbox": [33.9949,-14.0501,34.0252,-14.0082],"geometry": {"type": "MultiPolygon","coordinates": [[[[33.9992,-14.0199,1109.5969],[34.0013,-14.0257,1132.4436],[33.9949,-14.0343,1149.6787],[34.0021,-14.0391,1153.0784],[34.0081,-14.0388,1128.6454],[34.0096,-14.0446,1141.5228],[34.008,-14.0491,1140.0963],[34.0166,-14.0501,1164.8024],[34.0221,-14.049,1174.7452],[34.0252,-14.0435,1175.1473],[34.0227,-14.0393,1190.0449],[34.0231,-14.032,1174.2715],[34.018,-14.027,1148.9509],[34.0186,-14.015,1125.1959],[34.0159,-14.0118,1109.6201],[34.0171,-14.0084,1125.3579],[34.0131,-14.0102,1102.6445],[34.0089,-14.0082,1099.7292],[34.0062,-14.0199,1100.1992],[33.9992,-14.0199,1109.5969]]]]}
,"properties": {"GID_3": "MWI.11.16.12_1","GID_0": "MWI","country": "Malawi","GID_1": "MWI.11_1","province": "Lilongwe","NL_NAME_1": "NA","GID_2": "MWI.11.16_1","county": "TAMazengera","NL_NAME_2": "NA","city": "n.a.(1142)","VARNAME_3": "NA","NL_NAME_3": "NA","TYPE_3": "Unknown","ENGTYPE_3": "Unknown","CC_3": "NA","HASC_3": "NA","name": "n.a.(1142).city","area_km2": 8.083859,"hist_schema_id": "Elevation0-9000","hist_area_km2": {"1075": 0.143999,"1100": 0.90512,"1125": 2.550674,"1150": 2.941405,"1175": 1.398678,"1200": 0.143983}}}