{"type": "Feature","bbox": [35.0512,-15.9952,35.0981,-15.9495],"geometry": {"type": "MultiPolygon","coordinates": [[[[35.0651,-15.9495,1109.7262],[35.0567,-15.9535,1103.1775],[35.0558,-15.9569,1084.5979],[35.0512,-15.96,1068.6461],[35.0517,-15.9627,1069.7329],[35.0569,-15.9659,1092.6771],[35.0589,-15.9653,1105.5216],[35.0648,-15.9749,1126.3259],[35.0741,-15.9726,1166.3818],[35.0777,-15.974,1183.3151],[35.0758,-15.9851,1202.3846],[35.0695,-15.9918,1200.6646],[35.0755,-15.9952,1168.791],[35.0797,-15.9944,1200.0332],[35.0777,-15.9869,1192.5017],[35.0803,-15.9842,1172.6012],[35.0812,-15.9779,1174.3756],[35.0899,-15.9615,1110.1442],[35.0981,-15.9539,1078.9143],[35.0923,-15.955,1102.72],[35.0814,-15.9518,1160.3049],[35.081,-15.9554,1163.8176],[35.0653,-15.952,1106.4673],[35.0651,-15.9495,1109.7262]]]]}
,"properties": {"GID_3": "MWI.27.6.19_1","GID_0": "MWI","country": "Malawi","GID_1": "MWI.27_1","province": "Thyolo","NL_NAME_1": "NA","GID_2": "MWI.27.6_1","county": "TABvumbwe","NL_NAME_2": "NA","city": "n.a.(2707)","VARNAME_3": "NA","NL_NAME_3": "NA","TYPE_3": "Unknown","ENGTYPE_3": "Unknown","CC_3": "NA","HASC_3": "NA","name": "n.a.(2707).city","area_km2": 9.274894,"hist_schema_id": "Elevation0-9000","hist_area_km2": {"1075": 0.366931,"1100": 1.488115,"1125": 2.303479,"1150": 2.914994,"1175": 1.386084,"1200": 0.692998,"1225": 0.122292}}}