{"type": "Feature","bbox": [35.5242,-15.6085,35.5877,-15.5756],"geometry": {"type": "MultiPolygon","coordinates": [[[[35.5276,-15.6055,666.0728],[35.5321,-15.6037,671.0482],[35.5494,-15.6022,678.282],[35.5552,-15.6029,676.4648],[35.5547,-15.6085,674.7151],[35.5794,-15.6069,670.981],[35.5826,-15.5967,663.9669],[35.5877,-15.5913,660.9485],[35.5807,-15.5886,661.3149],[35.5757,-15.5887,664.2507],[35.5745,-15.5847,663.7693],[35.5754,-15.5801,662.6148],[35.5696,-15.5756,660.9323],[35.5586,-15.5783,671.0891],[35.5553,-15.5886,679.3235],[35.5496,-15.5874,681.9399],[35.5469,-15.5837,673.7271],[35.5359,-15.5789,656.9906],[35.534,-15.5795,662.7972],[35.5315,-15.5854,666.4956],[35.5242,-15.5949,660.5645],[35.5248,-15.6021,662.0436],[35.5276,-15.6055,666.0728]]]]}
,"properties": {"GID_3": "MWI.24.2.11_1","GID_0": "MWI","country": "Malawi","GID_1": "MWI.24_1","province": "Phalombe","NL_NAME_1": "NA","GID_2": "MWI.24.2_1","county": "TAMkhumba","NL_NAME_2": "NA","city": "n.a.(2335)","VARNAME_3": "NA","NL_NAME_3": "NA","TYPE_3": "Unknown","ENGTYPE_3": "Unknown","CC_3": "NA","HASC_3": "NA","name": "n.a.(2335).city","area_km2": 15.39804,"hist_schema_id": "Elevation0-9000","hist_area_km2": {"650": 1.79717,"675": 13.29454,"700": 0.22464,"725": 0.02042,"750": 0.06127}}}