{"type": "Feature","bbox": [35.1292,-14.973,35.1897,-14.9343],"geometry": {"type": "MultiPolygon","coordinates": [[[[35.1292,-14.9445,585.2018],[35.1387,-14.9535,598.308],[35.1434,-14.9545,598.4338],[35.1457,-14.9653,579.7817],[35.1541,-14.9709,560.913],[35.1707,-14.973,537.4595],[35.176,-14.9641,560.8435],[35.1875,-14.9627,516.3817],[35.1871,-14.9573,519.572],[35.1897,-14.9456,515.5225],[35.1747,-14.9506,544.3494],[35.169,-14.9343,532.2473],[35.1665,-14.9402,544.806],[35.1598,-14.9435,559.6772],[35.1485,-14.9425,568.0836],[35.1443,-14.9438,563.3519],[35.1425,-14.9414,572.1],[35.1374,-14.9432,577.6563],[35.1341,-14.9422,577.2728],[35.1292,-14.9445,585.2018]]]]}
,"properties": {"GID_3": "MWI.1.2.30_1","GID_0": "MWI","country": "Malawi","GID_1": "MWI.1_1","province": "Balaka","NL_NAME_1": "NA","GID_2": "MWI.1.2_1","county": "TAKalembo","NL_NAME_2": "NA","city": "n.a.(1926)","VARNAME_3": "NA","NL_NAME_3": "NA","TYPE_3": "Unknown","ENGTYPE_3": "Unknown","CC_3": "NA","HASC_3": "NA","name": "n.a.(1926).city","area_km2": 14.09303,"hist_schema_id": "Elevation0-9000","hist_area_km2": {"525": 1.65922,"550": 4.13777,"575": 6.78024,"600": 1.49532,"625": 0.02048}}}