{"type": "Feature","bbox": [33.3272,-12.0936,33.4857,-12.0011],"geometry": {"type": "MultiPolygon","coordinates": [[[[33.3375,-12.0011,1185.1613],[33.3294,-12.0209,1190.3777],[33.3319,-12.0219,1192.1255],[33.3313,-12.026,1186.2915],[33.3343,-12.0318,1187.533],[33.3299,-12.0346,1192.6495],[33.3309,-12.0362,1188.6176],[33.3272,-12.0396,1193.4958],[33.3283,-12.0494,1194.3368],[33.3277,-12.0757,1195.3141],[33.3349,-12.0739,1201.0844],[33.34,-12.0667,1198.6318],[33.3476,-12.0733,1193.3652],[33.3494,-12.0794,1196.5322],[33.3558,-12.0796,1199.5483],[33.3586,-12.0773,1199.745],[33.3629,-12.0834,1199.594],[33.3731,-12.0824,1203.4645],[33.3752,-12.0887,1205.8296],[33.3784,-12.0898,1201.1584],[33.3817,-12.0936,1203.4221],[33.3872,-12.0893,1204.2085],[33.387,-12.0857,1207.5549],[33.393,-12.0816,1208.1047],[33.3997,-12.0815,1212.1777],[33.4175,-12.0741,1225.3088],[33.4308,-12.0725,1245.2854],[33.4342,-12.0684,1253.657],[33.4384,-12.0667,1260.74],[33.4453,-12.0721,1252.3059],[33.4528,-12.073,1264.7448],[33.4555,-12.0675,1288.0385],[33.4592,-12.0674,1274.5801],[33.4646,-12.0647,1274.7563],[33.465,-12.0629,1297.3949],[33.4748,-12.0593,1292.9871],[33.4772,-12.0541,1310.8042],[33.4857,-12.0531,1308.2435],[33.4482,-12.0305,1296.4761],[33.4192,-12.03,1269.5952],[33.419,-12.017,1245.7728],[33.4128,-12.0078,1229.5729],[33.4124,-12.0048,1228.798],[33.3737,-12.0084,1192.24],[33.3375,-12.0011,1185.1613]]]]}
,"properties": {"GID_3": "MWI.17.7.17_1","GID_0": "MWI","country": "Malawi","GID_1": "MWI.17_1","province": "Mzimba","NL_NAME_1": "NA","GID_2": "MWI.17.7_1","county": "TAM'Mbelwa","NL_NAME_2": "NA","city": "n.a.(293)","VARNAME_3": "NA","NL_NAME_3": "NA","TYPE_3": "Unknown","ENGTYPE_3": "Unknown","CC_3": "NA","HASC_3": "NA","name": "n.a.(293).city","area_km2": 103.01341,"hist_schema_id": "Elevation0-9000","hist_area_km2": {"1175": 0.45623,"1200": 53.99511,"1225": 16.91999,"1250": 11.6949,"1275": 10.59568,"1300": 7.67197,"1325": 1.67953}}}