{"type":"Feature","properties":{"GID_3":"MWI.17.7.24_1","GID_0":"MWI","country":"Malawi","GID_1":"MWI.17_1","province":"Mzimba","NL_NAME_1":"NA","GID_2":"MWI.17.7_1","county":"TAM'Mbelwa","NL_NAME_2":"NA","city":"n.a.(320)","VARNAME_3":"NA","NL_NAME_3":"NA","TYPE_3":"Unknown","ENGTYPE_3":"Unknown","CC_3":"NA","HASC_3":"NA","name":"n.a.(320).city"},
"geometry":{"type": "MultiPolygon","coordinates": [[[[33.5258,-12.3324,1403.5144],[33.515,-12.2953,1366.5981],[33.509,-12.2478,1322.3517],[33.4909,-12.2574,1317.7115],[33.4833,-12.2693,1301.6641],[33.474,-12.2704,1286.8553],[33.4695,-12.2674,1289.8488],[33.462,-12.2704,1280.442],[33.4547,-12.2631,1270.1611],[33.441,-12.2731,1283.8198],[33.4394,-12.2794,1281.6039],[33.4339,-12.2839,1267.1423],[33.4106,-12.2916,1285.8394],[33.4205,-12.2945,1283.9198],[33.4377,-12.2934,1296.7677],[33.4414,-12.3026,1304.3021],[33.4329,-12.3201,1308.5096],[33.4352,-12.3226,1308.1477],[33.4496,-12.3179,1315.0037],[33.4658,-12.3262,1323.6925],[33.4724,-12.3322,1319.9106],[33.4805,-12.3357,1334.6522],[33.4973,-12.3386,1380.3064],[33.5129,-12.3355,1369.4705],[33.5202,-12.3376,1387.3534],[33.5258,-12.3324,1403.5144]]]]}}