{"type": "Feature","bbox": [34.7749,-14.7948,35.2827,-14.4879],"geometry": {"type": "MultiPolygon","coordinates": [[[[35.1984,-14.7543,484.5996],[35.2005,-14.7594,483.4586],[35.2215,-14.7886,489.5218],[35.232,-14.7948,489.2672],[35.249,-14.7915,483.3333],[35.2827,-14.777,473.5],[35.2823,-14.7681,473.5],[35.2775,-14.7593,473.8484],[35.2611,-14.7626,473.5],[35.2289,-14.7552,473.5],[35.2184,-14.746,473.5],[35.2029,-14.7407,473.5],[35.2004,-14.7342,473.5],[35.197,-14.7311,474.0996],[35.1987,-14.7268,473.5],[35.1945,-14.7256,473.5],[35.1887,-14.7196,473.5],[35.1754,-14.7122,475.8543],[35.1757,-14.7057,484.9633],[35.1817,-14.6936,485.9],[35.1834,-14.6913,480.4081],[35.1863,-14.6915,478.1102],[35.1838,-14.6879,482.4301],[35.1839,-14.6851,484.4601],[35.1875,-14.6811,482.8344],[35.1904,-14.6742,480.1478],[35.1829,-14.6551,478.6599],[35.1864,-14.6416,473.5],[35.1846,-14.6366,473.5],[35.1826,-14.6361,475.2164],[35.1816,-14.6205,486.0231],[35.185,-14.617,479.3155],[35.1862,-14.6121,476.1153],[35.1857,-14.6036,473.5],[35.1817,-14.5966,480.5802],[35.1829,-14.5908,477.2726],[35.1894,-14.581,475.5465],[35.1883,-14.5734,474.0965],[35.1825,-14.5669,473.5],[35.1841,-14.5554,476.6879],[35.19,-14.5477,480.7037],[35.1967,-14.549,477.2495],[35.2037,-14.5437,478.6662],[35.2087,-14.5436,478.4763],[35.2074,-14.5393,480.5878],[35.2082,-14.5348,481.9853],[35.2054,-14.5295,485.2668],[35.2064,-14.5283,485.2668],[35.2038,-14.5252,486.3688],[35.1985,-14.5227,492.3189],[35.1954,-14.5169,493.8748],[35.1906,-14.5153,497.062],[35.1886,-14.5109,500.7184],[35.1916,-14.5068,500.8913],[35.1865,-14.5038,503.6623],[35.1739,-14.4897,513.6718],[35.1699,-14.4892,519.9053],[35.17,-14.4879,520.8629],[35.1591,-14.4884,531.03],[35.1502,-14.4921,553.1965],[35.1209,-14.5148,633.6152],[35.1104,-14.52,673.8182],[35.1016,-14.5279,702.8502],[35.105,-14.547,772.3712],[35.1101,-14.5553,737.2758],[35.1,-14.5598,772.0283],[35.0994,-14.5678,780.973],[35.0926,-14.5735,827.3735],[35.0913,-14.5822,882.9879],[35.0497,-14.6003,868.3289],[35.0425,-14.5894,869.6637],[35.0447,-14.5796,880.4688],[35.0303,-14.5819,897.4625],[35.0163,-14.5774,1031.2689],[34.9427,-14.5626,1402.5457],[34.8901,-14.5335,654.0913],[34.8641,-14.5353,635.5461],[34.8516,-14.5396,606.8531],[34.8467,-14.5397,610.1353],[34.7789,-14.5001,561.883],[34.7787,-14.5018,562.8176],[34.7838,-14.5086,569.4566],[34.7864,-14.5099,571.0286],[34.7895,-14.5159,577.9443],[34.7749,-14.5669,715.5211],[34.9202,-14.7092,871.7078],[34.9179,-14.7178,847.1494],[34.9209,-14.7254,822.9052],[34.9175,-14.7347,799.955],[34.9181,-14.7376,796.8365],[34.9406,-14.748,762.0728],[34.9485,-14.7492,746.9501],[34.9536,-14.7522,734.2579],[34.9588,-14.7521,722.5524],[34.96,-14.7569,725.2649],[34.9704,-14.7742,704.6332],[35.1513,-14.7664,556.8124],[35.1616,-14.7592,516.6437],[35.1703,-14.749,504.513],[35.1753,-14.7457,499.095],[35.1794,-14.7382,493.0213],[35.1838,-14.743,493.2007],[35.1917,-14.7472,487.4322],[35.1984,-14.7543,484.5996]]]]}
,"properties": {"GID_2": "MWI.13.8_1","GID_0": "MWI","country": "Malawi","GID_1": "MWI.13_1","province": "Mangochi","NL_NAME_1": "NA","county": "TAChimwala","VARNAME_2": "NA","NL_NAME_2": "NA","TYPE_2": "TraditionalAuthority","ENGTYPE_2": "TraditionalAuthority","CC_2": "NA","HASC_2": "NA","name": "T_A_Chimwala.county","area_km2": 893.7846,"hist_schema_id": "Elevation0-9000","hist_area_km2": {"475": 49.5453,"500": 31.1611,"525": 13.5009,"550": 7.0168,"575": 8.556,"600": 20.151,"625": 34.5765,"650": 38.2845,"675": 53.8705,"700": 73.2913,"725": 85.5732,"750": 78.3331,"775": 76.612,"800": 75.7529,"825": 65.8684,"850": 51.1631,"875": 43.7986,"900": 28.8835,"925": 17.7027,"950": 11.63,"975": 7.7121,"1000": 6.6045,"1025": 4.3076,"1050": 3.0975,"1075": 1.518,"1100": 1.2924,"1125": 0.554,"1150": 0.4514,"1175": 0.3078,"1200": 0.2873,"1225": 0.2462,"1250": 0.1847,"1275": 0.472,"1300": 0.2873,"1325": 0.2668,"1350": 0.2668,"1375": 0.1436,"1400": 0.2052,"1425": 0.1231,"1450": 0.041,"1475": 0.041,"1500": 0.1026}}}