{"type": "Feature","bbox": [35.3141,-15.8545,35.3485,-15.8219],"geometry": {"type": "MultiPolygon","coordinates": [[[[35.317,-15.8504,743.9946],[35.3219,-15.8474,754.0643],[35.3265,-15.848,742.7698],[35.3315,-15.8453,736.8647],[35.3413,-15.8545,724.115],[35.3419,-15.8484,727.8747],[35.3485,-15.8394,722.1699],[35.3445,-15.8365,727.3369],[35.3461,-15.8335,728.6846],[35.3401,-15.8244,740.4837],[35.3359,-15.8252,741.8803],[35.3303,-15.8219,751.9376],[35.3244,-15.8248,749.8678],[35.3181,-15.824,756.9935],[35.3141,-15.8263,759.2548],[35.317,-15.8504,743.9946]]]]}
,"properties": {"GID_3": "MWI.15.3.20_1","GID_0": "MWI","country": "Malawi","GID_1": "MWI.15_1","province": "Mulanje","NL_NAME_1": "NA","GID_2": "MWI.15.3_1","county": "SCJuma","NL_NAME_2": "NA","city": "n.a.(2585)","VARNAME_3": "NA","NL_NAME_3": "NA","TYPE_3": "Unknown","ENGTYPE_3": "Unknown","CC_3": "NA","HASC_3": "NA","name": "n.a.(2585).city","area_km2": 8.526139,"hist_schema_id": "Elevation0-9000","hist_area_km2": {"725": 2.75361,"750": 5.690937,"775": 0.081592}}}