{"type": "Feature","bbox": [34.075,-14.3071,34.1082,-14.2843],"geometry": {"type": "MultiPolygon","coordinates": [[[[34.075,-14.2996,1249.6356],[34.086,-14.3071,1243.1],[34.0921,-14.3029,1244.1354],[34.1003,-14.3011,1244.1089],[34.103,-14.2929,1242.6663],[34.1082,-14.288,1232.3689],[34.0844,-14.2843,1252.0156],[34.0809,-14.2952,1254.5422],[34.075,-14.2996,1249.6356]]]]}
,"properties": {"GID_3": "MWI.6.7.29_1","GID_0": "MWI","country": "Malawi","GID_1": "MWI.6_1","province": "Dedza","NL_NAME_1": "NA","GID_2": "MWI.6.7_1","county": "TAKaphuka","NL_NAME_2": "NA","city": "n.a.(1443)","VARNAME_3": "NA","NL_NAME_3": "NA","TYPE_3": "Unknown","ENGTYPE_3": "Unknown","CC_3": "NA","HASC_3": "NA","name": "n.a.(1443).city","area_km2": 4.889885,"hist_schema_id": "Elevation0-9000","hist_area_km2": {"1225": 0.020546,"1250": 3.49276,"1275": 1.376579}}}