{"type": "Feature","bbox": [33.5421,-12.565,33.6448,-12.4522],"geometry": {"type": "MultiPolygon","coordinates": [[[[33.5548,-12.5253,1193.6799],[33.5561,-12.5277,1193.0103],[33.5618,-12.5297,1194.406],[33.5624,-12.5385,1180.0159],[33.565,-12.543,1179.4426],[33.5808,-12.5537,1162.2362],[33.5813,-12.5646,1146.4482],[33.5854,-12.5625,1161.2528],[33.5887,-12.565,1139.4348],[33.59,-12.5604,1155.3176],[33.6035,-12.5436,1197.4764],[33.6098,-12.544,1209.5291],[33.6073,-12.5377,1222.814],[33.6182,-12.5407,1206.6025],[33.6304,-12.5371,1185.9609],[33.6389,-12.5378,1185.426],[33.6448,-12.5362,1176.4041],[33.644,-12.5288,1166.4351],[33.6395,-12.5229,1170.2781],[33.6366,-12.5136,1175.3571],[33.6324,-12.5099,1178.9414],[33.6286,-12.5002,1185.4802],[33.6202,-12.4929,1202.7179],[33.6208,-12.4884,1187.7786],[33.6163,-12.469,1203.6132],[33.6146,-12.4669,1208.5208],[33.6138,-12.4593,1218.4562],[33.6069,-12.4534,1228.704],[33.6011,-12.4538,1238.4282],[33.5955,-12.4522,1255.3896],[33.5875,-12.4557,1238.1301],[33.5772,-12.454,1311.4301],[33.5716,-12.4576,1270.519],[33.5671,-12.4566,1272.8629],[33.5552,-12.4709,1296.504],[33.5534,-12.4714,1295.0123],[33.5501,-12.4684,1327.1145],[33.5421,-12.4722,1290.9363],[33.5443,-12.4754,1272.3812],[33.5477,-12.4944,1243.9038],[33.5518,-12.5015,1225.7681],[33.555,-12.5142,1215.9326],[33.5548,-12.5253,1193.6799]]]]}
,"properties": {"GID_3": "MWI.17.8.5_1","GID_0": "MWI","country": "Malawi","GID_1": "MWI.17_1","province": "Mzimba","NL_NAME_1": "NA","GID_2": "MWI.17.8_1","county": "TAMabulabo","NL_NAME_2": "NA","city": "n.a.(342)","VARNAME_3": "NA","NL_NAME_3": "NA","TYPE_3": "Unknown","ENGTYPE_3": "Unknown","CC_3": "NA","HASC_3": "NA","name": "n.a.(342).city","area_km2": 81.53457,"hist_schema_id": "Elevation0-9000","hist_area_km2": {"1150": 0.28973,"1175": 4.61531,"1200": 17.22044,"1225": 30.82108,"1250": 20.57642,"1275": 7.22492,"1300": 0.76598,"1325": 0.0207}}}