{"type": "Feature","bbox": [34.3001,-14.3746,34.3579,-14.253],"geometry": {"type": "MultiPolygon","coordinates": [[[[34.3164,-14.3693,1676.1282],[34.3176,-14.3679,1712.248],[34.3357,-14.3669,1575.2383],[34.3439,-14.3604,1536.4149],[34.3437,-14.3572,1553.8218],[34.3489,-14.3478,1539.3068],[34.349,-14.3299,1588.9728],[34.3512,-14.3237,1558.2123],[34.3469,-14.3096,1593.5563],[34.3518,-14.2982,1572.9213],[34.3579,-14.2929,1578.0902],[34.3565,-14.2897,1613.8098],[34.3536,-14.289,1587.7954],[34.3431,-14.2948,1550.1619],[34.3388,-14.2817,1518.4268],[34.34,-14.2791,1530.7009],[34.3458,-14.2773,1553.931],[34.3435,-14.2738,1554.1528],[34.3435,-14.2688,1523.4065],[34.3415,-14.264,1482.1235],[34.3448,-14.2562,1473.5037],[34.3401,-14.2563,1513.365],[34.3309,-14.253,1547.4402],[34.326,-14.2536,1589.5956],[34.3273,-14.2599,1568.0134],[34.3241,-14.2647,1538.5312],[34.3125,-14.267,1568.2927],[34.3111,-14.2719,1551.8816],[34.3134,-14.2786,1587.7341],[34.321,-14.2827,1650.4277],[34.3237,-14.2886,1630.8413],[34.3194,-14.2896,1648.7338],[34.318,-14.2953,1626.4626],[34.317,-14.3106,1636.9841],[34.3191,-14.3202,1645.5146],[34.315,-14.3318,1657.9354],[34.3149,-14.3407,1668.7146],[34.3122,-14.3452,1637.8722],[34.3121,-14.3486,1647.9232],[34.3086,-14.3448,1627.1388],[34.3054,-14.3452,1609.6101],[34.302,-14.3599,1567.7969],[34.3001,-14.3614,1542.0327],[34.3045,-14.3746,1538.7112],[34.3164,-14.3693,1676.1282]]]]}
,"properties": {"GID_3": "MWI.6.8.15_1","GID_0": "MWI","country": "Malawi","GID_1": "MWI.6_1","province": "Dedza","NL_NAME_1": "NA","GID_2": "MWI.6.8_1","county": "TAKasumbu","NL_NAME_2": "NA","city": "n.a.(1412)","VARNAME_3": "NA","NL_NAME_3": "NA","TYPE_3": "Unknown","ENGTYPE_3": "Unknown","CC_3": "NA","HASC_3": "NA","name": "n.a.(1412).city","area_km2": 43.16211,"hist_schema_id": "Elevation0-9000","hist_area_km2": {"1475": 0.16439,"1500": 1.31509,"1525": 2.85612,"1550": 4.72556,"1575": 4.41725,"1600": 3.06113,"1625": 2.44466,"1650": 2.56782,"1675": 3.16352,"1700": 2.87586,"1725": 2.1775,"1750": 1.68445,"1775": 1.17089,"1800": 1.10925,"1825": 1.00653,"1850": 0.86275,"1875": 0.80112,"1900": 0.73951,"1925": 0.82169,"1950": 0.7395,"1975": 0.986,"2000": 0.65734,"2025": 0.76005,"2050": 0.53408,"2075": 0.53407,"2100": 0.51353,"2125": 0.30812,"2150": 0.14379,"2175": 0.02054}}}