{"type":"Feature","properties":{"GID_3":"MWI.6.7.35_1","GID_0":"MWI","country":"Malawi","GID_1":"MWI.6_1","province":"Dedza","NL_NAME_1":"NA","GID_2":"MWI.6.7_1","county":"TAKaphuka","NL_NAME_2":"NA","city":"n.a.(1478)","VARNAME_3":"NA","NL_NAME_3":"NA","TYPE_3":"Unknown","ENGTYPE_3":"Unknown","CC_3":"NA","HASC_3":"NA","name":"n.a.(1478).city"},
"geometry":{"type": "MultiPolygon","coordinates": [[[[34.2965,-14.3573,1544.2853],[34.2955,-14.345,1561.8674],[34.2901,-14.3248,1620.6989],[34.2814,-14.3173,1584.583],[34.2766,-14.3186,1585.1631],[34.2758,-14.3247,1556.3817],[34.2736,-14.3267,1555.1555],[34.2704,-14.3215,1585.9961],[34.2685,-14.3211,1611.3655],[34.2613,-14.3297,1597.5222],[34.2484,-14.3375,1513.9199],[34.2471,-14.3441,1503.1157],[34.2483,-14.3506,1482.9897],[34.2534,-14.3489,1501.7544],[34.2628,-14.3493,1553.1029],[34.2667,-14.3566,1538.5043],[34.2718,-14.3547,1510.0107],[34.2708,-14.3587,1506.5184],[34.2736,-14.372,1487.2239],[34.2771,-14.3759,1480.2424],[34.283,-14.3762,1496.8136],[34.2889,-14.3801,1496.2383],[34.2956,-14.3791,1506.0974],[34.2987,-14.3671,1521.8683],[34.2965,-14.3573,1544.2853]]]]}}