{"type":"Feature","properties":{"GID_3":"MWI.15.8.5_1","GID_0":"MWI","country":"Malawi","GID_1":"MWI.15_1","province":"Mulanje","NL_NAME_1":"NA","GID_2":"MWI.15.8_1","county":"TANthiramanja","NL_NAME_2":"NA","city":"n.a.(2705)","VARNAME_3":"NA","NL_NAME_3":"NA","TYPE_3":"Unknown","ENGTYPE_3":"Unknown","CC_3":"NA","HASC_3":"NA","name":"n.a.(2705).city"},
"geometry":{"type": "MultiPolygon","coordinates": [[[[35.389,-15.984,730.1882],[35.3881,-15.9819,726.7447],[35.3839,-15.9797,719.9594],[35.3804,-15.971,705.8276],[35.3878,-15.968,710.7527],[35.3968,-15.967,707.98],[35.3875,-15.9573,696.3712],[35.3825,-15.9548,703.8776],[35.3807,-15.9506,714.6329],[35.3815,-15.948,716.2449],[35.3682,-15.9487,714.3953],[35.3686,-15.9533,713.1676],[35.3651,-15.9575,709.325],[35.3651,-15.962,693.2631],[35.3614,-15.9636,688.1074],[35.3633,-15.9686,692.7264],[35.3792,-15.9856,726.2449],[35.389,-15.984,730.1882]]]]}}