{"type":"Feature","properties":{"GID_3":"MWI.28.2.2_1","GID_0":"MWI","country":"Malawi","GID_1":"MWI.28_1","province":"Zomba","NL_NAME_1":"NA","GID_2":"MWI.28.2_1","county":"SCMbiza","NL_NAME_2":"NA","city":"n.a.(2258)","VARNAME_3":"NA","NL_NAME_3":"NA","TYPE_3":"Unknown","ENGTYPE_3":"Unknown","CC_3":"NA","HASC_3":"NA","name":"n.a.(2258).city"},
"geometry":{"type": "MultiPolygon","coordinates": [[[[35.227,-15.5292,974.7538],[35.2388,-15.5364,945.3983],[35.2493,-15.5399,1007.5442],[35.2583,-15.5357,936.4127],[35.2625,-15.5366,913.6665],[35.2652,-15.526,953.5996],[35.2699,-15.5158,909.8618],[35.2766,-15.513,882.0149],[35.2716,-15.5087,900.366],[35.2682,-15.509,902.3141],[35.2528,-15.501,955.2052],[35.2505,-15.4951,969.1154],[35.2463,-15.4928,978.0533],[35.2476,-15.5035,984.2333],[35.243899999999996,-15.506,1000.2011],[35.2432,-15.5086,1002.8137],[35.2407,-15.509,1011.2685],[35.2369,-15.5143,999.9722],[35.2432,-15.5156,980.6877],[35.2385,-15.5258,968.3407],[35.227,-15.5292,974.7538]]]]}}