{"type": "Feature","bbox": [33.9574,-12.4502,34.0853,-12.3314],"geometry": {"type": "MultiPolygon","coordinates": [[[[33.9632,-12.4502,684.0665],[33.9728,-12.4443,719.9367],[33.9809,-12.4324,734.2399],[34.0003,-12.4364,659.8882],[34.0205,-12.4317,613.7381],[34.0358,-12.4208,564.6297],[34.0414,-12.4212,603.9489],[34.0509,-12.4251,588.3451],[34.0548,-12.4213,556.0516],[34.0595,-12.4204,527.6321],[34.0648,-12.4159,521.58],[34.0654,-12.4131,511.2678],[34.0735,-12.4056,490.452],[34.0853,-12.4019,481.528],[34.0805,-12.3933,479.456],[34.0772,-12.3825,482.3975],[34.0724,-12.3802,486.8785],[34.0673,-12.3662,483.1572],[34.0542,-12.3572,485.516],[34.0481,-12.3499,506.341],[34.0475,-12.3435,494.5004],[34.043,-12.3314,491.5302],[34.0344,-12.3341,521.1647],[34.0279,-12.3389,539.5688],[34.0249,-12.3392,544.3971],[34.0177,-12.3485,565.5469],[34.0133,-12.3478,549.6865],[34.0083,-12.3521,547.1318],[33.9946,-12.3588,571.4905],[33.9867,-12.36,579.7895],[33.9843,-12.3626,589.2122],[33.982,-12.3716,595.1111],[33.9736,-12.3761,638.9823],[33.9699,-12.3853,644.186],[33.9691,-12.3936,649.495],[33.9632,-12.4025,685.7374],[33.9608,-12.4166,735.3109],[33.9583,-12.4228,751.1924],[33.9611,-12.429,686.5506],[33.9574,-12.4371,782.9752],[33.9588,-12.4441,736.3241],[33.9632,-12.4502,684.0665]]]]}
,"properties": {"GID_3": "MWI.20.7.2_1","GID_0": "MWI","country": "Malawi","GID_1": "MWI.20_1","province": "Nkhotakota","NL_NAME_1": "NA","GID_2": "MWI.20.7_1","county": "TAKanyenda","NL_NAME_2": "NA","city": "n.a.(330)","VARNAME_3": "NA","NL_NAME_3": "NA","TYPE_3": "Unknown","ENGTYPE_3": "Unknown","CC_3": "NA","HASC_3": "NA","name": "n.a.(330).city","area_km2": 99.85488,"hist_schema_id": "Elevation0-9000","hist_area_km2": {"475": 1.38751,"500": 9.25724,"525": 11.14168,"550": 13.06782,"575": 20.00448,"600": 16.11072,"625": 8.42783,"650": 4.8661,"675": 4.90737,"700": 3.68565,"725": 3.31291,"750": 1.98771,"775": 1.03528,"800": 0.45552,"825": 0.18636,"850": 0.02071}}}