{"type": "Feature","bbox": [34.0958,-14.0587,34.1191,-14.0272],"geometry": {"type": "MultiPolygon","coordinates": [[[[34.096,-14.0412,1332.3018],[34.0964,-14.0585,1367.0369],[34.1111,-14.0587,1161.9197],[34.1119,-14.0518,1167.8196],[34.1172,-14.0406,1161.5579],[34.1191,-14.0304,1132.2515],[34.1141,-14.0272,1161.6699],[34.0993,-14.0282,1479.2473],[34.0958,-14.032,1404.8586],[34.096,-14.0412,1332.3018]]]]}
,"properties": {"GID_3": "MWI.11.16.18_1","GID_0": "MWI","country": "Malawi","GID_1": "MWI.11_1","province": "Lilongwe","NL_NAME_1": "NA","GID_2": "MWI.11.16_1","county": "TAMazengera","NL_NAME_2": "NA","city": "n.a.(1166)","VARNAME_3": "NA","NL_NAME_3": "NA","TYPE_3": "Unknown","ENGTYPE_3": "Unknown","CC_3": "NA","HASC_3": "NA","name": "n.a.(1166).city","area_km2": 7.178447,"hist_schema_id": "Elevation0-9000","hist_area_km2": {"1125": 0.082278,"1150": 1.110711,"1175": 1.995133,"1200": 1.151832,"1225": 0.761038,"1250": 0.658196,"1275": 0.349672,"1300": 0.411375,"1325": 0.267391,"1350": 0.143985,"1375": 0.082278,"1400": 0.041139,"1425": 0.061709,"1475": 0.041139,"1500": 0.02057}}}