{"type": "Feature","bbox": [35.1875,-14.1254,35.2061,-14.1119],"geometry": {"type": "MultiPolygon","coordinates": [[[[35.1992,-14.1122,488.8467],[35.1913,-14.1119,483.727],[35.1875,-14.1133,479.6862],[35.188,-14.1201,480.747],[35.1899,-14.1237,479.5412],[35.1915,-14.1213,484.0413],[35.1978,-14.1184,485.955],[35.1956,-14.1236,484.1711],[35.1964,-14.1254,482.1096],[35.2061,-14.1246,487.8419],[35.1992,-14.1122,488.8467]]]]}
,"properties": {"GID_3": "MWI.13.7.4_1","GID_0": "MWI","country": "Malawi","GID_1": "MWI.13_1","province": "Mangochi","NL_NAME_1": "NA","GID_2": "MWI.13.7_1","county": "SCNamabvi","NL_NAME_2": "NA","city": "n.a.(1259)","VARNAME_3": "NA","NL_NAME_3": "NA","TYPE_3": "Unknown","ENGTYPE_3": "Unknown","CC_3": "NA","HASC_3": "NA","name": "n.a.(1259).city","area_km2": 1.788875,"hist_schema_id": "Elevation0-9000","hist_area_km2": {"475": 1.542132,"500": 0.246742}}}