{"type":"Feature","properties":{"GID_3":"MWI.15.7.22_1","GID_0":"MWI","country":"Malawi","GID_1":"MWI.15_1","province":"Mulanje","NL_NAME_1":"NA","GID_2":"MWI.15.7_1","county":"TANkanda","NL_NAME_2":"NA","city":"n.a.(2658)","VARNAME_3":"NA","NL_NAME_3":"NA","TYPE_3":"Unknown","ENGTYPE_3":"Unknown","CC_3":"NA","HASC_3":"NA","name":"n.a.(2658).city"},
"geometry":{"type": "MultiPolygon","coordinates": [[[[35.3841,-15.9063,694.3673],[35.3887,-15.9135,701.325],[35.4003,-15.9196,704.6484],[35.4064,-15.9245,704.0526],[35.4221,-15.9244,710.1299],[35.4289,-15.9179,716.0679],[35.4386,-15.9166,718.5705],[35.4434,-15.9234,722.6109],[35.4472,-15.9235,726.3427],[35.4518,-15.9215,727.1122],[35.4486,-15.9196,725.343],[35.4485,-15.9169,724.2117],[35.4572,-15.9128,730.679],[35.4487,-15.9093,724.4994],[35.4392,-15.9112,721.4395],[35.4352,-15.9084,718.8801],[35.4274,-15.9147,715.9644],[35.4244,-15.9115,713.6396],[35.4167,-15.9133,709.9073],[35.4075,-15.9129,707.0272],[35.4046,-15.9015,703.1155],[35.3936,-15.902,699.2329],[35.3841,-15.9063,694.3673]]]]}}