{"type":"Feature","properties":{"GID_3":"MWI.28.2.9_1","GID_0":"MWI","country":"Malawi","GID_1":"MWI.28_1","province":"Zomba","NL_NAME_1":"NA","GID_2":"MWI.28.2_1","county":"SCMbiza","NL_NAME_2":"NA","city":"n.a.(2292)","VARNAME_3":"NA","NL_NAME_3":"NA","TYPE_3":"Unknown","ENGTYPE_3":"Unknown","CC_3":"NA","HASC_3":"NA","name":"n.a.(2292).city"},
"geometry":{"type": "MultiPolygon","coordinates": [[[[35.2884,-15.5414,883.9523],[35.2922,-15.539,890.3334],[35.2964,-15.5406,879.463],[35.2994,-15.5444,872.4762],[35.2993,-15.5495,861.4112],[35.3023,-15.5566,849.6945],[35.308,-15.5617,841.9825],[35.3112,-15.5593,842.9378],[35.3196,-15.5602,823.3041],[35.3169,-15.5631,821.8925],[35.3157,-15.5684,828.5707],[35.3185,-15.5685,822.3829],[35.3276,-15.561,805.6063],[35.3348,-15.5593,798.1986],[35.3273,-15.5506,808.5585],[35.3194,-15.5488,828.41],[35.3101,-15.5416,862.1089],[35.3085,-15.5365,866.0187],[35.3011,-15.5362,875.8347],[35.2959,-15.5339,885.4148],[35.2969,-15.5303,873.2595],[35.2891,-15.5303,874.8253],[35.2859,-15.5323,886.3075],[35.2887,-15.5356,888.3879],[35.2863,-15.5395,886.9044],[35.2884,-15.5414,883.9523]]]]}}