{"type":"Feature","properties":{"GID_3":"MWI.12.8.8_1","GID_0":"MWI","country":"Malawi","GID_1":"MWI.12_1","province":"Machinga","NL_NAME_1":"NA","GID_2":"MWI.12.8_1","county":"SCMlomba","NL_NAME_2":"NA","city":"n.a.(1987)","VARNAME_3":"NA","NL_NAME_3":"NA","TYPE_3":"Unknown","ENGTYPE_3":"Unknown","CC_3":"NA","HASC_3":"NA","name":"n.a.(1987).city"},
"geometry":{"type": "MultiPolygon","coordinates": [[[[35.4943,-15.0375,655.2463],[35.4853,-15.0383,663.564],[35.4821,-15.044,672.8517],[35.4819,-15.0485,666.5175],[35.4767,-15.0464,670.8929],[35.4605,-15.0488,691.2727],[35.4406,-15.0371,730.1411],[35.4338,-15.041,745.2662],[35.4337,-15.0448,750.2936],[35.4357,-15.0483,744.6755],[35.4451,-15.0516,723.2432],[35.4502,-15.0559,721.6832],[35.4514,-15.0756,706.6182],[35.4593,-15.071,682.2437],[35.4731,-15.0705,666.1757],[35.485,-15.075,656.7131],[35.4841,-15.0672,665.9731],[35.4935,-15.0696,656.9385],[35.4959,-15.0721,655.3354],[35.5077,-15.0504,642.9833],[35.5022,-15.0384,656.1282],[35.4943,-15.0375,655.2463]]]]}}