{"type": "Feature","bbox": [33.6242,-11.5143,33.7275,-11.4409],"geometry": {"type": "MultiPolygon","coordinates": [[[[33.7275,-11.4665,1204.0197],[33.7232,-11.4623,1231.7125],[33.7049,-11.4583,1279.5552],[33.7002,-11.465,1299.3165],[33.6814,-11.4694,1299.8345],[33.6707,-11.4611,1277.5564],[33.6638,-11.4609,1282.5217],[33.6559,-11.4566,1295.2228],[33.6587,-11.4513,1302.0852],[33.6535,-11.4422,1296.8818],[33.65,-11.4409,1301.4967],[33.6441,-11.4493,1326.9187],[33.6338,-11.4517,1375.6432],[33.6396,-11.455,1330.6956],[33.6358,-11.4628,1342.6992],[33.635,-11.4684,1342.2076],[33.6288,-11.4652,1369.3608],[33.6268,-11.4621,1357.5103],[33.6242,-11.4712,1357.198],[33.6282,-11.4898,1353.155],[33.6423,-11.4909,1312.3728],[33.6418,-11.4976,1316.5366],[33.6444,-11.5038,1303.6238],[33.65,-11.5046,1291.5464],[33.6551,-11.5021,1282.7679],[33.6599,-11.5025,1282.6678],[33.6807,-11.5139,1245.9572],[33.6889,-11.5131,1246.4829],[33.6921,-11.5143,1237.0739],[33.6948,-11.5082,1236.03],[33.6983,-11.5072,1235.7107],[33.7024,-11.5019,1233.1343],[33.7063,-11.5016,1226.3199],[33.7174,-11.491,1218.2126],[33.7186,-11.4815,1213.7839],[33.7215,-11.4792,1209.6775],[33.723,-11.4726,1214.8486],[33.7275,-11.4665,1204.0197]]]]}
,"properties": {"GID_3": "MWI.17.10.30_1","GID_0": "MWI","country": "Malawi","GID_1": "MWI.17_1","province": "Mzimba","NL_NAME_1": "NA","GID_2": "MWI.17.10_1","county": "TAMtwalo","NL_NAME_2": "NA","city": "n.a.(212)","VARNAME_3": "NA","NL_NAME_3": "NA","TYPE_3": "Unknown","ENGTYPE_3": "Unknown","CC_3": "NA","HASC_3": "NA","name": "n.a.(212).city","area_km2": 49.16068,"hist_schema_id": "Elevation0-9000","hist_area_km2": {"1200": 0.12467,"1225": 3.36602,"1250": 6.48256,"1275": 9.82779,"1300": 15.04335,"1325": 10.51384,"1350": 2.01552,"1375": 1.55838,"1400": 0.22856}}}