{"type":"Feature","properties":{"GID_3":"MWI.13.9.6_1","GID_0":"MWI","country":"Malawi","GID_1":"MWI.13_1","province":"Mangochi","NL_NAME_1":"NA","GID_2":"MWI.13.9_1","county":"TAJalasi","NL_NAME_2":"NA","city":"n.a.(1457)","VARNAME_3":"NA","NL_NAME_3":"NA","TYPE_3":"Unknown","ENGTYPE_3":"Unknown","CC_3":"NA","HASC_3":"NA","name":"n.a.(1457).city"},
"geometry":{"type": "MultiPolygon","coordinates": [[[[35.4895,-14.2987,939.3607],[35.4905,-14.3092,950.4827],[35.4866,-14.3178,968.7674],[35.4888,-14.322,966.4904],[35.4878,-14.3258,969.005],[35.4924,-14.3395,938.6519],[35.5007,-14.3355,946.269],[35.5049,-14.3395,953.4507],[35.5154,-14.3346,979.7197],[35.5137,-14.3268,957.1039],[35.5238,-14.3223,954.0382],[35.5267,-14.3133,949.2303],[35.5138,-14.3083,934.4008],[35.514,-14.3047,932.7933],[35.5079,-14.2984,930.7319],[35.508,-14.2968,928.4556],[35.4995,-14.3014,946.0373],[35.4895,-14.2987,939.3607]]]]}}