{"type":"Feature","properties":{"GID_3":"MWI.22.10.5_1","GID_0":"MWI","country":"Malawi","GID_1":"MWI.22_1","province":"Ntcheu","NL_NAME_1":"NA","GID_2":"MWI.22.10_1","county":"TAPhambala","NL_NAME_2":"NA","city":"n.a.(1955)","VARNAME_3":"NA","NL_NAME_3":"NA","TYPE_3":"Unknown","ENGTYPE_3":"Unknown","CC_3":"NA","HASC_3":"NA","name":"n.a.(1955).city"},
"geometry":{"type": "MultiPolygon","coordinates": [[[[34.7233,-14.9819,938.9729],[34.7145,-14.9861,973.5945],[34.7105,-14.9909,966.6855],[34.7024,-14.9886,1013.8735],[34.6958,-14.9899,1055.2952],[34.6995,-14.9983,1009.4189],[34.7085,-15.0066,978.2434],[34.7102,-15.0094,977.4125],[34.7097,-15.0124,962.5438],[34.7121,-15.0138,955.0717],[34.7158,-15.0142,941.4724],[34.7219,-15.0113,922.3382],[34.7276,-15.0131,910.7708],[34.7336,-15.0097,913.5314],[34.7471,-15.0128,885.9347],[34.7544,-15.0105,853.1752],[34.757,-15.0056,856.227],[34.7694,-15.004,843.1577],[34.7664,-14.9971,848.3154],[34.7511,-14.9935,872.7864],[34.7388,-14.9828,902.8937],[34.7285,-14.98,900.6958],[34.7233,-14.9819,938.9729]]]]}}