{"type": "Feature","bbox": [35.2616,-16.1379,35.3314,-16.0824],"geometry": {"type": "MultiPolygon","coordinates": [[[[35.3223,-16.0828,583.2335],[35.3145,-16.0824,616.6998],[35.3076,-16.0875,655.1917],[35.3012,-16.0955,689.9036],[35.2854,-16.0887,703.2064],[35.2779,-16.0896,711.6926],[35.275,-16.0922,717.7947],[35.2803,-16.0944,700.1359],[35.2851,-16.0942,703.7877],[35.2846,-16.0985,679.4235],[35.2863,-16.1016,668.012],[35.2828,-16.1026,678.8697],[35.2794,-16.1067,674.3522],[35.2724,-16.1073,696.2604],[35.267,-16.1059,705.3208],[35.2648,-16.1076,705.9442],[35.2616,-16.1183,723.5112],[35.2625,-16.1215,717.3822],[35.2809,-16.1151,695.5303],[35.2848,-16.1175,682.6671],[35.2882,-16.1161,687.5685],[35.2929,-16.1172,678.5876],[35.2828,-16.1372,606.3534],[35.2883,-16.1379,588.5657],[35.2921,-16.1357,607.5237],[35.3002,-16.1376,484.9462],[35.3017,-16.1331,517.7003],[35.2972,-16.1295,575.646],[35.2985,-16.127,573.9877],[35.2973,-16.1225,616.8232],[35.3031,-16.1183,626.5328],[35.3052,-16.1113,654.984],[35.3121,-16.1168,610.1774],[35.316,-16.113,624.6949],[35.3248,-16.1134,584.7864],[35.3298,-16.1164,509.1269],[35.3314,-16.1076,520.3638],[35.3293,-16.1034,561.7649],[35.3291,-16.0988,557.3693],[35.3277,-16.0967,567.8546],[35.321,-16.0958,579.8642],[35.32,-16.0943,583.3976],[35.3223,-16.0828,583.2335]]]]}
,"properties": {"GID_3": "MWI.27.9.6_1","GID_0": "MWI","country": "Malawi","GID_1": "MWI.27_1","province": "Thyolo","NL_NAME_1": "NA","GID_2": "MWI.27.9_1","county": "TAKapichi","NL_NAME_2": "NA","city": "n.a.(2880)","VARNAME_3": "NA","NL_NAME_3": "NA","TYPE_3": "Unknown","ENGTYPE_3": "Unknown","CC_3": "NA","HASC_3": "NA","name": "n.a.(2880).city","area_km2": 19.51435,"hist_schema_id": "Elevation0-9000","hist_area_km2": {"500": 0.14258,"525": 0.26479,"550": 0.42775,"575": 1.48699,"600": 2.36291,"625": 3.74803,"650": 3.48327,"675": 4.19625,"700": 2.83144,"725": 0.52962,"750": 0.04074}}}