{"type": "Feature","bbox": [35.6011,-16.1249,35.6321,-16.1],"geometry": {"type": "MultiPolygon","coordinates": [[[[35.609,-16.1116,604.7656],[35.6011,-16.1148,608.7135],[35.6031,-16.1208,592.5516],[35.6076,-16.1174,605.9517],[35.6137,-16.1215,609.7663],[35.6151,-16.1249,594.0007],[35.6185,-16.1247,594.2646],[35.6206,-16.1207,603.7184],[35.6249,-16.1211,596.5115],[35.63,-16.1131,595.3541],[35.6292,-16.1091,598.8214],[35.6313,-16.1072,598.9025],[35.6321,-16.1017,600.921],[35.6244,-16.1,640.6147],[35.6201,-16.1037,631.7365],[35.6168,-16.1038,626.1609],[35.6139,-16.1085,612.9534],[35.609,-16.1116,604.7656]]]]}
,"properties": {"GID_3": "MWI.15.6.36_1","GID_0": "MWI","country": "Malawi","GID_1": "MWI.15_1","province": "Mulanje","NL_NAME_1": "NA","GID_2": "MWI.15.6_1","county": "TAMabuka","NL_NAME_2": "NA","city": "n.a.(2904)","VARNAME_3": "NA","NL_NAME_3": "NA","TYPE_3": "Unknown","ENGTYPE_3": "Unknown","CC_3": "NA","HASC_3": "NA","name": "n.a.(2904).city","area_km2": 4.684951,"hist_schema_id": "Elevation0-9000","hist_area_km2": {"600": 2.403559,"625": 2.261022,"650": 0.020371}}}