{"type":"Feature","properties":{"GID_3":"MWI.4.3.15_1","GID_0":"MWI","country":"Malawi","GID_1":"MWI.4_1","province":"Chiradzulu","NL_NAME_1":"NA","GID_2":"MWI.4.3_1","county":"TAKadewere","NL_NAME_2":"NA","city":"n.a.(2541)","VARNAME_3":"NA","NL_NAME_3":"NA","TYPE_3":"Unknown","ENGTYPE_3":"Unknown","CC_3":"NA","HASC_3":"NA","name":"n.a.(2541).city"},
"geometry":{"type": "MultiPolygon","coordinates": [[[[35.2667,-15.7774,816.6251],[35.2691,-15.7853,820.694],[35.2647,-15.796,839.2048],[35.2727,-15.7934,823.1371],[35.2767,-15.7956,815.8091],[35.2854,-15.7952,803.036],[35.2897,-15.7972,794.868],[35.2931,-15.7949,793.0543],[35.3001,-15.7946,780.7832],[35.3043,-15.7896,774.1916],[35.3097,-15.7896,773.4247],[35.3087,-15.7809,774.8653],[35.2982,-15.7804,784.3043],[35.2848,-15.7757,799.3028],[35.2833,-15.7746,799.3028],[35.2839,-15.7701,793.6801],[35.2756,-15.7701,802.7023],[35.2695,-15.7737,809.1628],[35.2667,-15.7774,816.6251]]]]}}