{"type": "Feature","bbox": [35.2343,-16.3608,35.282,-16.3177],"geometry": {"type": "MultiPolygon","coordinates": [[[[35.2401,-16.3574,252.3306],[35.2446,-16.3608,220.3855],[35.2473,-16.3599,216.9235],[35.2507,-16.3512,287.1482],[35.2567,-16.3458,314.3768],[35.2598,-16.3462,318.6954],[35.259,-16.3431,316.2636],[35.2602,-16.3407,324.4025],[35.2622,-16.3407,323.1686],[35.2627,-16.3382,321.237],[35.2653,-16.3388,315.8997],[35.2673,-16.3369,330.9162],[35.272,-16.3361,324.2333],[35.275,-16.3305,307.0329],[35.282,-16.33,232.787],[35.278,-16.3221,227.7437],[35.2699,-16.3211,311.6096],[35.2674,-16.3226,328.5855],[35.2682,-16.3251,309.1197],[35.2661,-16.3268,317.0472],[35.2621,-16.3245,340.898],[35.2625,-16.3222,347.847],[35.2585,-16.3197,354.4628],[35.2541,-16.3217,371.3153],[35.2494,-16.3212,393.4778],[35.2488,-16.3186,387.5443],[35.2463,-16.3177,400.163],[35.2434,-16.3199,400.735],[35.2416,-16.3223,417.8575],[35.243,-16.3257,403.1122],[35.2414,-16.3301,417.3457],[35.237,-16.3345,449.2333],[35.2366,-16.3388,484.6508],[35.2343,-16.34,506.2068],[35.2421,-16.348,308.8075],[35.2401,-16.3574,252.3306]]]]}
,"properties": {"GID_3": "MWI.27.5.2_1","GID_0": "MWI","country": "Malawi","GID_1": "MWI.27_1","province": "Thyolo","NL_NAME_1": "NA","GID_2": "MWI.27.5_1","county": "SCThukuta","NL_NAME_2": "NA","city": "n.a.(3022)","VARNAME_3": "NA","NL_NAME_3": "NA","TYPE_3": "Unknown","ENGTYPE_3": "Unknown","CC_3": "NA","HASC_3": "NA","name": "n.a.(3022).city","area_km2": 10.966671,"hist_schema_id": "Elevation0-9000","hist_area_km2": {"225": 0.305189,"250": 0.427246,"275": 0.46796,"300": 0.996962,"325": 1.932883,"350": 1.607347,"375": 1.241145,"400": 1.424291,"425": 1.30218,"450": 0.651086,"475": 0.345887,"500": 0.203457,"525": 0.061037}}}