{"type":"Feature","properties":{"GID_3":"MWI.13.5.19_1","GID_0":"MWI","country":"Malawi","GID_1":"MWI.13_1","province":"Mangochi","NL_NAME_1":"NA","GID_2":"MWI.13.5_1","county":"SCChowe","NL_NAME_2":"NA","city":"n.a.(1660)","VARNAME_3":"NA","NL_NAME_3":"NA","TYPE_3":"Unknown","ENGTYPE_3":"Unknown","CC_3":"NA","HASC_3":"NA","name":"n.a.(1660).city"},
"geometry":{"type": "MultiPolygon","coordinates": [[[[35.362,-14.5281,524.3542],[35.352,-14.5339,516.0445],[35.3485,-14.5377,512.1306],[35.3472,-14.5412,511.6431],[35.3489,-14.5473,507.6302],[35.3531,-14.5511,511.9432],[35.357,-14.5485,513.1021],[35.3716,-14.562,511.5244],[35.3772,-14.5651,517.8901],[35.385,-14.567,530.7137],[35.3905,-14.5653,550.2133],[35.3922,-14.5632,582.3833],[35.3858,-14.5565,543.9751],[35.3814,-14.5481,534.7957],[35.3813,-14.5442,535.4416],[35.3867,-14.5364,545.7867],[35.397,-14.5309,568.5278],[35.3901,-14.5264,545.6058],[35.3774,-14.5259,534.6489],[35.3743,-14.5222,535.3897],[35.3697,-14.5268,530.3777],[35.362,-14.5281,524.3542]]]]}}