{"type": "Feature","bbox": [35.6845,-14.5946,35.77,-14.4851],"geometry": {"type": "MultiPolygon","coordinates": [[[[35.77,-14.5571,678.0493],[35.7517,-14.5315,733.5505],[35.7137,-14.4851,752.3838],[35.7117,-14.486,749.451],[35.7087,-14.492,774.9517],[35.7053,-14.4938,776.8094],[35.6971,-14.4914,755.9849],[35.6918,-14.486,730.8601],[35.6892,-14.4863,729.0186],[35.6863,-14.4908,729.8922],[35.6845,-14.504,799.7434],[35.6859,-14.5065,813.9527],[35.6967,-14.5127,782.7452],[35.6976,-14.5188,780.5807],[35.7037,-14.5219,784.3666],[35.71,-14.5318,803.2762],[35.7109,-14.5384,754.7595],[35.7045,-14.5428,730.2231],[35.703,-14.5466,719.5052],[35.712,-14.5658,706.1592],[35.7126,-14.5764,698.3843],[35.7233,-14.5899,694.4829],[35.7322,-14.5946,692.2527],[35.74,-14.5899,689.5533],[35.7478,-14.5927,688.7185],[35.7486,-14.5887,688.6097],[35.7515,-14.5865,686.8196],[35.7487,-14.5835,686.1354],[35.7495,-14.5817,686.8333],[35.7522,-14.5825,685.4711],[35.7536,-14.5811,686.1685],[35.7567,-14.5703,683.8079],[35.7643,-14.5631,683.0833],[35.764,-14.5584,680.4363],[35.7683,-14.5561,682.0881],[35.77,-14.5571,678.0493]]]]}
,"properties": {"GID_3": "MWI.13.6.10_1","GID_0": "MWI","country": "Malawi","GID_1": "MWI.13_1","province": "Mangochi","NL_NAME_1": "NA","GID_2": "MWI.13.6_1","county": "SCMbwanaNyambi","NL_NAME_2": "NA","city": "n.a.(1635)","VARNAME_3": "NA","NL_NAME_3": "NA","TYPE_3": "Unknown","ENGTYPE_3": "Unknown","CC_3": "NA","HASC_3": "NA","name": "n.a.(1635).city","area_km2": 54.18089,"hist_schema_id": "Elevation0-9000","hist_area_km2": {"675": 3.73475,"700": 6.81288,"725": 5.43825,"750": 4.20735,"775": 3.9201,"800": 3.20183,"825": 2.97597,"850": 3.63278,"875": 3.6122,"900": 3.26329,"925": 2.52454,"950": 2.15507,"975": 2.05242,"1000": 1.33401,"1025": 0.90301,"1050": 0.8004,"1075": 0.65675,"1100": 0.63622,"1125": 0.5336,"1150": 0.43098,"1175": 0.28732,"1200": 0.20522,"1225": 0.22574,"1250": 0.32835,"1275": 0.10261,"1300": 0.10261,"1325": 0.06157,"1350": 0.04104}}}