{"type": "Feature","bbox": [34.5634,-14.9023,34.6412,-14.8157],"geometry": {"type": "MultiPolygon","coordinates": [[[[34.599,-14.8307,1428.5208],[34.5929,-14.8259,1441.2526],[34.5865,-14.8256,1474.9701],[34.5764,-14.8157,1443.9978],[34.5722,-14.8192,1459.7959],[34.5709,-14.8244,1465.2245],[34.5748,-14.8417,1528.4314],[34.5753,-14.8723,1399.9824],[34.5669,-14.8843,1420.1226],[34.5634,-14.8944,1486.1711],[34.5642,-14.8981,1498.8369],[34.567,-14.9007,1483.7355],[34.5686,-14.9003,1490.3739],[34.5758,-14.8933,1411.1788],[34.5816,-14.8911,1375.6866],[34.5829,-14.8937,1383.9623],[34.5821,-14.8959,1392.5322],[34.5879,-14.8978,1376.47],[34.5904,-14.9023,1373.6348],[34.6004,-14.9019,1304.4188],[34.6012,-14.896,1290.1821],[34.6036,-14.8945,1264.9547],[34.6101,-14.8985,1266.6631],[34.6131,-14.8973,1237.0063],[34.6164,-14.8992,1228.9508],[34.6162,-14.8959,1247.762],[34.6242,-14.897,1219.6895],[34.6355,-14.9023,1202.6917],[34.6385,-14.9015,1201.6392],[34.6412,-14.8976,1161.2383],[34.6365,-14.8913,1281.2139],[34.6391,-14.8846,1117.8169],[34.6356,-14.8802,1207.8092],[34.6354,-14.8733,1160.2211],[34.6288,-14.8704,1291.5359],[34.6307,-14.8605,1157.0668],[34.6261,-14.8586,1249.9984],[34.6236,-14.8537,1224.9551],[34.6125,-14.8485,1334.1261],[34.6007,-14.8396,1435.7222],[34.599,-14.8307,1428.5208]]]]}
,"properties": {"GID_3": "MWI.22.8.2_1","GID_0": "MWI","country": "Malawi","GID_1": "MWI.22_1","province": "Ntcheu","NL_NAME_1": "NA","GID_2": "MWI.22.8_1","county": "TAMpando","NL_NAME_2": "NA","city": "n.a.(1843)","VARNAME_3": "NA","NL_NAME_3": "NA","TYPE_3": "Unknown","ENGTYPE_3": "Unknown","CC_3": "NA","HASC_3": "NA","name": "n.a.(1843).city","area_km2": 44.57085,"hist_schema_id": "Elevation0-9000","hist_area_km2": {"1125": 0.02049,"1150": 0.12295,"1175": 0.22541,"1200": 0.38934,"1225": 1.02454,"1250": 1.82367,"1275": 2.27444,"1300": 1.96711,"1325": 1.90564,"1350": 2.41796,"1375": 3.0737,"1400": 4.67208,"1425": 3.93458,"1450": 3.72968,"1475": 4.16028,"1500": 2.52079,"1525": 1.2911,"1550": 1.45508,"1575": 0.81975,"1600": 0.94271,"1625": 1.02467,"1650": 0.81972,"1675": 1.00417,"1700": 0.86071,"1725": 0.84022,"1750": 0.53282,"1775": 0.2869,"1800": 0.20493,"1825": 0.12296,"1850": 0.04099,"1875": 0.06148}}}