{"type":"Feature","properties":{"GID_3":"MWI.5.6.1_1","GID_0":"MWI","country":"Malawi","GID_1":"MWI.5_1","province":"Chitipa","NL_NAME_1":"NA","GID_2":"MWI.5.6_1","county":"TAMwenewenya","NL_NAME_2":"NA","city":"n.a.(56)","VARNAME_3":"NA","NL_NAME_3":"NA","TYPE_3":"Unknown","ENGTYPE_3":"Unknown","CC_3":"NA","HASC_3":"NA","name":"n.a.(56).city"},
"geometry":{"type": "MultiPolygon","coordinates": [[[[33.3952,-9.9096,1729.1882],[33.3957,-9.9167,1761.2288],[33.3935,-9.9224,1628.3214],[33.3757,-9.9319,1699.1931],[33.3677,-9.9416,1757.8367],[33.3569,-9.9762,2158.2944],[33.3481,-9.992,2208.1165],[33.3447,-10.0022,2186.897],[33.3409,-10.0074,2144.6101],[33.3339,-10.0121,2200.7573],[33.3283,-10.0245,2107.2134],[33.3254,-10.0432,1784.8718],[33.3321,-10.0403,1816.1433],[33.3341,-10.0321,1835.1655],[33.3393,-10.0276,1858.1138],[33.3444,-10.0245,1909.9812],[33.3562,-10.0233,1762.7513],[33.3683,-10.0139,1675.1448],[33.3705,-10.0007,1695.0973],[33.3762,-9.9928,1786.298],[33.3772,-9.9843,1758.832],[33.3811,-9.9781,1598.2566],[33.3806,-9.9735,1596.1219],[33.3928,-9.9676,1511.1381],[33.3983,-9.9686,1484.8403],[33.3978,-9.9776,1510.0964],[33.3963,-9.9792,1511.4553],[33.3899,-9.9791,1544.6399],[33.3885,-9.9931,1562.0546],[33.3864,-9.9995,1559.8206],[33.3882,-10.0016,1539.1964],[33.3885,-10.0111,1544.5105],[33.3781,-10.0341,1514.2166],[33.3794,-10.0325,1520.4847],[33.3903,-10.0306,1509.3274],[33.4056,-10.0205,1482.6517],[33.4089,-10.0027,1462.689],[33.4139,-10.0008,1462.6279],[33.419,-9.9954,1441.1801],[33.4198,-9.9899,1444.3879],[33.4218,-9.988,1426.4681],[33.4212,-9.9863,1438.3789],[33.4268,-9.9767,1427.3365],[33.4324,-9.9824,1449.7949],[33.4351,-9.9894,1464.8848],[33.4467,-9.9918,1416.5542],[33.443,-9.9973,1434.4646],[33.4465,-10.0019,1409.3955],[33.4437,-10.0399,1589.5461],[33.4555,-10.0413,1637.9484],[33.4606,-10.0505,1652.0049],[33.4643,-10.0516,1573.6316],[33.4657,-10.055,1586.234],[33.4732,-10.0622,1595.9177],[33.4762,-10.051,1518.3188],[33.4763,-10.0396,1498.4236],[33.4963,-10.0218,1511.1364],[33.5021,-10.014,1485.4454],[33.517,-10.0094,1490.9135],[33.5368,-10.0101,1260.6564],[33.5341,-10.0008,1253.1335],[33.5371,-9.9974,1244.6025],[33.5359,-9.9938,1299.1683],[33.524,-9.9871,1336.3853],[33.5105,-9.9834,1327.1763],[33.4996,-9.9685,1454.9147],[33.4966,-9.9686,1470.2461],[33.4919,-9.9718,1457.8715],[33.4898,-9.9787,1528.1672],[33.4725,-9.975,1537.7583],[33.4701,-9.9725,1423.8944],[33.4734,-9.9678,1426.6239],[33.4732,-9.9564,1409.0435],[33.4765,-9.9494,1345.1677],[33.4721,-9.939,1341.7273],[33.4846,-9.9342,1448.1345],[33.4891,-9.9292,1397.5728],[33.5043,-9.9253,1362.6271],[33.508,-9.9211,1293.4634],[33.5134,-9.9195,1334.332],[33.5159,-9.9152,1315.3943],[33.5194,-9.9182,1248.2089],[33.5304,-9.9164,1206.749],[33.5348,-9.9079,1135.6096],[33.5349,-9.9014,1174.6982],[33.5408,-9.8968,1135.9419],[33.5402,-9.8947,1111.3433],[33.5331,-9.8943,1173.8013],[33.5244,-9.8876,1182.3285],[33.5145,-9.8831,1201.946],[33.5124,-9.8553,1092.853],[33.4995,-9.8553,1149.0708],[33.4814,-9.8635,1187.6888],[33.4765,-9.8784,1473.1417],[33.47,-9.8845,1503.7974],[33.4647,-9.8982,1497.4751],[33.4558,-9.9128,1382.2183],[33.4476,-9.9227,1422.1075],[33.4382,-9.9189,1394.8938],[33.4268,-9.9187,1460.754],[33.4228,-9.9145,1505.0341],[33.406,-9.9101,1713.7427],[33.3952,-9.9096,1729.1882]]]]}}