{"type": "Feature","bbox": [35.5271,-15.5541,35.5655,-15.5199],"geometry": {"type": "MultiPolygon","coordinates": [[[[35.5625,-15.5424,650.4186],[35.5589,-15.5352,652.1843],[35.5624,-15.5339,650.132],[35.5655,-15.53,647.6973],[35.5647,-15.5208,644.6586],[35.5596,-15.5199,645.311],[35.5537,-15.5206,645.9491],[35.5444,-15.5254,659.629],[35.5359,-15.5237,664.7115],[35.5376,-15.5375,666.3487],[35.5309,-15.5381,666.9366],[35.5271,-15.5407,662.0901],[35.548,-15.5541,651.6076],[35.5577,-15.5434,651.7586],[35.5625,-15.5424,650.4186]]]]}
,"properties": {"GID_3": "MWI.28.8.37_1","GID_0": "MWI","country": "Malawi","GID_1": "MWI.28_1","province": "Zomba","NL_NAME_1": "NA","GID_2": "MWI.28.8_1","county": "TAMwambo","NL_NAME_2": "NA","city": "n.a.(2281)","VARNAME_3": "NA","NL_NAME_3": "NA","TYPE_3": "Unknown","ENGTYPE_3": "Unknown","CC_3": "NA","HASC_3": "NA","name": "n.a.(2281).city","area_km2": 8.722572,"hist_schema_id": "Elevation0-9000","hist_area_km2": {"650": 6.250862,"675": 2.451282,"700": 0.020428}}}