{"type":"Feature","properties":{"GID_3":"MWI.12.11.3_1","GID_0":"MWI","country":"Malawi","GID_1":"MWI.12_1","province":"Machinga","NL_NAME_1":"NA","GID_2":"MWI.12.11_1","county":"SCSitola","NL_NAME_2":"NA","city":"n.a.(2009)","VARNAME_3":"NA","NL_NAME_3":"NA","TYPE_3":"Unknown","ENGTYPE_3":"Unknown","CC_3":"NA","HASC_3":"NA","name":"n.a.(2009).city"},
"geometry":{"type": "MultiPolygon","coordinates": [[[[35.1998,-15.1166,473.38],[35.2242,-15.1258,530.4926],[35.2284,-15.1302,538.4604],[35.2331,-15.132,552.9048],[35.2379,-15.1382,574.6141],[35.2383,-15.1414,588.6708],[35.2484,-15.1379,581.9401],[35.2574,-15.1314,602.009],[35.2545,-15.1221,558.3422],[35.2555,-15.1201,551.8679],[35.2521,-15.1183,550.8864],[35.2501,-15.1088,520.5806],[35.245,-15.1103,526.373],[35.2445,-15.1168,537.8835],[35.2368,-15.1154,542.0498],[35.2282,-15.0892,520.2909],[35.2142,-15.081,479.7653],[35.2099,-15.0803,473.1686],[35.2102,-15.0886,472.8416],[35.2072,-15.0956,473.2422],[35.2063,-15.1051,475.1528],[35.202,-15.1147,474.0829],[35.1998,-15.1166,473.38]]]]}}