{"type":"Feature","properties":{"GID_3":"MWI.27.11.10_1","GID_0":"MWI","country":"Malawi","GID_1":"MWI.27_1","province":"Thyolo","NL_NAME_1":"NA","GID_2":"MWI.27.11_1","county":"TANsabwe","NL_NAME_2":"NA","city":"n.a.(3019)","VARNAME_3":"NA","NL_NAME_3":"NA","TYPE_3":"Unknown","ENGTYPE_3":"Unknown","CC_3":"NA","HASC_3":"NA","name":"n.a.(3019).city"},
"geometry":{"type": "MultiPolygon","coordinates": [[[[35.2017,-16.3158,691.8245],[35.1957,-16.3181,759.9338],[35.2007,-16.3243,643.3735],[35.2141,-16.3246,585.5541],[35.2161,-16.316,572.8081],[35.2121,-16.3166,584.4701],[35.2101,-16.3149,606.129],[35.2073,-16.3151,619.0392],[35.2038,-16.3176,682.7484],[35.2017,-16.3158,691.8245]]]]}}