{"type":"Feature","properties":{"GID_3":"MWI.11.6.18_1","GID_0":"MWI","country":"Malawi","GID_1":"MWI.11_1","province":"Lilongwe","NL_NAME_1":"NA","GID_2":"MWI.11.6_1","county":"TAChadza","NL_NAME_2":"NA","city":"n.a.(1307)","VARNAME_3":"NA","NL_NAME_3":"NA","TYPE_3":"Unknown","ENGTYPE_3":"Unknown","CC_3":"NA","HASC_3":"NA","name":"n.a.(1307).city"},
"geometry":{"type": "MultiPolygon","coordinates": [[[[33.8405,-14.1561,1102.7319],[33.8425,-14.1645,1107.4193],[33.8412,-14.1748,1121.3102],[33.8473,-14.1857,1131.077],[33.8533,-14.1921,1150.3512],[33.8585,-14.1912,1171.9938],[33.8618,-14.1877,1152.0974],[33.8679,-14.1848,1149.3002],[33.87,-14.1854,1155.8403],[33.8722,-14.1898,1151.2838],[33.8865,-14.1891,1195.9144],[33.8854,-14.1825,1181.8599],[33.8872,-14.1789,1184.7344],[33.8922,-14.1786,1185.4707],[33.8956,-14.1815,1175.1787],[33.8988,-14.1817,1165.3378],[33.9085,-14.1755,1144.0743],[33.91,-14.1668,1142.839],[33.9041,-14.167,1152.1405],[33.8945,-14.1715,1178.6538],[33.8897,-14.1695,1168.8403],[33.8828,-14.1727,1182.0311],[33.868899999999996,-14.1722,1157.1594],[33.8666,-14.1746,1142.6555],[33.8621,-14.1744,1139.9307],[33.861,-14.1757,1132.2246],[33.8533,-14.1636,1122.9261],[33.85,-14.1624,1114.0591],[33.8488,-14.1548,1110.1938],[33.8407,-14.1534,1110.4991],[33.8405,-14.1561,1102.7319]]]]}}