{"type":"Feature","properties":{"GID_3":"MWI.21.4.9_1","GID_0":"MWI","country":"Malawi","GID_1":"MWI.21_1","province":"Nsanje","NL_NAME_1":"NA","GID_2":"MWI.21.4_1","county":"SCMbenje","NL_NAME_2":"NA","city":"n.a.(3081)","VARNAME_3":"NA","NL_NAME_3":"NA","TYPE_3":"Unknown","ENGTYPE_3":"Unknown","CC_3":"NA","HASC_3":"NA","name":"n.a.(3081).city"},
"geometry":{"type": "MultiPolygon","coordinates": [[[[35.1099,-16.5869,62.2598],[35.1145,-16.5804,60.2992],[35.1219,-16.5813,51.5572],[35.1236,-16.5777,52.1351],[35.1217,-16.5734,48.9364],[35.1249,-16.5716,46.7093],[35.1214,-16.5703,49.2773],[35.1212,-16.5677,47.8664],[35.1187,-16.5684,51.0123],[35.1183,-16.5702,51.0395],[35.1098,-16.573,55.9378],[35.1023,-16.5711,56.2478],[35.1004,-16.578,63.9342],[35.1099,-16.5869,62.2598]]]]}}