{"type": "Feature","bbox": [34.2819,-12.946,34.302,-12.9246],"geometry": {"type": "MultiPolygon","coordinates": [[[[34.3008,-12.9392,476.2198],[34.2964,-12.9396,482.7774],[34.2936,-12.9246,494.1674],[34.2819,-12.9253,520.1234],[34.2843,-12.9371,499.8294],[34.2916,-12.946,491.2812],[34.302,-12.9425,475.7166],[34.3008,-12.9392,476.2198]]]]}
,"properties": {"GID_3": "MWI.20.2.6_1","GID_0": "MWI","country": "Malawi","GID_1": "MWI.20_1","province": "Nkhotakota","NL_NAME_1": "NA","GID_2": "MWI.20.2_1","county": "NkhotakotaBoma","NL_NAME_2": "NA","city": "n.a.(443)","VARNAME_3": "NA","NL_NAME_3": "NA","TYPE_3": "Unknown","ENGTYPE_3": "Unknown","CC_3": "NA","HASC_3": "NA","name": "n.a.(443).city","area_km2": 2.789666,"hist_schema_id": "Elevation0-9000","hist_area_km2": {"475": 0.371946,"500": 2.190407,"525": 0.227313}}}