{"type": "Feature","bbox": [35.243899999999996,-15.8475,35.2731,-15.8052],"geometry": {"type": "MultiPolygon","coordinates": [[[[35.2484,-15.8099,972.2237],[35.2512,-15.8205,889.8401],[35.243899999999996,-15.8298,855.7592],[35.2485,-15.8316,865.4986],[35.2511,-15.8384,835.0652],[35.2601,-15.8475,809.3312],[35.2671,-15.847,807.3498],[35.2689,-15.8403,813.3929],[35.2659,-15.8389,813.4583],[35.2722,-15.8353,801.9641],[35.2731,-15.833,800.4034],[35.2603,-15.8312,845.9366],[35.2539,-15.8261,874.0072],[35.255,-15.8228,888.598],[35.2569,-15.8228,895.646],[35.2596,-15.8179,859.3009],[35.2642,-15.8167,844.0378],[35.263,-15.811,856.3733],[35.2593,-15.81,866.7263],[35.2563,-15.8054,877.2533],[35.2517,-15.8052,992.4908],[35.2502,-15.8095,987.0507],[35.2484,-15.8099,972.2237]]]]}
,"properties": {"GID_3": "MWI.4.3.21_1","GID_0": "MWI","country": "Malawi","GID_1": "MWI.4_1","province": "Chiradzulu","NL_NAME_1": "NA","GID_2": "MWI.4.3_1","county": "TAKadewere","NL_NAME_2": "NA","city": "n.a.(2572)","VARNAME_3": "NA","NL_NAME_3": "NA","TYPE_3": "Unknown","ENGTYPE_3": "Unknown","CC_3": "NA","HASC_3": "NA","name": "n.a.(2572).city","area_km2": 6.139892,"hist_schema_id": "Elevation0-9000","hist_area_km2": {"800": 0.367151,"825": 1.917337,"850": 1.305498,"875": 1.611517,"900": 0.55079,"925": 0.061199,"950": 0.1632,"975": 0.102001,"1000": 0.061199}}}