{"type":"Feature","properties":{"GID_3":"MWI.15.7.29_1","GID_0":"MWI","country":"Malawi","GID_1":"MWI.15_1","province":"Mulanje","NL_NAME_1":"NA","GID_2":"MWI.15.7_1","county":"TANkanda","NL_NAME_2":"NA","city":"n.a.(2710)","VARNAME_3":"NA","NL_NAME_3":"NA","TYPE_3":"Unknown","ENGTYPE_3":"Unknown","CC_3":"NA","HASC_3":"NA","name":"n.a.(2710).city"},
"geometry":{"type": "MultiPolygon","coordinates": [[[[35.477,-15.9524,690.9969],[35.4714,-15.9508,703.4816],[35.463,-15.9522,769.1304],[35.4638,-15.9608,900.438],[35.4708,-15.9652,796.3187],[35.4704,-15.9682,749.2256],[35.4757,-15.9694,717.0018],[35.4764,-15.9755,665.2971],[35.4813,-15.978,643.3387],[35.4827,-15.9758,654.981],[35.4788,-15.9741,655.8914],[35.4835,-15.9653,668.077],[35.4826,-15.9618,677.278],[35.484,-15.9597,672.0918],[35.4738,-15.9587,686.7271],[35.477,-15.9524,690.9969]]]]}}