{"type": "Feature","bbox": [35.4394,-14.2258,35.4954,-14.1661],"geometry": {"type": "MultiPolygon","coordinates": [[[[35.441,-14.1863,994.1631],[35.4394,-14.1886,996.8518],[35.4411,-14.1909,994.3114],[35.4512,-14.195,966.3323],[35.4589,-14.1961,964.8048],[35.4551,-14.2037,979.2928],[35.4565,-14.2094,988.7004],[35.4538,-14.2128,1007.5943],[35.4618,-14.2196,1027.8287],[35.4602,-14.2251,1048.0325],[35.464,-14.2258,1016.0151],[35.4729,-14.2241,978.447],[35.4788,-14.202,944.4423],[35.4954,-14.1913,919.799],[35.4845,-14.1686,943.9907],[35.478,-14.1707,943.1594],[35.4744,-14.1676,946.232],[35.4693,-14.1684,945.9203],[35.4599,-14.1661,955.4757],[35.4548,-14.1672,959.7505],[35.4596,-14.1796,982.858],[35.4528,-14.1783,985.6494],[35.4489,-14.1822,995.3202],[35.4425,-14.1837,991.7998],[35.441,-14.1863,994.1631]]]]}
,"properties": {"GID_3": "MWI.13.10.10_1","GID_0": "MWI","country": "Malawi","GID_1": "MWI.13_1","province": "Mangochi","NL_NAME_1": "NA","GID_2": "MWI.13.10_1","county": "TAKatuli","NL_NAME_2": "NA","city": "n.a.(1323)","VARNAME_3": "NA","NL_NAME_3": "NA","TYPE_3": "Unknown","ENGTYPE_3": "Unknown","CC_3": "NA","HASC_3": "NA","name": "n.a.(1323).city","area_km2": 20.39067,"hist_schema_id": "Elevation0-9000","hist_area_km2": {"925": 0.78111,"950": 7.95502,"975": 8.4892,"1000": 2.95981,"1025": 0.14387,"1050": 0.06166}}}