{"type":"Feature","properties":{"GID_2":"MWI.28.6_1","GID_0":"MWI","country":"Malawi","GID_1":"MWI.28_1","province":"Zomba","NL_NAME_1":"NA","county":"TAMalemia","VARNAME_2":"NA","NL_NAME_2":"NA","TYPE_2":"TraditionalAuthority","ENGTYPE_2":"TraditionalAuthority","CC_2":"NA","HASC_2":"NA","name":"T_A_Malemia.county"},
"geometry":{"type": "MultiPolygon","coordinates": [[[[35.3976,-15.3508,770.4391],[35.3989,-15.3483,766.546],[35.3925,-15.3433,797.0715],[35.3928,-15.3398,787.3562],[35.3945,-15.3375,778.4537],[35.4001,-15.3363,788.4656],[35.4107,-15.3378,763.5123],[35.4149,-15.3329,761.5861],[35.4138,-15.3277,748.806],[35.4248,-15.3041,715.243],[35.4203,-15.2981,731.6143],[35.4197,-15.2901,731.1182],[35.4243,-15.2831,720.6829],[35.4339,-15.2779,699.0764],[35.438,-15.2724,694.2271],[35.4422,-15.27,682.3512],[35.4423,-15.26,691.551],[35.445,-15.2497,681.4636],[35.428,-15.2461,701.9153],[35.4273,-15.2268,686.8888],[35.4243,-15.2209,688.2418],[35.419,-15.217,692.5791],[35.4134,-15.2154,696.9],[35.4075,-15.209,706.387],[35.3968,-15.2047,712.5902],[35.3896,-15.1988,722.48],[35.3777,-15.1994,737.4548],[35.3651,-15.1967,753.3793],[35.362,-15.1988,756.167],[35.36,-15.2041,760.7867],[35.3542,-15.2041,770.9725],[35.3464,-15.1954,771.9434],[35.3442,-15.195,780.8627],[35.3355,-15.2012,879.6431],[35.3312,-15.2022,974.6671],[35.3308,-15.205,926.5295],[35.3209,-15.2089,1044.5249],[35.3197,-15.2185,1415.8214],[35.3114,-15.2261,1636.4452],[35.3066,-15.2414,1700.6136],[35.3057,-15.2504,1818.072],[35.3039,-15.2526,1900.7854],[35.2917,-15.2381,1124.4844],[35.2817,-15.2362,884.9243],[35.2649,-15.2753,844.6005],[35.2645,-15.2809,841.3438],[35.259,-15.2832,802.062],[35.2561,-15.287,751.0253],[35.253,-15.2974,821.1163],[35.2537,-15.3059,925.4666],[35.2448,-15.3231,839.8105],[35.2434,-15.3343,828.0261],[35.2398,-15.341,837.9771],[35.2413,-15.3478,849.7269],[35.2433,-15.3496,916.2015],[35.2415,-15.3525,860.0522],[35.2471,-15.3547,1102.3915],[35.2584,-15.3522,1298.286],[35.2655,-15.3552,1501.3176],[35.2673,-15.35,1740.204],[35.2732,-15.3489,2045.3153],[35.2763,-15.3525,1997.511],[35.2735,-15.3575,1687.6997],[35.2717,-15.3659,1387.6184],[35.2726,-15.3684,1309.4196],[35.2757,-15.3705,1331.8296],[35.2876,-15.3705,1364.3544],[35.2931,-15.3722,1315.4922],[35.2939,-15.3739,1261.2551],[35.3006,-15.3729,1278.7034],[35.303,-15.3744,1208.1093],[35.3036,-15.3771,1142.8552],[35.3151,-15.3715,1183.3749],[35.3203,-15.3635,1332.2338],[35.3436,-15.3601,1059.0466],[35.3479,-15.3582,1048.1306],[35.3548,-15.3611,955.6403],[35.3608,-15.3664,860.3649],[35.3699,-15.3689,823.0323],[35.3659,-15.3739,821.7349],[35.3673,-15.3752,817.5934],[35.391,-15.3731,778.4934],[35.393,-15.365,783.5389],[35.3919,-15.3561,783.6946],[35.3976,-15.3508,770.4391]]]]}}