{"type": "Feature","bbox": [34.7683,-16.1681,34.9332,-16.0098],"geometry": {"type": "MultiPolygon","coordinates": [[[[34.7748,-16.1655,95.7024],[34.7846,-16.168,92.558],[34.7907,-16.1646,90.8703],[34.7951,-16.1667,91.1505],[34.8029,-16.1656,89.4934],[34.8077,-16.1681,89.0307],[34.8103,-16.1666,87.8727],[34.8114,-16.1635,87.3442],[34.8343,-16.1555,81.8457],[34.8497,-16.1598,78.0711],[34.8592,-16.1592,78.2528],[34.8621,-16.161,77.2678],[34.8677,-16.1589,75.666],[34.8703,-16.1561,76.2328],[34.8797,-16.1584,74.8576],[34.8817,-16.1627,74.0475],[34.886,-16.1624,73.1732],[34.8902,-16.1669,71.954],[34.8932,-16.1678,71.9967],[34.9034,-16.1622,72.7527],[34.9043,-16.1554,68.7808],[34.9145,-16.1543,68.2141],[34.9148,-16.1491,68.9134],[34.9071,-16.1441,66.975],[34.9066,-16.1386,67.7888],[34.9009,-16.1357,68.2748],[34.9021,-16.1295,70.6262],[34.8939,-16.1237,68.4845],[34.8901,-16.1155,68.5],[34.8938,-16.111,69.418],[34.8952,-16.1043,72.4418],[34.8987,-16.0985,76.4084],[34.9102,-16.0996,81.7156],[34.912,-16.0927,140.5169],[34.918,-16.0874,152.5885],[34.9237,-16.0861,180.8711],[34.9261,-16.0841,171.4581],[34.927,-16.0805,181.7926],[34.9288,-16.08,188.7322],[34.9297,-16.0817,168.7797],[34.9321,-16.0803,171.4757],[34.9311,-16.0769,223.7881],[34.9332,-16.0748,190.3136],[34.9298,-16.0686,215.9699],[34.9262,-16.0657,248.8098],[34.9261,-16.063,282.5783],[34.9226,-16.0625,264.9724],[34.9158,-16.0561,251.2849],[34.9161,-16.0499,249.7457],[34.9117,-16.032,277.1249],[34.9035,-16.0222,287.8615],[34.9049,-16.0125,253.7997],[34.9018,-16.0109,297.8824],[34.899,-16.0128,251.5177],[34.8964,-16.0098,292.0934],[34.8893,-16.0143,210.0518],[34.8852,-16.0149,234.7449],[34.8755,-16.0279,191.1213],[34.8745,-16.0315,121.7138],[34.8651,-16.0381,238.3065],[34.8626,-16.0446,99.8109],[34.8708,-16.0654,106.1221],[34.8666,-16.0776,79.114],[34.8547,-16.0889,71.0],[34.8484,-16.0914,77.2133],[34.8415,-16.0882,78.4511],[34.8355,-16.094,77.6097],[34.8286,-16.0969,76.4083],[34.8275,-16.0985,76.2129],[34.8291,-16.1099,81.3474],[34.8249,-16.1136,82.8802],[34.8178,-16.1157,85.055],[34.8109,-16.1155,85.6079],[34.8029,-16.1101,87.799],[34.7822,-16.0913,93.2045],[34.771,-16.0869,97.6817],[34.7727,-16.1478,100.5346],[34.771,-16.1577,96.8997],[34.7683,-16.163,96.596],[34.7748,-16.1655,95.7024]]]]}
,"properties": {"GID_2": "MWI.3.10_1","GID_0": "MWI","country": "Malawi","GID_1": "MWI.3_1","province": "Chikwawa","NL_NAME_1": "NA","county": "TAMaseya","VARNAME_2": "NA","NL_NAME_2": "NA","TYPE_2": "TraditionalAuthority","ENGTYPE_2": "TraditionalAuthority","CC_2": "NA","HASC_2": "NA","name": "T_A_Maseya.county","area_km2": 145.9705,"hist_schema_id": "Elevation0-9000","hist_area_km2": {"75": 77.1335,"100": 30.898,"125": 2.3634,"150": 3.871,"175": 5.7455,"200": 6.8664,"225": 5.6033,"250": 4.1567,"275": 3.0361,"300": 1.9154,"325": 1.6913,"350": 1.3245,"375": 0.8151,"400": 0.4891,"425": 0.0611}}}