{"type": "Feature","bbox": [34.9496,-14.2961,35.0737,-14.2041],"geometry": {"type": "MultiPolygon","coordinates": [[[[34.9496,-14.2348,644.804],[34.9568,-14.2377,579.9264],[34.9569,-14.2405,582.3988],[34.9603,-14.242,586.8643],[34.9591,-14.2466,600.9739],[34.961,-14.2506,582.4185],[34.9756,-14.2588,603.6146],[34.9776,-14.2633,607.7873],[34.973,-14.2746,591.4398],[34.9864,-14.2938,571.4585],[34.9917,-14.2961,558.8744],[34.9925,-14.2924,567.725],[34.9965,-14.2879,559.2303],[34.9978,-14.282,550.1959],[35.0036,-14.2759,555.8413],[35.0131,-14.2821,535.3961],[35.0176,-14.2871,536.4849],[35.0188,-14.2922,553.1098],[35.0293,-14.2844,539.5784],[35.0312,-14.2776,533.5526],[35.0311,-14.27,522.0296],[35.0379,-14.266,518.9009],[35.0479,-14.2632,519.7859],[35.0502,-14.2568,509.0232],[35.0551,-14.2531,503.5002],[35.0614,-14.2534,503.1156],[35.0676,-14.257,493.5769],[35.0737,-14.2472,487.9736],[35.0692,-14.2473,491.6332],[35.044,-14.2198,488.6377],[35.0221,-14.2041,483.9311],[35.0149,-14.2118,488.7155],[35.0143,-14.2169,491.4164],[35.0087,-14.2288,498.4803],[35.0093,-14.2335,501.3],[35.0076,-14.2358,503.1509],[34.9955,-14.2365,512.0166],[34.9892,-14.2352,519.3146],[34.9877,-14.2289,516.6287],[34.9796,-14.2332,601.5325],[34.969,-14.2312,574.3568],[34.9648,-14.2287,596.8112],[34.9589,-14.2207,599.7639],[34.9549,-14.2238,668.7144],[34.9496,-14.2348,644.804]]]]}
,"properties": {"GID_3": "MWI.13.13.9_1","GID_0": "MWI","country": "Malawi","GID_1": "MWI.13_1","province": "Mangochi","NL_NAME_1": "NA","GID_2": "MWI.13.13_1","county": "TANankumba","NL_NAME_2": "NA","city": "n.a.(1361)","VARNAME_3": "NA","NL_NAME_3": "NA","TYPE_3": "Unknown","ENGTYPE_3": "Unknown","CC_3": "NA","HASC_3": "NA","name": "n.a.(1361).city","area_km2": 61.67004,"hist_schema_id": "Elevation0-9000","hist_area_km2": {"475": 1.66482,"500": 20.20161,"525": 12.76085,"550": 11.40488,"575": 10.5005,"600": 3.96605,"625": 0.88364,"650": 0.20549,"675": 0.06165,"700": 0.02055}}}