{"type": "Feature","bbox": [33.5553,-11.2527,33.6546,-11.1378],"geometry": {"type": "MultiPolygon","coordinates": [[[[33.5606,-11.2374,1304.6604],[33.5612,-11.2411,1206.6063],[33.571,-11.2448,1169.8594],[33.5754,-11.2441,1161.1365],[33.5818,-11.248,1143.1738],[33.5839,-11.2417,1144.375],[33.5876,-11.2413,1136.7826],[33.6017,-11.2527,1151.6537],[33.6144,-11.2527,1188.8168],[33.6222,-11.2489,1191.3793],[33.6239,-11.2384,1163.8556],[33.6206,-11.2339,1158.437],[33.6193,-11.2255,1136.0171],[33.6161,-11.227,1141.3875],[33.6135,-11.216,1127.4924],[33.6146,-11.2144,1130.8457],[33.6211,-11.2128,1122.0583],[33.6314,-11.2017,1113.3732],[33.6326,-11.1973,1117.1241],[33.6404,-11.1858,1102.6166],[33.6409,-11.1728,1113.4196],[33.6441,-11.1681,1102.8413],[33.645,-11.1625,1119.2961],[33.6488,-11.1582,1096.9319],[33.6458,-11.1564,1097.623],[33.6537,-11.1492,1096.5492],[33.6546,-11.1396,1083.4779],[33.6503,-11.1378,1077.8563],[33.6483,-11.1397,1077.0],[33.647,-11.1415,1077.3932],[33.6486,-11.1505,1082.6816],[33.6432,-11.1537,1088.1714],[33.625,-11.1536,1083.6354],[33.5943,-11.1588,1086.3457],[33.5877,-11.1581,1088.0203],[33.5855,-11.1519,1083.5485],[33.5777,-11.1542,1082.8361],[33.5794,-11.1627,1086.6322],[33.5783,-11.17,1101.2356],[33.586,-11.1749,1161.3755],[33.5846,-11.1808,1133.5016],[33.5915,-11.1842,1146.5537],[33.5973,-11.1847,1142.2782],[33.5976,-11.1867,1149.0015],[33.5943,-11.1897,1142.9642],[33.5897,-11.1893,1136.6389],[33.591,-11.1929,1134.0588],[33.5892,-11.2001,1156.5386],[33.583,-11.1978,1163.7661],[33.5761,-11.1977,1126.4596],[33.5693,-11.209,1169.4642],[33.5638,-11.2119,1193.2793],[33.5621,-11.2191,1270.2836],[33.5553,-11.225,1246.0496],[33.5634,-11.2272,1198.415],[33.5662,-11.2297,1213.99],[33.565,-11.2358,1235.2769],[33.5606,-11.2374,1304.6604]]]]}
,"properties": {"GID_3": "MWI.17.9.1_1","GID_0": "MWI","country": "Malawi","GID_1": "MWI.17_1","province": "Mzimba","NL_NAME_1": "NA","GID_2": "MWI.17.9_1","county": "TAMpherembe","NL_NAME_2": "NA","city": "n.a.(164)","VARNAME_3": "NA","NL_NAME_3": "NA","TYPE_3": "Unknown","ENGTYPE_3": "Unknown","CC_3": "NA","HASC_3": "NA","name": "n.a.(164).city","area_km2": 64.32949,"hist_schema_id": "Elevation0-9000","hist_area_km2": {"1075": 2.95385,"1100": 9.85964,"1125": 14.97521,"1150": 19.8406,"1175": 11.54241,"1200": 3.22356,"1225": 1.03989,"1250": 0.43677,"1275": 0.22878,"1300": 0.20798,"1325": 0.0208}}}