{"type":"Feature","properties":{"GID_2":"MWI.19.4_1","GID_0":"MWI","country":"Malawi","GID_1":"MWI.19_1","province":"NkhataBay","NL_NAME_1":"NA","county":"SCNyaluwanga","VARNAME_2":"NA","NL_NAME_2":"NA","TYPE_2":"Sub-chief","ENGTYPE_2":"Sub-chief","CC_2":"NA","HASC_2":"NA","name":"S_C_Nyaluwanga.county"},
"geometry":{"type": "MultiPolygon","coordinates": [[[[34.0511,-11.3923,1348.7214],[34.0642,-11.3887,1319.6245],[34.0752,-11.3877,1333.4371],[34.0816,-11.3921,1392.6516],[34.0826,-11.3974,1380.3569],[34.0877,-11.3952,1388.3052],[34.1746,-11.4132,877.0452],[34.1762,-11.4089,915.1758],[34.1734,-11.4036,959.7365],[34.1637,-11.4005,1018.6793],[34.1651,-11.3971,1045.3132],[34.1624,-11.3968,1062.6132],[34.1613,-11.3934,1081.1552],[34.1635,-11.3917,1053.8275],[34.1671,-11.392,1056.3782],[34.1663,-11.3884,1069.8196],[34.1613,-11.382,1113.3628],[34.1586,-11.3819,1125.8638],[34.1579,-11.3768,1112.709],[34.1493,-11.3735,1187.0942],[34.147,-11.3705,1171.7031],[34.1479,-11.3688,1180.1023],[34.1452,-11.3682,1145.066],[34.1434,-11.3639,1196.2286],[34.1398,-11.3646,1207.123],[34.1339,-11.3578,1253.4698],[34.1276,-11.3584,1244.0728],[34.119,-11.364,1266.1129],[34.1117,-11.3722,1362.8632],[34.1032,-11.3766,1426.5413],[34.1023,-11.3714,1385.8082],[34.1038,-11.3649,1302.0619],[34.1206,-11.3588,1279.9792],[34.1403,-11.3484,1243.6606],[34.1399,-11.3409,1272.6882],[34.1377,-11.3376,1297.082],[34.1382,-11.3327,1318.5938],[34.1338,-11.3279,1300.4839],[34.1327,-11.3236,1328.5729],[34.1378,-11.3118,1254.7002],[34.1363,-11.3011,1192.6001],[34.1398,-11.2914,920.993],[34.1392,-11.2889,977.7256],[34.1253,-11.2908,1099.9497],[34.0993,-11.3009,1258.3931],[34.0925,-11.3052,1220.2037],[34.087,-11.3059,1168.3722],[34.0838,-11.3041,1292.7697],[34.0733,-11.3066,1273.2214],[34.0729,-11.3107,1282.5253],[34.061,-11.3178,1275.3855],[34.0609,-11.3224,1252.9814],[34.0565,-11.3287,1294.7738],[34.0482,-11.3346,1330.3104],[34.0367,-11.3397,1349.3319],[34.0391,-11.3449,1369.5657],[34.0371,-11.35,1352.5343],[34.0443,-11.3679,1379.1411],[34.0441,-11.3728,1365.8716],[34.0416,-11.3769,1362.2335],[34.0429,-11.3861,1386.0502],[34.0468,-11.3917,1363.4766],[34.0511,-11.3923,1348.7214]]]]}}