{"type": "Feature","bbox": [33.3136,-11.8035,33.4582,-11.6934],"geometry": {"type": "MultiPolygon","coordinates": [[[[33.3212,-11.777,1166.6617],[33.3267,-11.7731,1171.6672],[33.3372,-11.7692,1149.9313],[33.3394,-11.7739,1152.1157],[33.3411,-11.7731,1156.1082],[33.3467,-11.7759,1160.9137],[33.3466,-11.7787,1154.9915],[33.3508,-11.7773,1166.8816],[33.3543,-11.7782,1155.3826],[33.363,-11.7931,1159.8127],[33.3697,-11.7916,1164.2563],[33.3703,-11.7893,1166.7268],[33.3798,-11.7835,1163.4459],[33.3835,-11.7825,1167.0367],[33.3878,-11.7839,1176.5262],[33.389,-11.7815,1176.0586],[33.3925,-11.7804,1180.2419],[33.3987,-11.7924,1172.7644],[33.4021,-11.7913,1172.7009],[33.4015,-11.7887,1172.5148],[33.4043,-11.792,1173.6155],[33.4103,-11.7895,1173.583],[33.4142,-11.7942,1176.2039],[33.4218,-11.7903,1197.4845],[33.4329,-11.7993,1184.9001],[33.4344,-11.8035,1195.7524],[33.4441,-11.7847,1215.717],[33.4448,-11.7781,1221.6107],[33.4554,-11.7644,1257.5369],[33.4582,-11.7553,1241.3347],[33.4532,-11.7504,1235.1143],[33.4423,-11.7487,1219.4158],[33.4289,-11.7434,1214.4805],[33.4096,-11.732,1197.777],[33.4033,-11.7335,1185.4937],[33.399,-11.7298,1183.6808],[33.3884,-11.7287,1169.9155],[33.3828,-11.7248,1161.0073],[33.3704,-11.7079,1153.7445],[33.3638,-11.7068,1148.5773],[33.3577,-11.6973,1142.2151],[33.3461,-11.7008,1138.3606],[33.3408,-11.6937,1134.8694],[33.339,-11.6934,1141.4902],[33.3317,-11.7013,1144.7478],[33.3284,-11.7128,1153.9032],[33.3136,-11.7293,1164.5941],[33.3181,-11.7461,1171.7899],[33.3232,-11.755,1176.4307],[33.3232,-11.7579,1174.1517],[33.318,-11.7669,1174.7753],[33.3204,-11.7709,1174.3911],[33.3212,-11.777,1166.6617]]]]}
,"properties": {"GID_3": "MWI.17.6.27_1","GID_0": "MWI","country": "Malawi","GID_1": "MWI.17_1","province": "Mzimba","NL_NAME_1": "NA","GID_2": "MWI.17.6_1","county": "TAChindi","NL_NAME_2": "NA","city": "n.a.(249)","VARNAME_3": "NA","NL_NAME_3": "NA","TYPE_3": "Unknown","ENGTYPE_3": "Unknown","CC_3": "NA","HASC_3": "NA","name": "n.a.(249).city","area_km2": 100.6961,"hist_schema_id": "Elevation0-9000","hist_area_km2": {"1125": 1.72319,"1150": 24.39215,"1175": 47.99126,"1200": 12.80706,"1225": 11.62373,"1250": 2.1587}}}