{"type": "Feature","bbox": [33.7326,-14.2513,33.7625,-14.211],"geometry": {"type": "MultiPolygon","coordinates": [[[[33.7475,-14.211,1157.3308],[33.7356,-14.211,1163.6901],[33.7336,-14.2125,1164.6062],[33.7384,-14.2215,1178.9546],[33.7342,-14.2228,1172.3286],[33.7362,-14.23,1158.3167],[33.7326,-14.2295,1153.1697],[33.7383,-14.2397,1160.0934],[33.7366,-14.2423,1163.755],[33.7544,-14.2505,1197.6736],[33.7625,-14.2513,1211.8781],[33.7604,-14.2379,1193.7227],[33.7565,-14.2355,1198.3768],[33.7522,-14.2369,1201.2883],[33.7475,-14.2351,1186.3285],[33.7477,-14.2308,1182.6824],[33.7435,-14.2268,1178.467],[33.7487,-14.2239,1169.6381],[33.7554,-14.2232,1176.1487],[33.7621,-14.2188,1172.0747],[33.7475,-14.211,1157.3308]]]]}
,"properties": {"GID_3": "MWI.11.8.33_1","GID_0": "MWI","country": "Malawi","GID_1": "MWI.11_1","province": "Lilongwe","NL_NAME_1": "NA","GID_2": "MWI.11.8_1","county": "TAChiseka","NL_NAME_2": "NA","city": "n.a.(1372)","VARNAME_3": "NA","NL_NAME_3": "NA","TYPE_3": "Unknown","ENGTYPE_3": "Unknown","CC_3": "NA","HASC_3": "NA","name": "n.a.(1372).city","area_km2": 8.117885,"hist_schema_id": "Elevation0-9000","hist_area_km2": {"1150": 1.500329,"1175": 4.747465,"1200": 1.84954,"1225": 0.020551}}}