{"type":"Feature","properties":{"GID_3":"MWI.12.11.6_1","GID_0":"MWI","country":"Malawi","GID_1":"MWI.12_1","province":"Machinga","NL_NAME_1":"NA","GID_2":"MWI.12.11_1","county":"SCSitola","NL_NAME_2":"NA","city":"n.a.(2023)","VARNAME_3":"NA","NL_NAME_3":"NA","TYPE_3":"Unknown","ENGTYPE_3":"Unknown","CC_3":"NA","HASC_3":"NA","name":"n.a.(2023).city"},
"geometry":{"type": "MultiPolygon","coordinates": [[[[35.1793,-15.1393,475.2806],[35.178,-15.1438,477.9077],[35.1823,-15.1499,472.8778],[35.1823,-15.1548,472.2353],[35.1787,-15.163,473.1772],[35.1703,-15.1722,476.0962],[35.1686,-15.1896,472.9658],[35.1719,-15.1902,472.0773],[35.177,-15.1948,497.0206],[35.1833,-15.1862,499.9164],[35.1839,-15.1737,499.3674],[35.1881,-15.1674,488.7329],[35.1896,-15.1609,488.7529],[35.1941,-15.1554,501.0952],[35.2006,-15.1534,513.3849],[35.2123,-15.1627,633.905],[35.216,-15.1636,653.9265],[35.2176,-15.1614,626.1505],[35.2141,-15.1544,573.4199],[35.2146,-15.1489,557.5056],[35.2216,-15.1449,594.167],[35.2358,-15.1435,604.7921],[35.2383,-15.1414,588.6708],[35.2379,-15.1382,574.6141],[35.2331,-15.132,552.9048],[35.2284,-15.1302,538.4604],[35.2242,-15.1258,530.4926],[35.1998,-15.1166,473.38],[35.1928,-15.1219,475.0804],[35.1878,-15.1304,475.1245],[35.1793,-15.1393,475.2806]]]]}}