{"type":"Feature","properties":{"GID_3":"MWI.15.8.6_1","GID_0":"MWI","country":"Malawi","GID_1":"MWI.15_1","province":"Mulanje","NL_NAME_1":"NA","GID_2":"MWI.15.8_1","county":"TANthiramanja","NL_NAME_2":"NA","city":"n.a.(2708)","VARNAME_3":"NA","NL_NAME_3":"NA","TYPE_3":"Unknown","ENGTYPE_3":"Unknown","CC_3":"NA","HASC_3":"NA","name":"n.a.(2708).city"},
"geometry":{"type": "MultiPolygon","coordinates": [[[[35.3133,-15.9893,665.9603],[35.3305,-15.9892,694.0784],[35.3278,-15.9927,689.6933],[35.3456,-15.9869,716.1138],[35.3452,-15.9833,716.7468],[35.3499,-15.9818,713.9365],[35.3413,-15.9779,704.7183],[35.3415,-15.975,702.9605],[35.346,-15.968,690.5665],[35.3465,-15.9626,685.047],[35.3523,-15.9627,691.0339],[35.3506,-15.9583,696.2197],[35.3533,-15.9561,698.5853],[35.3536,-15.9525,699.6038],[35.3445,-15.9502,680.1365],[35.3401,-15.9515,680.6786],[35.3366,-15.9535,678.3281],[35.3371,-15.9579,676.4022],[35.3341,-15.9606,683.0893],[35.3263,-15.9604,679.3452],[35.3191,-15.9688,673.8097],[35.319,-15.9715,682.0522],[35.3135,-15.9747,680.2293],[35.3138,-15.9764,683.7994],[35.3187,-15.9792,696.2939],[35.3126,-15.9871,671.1155],[35.3133,-15.9893,665.9603]]]]}}