{"type": "Feature","bbox": [35.3063,-15.5633,35.3621,-15.5309],"geometry": {"type": "MultiPolygon","coordinates": [[[[35.3063,-15.5356,866.5454],[35.3092,-15.5371,866.0187],[35.3101,-15.5416,862.1089],[35.3177,-15.5479,835.4945],[35.328,-15.5511,808.5585],[35.329,-15.5539,804.0575],[35.3384,-15.5633,792.2719],[35.3412,-15.5629,786.5389],[35.3489,-15.5527,784.28],[35.3557,-15.5481,770.2482],[35.3621,-15.5385,779.1906],[35.3559,-15.5324,782.5248],[35.3506,-15.5409,784.6809],[35.3364,-15.5466,802.4826],[35.3314,-15.5436,816.8861],[35.332,-15.5399,810.7436],[35.3294,-15.5391,817.3162],[35.3271,-15.535,828.6228],[35.3223,-15.5324,831.776],[35.3125,-15.5309,853.3287],[35.3063,-15.5356,866.5454]]]]}
,"properties": {"GID_3": "MWI.28.2.10_1","GID_0": "MWI","country": "Malawi","GID_1": "MWI.28_1","province": "Zomba","NL_NAME_1": "NA","GID_2": "MWI.28.2_1","county": "SCMbiza","NL_NAME_2": "NA","city": "n.a.(2293)","VARNAME_3": "NA","NL_NAME_3": "NA","TYPE_3": "Unknown","ENGTYPE_3": "Unknown","CC_3": "NA","HASC_3": "NA","name": "n.a.(2293).city","area_km2": 8.763014,"hist_schema_id": "Elevation0-9000","hist_area_km2": {"775": 1.736267,"800": 3.247737,"825": 2.022262,"850": 1.695467,"875": 0.061282}}}