{"type":"Feature","properties":{"GID_2":"MWI.14.3_1","GID_0":"MWI","country":"Malawi","GID_1":"MWI.14_1","province":"Mchinji","NL_NAME_1":"NA","county":"SCMavwere","VARNAME_2":"NA","NL_NAME_2":"NA","TYPE_2":"Sub-chief","ENGTYPE_2":"Sub-chief","CC_2":"NA","HASC_2":"NA","name":"S_C_Mavwere.county"},
"geometry":{"type": "MultiPolygon","coordinates": [[[[33.3485,-14.0934,1158.2058],[33.3464,-14.0935,1166.8682],[33.3468,-14.0916,1162.1345],[33.3519,-14.0847,1154.8086],[33.35,-14.0744,1148.2383],[33.3515,-14.0703,1136.4814],[33.3303,-14.0347,1128.9651],[33.3339,-14.0261,1116.2209],[33.3489,-14.0245,1113.7173],[33.3535,-14.0205,1111.1838],[33.3545,-14.0166,1111.5199],[33.3514,-14.0158,1121.6865],[33.3529,-14.007,1121.4817],[33.3519,-14.0006,1103.5107],[33.3436,-13.9888,1101.2789],[33.3373,-13.9723,1091.5867],[33.3338,-13.9697,1092.1174],[33.3139,-13.945,1078.6387],[33.3141,-13.9389,1085.931],[33.303,-13.9268,1083.6886],[33.3016,-13.9086,1070.0077],[33.2987,-13.9056,1074.4878],[33.2948,-13.8928,1069.0658],[33.2823,-13.8917,1064.9919],[33.2742,-13.885,1061.1926],[33.2697,-13.8791,1063.2814],[33.2639,-13.8759,1059.4261],[33.262,-13.8693,1059.5399],[33.2613,-13.852,1062.079],[33.2494,-13.8406,1057.8395],[33.2464,-13.8345,1059.6815],[33.245,-13.8255,1059.3867],[33.2391,-13.8327,1059.8466],[33.2256,-13.8247,1058.7864],[33.2158,-13.8245,1057.9752],[33.2068,-13.8267,1059.0583],[33.199,-13.8346,1058.7673],[33.1863,-13.8404,1059.6376],[33.1676,-13.8622,1061.2346],[33.1628,-13.8779,1061.3916],[33.1573,-13.8803,1060.5519],[33.148,-13.881,1060.3218],[33.1351,-13.8902,1060.1187],[33.134,-13.9046,1062.8071],[33.1361,-13.9191,1064.7046],[33.1337,-13.924,1063.814],[33.1278,-13.9286,1062.8599],[33.1211,-13.9291,1064.2533],[33.1101,-13.9245,1063.2625],[33.093,-13.9279,1072.0975],[33.0718,-13.9239,1076.5935],[33.0627,-13.9246,1082.2632],[33.0583,-13.9269,1083.8519],[33.051,-13.933,1081.7623],[33.0373,-13.9499,1096.1475],[33.0204,-13.9632,1111.9812],[33.0145,-13.9757,1124.4388],[33.0056,-13.9859,1138.7201],[33.0018,-13.9985,1152.8617],[32.9947,-14.0064,1179.5667],[33.0006,-14.0185,1159.7625],[33.0067,-14.0191,1153.6447],[33.0228,-14.0363,1130.1055],[33.0327,-14.0422,1131.9209],[33.0376,-14.0429,1129.4819],[33.0456,-14.0356,1133.4084],[33.0549,-14.0204,1124.604],[33.0571,-14.0153,1113.8816],[33.0607,-13.9936,1105.2307],[33.0672,-13.9837,1085.749],[33.0822,-13.9693,1085.6764],[33.1,-13.9574,1096.4497],[33.1199,-13.9547,1097.6458],[33.1293,-13.9493,1087.7228],[33.137,-13.9412,1076.8844],[33.1443,-13.9389,1084.8688],[33.1516,-13.9412,1095.6462],[33.1687,-13.9526,1082.3156],[33.1858,-13.9593,1097.6317],[33.1951,-13.9786,1096.7178],[33.2066,-13.9878,1102.5161],[33.2216,-13.9934,1122.6356],[33.2401,-13.9937,1135.6666],[33.2414,-13.9969,1148.1415],[33.2402,-13.9982,1151.5803],[33.2478,-14.0047,1141.8252],[33.2548,-14.0081,1134.678],[33.2566,-14.0187,1133.5249],[33.2594,-14.0223,1136.9194],[33.2678,-14.0246,1145.8677],[33.2814,-14.0226,1147.9934],[33.2888,-14.0299,1150.5364],[33.2959,-14.0318,1166.0569],[33.2981,-14.0342,1168.7335],[33.3036,-14.048,1162.0605],[33.3032,-14.0546,1163.3932],[33.305,-14.0609,1162.5806],[33.3174,-14.0775,1174.2206],[33.3196,-14.0842,1169.0363],[33.3173,-14.0896,1170.1996],[33.3052,-14.1046,1195.698],[33.305,-14.1087,1201.64],[33.3103,-14.1178,1225.1781],[33.3103,-14.1205,1255.6855],[33.3092,-14.1226,1267.4152],[33.3008,-14.1264,1294.2173],[33.3014,-14.1314,1302.5074],[33.2969,-14.1397,1343.0337],[33.2975,-14.1453,1332.9611],[33.299,-14.1476,1338.7594],[33.3078,-14.1521,1305.3851],[33.3097,-14.1619,1350.609],[33.315,-14.163,1337.4371],[33.3288,-14.1819,1317.5847],[33.3367,-14.1993,1433.1257],[33.3379,-14.2059,1437.09],[33.342,-14.2124,1394.8656],[33.3459,-14.2144,1358.8693],[33.3479,-14.2124,1351.7271],[33.3454,-14.2052,1296.1738],[33.355,-14.1952,1263.6652],[33.3541,-14.1711,1223.3879],[33.3404,-14.1491,1197.1199],[33.3354,-14.144,1195.5916],[33.3326,-14.128,1192.9265],[33.3391,-14.1172,1169.6642],[33.3445,-14.1043,1154.8315],[33.3488,-14.0998,1152.675],[33.3496,-14.0942,1154.894],[33.3485,-14.0934,1158.2058]]]]}}