{"type":"Feature","properties":{"GID_3":"MWI.14.4.5_1","GID_0":"MWI","country":"Malawi","GID_1":"MWI.14_1","province":"Mchinji","NL_NAME_1":"NA","GID_2":"MWI.14.4_1","county":"SCMduwa","NL_NAME_2":"NA","city":"n.a.(790)","VARNAME_3":"NA","NL_NAME_3":"NA","TYPE_3":"Unknown","ENGTYPE_3":"Unknown","CC_3":"NA","HASC_3":"NA","name":"n.a.(790).city"},
"geometry":{"type": "MultiPolygon","coordinates": [[[[33.0751,-13.6416,1131.1985],[33.0661,-13.653,1118.4299],[33.048,-13.6528,1105.8832],[33.0448,-13.6558,1112.8307],[33.0435,-13.6597,1177.7646],[33.0439,-13.6671,1227.4678],[33.048,-13.6675,1210.5153],[33.0507,-13.6734,1136.7694],[33.0596,-13.6803,1124.8165],[33.064,-13.6804,1122.3759],[33.0629,-13.6941,1142.4609],[33.0639,-13.7034,1128.396],[33.0607,-13.7127,1123.9182],[33.0724,-13.7096,1116.6642],[33.0777,-13.7042,1117.181],[33.0797,-13.6978,1124.0463],[33.0757,-13.6936,1133.2188],[33.0758,-13.6855,1135.2653],[33.0769,-13.6821,1132.4094],[33.0809,-13.681,1128.0179],[33.0824,-13.66,1112.2783],[33.1024,-13.6536,1104.9282],[33.0989,-13.6379,1117.4271],[33.0751,-13.6416,1131.1985]]]]}}