{"type":"Feature","properties":{"GID_3":"MWI.6.10.4_1","GID_0":"MWI","country":"Malawi","GID_1":"MWI.6_1","province":"Dedza","NL_NAME_1":"NA","GID_2":"MWI.6.10_1","county":"TATambala","NL_NAME_2":"NA","city":"n.a.(1129)","VARNAME_3":"NA","NL_NAME_3":"NA","TYPE_3":"Unknown","ENGTYPE_3":"Unknown","CC_3":"NA","HASC_3":"NA","name":"n.a.(1129).city"},
"geometry":{"type": "MultiPolygon","coordinates": [[[[34.1703,-14.0454,1085.619],[34.1739,-14.0473,1088.4875],[34.1771,-14.0454,1100.0188],[34.1845,-14.0475,1119.9186],[34.198,-14.0439,1097.2115],[34.1977,-14.0353,1075.1147],[34.2017,-14.0348,1057.4556],[34.2043,-14.0244,1016.0013],[34.2062,-14.0228,1005.7491],[34.2146,-14.0195,1040.6115],[34.2198,-14.0198,1066.7047],[34.2273,-14.0108,1119.9939],[34.2328,-14.0107,1168.1138],[34.2413,-14.014,1188.6587],[34.2413,-14.011,1175.6252],[34.2325,-14.0036,1183.4928],[34.2326,-13.9981,1080.6018],[34.2289,-13.9928,937.2879],[34.2262,-13.9915,872.3114],[34.2235,-13.992,994.3846],[34.2193,-14.0037,1011.6865],[34.1981,-14.0096,1025.1055],[34.1909,-14.0157,1062.6565],[34.1841,-14.0155,1071.1028],[34.1783,-14.0108,1036.5088],[34.1731,-14.0093,998.8604],[34.169,-14.0223,1023.1082],[34.1667,-14.0253,1030.5747],[34.1621,-14.0267,1031.2814],[34.1532,-14.024,1060.835],[34.1492,-14.0245,1070.3678],[34.1606,-14.0435,1085.6296],[34.1703,-14.0454,1085.619]]]]}}