{"type": "Feature","bbox": [35.2538,-14.2975,35.3017,-14.2423],"geometry": {"type": "MultiPolygon","coordinates": [[[[35.2538,-14.2565,485.2767],[35.2559,-14.2626,484.6185],[35.2585,-14.2847,479.4238],[35.265,-14.2954,480.3727],[35.2732,-14.2934,484.7439],[35.2817,-14.2975,493.9171],[35.2886,-14.2941,505.5861],[35.3017,-14.2928,543.6163],[35.2988,-14.2751,547.3923],[35.2988,-14.255,541.9916],[35.2964,-14.2423,541.049],[35.2879,-14.245,531.1673],[35.281,-14.2494,521.2833],[35.2755,-14.2478,512.5999],[35.2581,-14.2536,489.2884],[35.2538,-14.2565,485.2767]]]]}
,"properties": {"GID_3": "MWI.13.5.2_1","GID_0": "MWI","country": "Malawi","GID_1": "MWI.13_1","province": "Mangochi","NL_NAME_1": "NA","GID_2": "MWI.13.5_1","county": "SCChowe","NL_NAME_2": "NA","city": "n.a.(1401)","VARNAME_3": "NA","NL_NAME_3": "NA","TYPE_3": "Unknown","ENGTYPE_3": "Unknown","CC_3": "NA","HASC_3": "NA","name": "n.a.(1401).city","area_km2": 23.34244,"hist_schema_id": "Elevation0-9000","hist_area_km2": {"475": 2.99989,"500": 11.19852,"525": 7.39741,"550": 1.74661}}}