{"type":"Feature","properties":{"GID_3":"MWI.28.7.4_1","GID_0":"MWI","country":"Malawi","GID_1":"MWI.28_1","province":"Zomba","NL_NAME_1":"NA","GID_2":"MWI.28.7_1","county":"TAMlumbe","NL_NAME_2":"NA","city":"n.a.(2079)","VARNAME_3":"NA","NL_NAME_3":"NA","TYPE_3":"Unknown","ENGTYPE_3":"Unknown","CC_3":"NA","HASC_3":"NA","name":"n.a.(2079).city"},
"geometry":{"type": "MultiPolygon","coordinates": [[[[35.2759,-15.2499,815.6165],[35.267,-15.2485,743.9215],[35.2565,-15.2439,685.6396],[35.2396,-15.2414,638.4211],[35.2341,-15.2514,627.4043],[35.2364,-15.2565,637.9244],[35.241,-15.26,650.6061],[35.2535,-15.2612,696.019],[35.2687,-15.2676,869.4761],[35.2759,-15.2499,815.6165]]]]}}