{"type":"Feature","properties":{"GID_3":"MWI.4.7.11_1","GID_0":"MWI","country":"Malawi","GID_1":"MWI.4_1","province":"Chiradzulu","NL_NAME_1":"NA","GID_2":"MWI.4.7_1","county":"TANkalo","NL_NAME_2":"NA","city":"n.a.(2704)","VARNAME_3":"NA","NL_NAME_3":"NA","TYPE_3":"Unknown","ENGTYPE_3":"Unknown","CC_3":"NA","HASC_3":"NA","name":"n.a.(2704).city"},
"geometry":{"type": "MultiPolygon","coordinates": [[[[35.2938,-15.947,700.3333],[35.2828,-15.9484,714.2987],[35.2795,-15.945,724.9391],[35.2724,-15.9509,760.4602],[35.2783,-15.9606,737.1012],[35.2868,-15.9615,719.8372],[35.2914,-15.9644,709.9847],[35.2913,-15.9705,712.3456],[35.2889,-15.9748,728.708],[35.2933,-15.9751,715.9275],[35.3005,-15.9797,679.8906],[35.306,-15.9798,669.9592],[35.3086,-15.9751,673.7805],[35.3055,-15.9734,673.4892],[35.3062,-15.9665,684.7267],[35.3028,-15.9655,678.4504],[35.3026,-15.96,682.1613],[35.3012,-15.9588,691.7639],[35.3061,-15.951,691.1196],[35.3065,-15.9473,693.6171],[35.2938,-15.947,700.3333]]]]}}