{"type":"Feature","properties":{"GID_3":"MWI.26.4.4_1","GID_0":"MWI","country":"Malawi","GID_1":"MWI.26_1","province":"Salima","NL_NAME_1":"NA","GID_2":"MWI.26.4_1","county":"SCKambwiri","NL_NAME_2":"NA","city":"n.a.(945)","VARNAME_3":"NA","NL_NAME_3":"NA","TYPE_3":"Unknown","ENGTYPE_3":"Unknown","CC_3":"NA","HASC_3":"NA","name":"n.a.(945).city"},
"geometry":{"type": "MultiPolygon","coordinates": [[[[34.4342,-13.7837,501.5103],[34.4298,-13.7915,504.8857],[34.429,-13.8008,520.6418],[34.4414,-13.8074,513.7329],[34.4346,-13.8232,518.8154],[34.4383,-13.8312,515.2682],[34.4361,-13.8305,516.781],[34.435,-13.8317,521.2597],[34.4443,-13.8506,509.9973],[34.448,-13.8661,513.6515],[34.4528,-13.8754,516.4347],[34.4701,-13.8736,502.7738],[34.4693,-13.826,498.3301],[34.4654,-13.818,500.0052],[34.4691,-13.8146,496.5257],[34.4694,-13.8124,498.7256],[34.4661,-13.8131,498.1825],[34.4623,-13.8093,499.0615],[34.4557,-13.8091,498.4889],[34.453,-13.8071,500.5065],[34.453,-13.8037,501.6017],[34.458,-13.8002,501.0584],[34.4583,-13.793,496.0],[34.4594,-13.7927,501.2815],[34.4473,-13.785,505.0392],[34.437,-13.7893,504.4341],[34.4342,-13.7837,501.5103]]]]}}