{"type":"Feature","properties":{"GID_3":"MWI.26.7.15_1","GID_0":"MWI","country":"Malawi","GID_1":"MWI.26_1","province":"Salima","NL_NAME_1":"NA","GID_2":"MWI.26.7_1","county":"TAKhombedza","NL_NAME_2":"NA","city":"n.a.(762)","VARNAME_3":"NA","NL_NAME_3":"NA","TYPE_3":"Unknown","ENGTYPE_3":"Unknown","CC_3":"NA","HASC_3":"NA","name":"n.a.(762).city"},
"geometry":{"type": "MultiPolygon","coordinates": [[[[34.3593,-13.6363,514.3397],[34.362,-13.6298,514.043],[34.3605,-13.6192,512.747],[34.3513,-13.6206,516.3173],[34.3333,-13.6266,532.6816],[34.3226,-13.6145,531.1486],[34.3205,-13.6059,533.7762],[34.312,-13.606,539.0576],[34.3088,-13.6085,541.1064],[34.2935,-13.6134,555.8771],[34.2966,-13.6294,551.9104],[34.2847,-13.6394,569.1343],[34.2782,-13.6485,573.0018],[34.2764,-13.6557,576.9808],[34.2712,-13.6606,587.0565],[34.277,-13.666,588.1677],[34.2921,-13.6562,569.1927],[34.3277,-13.6409,535.9102],[34.3503,-13.6365,520.0316],[34.3593,-13.6363,514.3397]]]]}}