{"type":"Feature","properties":{"GID_3":"MWI.7.5.8_1","GID_0":"MWI","country":"Malawi","GID_1":"MWI.7_1","province":"Dowa","NL_NAME_1":"NA","GID_2":"MWI.7.5_1","county":"SCMkukula","NL_NAME_2":"NA","city":"n.a.(843)","VARNAME_3":"NA","NL_NAME_3":"NA","TYPE_3":"Unknown","ENGTYPE_3":"Unknown","CC_3":"NA","HASC_3":"NA","name":"n.a.(843).city"},
"geometry":{"type": "MultiPolygon","coordinates": [[[[33.9458,-13.7242,1209.052],[33.9485,-13.7268,1205.3804],[33.9503,-13.7338,1184.9854],[33.9451,-13.736,1188.2432],[33.9467,-13.7446,1175.9691],[33.9446,-13.7513,1145.682],[33.9411,-13.754,1129.9076],[33.9511,-13.7672,1096.9423],[33.9513,-13.7741,1088.1827],[33.9473,-13.776,1084.7754],[33.9502,-13.7799,1074.3049],[33.9481,-13.7812,1068.2078],[33.9521,-13.7863,1060.2197],[33.9575,-13.7881,1063.0059],[33.9571,-13.7862,1071.411],[33.9598,-13.7849,1063.5071],[33.9679,-13.7877,1061.8578],[33.9699,-13.7844,1075.4777],[33.9725,-13.7833,1061.156],[33.9787,-13.7917,1029.4688],[33.9843,-13.7912,1033.4326],[33.9877,-13.7871,1036.7803],[33.9837,-13.7842,1052.1617],[33.9834,-13.7805,1056.7625],[33.9887,-13.7746,1081.6663],[33.9838,-13.7701,1102.381],[33.9867,-13.7679,1089.379],[33.9862,-13.7656,1087.4592],[33.9792,-13.7588,1123.5817],[33.9798,-13.749,1149.4833],[33.9753,-13.7334,1191.299],[33.9766,-13.7248,1256.0327],[33.9673,-13.7237,1362.9619],[33.968,-13.7183,1336.2649],[33.9732,-13.712,1329.5001],[33.9751,-13.705,1330.2592],[33.9748,-13.701,1321.5211],[33.9673,-13.6943,1336.3721],[33.9661,-13.6886,1368.5914],[33.9604,-13.6914,1340.6547],[33.954,-13.6888,1406.381],[33.9495,-13.6894,1417.7971],[33.9499,-13.6954,1326.0317],[33.9438,-13.7022,1303.2211],[33.9417,-13.7074,1325.5088],[33.9453,-13.7167,1216.9703],[33.952,-13.718,1303.7117],[33.9466,-13.7216,1213.395],[33.9458,-13.7242,1209.052]]]]}}