{"type": "Feature","bbox": [34.0217,-13.5349,34.1272,-13.4508],"geometry": {"type": "MultiPolygon","coordinates": [[[[34.0526,-13.5335,859.45],[34.056,-13.5322,871.2329],[34.0588,-13.5343,833.3741],[34.0642,-13.5349,824.3893],[34.0735,-13.5317,795.9382],[34.0766,-13.5336,799.1239],[34.0803,-13.5334,772.3812],[34.0968,-13.5232,746.6339],[34.1025,-13.5213,735.8301],[34.1052,-13.5146,726.9167],[34.1095,-13.5153,725.2229],[34.1119,-13.5128,732.9693],[34.1156,-13.5123,717.1978],[34.1165,-13.5081,717.2922],[34.1203,-13.5063,715.7762],[34.1204,-13.5035,727.6579],[34.1272,-13.5029,700.9851],[34.114,-13.4508,689.9668],[34.111,-13.4667,721.051],[34.1019,-13.4727,750.3644],[34.0979,-13.4735,732.5073],[34.0956,-13.4783,747.8359],[34.0808,-13.4753,870.5077],[34.0734,-13.471,940.2654],[34.0739,-13.4673,948.9408],[34.0593,-13.4621,1008.8011],[34.0523,-13.4624,1060.7932],[34.0476,-13.4661,1081.9312],[34.0459,-13.4621,1085.8308],[34.0444,-13.4619,1085.8308],[34.0479,-13.4877,1016.1038],[34.0407,-13.4967,988.4449],[34.0239,-13.4955,1017.4929],[34.0254,-13.4997,1078.152],[34.0217,-13.503,1087.509],[34.0263,-13.5053,1005.8214],[34.0337,-13.5059,972.4518],[34.0307,-13.5197,1045.3147],[34.0316,-13.524,1027.3895],[34.0356,-13.5258,944.2535],[34.0392,-13.5252,954.8612],[34.0421,-13.5289,984.6411],[34.0463,-13.5279,907.5007],[34.0492,-13.5329,882.3801],[34.0526,-13.5335,859.45]]]]}
,"properties": {"GID_3": "MWI.23.4.6_1","GID_0": "MWI","country": "Malawi","GID_1": "MWI.23_1","province": "Ntchisi","NL_NAME_1": "NA","GID_2": "MWI.23.4_1","county": "TAChikho","NL_NAME_2": "NA","city": "n.a.(653)","VARNAME_3": "NA","NL_NAME_3": "NA","TYPE_3": "Unknown","ENGTYPE_3": "Unknown","CC_3": "NA","HASC_3": "NA","name": "n.a.(653).city","area_km2": 58.79819,"hist_schema_id": "Elevation0-9000","hist_area_km2": {"675": 0.1031,"700": 0.96908,"725": 3.85542,"750": 5.91707,"775": 6.63851,"800": 5.23649,"825": 5.60744,"850": 4.22619,"875": 3.91697,"900": 2.5976,"925": 3.5254,"950": 3.58732,"975": 3.89666,"1000": 4.0203,"1025": 2.57706,"1050": 1.23701,"1075": 0.65976,"1100": 0.18556,"1125": 0.04123}}}