{"type":"Feature","properties":{"GID_3":"MWI.24.3.16_1","GID_0":"MWI","country":"Malawi","GID_1":"MWI.24_1","province":"Phalombe","NL_NAME_1":"NA","GID_2":"MWI.24.3_1","county":"TANazombe","NL_NAME_2":"NA","city":"n.a.(2506)","VARNAME_3":"NA","NL_NAME_3":"NA","TYPE_3":"Unknown","ENGTYPE_3":"Unknown","CC_3":"NA","HASC_3":"NA","name":"n.a.(2506).city"},
"geometry":{"type": "MultiPolygon","coordinates": [[[[35.7346,-15.7475,755.0538],[35.7378,-15.7547,805.5299],[35.7378,-15.7612,815.2859],[35.748,-15.7707,802.2032],[35.758,-15.7691,758.9638],[35.762,-15.7742,735.21],[35.7682,-15.7733,723.7386],[35.7692,-15.7708,724.3466],[35.7663,-15.7649,748.0524],[35.7593,-15.7662,752.249],[35.7575,-15.7595,769.1802],[35.7512,-15.7511,812.2293],[35.7511,-15.7482,827.2354],[35.7535,-15.7448,831.8247],[35.7506,-15.7423,868.5386],[35.7459,-15.7389,868.2522],[35.7346,-15.7475,755.0538]]]]}}