{"type": "Feature","bbox": [33.9078,-13.4142,33.9674,-13.3507],"geometry": {"type": "MultiPolygon","coordinates": [[[[33.9179,-13.3602,1396.4397],[33.9186,-13.3624,1393.6532],[33.9113,-13.3682,1348.6737],[33.9111,-13.3719,1328.488],[33.9078,-13.374,1319.9216],[33.9124,-13.3871,1340.0157],[33.914,-13.4051,1400.7234],[33.9165,-13.4142,1423.5736],[33.9301,-13.4114,1483.4985],[33.9475,-13.4139,1467.7067],[33.9519,-13.4011,1413.8848],[33.9601,-13.394,1353.1659],[33.9674,-13.3803,1328.7329],[33.9638,-13.3764,1382.3118],[33.9544,-13.3815,1435.1155],[33.9459,-13.3812,1503.1147],[33.9449,-13.3775,1451.6422],[33.9487,-13.3712,1437.8911],[33.9347,-13.3524,1338.0129],[33.9303,-13.3507,1346.349],[33.9179,-13.3602,1396.4397]]]]}
,"properties": {"GID_3": "MWI.23.5.13_1","GID_0": "MWI","country": "Malawi","GID_1": "MWI.23_1","province": "Ntchisi","NL_NAME_1": "NA","GID_2": "MWI.23.5_1","county": "TAKalumo","NL_NAME_2": "NA","city": "n.a.(595)","VARNAME_3": "NA","NL_NAME_3": "NA","TYPE_3": "Unknown","ENGTYPE_3": "Unknown","CC_3": "NA","HASC_3": "NA","name": "n.a.(595).city","area_km2": 26.75222,"hist_schema_id": "Elevation0-9000","hist_area_km2": {"1300": 0.02063,"1325": 1.2789,"1350": 2.99094,"1375": 3.93977,"1400": 4.24911,"1425": 3.96023,"1450": 3.52696,"1475": 2.47502,"1500": 2.04188,"1525": 1.34064,"1550": 0.68063,"1575": 0.22688,"1600": 0.02063}}}