{"type": "Feature","bbox": [35.0342,-15.2322,35.0837,-15.1641],"geometry": {"type": "MultiPolygon","coordinates": [[[[35.0506,-15.1656,504.1228],[35.0447,-15.1641,512.3724],[35.0342,-15.1744,518.9146],[35.0403,-15.2108,503.5421],[35.0555,-15.2322,495.3085],[35.0606,-15.222,504.097],[35.0648,-15.2195,504.8261],[35.0753,-15.2176,494.1096],[35.0789,-15.2108,494.6281],[35.0837,-15.2072,488.9127],[35.0827,-15.2057,492.6495],[35.0732,-15.2036,499.2111],[35.0769,-15.2013,491.6127],[35.076,-15.1982,496.1288],[35.0691,-15.1943,493.124],[35.0682,-15.192,494.2379],[35.0668,-15.1929,500.1336],[35.064,-15.1915,500.1361],[35.0516,-15.1802,515.6175],[35.0481,-15.1742,516.2613],[35.0506,-15.1656,504.1228]]]]}
,"properties": {"GID_3": "MWI.1.3.43_1","GID_0": "MWI","country": "Malawi","GID_1": "MWI.1_1","province": "Balaka","NL_NAME_1": "NA","GID_2": "MWI.1.3_1","county": "TANsamala","NL_NAME_2": "NA","city": "n.a.(2036)","VARNAME_3": "NA","NL_NAME_3": "NA","TYPE_3": "Unknown","ENGTYPE_3": "Unknown","CC_3": "NA","HASC_3": "NA","name": "n.a.(2036).city","area_km2": 18.31216,"hist_schema_id": "Elevation0-9000","hist_area_km2": {"500": 14.056,"525": 4.25615}}}