{"type": "Feature","bbox": [35.3075,-15.8051,35.3588,-15.7668],"geometry": {"type": "MultiPolygon","coordinates": [[[[35.3087,-15.7809,774.8653],[35.3116,-15.8051,771.8672],[35.321,-15.8006,762.3658],[35.3275,-15.802,756.2924],[35.3311,-15.801,752.3035],[35.3528,-15.7919,738.8353],[35.3588,-15.7873,737.9534],[35.3552,-15.7798,740.6529],[35.3553,-15.7744,743.9274],[35.3518,-15.7668,748.2462],[35.3501,-15.772,746.6603],[35.3462,-15.7744,749.3823],[35.3338,-15.7729,755.839],[35.3271,-15.7685,760.5399],[35.3218,-15.7706,764.3414],[35.3146,-15.7776,764.6161],[35.3075,-15.7728,768.2868],[35.3087,-15.7809,774.8653]]]]}
,"properties": {"GID_3": "MWI.15.3.15_1","GID_0": "MWI","country": "Malawi","GID_1": "MWI.15_1","province": "Mulanje","NL_NAME_1": "NA","GID_2": "MWI.15.3_1","county": "SCJuma","NL_NAME_2": "NA","city": "n.a.(2539)","VARNAME_3": "NA","NL_NAME_3": "NA","TYPE_3": "Unknown","ENGTYPE_3": "Unknown","CC_3": "NA","HASC_3": "NA","name": "n.a.(2539).city","area_km2": 14.34302,"hist_schema_id": "Elevation0-9000","hist_area_km2": {"750": 11.28268,"775": 3.06034}}}