{"type":"Feature","properties":{"GID_3":"MWI.6.6.14_1","GID_0":"MWI","country":"Malawi","GID_1":"MWI.6_1","province":"Dedza","NL_NAME_1":"NA","GID_2":"MWI.6.6_1","county":"TAKachindamoto","NL_NAME_2":"NA","city":"n.a.(1414)","VARNAME_3":"NA","NL_NAME_3":"NA","TYPE_3":"Unknown","ENGTYPE_3":"Unknown","CC_3":"NA","HASC_3":"NA","name":"n.a.(1414).city"},
"geometry":{"type": "MultiPolygon","coordinates": [[[[34.5272,-14.2697,542.5691],[34.5273,-14.2739,542.5919],[34.5248,-14.2766,538.2181],[34.518,-14.2787,542.4037],[34.5155,-14.2836,568.3134],[34.5079,-14.2875,605.7896],[34.5084,-14.2915,616.7924],[34.5018,-14.3104,653.3381],[34.5033,-14.3167,659.0525],[34.5086,-14.3075,658.0137],[34.5176,-14.3,604.019],[34.5244,-14.2867,533.7294],[34.5294,-14.2855,532.3331],[34.5426,-14.275,525.361],[34.5531,-14.2751,519.2721],[34.5657,-14.2708,512.9929],[34.561,-14.2592,513.259],[34.5581,-14.2558,517.9711],[34.5455,-14.2587,522.6768],[34.5339,-14.2645,533.9204],[34.5272,-14.2697,542.5691]]]]}}