{"type": "Feature","bbox": [33.8731,-13.4097,33.9158,-13.3676],"geometry": {"type": "MultiPolygon","coordinates": [[[[33.8732,-13.3821,1309.3667],[33.8731,-13.3982,1326.6497],[33.8745,-13.4018,1340.6309],[33.8849,-13.3992,1328.6707],[33.8921,-13.4028,1375.3826],[33.8973,-13.4088,1366.9836],[33.906,-13.4078,1414.422],[33.9158,-13.4097,1407.0641],[33.914,-13.4051,1400.7234],[33.9122,-13.3861,1331.598],[33.9071,-13.3728,1331.6598],[33.9024,-13.3721,1317.7782],[33.8981,-13.3684,1306.163],[33.8892,-13.3691,1281.1359],[33.8827,-13.3676,1269.6313],[33.8846,-13.3711,1274.8633],[33.8847,-13.3808,1289.0565],[33.8732,-13.3821,1309.3667]]]]}
,"properties": {"GID_3": "MWI.23.5.14_1","GID_0": "MWI","country": "Malawi","GID_1": "MWI.23_1","province": "Ntchisi","NL_NAME_1": "NA","GID_2": "MWI.23.5_1","county": "TAKalumo","NL_NAME_2": "NA","city": "n.a.(604)","VARNAME_3": "NA","NL_NAME_3": "NA","TYPE_3": "Unknown","ENGTYPE_3": "Unknown","CC_3": "NA","HASC_3": "NA","name": "n.a.(604).city","area_km2": 14.37626,"hist_schema_id": "Elevation0-9000","hist_area_km2": {"1275": 0.84572,"1300": 3.71279,"1325": 4.06332,"1350": 2.2482,"1375": 1.71189,"1400": 1.01062,"1425": 0.76311,"1450": 0.02062}}}