{"type": "Feature","bbox": [35.4314,-16.1052,35.4559,-16.0608],"geometry": {"type": "MultiPolygon","coordinates": [[[[35.4339,-16.0717,621.1546],[35.4314,-16.077,611.7523],[35.4369,-16.0774,623.777],[35.4387,-16.0846,599.4962],[35.432,-16.0946,583.7826],[35.4342,-16.1023,569.4562],[35.4368,-16.1052,555.5992],[35.4421,-16.0994,567.3156],[35.4433,-16.0959,575.2823],[35.4521,-16.0934,571.4139],[35.4548,-16.0909,564.7091],[35.4559,-16.0874,568.9764],[35.454,-16.0858,567.6752],[35.4557,-16.0826,578.8736],[35.4538,-16.0808,574.5799],[35.4528,-16.0759,580.4938],[35.4551,-16.0608,592.5305],[35.4516,-16.0612,615.804],[35.4458,-16.0662,621.5582],[35.4361,-16.0669,639.4366],[35.4339,-16.0717,621.1546]]]]}
,"properties": {"GID_3": "MWI.15.6.23_1","GID_0": "MWI","country": "Malawi","GID_1": "MWI.15_1","province": "Mulanje","NL_NAME_1": "NA","GID_2": "MWI.15.6_1","county": "TAMabuka","NL_NAME_2": "NA","city": "n.a.(2858)","VARNAME_3": "NA","NL_NAME_3": "NA","TYPE_3": "Unknown","ENGTYPE_3": "Unknown","CC_3": "NA","HASC_3": "NA","name": "n.a.(2858).city","area_km2": 7.537823,"hist_schema_id": "Elevation0-9000","hist_area_km2": {"550": 0.040741,"575": 2.485333,"600": 3.544851,"625": 1.446524,"650": 0.020374}}}