{"type":"Feature","properties":{"GID_3":"MWI.23.5.17_1","GID_0":"MWI","country":"Malawi","GID_1":"MWI.23_1","province":"Ntchisi","NL_NAME_1":"NA","GID_2":"MWI.23.5_1","county":"TAKalumo","NL_NAME_2":"NA","city":"n.a.(619)","VARNAME_3":"NA","NL_NAME_3":"NA","TYPE_3":"Unknown","ENGTYPE_3":"Unknown","CC_3":"NA","HASC_3":"NA","name":"n.a.(619).city"},
"geometry":{"type": "MultiPolygon","coordinates": [[[[33.8115,-13.4709,1274.7937],[33.8138,-13.4728,1276.8545],[33.8359,-13.4603,1316.5735],[33.849,-13.4662,1365.3823],[33.8563,-13.4607,1369.7091],[33.8638,-13.4582,1414.7434],[33.8571,-13.4483,1379.8108],[33.8595,-13.4457,1382.3396],[33.8536,-13.4379,1370.7338],[33.8445,-13.435,1340.4528],[33.8422,-13.432,1339.4399],[33.8428,-13.4226,1322.045],[33.846,-13.413,1320.9006],[33.8582,-13.3998,1285.8357],[33.8581,-13.3974,1287.5189],[33.8352,-13.4017,1340.6342],[33.8325,-13.4223,1356.2249],[33.8328,-13.433,1377.9445],[33.83,-13.4427,1348.7756],[33.8233,-13.4502,1313.1321],[33.8207,-13.4579,1301.5425],[33.8113,-13.4687,1280.5464],[33.8115,-13.4709,1274.7937]]]]}}