{"type":"Feature","properties":{"GID_3":"MWI.2.3.12_1","GID_0":"MWI","country":"Malawi","GID_1":"MWI.2_1","province":"Blantyre","NL_NAME_1":"NA","GID_2":"MWI.2.3_1","county":"TAKapeni","NL_NAME_2":"NA","city":"n.a.(2383)","VARNAME_3":"NA","NL_NAME_3":"NA","TYPE_3":"Unknown","ENGTYPE_3":"Unknown","CC_3":"NA","HASC_3":"NA","name":"n.a.(2383).city"},
"geometry":{"type": "MultiPolygon","coordinates": [[[[35.0458,-15.6191,747.1586],[35.0456,-15.6279,753.202],[35.0371,-15.6355,749.1417],[35.0327,-15.6416,748.7584],[35.0375,-15.6448,768.9641],[35.0375,-15.6482,783.3645],[35.0466,-15.6562,786.5839],[35.0564,-15.6508,803.7157],[35.0593,-15.6435,798.2896],[35.0701,-15.6348,796.8723],[35.0628,-15.6304,781.1246],[35.0593,-15.6247,786.077],[35.0543,-15.6206,780.2943],[35.0487,-15.6207,762.6956],[35.0458,-15.6191,747.1586]]]]}}