{"type":"Feature","properties":{"GID_3":"MWI.11.16.7_1","GID_0":"MWI","country":"Malawi","GID_1":"MWI.11_1","province":"Lilongwe","NL_NAME_1":"NA","GID_2":"MWI.11.16_1","county":"TAMazengera","NL_NAME_2":"NA","city":"n.a.(1127)","VARNAME_3":"NA","NL_NAME_3":"NA","TYPE_3":"Unknown","ENGTYPE_3":"Unknown","CC_3":"NA","HASC_3":"NA","name":"n.a.(1127).city"},
"geometry":{"type": "MultiPolygon","coordinates": [[[[34.0648,-13.9856,1171.0762],[34.0608,-13.989,1179.2456],[34.052,-13.9874,1158.9871],[34.0533,-13.9941,1161.184],[34.0495,-13.9965,1158.3679],[34.043,-13.9975,1117.4431],[34.0431,-14.0011,1113.2565],[34.0384,-14.0099,1148.0701],[34.0386,-14.0145,1151.8806],[34.0505,-14.0151,1158.323],[34.0497,-14.0322,1190.89],[34.0544,-14.0331,1218.8854],[34.0598,-14.0377,1206.8386],[34.0601,-14.0305,1197.3386],[34.0631,-14.029,1205.17],[34.0692,-14.0199,1218.134],[34.0649,-14.0149,1186.9028],[34.0599,-14.013,1185.6234],[34.0653,-14.0042,1191.2607],[34.0698,-14.0044,1207.5608],[34.0746,-14.008,1213.5792],[34.0794,-13.9963,1237.7185],[34.0751,-13.9912,1201.446],[34.0707,-13.99,1209.5662],[34.0648,-13.9856,1171.0762]]]]}}