{"type":"Feature","properties":{"GID_3":"MWI.24.2.20_1","GID_0":"MWI","country":"Malawi","GID_1":"MWI.24_1","province":"Phalombe","NL_NAME_1":"NA","GID_2":"MWI.24.2_1","county":"TAMkhumba","NL_NAME_2":"NA","city":"n.a.(2401)","VARNAME_3":"NA","NL_NAME_3":"NA","TYPE_3":"Unknown","ENGTYPE_3":"Unknown","CC_3":"NA","HASC_3":"NA","name":"n.a.(2401).city"},
"geometry":{"type": "MultiPolygon","coordinates": [[[[35.7078,-15.6424,653.131],[35.7111,-15.652,660.3726],[35.7076,-15.6554,669.2262],[35.715,-15.6585,665.5274],[35.7234,-15.6646,659.176],[35.7262,-15.6622,658.0675],[35.7253,-15.6582,654.0323],[35.73,-15.6592,654.1364],[35.7403,-15.6505,646.7618],[35.753,-15.6514,641.8912],[35.7594,-15.6491,639.1361],[35.7618,-15.6411,635.2541],[35.7545,-15.6379,636.2592],[35.7407,-15.6368,642.0721],[35.7317,-15.6431,647.6658],[35.7139,-15.6401,648.5098],[35.709,-15.6402,652.3777],[35.7078,-15.6424,653.131]]]]}}