{"type": "Feature","bbox": [35.0623,-13.9944,35.2826,-13.7039],"geometry": {"type": "MultiPolygon","coordinates": [[[[35.0726,-13.7787,474.5],[35.0851,-13.776,492.3057],[35.0921,-13.7704,520.4147],[35.0981,-13.7719,534.8777],[35.1124,-13.8261,539.0617],[35.1224,-13.8468,539.4275],[35.1228,-13.8612,541.9904],[35.1255,-13.8769,508.6293],[35.14,-13.9219,543.577],[35.1529,-13.957,502.7154],[35.1626,-13.9764,516.6913],[35.174,-13.9944,519.7443],[35.1842,-13.9905,564.7356],[35.1922,-13.9932,609.8669],[35.1912,-13.9871,656.7487],[35.1923,-13.9821,644.2946],[35.2003,-13.9818,670.0062],[35.2023,-13.9756,695.4309],[35.2102,-13.9768,711.1161],[35.2135,-13.9718,714.5306],[35.2201,-13.9703,738.405],[35.2316,-13.9715,799.5754],[35.2463,-13.9609,1060.5183],[35.2642,-13.9578,1368.285],[35.2826,-13.9434,1308.1515],[35.2302,-13.8848,1302.4624],[35.0922,-13.7039,679.945],[35.0865,-13.7064,573.2662],[35.0906,-13.7143,576.0641],[35.0915,-13.733,537.9088],[35.0789,-13.735,505.3947],[35.0736,-13.7386,492.5317],[35.0623,-13.7426,474.9413],[35.0678,-13.7563,475.3836],[35.0726,-13.7787,474.5]]]]}
,"properties": {"GID_3": "MWI.13.11.18_1","GID_0": "MWI","country": "Malawi","GID_1": "MWI.13_1","province": "Mangochi","NL_NAME_1": "NA","GID_2": "MWI.13.11_1","county": "TAMakanjila","NL_NAME_2": "NA","city": "n.a.(861)","VARNAME_3": "NA","NL_NAME_3": "NA","TYPE_3": "Unknown","ENGTYPE_3": "Unknown","CC_3": "NA","HASC_3": "NA","name": "n.a.(861).city","area_km2": 259.7686,"hist_schema_id": "Elevation0-9000","hist_area_km2": {"475": 4.9631,"500": 4.4067,"525": 13.2764,"550": 28.369,"575": 26.9479,"600": 21.0803,"625": 16.3241,"650": 12.1245,"675": 10.6212,"700": 9.7561,"725": 11.443,"750": 12.1227,"775": 10.8673,"800": 6.7098,"825": 5.8663,"850": 5.2487,"875": 4.59,"900": 3.4785,"925": 3.5402,"950": 3.4783,"975": 3.5195,"1000": 3.1283,"1025": 2.5931,"1050": 1.8933,"1075": 2.1609,"1100": 2.1607,"1125": 2.0784,"1150": 1.8109,"1175": 1.6669,"1200": 2.3049,"1225": 2.4489,"1250": 3.231,"1275": 3.7866,"1300": 4.1365,"1325": 3.1691,"1350": 1.4816,"1375": 1.852,"1400": 0.7202,"1425": 0.2675,"1450": 0.144}}}