{"type": "Feature","bbox": [34.4457,-13.7905,34.4566,-13.7711],"geometry": {"type": "MultiPolygon","coordinates": [[[[34.4462,-13.7852,505.0392],[34.4566,-13.7905,501.6725],[34.4541,-13.7798,510.4046],[34.4478,-13.7711,508.3487],[34.4457,-13.7797,509.487],[34.4462,-13.7852,505.0392]]]]}
,"properties": {"GID_3": "MWI.26.2.6_1","GID_0": "MWI","country": "Malawi","GID_1": "MWI.26_1","province": "Salima","NL_NAME_1": "NA","GID_2": "MWI.26.2_1","county": "SalimaTown","NL_NAME_2": "NA","city": "n.a.(934)","VARNAME_3": "NA","NL_NAME_3": "NA","TYPE_3": "Unknown","ENGTYPE_3": "Unknown","CC_3": "NA","HASC_3": "NA","name": "n.a.(934).city","area_km2": 1.317875,"hist_schema_id": "Elevation0-9000","hist_area_km2": {"500": 1.2561,"525": 0.061775}}}