{"type":"Feature","properties":{"GID_3":"MWI.2.4.13_1","GID_0":"MWI","country":"Malawi","GID_1":"MWI.2_1","province":"Blantyre","NL_NAME_1":"NA","GID_2":"MWI.2.4_1","county":"TAKuntaja","NL_NAME_2":"NA","city":"n.a.(2447)","VARNAME_3":"NA","NL_NAME_3":"NA","TYPE_3":"Unknown","ENGTYPE_3":"Unknown","CC_3":"NA","HASC_3":"NA","name":"n.a.(2447).city"},
"geometry":{"type": "MultiPolygon","coordinates": [[[[34.9782,-15.7524,1058.1075],[34.9821,-15.7453,945.4531],[34.9832,-15.7361,949.0638],[34.9866,-15.7347,927.4369],[34.9796,-15.7201,973.1998],[34.9819,-15.7139,984.5854],[34.9919,-15.7081,791.587],[34.9772,-15.7057,799.6553],[34.9735,-15.7028,772.1939],[34.9617,-15.7018,769.3853],[34.9566,-15.6954,743.2416],[34.9548,-15.6899,729.1055],[34.9556,-15.6846,721.8552],[34.9479,-15.6814,709.9243],[34.9461,-15.6793,704.2565],[34.9471,-15.6778,705.7361],[34.9383,-15.678,695.929],[34.9353,-15.6763,706.016],[34.9337,-15.6796,695.3539],[34.9355,-15.6834,698.6165],[34.9293,-15.683,691.6973],[34.9253,-15.6922,682.8187],[34.9214,-15.6924,676.7031],[34.919,-15.6945,688.0826],[34.919,-15.7001,669.7488],[34.9161,-15.7039,674.0243],[34.9191,-15.7053,673.0967],[34.9265,-15.701,688.2881],[34.9354,-15.6992,742.0276],[34.9367,-15.7083,752.4785],[34.9437,-15.7115,814.4518],[34.9443,-15.7168,854.0671],[34.9493,-15.7238,1008.0073],[34.9414,-15.7271,891.2998],[34.938,-15.7321,918.6734],[34.9362,-15.7474,967.3467],[34.9296,-15.7558,771.9098],[34.9379,-15.7637,777.2357],[34.9328,-15.767,670.847],[34.933,-15.7715,669.0386],[34.9284,-15.7761,666.1489],[34.9337,-15.7802,746.998],[34.9375,-15.7795,787.4872],[34.9434,-15.7733,841.7368],[34.952,-15.7743,746.0389],[34.9541,-15.7672,837.4589],[34.9643,-15.7643,1016.2759],[34.9632,-15.7607,1124.7959],[34.9747,-15.7453,1227.3805],[34.9788,-15.75,1035.0328],[34.9782,-15.7524,1058.1075]]]]}}