{"type":"Feature","properties":{"GID_3":"MWI.1.3.16_1","GID_0":"MWI","country":"Malawi","GID_1":"MWI.1_1","province":"Balaka","NL_NAME_1":"NA","GID_2":"MWI.1.3_1","county":"TANsamala","NL_NAME_2":"NA","city":"n.a.(1965)","VARNAME_3":"NA","NL_NAME_3":"NA","TYPE_3":"Unknown","ENGTYPE_3":"Unknown","CC_3":"NA","HASC_3":"NA","name":"n.a.(1965).city"},
"geometry":{"type": "MultiPolygon","coordinates": [[[[34.9076,-14.9922,662.4639],[34.8979,-15.0256,661.884],[34.9123,-15.0293,644.8768],[34.9178,-15.0376,631.1483],[34.9481,-15.0457,617.7101],[34.9598,-15.0375,613.0239],[34.9478,-15.0337,622.2554],[34.9336,-15.0249,634.026],[34.9243,-15.0229,644.7786],[34.9237,-15.019,642.9879],[34.9467,-15.0205,608.8206],[34.9617,-15.0197,608.5024],[34.9615,-15.0215,608.5095],[34.9668,-15.021,602.2862],[34.9634,-15.0142,602.9156],[34.9614,-15.0129,608.9454],[34.9513,-15.0141,614.5913],[34.9505,-15.0174,611.9214],[34.9458,-15.0188,613.6232],[34.9426,-15.0165,617.1588],[34.9405,-15.0103,614.0962],[34.9367,-15.0099,615.4396],[34.9364,-15.0044,634.508],[34.9333,-15.0045,631.3548],[34.9287,-15.0094,626.0042],[34.9256,-15.0095,625.5748],[34.9224,-15.0009,647.7806],[34.9158,-14.9987,635.7993],[34.9125,-14.9908,664.4946],[34.9077,-14.9903,685.8274],[34.9076,-14.9922,662.4639]]]]}}