{"type": "Feature","bbox": [34.9386,-14.6003,35.3555,-14.2873],"geometry": {"type": "MultiPolygon","coordinates": [[[[35.2212,-14.5293,475.9858],[35.225,-14.5242,480.1646],[35.2487,-14.5185,477.4767],[35.2573,-14.5212,474.1342],[35.2648,-14.5278,473.5],[35.2668,-14.533,473.5],[35.272,-14.532,474.4149],[35.2733,-14.5198,476.1146],[35.2619,-14.5122,476.3727],[35.2605,-14.5074,473.5],[35.2612,-14.5049,473.5],[35.2702,-14.4971,473.5],[35.2707,-14.4949,474.2882],[35.2638,-14.4958,477.4969],[35.2566,-14.4922,479.4741],[35.2402,-14.492,482.5941],[35.2402,-14.4713,483.8164],[35.2492,-14.4655,480.928],[35.2538,-14.4646,475.6677],[35.2621,-14.4648,473.5],[35.2721,-14.4708,475.3531],[35.2789,-14.4692,482.1399],[35.2719,-14.4691,475.6697],[35.269,-14.4586,475.6156],[35.2608,-14.446,475.8389],[35.2648,-14.4407,475.6298],[35.2891,-14.4431,486.3658],[35.2975,-14.4456,490.966],[35.3044,-14.4425,495.7571],[35.3077,-14.4445,493.3328],[35.3122,-14.4433,496.5123],[35.3247,-14.4471,503.0277],[35.3477,-14.4361,543.969],[35.3525,-14.4358,567.3178],[35.3555,-14.4335,579.0128],[35.348,-14.4212,643.0349],[35.3411,-14.4003,571.387],[35.3397,-14.3997,577.8157],[35.3338,-14.4044,539.9248],[35.3294,-14.403,539.8421],[35.3267,-14.408,526.1649],[35.318,-14.4131,517.4064],[35.3152,-14.4105,518.0424],[35.3168,-14.4081,509.791],[35.3161,-14.4064,508.4471],[35.3124,-14.4043,505.1023],[35.3111,-14.4007,507.1422],[35.3005,-14.3986,502.4013],[35.2965,-14.3994,495.5738],[35.2853,-14.3891,484.2747],[35.2728,-14.388,474.5],[35.2735,-14.3917,474.5],[35.2721,-14.3942,474.5],[35.2565,-14.4071,474.5],[35.2416,-14.416,474.5],[35.2385,-14.423,474.5],[35.2297,-14.4223,476.3039],[35.2312,-14.421,475.8826],[35.2309,-14.4161,474.5],[35.2239,-14.4091,474.5],[35.2204,-14.4027,476.7631],[35.2191,-14.3916,478.9784],[35.2228,-14.3915,475.2671],[35.2139,-14.3843,474.5],[35.1996,-14.3765,474.5],[35.1936,-14.3704,474.5],[35.1787,-14.3693,474.5],[35.1744,-14.3657,474.5],[35.1661,-14.3534,474.5],[35.1659,-14.3441,474.5],[35.1576,-14.336,474.5],[35.1515,-14.3324,484.4806],[35.1513,-14.3241,478.3049],[35.1451,-14.3185,481.5578],[35.1434,-14.3114,479.2019],[35.138,-14.3022,474.5],[35.1351,-14.301,474.5],[35.1258,-14.3019,474.5],[35.1149,-14.2971,474.5],[35.1115,-14.2948,475.1013],[35.1098,-14.2873,479.4025],[35.0524,-14.3326,574.0588],[34.9481,-14.419,686.8263],[34.9426,-14.432,690.9587],[34.9439,-14.4364,690.2018],[34.943,-14.4439,697.3981],[34.9386,-14.452,700.5131],[34.9412,-14.4549,701.188],[34.9427,-14.4604,709.2228],[34.9472,-14.4612,713.7079],[34.9509,-14.4601,714.6597],[34.9551,-14.4639,718.8555],[34.9558,-14.4734,728.0032],[34.9616,-14.4838,733.575],[34.9691,-14.4919,747.4821],[34.9724,-14.4981,762.5497],[34.9728,-14.5033,760.2224],[34.9706,-14.5088,762.3241],[34.9731,-14.5161,774.1377],[34.9427,-14.5626,1402.5457],[35.0163,-14.5774,1031.2689],[35.0303,-14.5819,897.4625],[35.0447,-14.5796,880.4688],[35.0425,-14.5894,869.6637],[35.0497,-14.6003,868.3289],[35.0913,-14.5822,882.9879],[35.0926,-14.5735,827.3735],[35.0994,-14.5678,780.973],[35.1,-14.5598,772.0283],[35.1101,-14.5553,737.2758],[35.105,-14.547,772.3712],[35.1016,-14.5279,702.8502],[35.1104,-14.52,673.8182],[35.1209,-14.5148,633.6152],[35.1484,-14.4932,552.3499],[35.1591,-14.4884,531.03],[35.17,-14.4879,520.8629],[35.1699,-14.4892,519.9053],[35.1731,-14.4892,518.3401],[35.1865,-14.5038,503.6623],[35.1916,-14.5068,500.8913],[35.1887,-14.5118,499.8709],[35.1914,-14.5159,497.062],[35.1954,-14.5169,493.8748],[35.1985,-14.5227,492.3189],[35.2038,-14.5252,486.3688],[35.2064,-14.5283,485.2668],[35.2054,-14.5295,485.2668],[35.2082,-14.5348,481.9853],[35.2074,-14.5393,480.5878],[35.2087,-14.5436,478.4763],[35.2213,-14.5327,475.5382],[35.2212,-14.5293,475.9858]]]]}
,"properties": {"GID_2": "MWI.13.12_1","GID_0": "MWI","country": "Malawi","GID_1": "MWI.13_1","province": "Mangochi","NL_NAME_1": "NA","county": "TAMponda","VARNAME_2": "NA","NL_NAME_2": "NA","TYPE_2": "TraditionalAuthority","ENGTYPE_2": "TraditionalAuthority","CC_2": "NA","HASC_2": "NA","name": "T_A_Mponda.county","area_km2": 735.0364,"hist_schema_id": "Elevation0-9000","hist_area_km2": {"475": 107.9033,"500": 106.351,"525": 49.7359,"550": 31.8914,"575": 23.204,"600": 18.2961,"625": 15.38,"650": 16.0776,"675": 18.6026,"700": 26.0559,"725": 35.3776,"750": 38.8677,"775": 41.3903,"800": 44.8574,"825": 37.9367,"850": 35.4694,"875": 38.5442,"900": 27.3172,"925": 9.9348,"950": 4.5366,"975": 2.5247,"1000": 1.334,"1025": 0.8826,"1050": 0.431,"1075": 0.3899,"1100": 0.2463,"1125": 0.1231,"1150": 0.2052,"1175": 0.0616,"1200": 0.0821,"1225": 0.0616,"1250": 0.0821,"1275": 0.0616,"1300": 0.0616,"1325": 0.041,"1350": 0.041,"1375": 0.1026,"1400": 0.3283,"1425": 0.2052,"1450": 0.041}}}