{"type": "Feature","bbox": [33.4065,-9.9229,33.5659,-9.7817],"geometry": {"type": "MultiPolygon","coordinates": [[[[33.4231,-9.8139,1291.5496],[33.4513,-9.8283,1228.8596],[33.4583,-9.8294,1230.1895],[33.4683,-9.8336,1211.0706],[33.471,-9.8328,1211.8047],[33.4747,-9.8358,1197.5143],[33.4787,-9.8361,1212.7665],[33.4816,-9.8395,1187.6614],[33.4747,-9.8411,1207.4326],[33.4735,-9.8438,1213.9064],[33.4671,-9.8423,1220.8003],[33.4616,-9.8435,1216.787],[33.4572,-9.8406,1222.3798],[33.453,-9.8422,1233.2032],[33.4484,-9.8409,1244.8914],[33.4373,-9.8501,1261.0616],[33.4316,-9.851,1279.2289],[33.4269,-9.8539,1283.7426],[33.4171,-9.8487,1327.2737],[33.4114,-9.8483,1336.5746],[33.4114,-9.8655,1346.6332],[33.4099,-9.87,1346.6716],[33.4128,-9.8749,1367.1213],[33.4065,-9.8864,1393.9919],[33.4152,-9.8958,1369.4364],[33.416,-9.8994,1390.3291],[33.4227,-9.903,1409.7644],[33.4237,-9.9074,1451.6174],[33.422,-9.9119,1551.1008],[33.4256,-9.9146,1461.6576],[33.4247,-9.9165,1504.9668],[33.426,-9.9183,1460.754],[33.4382,-9.9189,1394.8938],[33.4467,-9.9229,1424.1169],[33.4579,-9.9094,1448.494],[33.4652,-9.8973,1458.6744],[33.47,-9.8845,1503.7974],[33.4765,-9.8784,1473.1417],[33.4821,-9.8629,1218.6311],[33.4995,-9.8553,1149.0708],[33.5124,-9.8553,1092.853],[33.5145,-9.8515,1111.5455],[33.5202,-9.8521,1063.3405],[33.5234,-9.8504,1055.0248],[33.527,-9.8515,1034.1412],[33.5311,-9.8493,1040.595],[33.5338,-9.8515,1019.4226],[33.5355,-9.8507,1023.3068],[33.5345,-9.8488,1026.3733],[33.5356,-9.8475,1024.1918],[33.538,-9.8487,1010.6217],[33.5408,-9.8478,1024.7386],[33.5441,-9.8451,1045.6937],[33.5448,-9.8359,1043.0288],[33.5566,-9.8286,1048.6708],[33.5659,-9.8143,974.544],[33.5622,-9.8102,999.2099],[33.5583,-9.8142,987.4754],[33.5481,-9.8096,1029.8584],[33.5484,-9.8061,1058.3187],[33.5461,-9.8041,1096.087],[33.5458,-9.8002,1043.4708],[33.5385,-9.7928,1098.1958],[33.5351,-9.7957,1088.2941],[33.5343,-9.8,1104.1367],[33.531,-9.7975,1106.7419],[33.5247,-9.7995,1124.7976],[33.5246,-9.7977,1121.4948],[33.5152,-9.797,1150.316],[33.5112,-9.7948,1171.6631],[33.5057,-9.7988,1187.7819],[33.4923,-9.8014,1206.4822],[33.482,-9.8007,1233.3833],[33.4789,-9.8025,1242.2365],[33.4641,-9.7975,1255.906],[33.4584,-9.7913,1266.213],[33.443,-9.7885,1313.3479],[33.44,-9.7817,1310.1801],[33.4313,-9.7848,1286.3069],[33.4405,-9.7916,1311.3223],[33.4311,-9.8023,1315.9441],[33.4275,-9.8102,1301.0842],[33.4231,-9.8139,1291.5496]]]]}
,"properties": {"GID_3": "MWI.5.4.12_1","GID_0": "MWI","country": "Malawi","GID_1": "MWI.5_1","province": "Chitipa","NL_NAME_1": "NA","GID_2": "MWI.5.4_1","county": "TAMwabulambya","NL_NAME_2": "NA","city": "n.a.(48)","VARNAME_3": "NA","NL_NAME_3": "NA","TYPE_3": "Unknown","ENGTYPE_3": "Unknown","CC_3": "NA","HASC_3": "NA","name": "n.a.(48).city","area_km2": 120.07563,"hist_schema_id": "Elevation0-9000","hist_area_km2": {"975": 0.20892,"1000": 1.08635,"1025": 2.10999,"1050": 2.06821,"1075": 2.11002,"1100": 3.19639,"1125": 4.57523,"1150": 4.59608,"1175": 7.08205,"1200": 10.71697,"1225": 13.03579,"1250": 13.09864,"1275": 10.73801,"1300": 10.71701,"1325": 7.58263,"1350": 7.26889,"1375": 7.4775,"1400": 4.46972,"1425": 2.38109,"1450": 1.12792,"1475": 0.8355,"1500": 0.71019,"1525": 0.62663,"1550": 0.5222,"1575": 0.43865,"1600": 0.37598,"1625": 0.41776,"1650": 0.29243,"1675": 0.12533,"1700": 0.08355}}}