{"type": "Feature","bbox": [35.3025,-15.9262,35.5354,-15.5967],"geometry": {"type": "MultiPolygon","coordinates": [[[[35.3186,-15.8702,735.9915],[35.3239,-15.9085,736.3865],[35.3314,-15.9113,728.7079],[35.3447,-15.9209,709.6373],[35.3553,-15.9262,686.6537],[35.3598,-15.9247,681.9922],[35.3632,-15.9262,684.9131],[35.3633,-15.9211,682.4327],[35.3657,-15.9162,687.0741],[35.3624,-15.9108,688.2502],[35.3678,-15.9042,686.2792],[35.3736,-15.9005,689.236],[35.375,-15.8948,687.2648],[35.3723,-15.8908,689.5176],[35.3746,-15.8807,689.4407],[35.3739,-15.8761,689.2651],[35.3755,-15.8729,690.3746],[35.3701,-15.8651,699.3851],[35.3779,-15.8627,693.9977],[35.3855,-15.8536,695.7856],[35.3951,-15.8525,695.7621],[35.3976,-15.8538,695.0474],[35.4024,-15.8498,696.2914],[35.4041,-15.8504,694.2391],[35.4051,-15.8534,693.6485],[35.4114,-15.847,695.6663],[35.4033,-15.8258,707.1739],[35.4031,-15.8192,709.0024],[35.4072,-15.8145,708.7178],[35.3988,-15.8059,713.5571],[35.4103,-15.7624,721.7811],[35.4139,-15.7593,720.3589],[35.4315,-15.7553,714.4415],[35.442,-15.7455,712.2515],[35.457,-15.7375,707.3292],[35.4563,-15.7353,707.1495],[35.445,-15.7283,710.2083],[35.4292,-15.7234,717.0442],[35.4248,-15.7124,720.7149],[35.4362,-15.712,713.0673],[35.4513,-15.7161,703.4545],[35.4572,-15.7106,704.115],[35.4641,-15.7126,701.4111],[35.4799,-15.7029,693.2101],[35.4847,-15.7054,692.1968],[35.515,-15.7049,691.2972],[35.5133,-15.6973,687.854],[35.5035,-15.6909,690.0903],[35.4981,-15.6911,684.6776],[35.4978,-15.6884,686.7518],[35.4944,-15.6843,685.1305],[35.4957,-15.6793,685.7695],[35.5013,-15.6791,683.4092],[35.4996,-15.6733,682.3226],[35.5024,-15.6711,679.78],[35.5004,-15.6682,679.9291],[35.5024,-15.6641,679.3101],[35.5094,-15.6618,678.0942],[35.5091,-15.6582,676.4631],[35.5142,-15.6555,673.8389],[35.5141,-15.6536,675.8924],[35.5187,-15.6479,672.2399],[35.5182,-15.6452,674.2398],[35.53,-15.6334,670.9203],[35.5295,-15.6298,670.0217],[35.5312,-15.6288,668.7701],[35.5302,-15.6263,668.501],[35.5319,-15.6256,672.3889],[35.5327,-15.622,667.4441],[35.5312,-15.6198,670.8369],[35.5346,-15.6195,666.0617],[35.5354,-15.6179,666.0618],[35.5341,-15.6128,745.4093],[35.5285,-15.6104,663.1245],[35.5237,-15.5967,664.545],[35.5181,-15.5973,664.9383],[35.5166,-15.6017,663.8948],[35.5125,-15.6,666.839],[35.5107,-15.6052,668.2298],[35.5033,-15.6066,672.2475],[35.4941,-15.6128,678.9259],[35.4894,-15.6191,675.2268],[35.4889,-15.6245,676.097],[35.4837,-15.6282,683.6709],[35.4827,-15.6317,679.3893],[35.4775,-15.6374,685.2393],[35.4724,-15.6525,690.0595],[35.4604,-15.6567,695.81],[35.4577,-15.6546,698.3668],[35.4531,-15.6572,698.3457],[35.4519,-15.6606,697.6352],[35.4478,-15.6636,697.1982],[35.444,-15.6695,704.8887],[35.4418,-15.6669,741.075],[35.4353,-15.6673,711.2111],[35.4335,-15.6703,707.3322],[35.4279,-15.6682,713.658],[35.425,-15.6714,711.4503],[35.4072,-15.6738,718.0686],[35.4064,-15.6713,718.3032],[35.4004,-15.6687,718.7341],[35.4034,-15.6655,723.5726],[35.4025,-15.664,729.4389],[35.3989,-15.6663,722.3149],[35.3932,-15.6622,741.8291],[35.3895,-15.6615,732.7272],[35.3877,-15.6643,726.8699],[35.3816,-15.6669,741.677],[35.3829,-15.6682,732.5696],[35.3821,-15.6698,735.0491],[35.3767,-15.6697,738.4211],[35.3755,-15.6751,737.8111],[35.3731,-15.674,750.8935],[35.3652,-15.6782,744.5218],[35.3543,-15.6791,755.2856],[35.3498,-15.6814,750.4685],[35.3465,-15.6805,767.7034],[35.3443,-15.6834,760.9229],[35.335,-15.6815,764.6678],[35.3297,-15.6835,769.4388],[35.3264,-15.6814,769.3856],[35.3025,-15.7371,786.5183],[35.3186,-15.8702,735.9915]]]]}
,"properties": {"GID_2": "MWI.15.3_1","GID_0": "MWI","country": "Malawi","GID_1": "MWI.15_1","province": "Mulanje","NL_NAME_1": "NA","county": "SCJuma","VARNAME_2": "NA","NL_NAME_2": "NA","TYPE_2": "Sub-chief","ENGTYPE_2": "Sub-chief","CC_2": "NA","HASC_2": "NA","name": "S_C_Juma.county","area_km2": 340.8172,"hist_schema_id": "Elevation0-9000","hist_area_km2": {"650": 0.3063,"675": 27.3586,"700": 78.0888,"725": 114.6672,"750": 81.7242,"775": 38.366,"800": 0.3061}}}