{"type": "Feature","bbox": [34.0471,-13.945,34.1261,-13.881],"geometry": {"type": "MultiPolygon","coordinates": [[[[34.0748,-13.881,923.4946],[34.0734,-13.8823,865.1092],[34.0673,-13.8817,843.5624],[34.0687,-13.8861,875.2291],[34.0677,-13.8902,848.1162],[34.0585,-13.8952,902.9619],[34.0558,-13.9008,899.2395],[34.0486,-13.9025,901.9348],[34.0471,-13.9084,875.1396],[34.0475,-13.9168,872.9026],[34.0562,-13.92,1047.2802],[34.0578,-13.9257,1062.97],[34.0639,-13.9338,1100.1904],[34.0692,-13.9356,1090.4869],[34.0725,-13.9341,1072.1458],[34.0747,-13.9389,1085.86],[34.0933,-13.9365,1207.6257],[34.115,-13.945,1251.7827],[34.1162,-13.9397,1241.0562],[34.1261,-13.9328,1249.0742],[34.1117,-13.9285,1158.875],[34.1097,-13.9239,1148.6543],[34.106,-13.9215,1147.2192],[34.1082,-13.9135,1108.1368],[34.1018,-13.9074,1107.9082],[34.1031,-13.9033,1054.7039],[34.099,-13.8936,1033.4554],[34.0953,-13.8914,1010.2141],[34.0935,-13.8881,999.8185],[34.0877,-13.8862,1026.377],[34.0858,-13.8839,1061.8136],[34.0786,-13.8851,896.4907],[34.0797,-13.8819,951.6919],[34.0748,-13.881,923.4946]]]]}
,"properties": {"GID_3": "MWI.11.2.2_1","GID_0": "MWI","country": "Malawi","GID_1": "MWI.11_1","province": "Lilongwe","NL_NAME_1": "NA","GID_2": "MWI.11.2_1","county": "SCChitekwele","NL_NAME_2": "NA","city": "n.a.(1039)","VARNAME_3": "NA","NL_NAME_3": "NA","TYPE_3": "Unknown","ENGTYPE_3": "Unknown","CC_3": "NA","HASC_3": "NA","name": "n.a.(1039).city","area_km2": 32.22838,"hist_schema_id": "Elevation0-9000","hist_area_km2": {"825": 0.10291,"850": 0.41164,"875": 0.885,"900": 0.84383,"925": 0.82325,"950": 1.15256,"975": 0.96731,"1000": 1.48183,"1025": 2.71666,"1050": 3.14883,"1075": 4.32188,"1100": 3.41629,"1125": 2.05799,"1150": 2.36663,"1175": 2.40775,"1200": 2.01671,"1225": 2.20188,"1250": 0.86428,"1275": 0.02058,"1300": 0.02058}}}