{"type": "Feature","bbox": [33.4512,-13.0249,33.4976,-13.0046],"geometry": {"type": "MultiPolygon","coordinates": [[[[33.496,-13.0119,1021.6066],[33.4976,-13.0051,1025.725],[33.4568,-13.0046,1062.0394],[33.4512,-13.0208,1060.9581],[33.46,-13.0226,1056.5758],[33.469,-13.022,1049.8901],[33.4717,-13.0243,1046.1411],[33.4798,-13.0249,1029.8394],[33.4848,-13.0175,1030.8512],[33.4858,-13.0179,1030.8512],[33.486,-13.0153,1038.8594],[33.496,-13.0119,1021.6066]]]]}
,"properties": {"GID_3": "MWI.9.1.1_1","GID_0": "MWI","country": "Malawi","GID_1": "MWI.9_1","province": "Kasungu","NL_NAME_1": "NA","GID_2": "MWI.9.1_1","county": "KasunguBoma","NL_NAME_2": "NA","city": "n.a.(465)","VARNAME_3": "NA","NL_NAME_3": "NA","TYPE_3": "Unknown","ENGTYPE_3": "Unknown","CC_3": "NA","HASC_3": "NA","name": "n.a.(465).city","area_km2": 8.035843,"hist_schema_id": "Elevation0-9000","hist_area_km2": {"1025": 1.115513,"1050": 5.680881,"1075": 1.239448}}}