{"type":"Feature","properties":{"GID_3":"MWI.9.16.12_1","GID_0":"MWI","country":"Malawi","GID_1":"MWI.9_1","province":"Kasungu","NL_NAME_1":"NA","GID_2":"MWI.9.16_1","county":"TAWimbe","NL_NAME_2":"NA","city":"n.a.(433)","VARNAME_3":"NA","NL_NAME_3":"NA","TYPE_3":"Unknown","ENGTYPE_3":"Unknown","CC_3":"NA","HASC_3":"NA","name":"n.a.(433).city"},
"geometry":{"type": "MultiPolygon","coordinates": [[[[33.7086,-12.9231,1051.7117],[33.7161,-12.9347,1072.3818],[33.7147,-12.957,1121.149],[33.7214,-12.9602,1134.5593],[33.7233,-12.9648,1142.4988],[33.7314,-12.9678,1171.0543],[33.7392,-12.9734,1138.9155],[33.7413,-12.9763,1129.2133],[33.7416,-12.9804,1132.4955],[33.7478,-12.9843,1111.2018],[33.7498,-12.9795,1117.7395],[33.7462,-12.9708,1127.7399],[33.7458,-12.9636,1142.1123],[33.7465,-12.956,1160.7496],[33.7485,-12.952,1172.5222],[33.7451,-12.9464,1147.563],[33.7438,-12.9401,1126.9192],[33.7463,-12.939,1143.165],[33.7565,-12.9449,1166.9391],[33.7725,-12.9401,1176.0649],[33.7746,-12.9392,1177.1211],[33.7754,-12.933,1189.6329],[33.7845,-12.9296,1194.1371],[33.7858,-12.9235,1218.9442],[33.7893,-12.9217,1181.7729],[33.7878,-12.9196,1179.6912],[33.7833,-12.9192,1186.2777],[33.7803,-12.9172,1166.7312],[33.7809,-12.9097,1159.4092],[33.7735,-12.911,1189.271],[33.7662,-12.9091,1193.2423],[33.758,-12.9128,1185.517],[33.7463,-12.9127,1147.2264],[33.7415,-12.9184,1146.4415],[33.7405,-12.9245,1125.8159],[33.7328,-12.9267,1115.6558],[33.7301,-12.929,1111.8452],[33.7257,-12.9283,1097.5737],[33.724,-12.9244,1095.4436],[33.7194,-12.9244,1078.012],[33.7148,-12.92,1078.4193],[33.7115,-12.9206,1072.2737],[33.7086,-12.9231,1051.7117]]]]}}