{"type": "Feature","bbox": [34.6789,-16.4998,34.7954,-16.4203],"geometry": {"type": "MultiPolygon","coordinates": [[[[34.6848,-16.4972,302.4521],[34.6874,-16.4996,329.757],[34.6952,-16.4998,314.7323],[34.7191,-16.4952,291.5403],[34.7217,-16.498,289.4618],[34.7242,-16.4949,288.6419],[34.7265,-16.4954,281.9229],[34.7446,-16.4776,246.7815],[34.7534,-16.4766,230.9144],[34.7659,-16.4714,214.1555],[34.7782,-16.4714,201.1526],[34.7817,-16.4675,198.289],[34.7913,-16.4665,171.2942],[34.7954,-16.4596,163.3794],[34.7902,-16.4608,182.424],[34.7791,-16.4523,193.002],[34.7736,-16.4409,187.3614],[34.7593,-16.4517,208.5937],[34.7543,-16.4487,198.6045],[34.7429,-16.4548,249.8297],[34.7368,-16.4546,226.7655],[34.7341,-16.4449,212.2528],[34.7358,-16.4348,203.3403],[34.7383,-16.4316,208.0017],[34.7441,-16.43,195.3998],[34.733,-16.4203,207.0896],[34.7287,-16.4223,223.176],[34.7236,-16.4289,207.3604],[34.7162,-16.432,222.9355],[34.7158,-16.4378,217.1397],[34.7081,-16.4417,234.525],[34.7112,-16.4443,230.0797],[34.7105,-16.4466,229.2494],[34.7045,-16.4505,242.2496],[34.7014,-16.4497,245.8173],[34.6979,-16.4551,247.1888],[34.6836,-16.4613,266.0463],[34.6845,-16.4676,273.1759],[34.6789,-16.478,283.4092],[34.683,-16.4814,286.4344],[34.6823,-16.4875,288.9921],[34.6848,-16.4972,302.4521]]]]}
,"properties": {"GID_3": "MWI.3.11.18_1","GID_0": "MWI","country": "Malawi","GID_1": "MWI.3_1","province": "Chikwawa","NL_NAME_1": "NA","GID_2": "MWI.3.11_1","county": "TANgabu","NL_NAME_2": "NA","city": "n.a.(3048)","VARNAME_3": "NA","NL_NAME_3": "NA","TYPE_3": "Unknown","ENGTYPE_3": "Unknown","CC_3": "NA","HASC_3": "NA","name": "n.a.(3048).city","area_km2": 49.34745,"hist_schema_id": "Elevation0-9000","hist_area_km2": {"175": 0.81335,"200": 6.20194,"225": 11.14306,"250": 13.9484,"275": 12.34118,"300": 4.83853,"325": 0.06099}}}