{"type":"Feature","properties":{"GID_3":"MWI.15.7.14_1","GID_0":"MWI","country":"Malawi","GID_1":"MWI.15_1","province":"Mulanje","NL_NAME_1":"NA","GID_2":"MWI.15.7_1","county":"TANkanda","NL_NAME_2":"NA","city":"n.a.(2616)","VARNAME_3":"NA","NL_NAME_3":"NA","TYPE_3":"Unknown","ENGTYPE_3":"Unknown","CC_3":"NA","HASC_3":"NA","name":"n.a.(2616).city"},
"geometry":{"type": "MultiPolygon","coordinates": [[[[35.3936,-15.8525,695.5174],[35.3855,-15.8536,695.7856],[35.3779,-15.8627,693.9977],[35.3701,-15.8651,699.3851],[35.3755,-15.8729,690.3746],[35.3739,-15.8761,689.2651],[35.3745,-15.8819,688.7964],[35.3834,-15.879,700.9463],[35.3895,-15.881,705.1296],[35.3957,-15.8783,710.0986],[35.3997,-15.8726,712.9143],[35.3962,-15.8614,704.6538],[35.4041,-15.8658,708.772],[35.4111,-15.8576,702.5992],[35.4074,-15.8517,696.5399],[35.4042,-15.853,694.4646],[35.4033,-15.8499,694.2391],[35.4006,-15.8505,696.2914],[35.3976,-15.8538,695.0474],[35.3936,-15.8525,695.5174]]]]}}