{"type": "Feature","bbox": [35.5417,-14.7442,35.5955,-14.7115],"geometry": {"type": "MultiPolygon","coordinates": [[[[35.5476,-14.7208,837.5328],[35.5417,-14.7305,810.9979],[35.5519,-14.7442,787.5928],[35.5557,-14.738,813.0022],[35.5629,-14.7359,802.2891],[35.5699,-14.7415,785.2439],[35.5785,-14.741,777.5232],[35.5832,-14.743,770.5281],[35.5854,-14.7377,799.2595],[35.5911,-14.737,840.7607],[35.5955,-14.732,871.2997],[35.595,-14.7206,866.1046],[35.586,-14.7237,1106.9153],[35.5575,-14.7115,885.1788],[35.5505,-14.7218,838.884],[35.5476,-14.7208,837.5328]]]]}
,"properties": {"GID_3": "MWI.12.7.2_1","GID_0": "MWI","country": "Malawi","GID_1": "MWI.12_1","province": "Machinga","NL_NAME_1": "NA","GID_2": "MWI.12.7_1","county": "SCChiwalo","NL_NAME_2": "NA","city": "n.a.(1763)","VARNAME_3": "NA","NL_NAME_3": "NA","TYPE_3": "Unknown","ENGTYPE_3": "Unknown","CC_3": "NA","HASC_3": "NA","name": "n.a.(1763).city","area_km2": 12.48785,"hist_schema_id": "Elevation0-9000","hist_area_km2": {"775": 0.471602,"800": 2.481084,"825": 3.793505,"850": 1.681487,"875": 0.963789,"900": 0.963791,"925": 0.471629,"950": 0.328089,"975": 0.205056,"1000": 0.143538,"1025": 0.205057,"1050": 0.28708,"1075": 0.24607,"1100": 0.164047,"1125": 0.082024}}}